{"type":"FeatureCollection","data_type":"Dataset","url_type":null,"permissions":[{"permissions":{"download":true,"view":true},"group_id":"everyone"}],"classification":null,"title":"TbilisiChurch","count":81,"stream_id":119964,"contributor":{"url":"http://geocommons.com/users/10886","name":"workingclasshero"},"data_attributes":null,"calculation_params":null,"icon_link":null,"link":"http://geocommons.com/overlays/119964.json","extent":[44.6508,41.536,45.0256,41.8465],"geometry_types":["point"],"unique_name":null,"name":"TbilisiChurch","feature_count":81,"description":"","next_feature":null,"is_raster":false,"short_classification":"Y","stats":{},"features":[{"properties":{"denom":"orthodox","type":"place_of_worship","religion":"christian","Name_EN":null,"id":"a6lywtdrgric","Name_KA":null},"type":"Feature","geometry":{"type":"Point","coordinates":[44.7844227,41.8225522]}},{"properties":{"denom":"orthodox","type":"place_of_worship","religion":"christian","Name_EN":null,"id":"a6lywtdzyzgd","Name_KA":null},"type":"Feature","geometry":{"type":"Point","coordinates":[44.764644,41.750004]}},{"properties":{"denom":"orthodox","type":"place_of_worship","religion":"christian","Name_EN":null,"id":"a6lywt9u2bh6","Name_KA":null},"type":"Feature","geometry":{"type":"Point","coordinates":[45.0228437,41.7814999]}},{"properties":{"denom":"orthodox","type":"place_of_worship","religion":"christian","Name_EN":"Virgin Mary Church","id":"a6lywtey6hf4","Name_KA":"____________ _________ _______"},"type":"Feature","geometry":{"type":"Point","coordinates":[44.7139558,41.6605698]}},{"properties":{"denom":"orthodox","type":"place_of_worship","religion":"christian","Name_EN":null,"id":"a6lywtj74jz2","Name_KA":null},"type":"Feature","geometry":{"type":"Point","coordinates":[44.8088692,41.7092157]}},{"properties":{"denom":"orthodox","type":"place_of_worship","religion":"christian","Name_EN":"St. Barbare","id":"a6lywt7dn742","Name_KA":"______ _______"},"type":"Feature","geometry":{"type":"Point","coordinates":[44.9871853,41.5554462]}},{"properties":{"denom":"orthodox","type":"place_of_worship","religion":"christian","Name_EN":"Mtskheta Nunnery","id":"a6lywtc3sokp","Name_KA":"_______ ______ _________"},"type":"Feature","geometry":{"type":"Point","coordinates":[44.7182954,41.8464498]}},{"properties":{"denom":"orthodox","type":"place_of_worship","religion":"christian","Name_EN":"Mama Daviti","id":"a6lywthwrqo3","Name_KA":"____ ______"},"type":"Feature","geometry":{"type":"Point","coordinates":[44.7892554,41.6956405]}},{"properties":{"denom":"orthodox","type":"place_of_worship","religion":"christian","Name_EN":"Kashueti Church","id":"a6lywt7mijgg","Name_KA":"________ _______"},"type":"Feature","geometry":{"type":"Point","coordinates":[44.7991466,41.6978809]}},{"properties":{"denom":"orthodox","type":"place_of_worship","religion":"christian","Name_EN":"Ekvtime Ghvtiskatsi","id":"a6lywt7zs4wu","Name_KA":"_______ _________"},"type":"Feature","geometry":{"type":"Point","coordinates":[44.6507896,41.6565398]}},{"properties":{"denom":"orthodox","type":"place_of_worship","religion":"christian","Name_EN":"St. Mariam Church","id":"a6lywt6ljy8s","Name_KA":"______ ________ _______"},"type":"Feature","geometry":{"type":"Point","coordinates":[44.8106353,41.7940747]}},{"properties":{"denom":"orthodox","type":"place_of_worship","religion":"christian","Name_EN":null,"id":"a6lywtfjg96g","Name_KA":null},"type":"Feature","geometry":{"type":"Point","coordinates":[44.7703936,41.8055293]}},{"properties":{"denom":"orthodox","type":"place_of_worship","religion":"christian","Name_EN":null,"id":"a6lywtj3cij9","Name_KA":null},"type":"Feature","geometry":{"type":"Point","coordinates":[44.9819271,41.5627657]}},{"properties":{"denom":"orthodox","type":"place_of_worship","religion":"christian","Name_EN":"Svetitskhoveli","id":"a6lywtfhpuig","Name_KA":"____________"},"type":"Feature","geometry":{"type":"Point","coordinates":[44.7210269,41.8422778]}},{"properties":{"denom":"orthodox","type":"place_of_worship","religion":"christian","Name_EN":null,"id":"a6lywt6riflj","Name_KA":null},"type":"Feature","geometry":{"type":"Point","coordinates":[44.7832578,41.7497577]}},{"properties":{"denom":"orthodox","type":"place_of_worship","religion":"christian","Name_EN":null,"id":"a6lywtb3x3jo","Name_KA":null},"type":"Feature","geometry":{"type":"Point","coordinates":[44.8232439,41.7722663]}},{"properties":{"denom":"orthodox","type":"place_of_worship","religion":"christian","Name_EN":null,"id":"a6lywtf4ase5","Name_KA":null},"type":"Feature","geometry":{"type":"Point","coordinates":[44.8391842,41.6773961]}},{"properties":{"denom":"orthodox","type":"place_of_worship","religion":"christian","Name_EN":"St. Giorgi Church","id":"a6lywte5yu73","Name_KA":"______ _______ _______"},"type":"Feature","geometry":{"type":"Point","coordinates":[44.8156357,41.6468865]}},{"properties":{"denom":"orthodox","type":"place_of_worship","religion":"christian","Name_EN":null,"id":"a6lywtgqr683","Name_KA":null},"type":"Feature","geometry":{"type":"Point","coordinates":[44.9841649,41.5791088]}},{"properties":{"denom":"orthodox","type":"place_of_worship","religion":"christian","Name_EN":"St. Nino Church","id":"a6lywtjh2klx","Name_KA":"______ _____ _______"},"type":"Feature","geometry":{"type":"Point","coordinates":[44.7779877,41.5830614]}},{"properties":{"denom":"orthodox","type":"place_of_worship","religion":"christian","Name_EN":"St. Nino Chapel","id":"a6lywtkix2sc","Name_KA":"______ _____ _______"},"type":"Feature","geometry":{"type":"Point","coordinates":[45.0160376,41.5511289]}},{"properties":{"denom":"orthodox","type":"place_of_worship","religion":"christian","Name_EN":null,"id":"a6lywtj1c9hm","Name_KA":null},"type":"Feature","geometry":{"type":"Point","coordinates":[44.8007566,41.7111547]}},{"properties":{"denom":"orthodox","type":"place_of_worship","religion":"christian","Name_EN":null,"id":"a6lywtljisvf","Name_KA":null},"type":"Feature","geometry":{"type":"Point","coordinates":[44.7238335,41.8414692]}},{"properties":{"denom":null,"type":"place_of_worship","religion":"muslim","Name_EN":null,"id":"a6lywtkiv0a3","Name_KA":null},"type":"Feature","geometry":{"type":"Point","coordinates":[44.9578529,41.6269703]}},{"properties":{"denom":"orthodox","type":"place_of_worship","religion":"christian","Name_EN":"St. Vakhtang Gorgasali Church","id":"a6lywti6tfte","Name_KA":"______ _______ _________ _______"},"type":"Feature","geometry":{"type":"Point","coordinates":[45.0092031,41.5360191]}},{"properties":{"denom":"orthodox","type":"place_of_worship","religion":"christian","Name_EN":null,"id":"a6lywteare2e","Name_KA":null},"type":"Feature","geometry":{"type":"Point","coordinates":[44.7927416,41.716943]}},{"properties":{"denom":"orthodox","type":"place_of_worship","religion":"christian","Name_EN":null,"id":"a6lywte06deo","Name_KA":null},"type":"Feature","geometry":{"type":"Point","coordinates":[44.8026873,41.8046172]}},{"properties":{"denom":"orthodox","type":"place_of_worship","religion":"christian","Name_EN":null,"id":"a6lywtgcol0h","Name_KA":null},"type":"Feature","geometry":{"type":"Point","coordinates":[44.7854866,41.6183479]}},{"properties":{"denom":"orthodox","type":"place_of_worship","religion":"christian","Name_EN":"Virgin Mary Church","id":"a6lywtcns59x","Name_KA":"____________ _________ _______"},"type":"Feature","geometry":{"type":"Point","coordinates":[44.7586434,41.6494948]}},{"properties":{"denom":"orthodox","type":"place_of_worship","religion":"christian","Name_EN":null,"id":"a6lywtj7w477","Name_KA":null},"type":"Feature","geometry":{"type":"Point","coordinates":[44.7601072,41.7209125]}},{"properties":{"denom":"orthodox","type":"place_of_worship","religion":"christian","Name_EN":"Ghvtaeba Church","id":"a6lywt9r2550","Name_KA":"________ _________"},"type":"Feature","geometry":{"type":"Point","coordinates":[44.967955,41.8274713]}},{"properties":{"denom":"orthodox","type":"place_of_worship","religion":"christian","Name_EN":null,"id":"a6lywtl9zuj9","Name_KA":null},"type":"Feature","geometry":{"type":"Point","coordinates":[44.9818868,41.5633906]}},{"properties":{"denom":"orthodox","type":"place_of_worship","religion":"christian","Name_EN":"St. Giorgi Church","id":"a6lywthtiwyp","Name_KA":"______ _______ _______"},"type":"Feature","geometry":{"type":"Point","coordinates":[44.8399923,41.6519283]}},{"properties":{"denom":"orthodox","type":"place_of_worship","religion":"christian","Name_EN":"Tamar Mepe Church","id":"a6lywtbdtu15","Name_KA":"_____ _____ _______"},"type":"Feature","geometry":{"type":"Point","coordinates":[44.7754095,41.7186863]}},{"properties":{"denom":"orthodox","type":"place_of_worship","religion":"christian","Name_EN":null,"id":"a6lywtfz9ctn","Name_KA":null},"type":"Feature","geometry":{"type":"Point","coordinates":[44.9265608,41.6960915]}},{"properties":{"denom":"orthodox","type":"place_of_worship","religion":"christian","Name_EN":null,"id":"a6lywtfannm4","Name_KA":null},"type":"Feature","geometry":{"type":"Point","coordinates":[44.7310964,41.7147815]}},{"properties":{"denom":"orthodox","type":"place_of_worship","religion":"christian","Name_EN":null,"id":"a6lywtb15kt7","Name_KA":null},"type":"Feature","geometry":{"type":"Point","coordinates":[44.694473,41.6937582]}},{"properties":{"denom":"orthodox","type":"place_of_worship","religion":"christian","Name_EN":null,"id":"a6lywti6k0ic","Name_KA":null},"type":"Feature","geometry":{"type":"Point","coordinates":[44.8549637,41.6943452]}},{"properties":{"denom":"orthodox","type":"place_of_worship","religion":"christian","Name_EN":null,"id":"a6lywt7mvulv","Name_KA":null},"type":"Feature","geometry":{"type":"Point","coordinates":[44.8710497,41.6789723]}},{"properties":{"denom":"orthodox","type":"place_of_worship","religion":"christian","Name_EN":"St. Nikoloz Church","id":"a6lywtesr4p6","Name_KA":"______ _________ _______"},"type":"Feature","geometry":{"type":"Point","coordinates":[44.986263,41.5667057]}},{"properties":{"denom":"orthodox","type":"place_of_worship","religion":"christian","Name_EN":null,"id":"a6lywtinfb56","Name_KA":null},"type":"Feature","geometry":{"type":"Point","coordinates":[44.7760733,41.7175577]}},{"properties":{"denom":"orthodox","type":"place_of_worship","religion":"christian","Name_EN":null,"id":"a6lywte9ke3q","Name_KA":null},"type":"Feature","geometry":{"type":"Point","coordinates":[44.7577978,41.7374202]}},{"properties":{"denom":"orthodox","type":"place_of_worship","religion":"christian","Name_EN":"St. Giorgi Church","id":"a6lywtdwfm8j","Name_KA":"______ _______ _______"},"type":"Feature","geometry":{"type":"Point","coordinates":[44.8719523,41.7038574]}},{"properties":{"denom":"orthodox","type":"place_of_worship","religion":"christian","Name_EN":"Sioni Cathedral","id":"a6lywtkgemwx","Name_KA":"______ _________ ______"},"type":"Feature","geometry":{"type":"Point","coordinates":[44.8074844,41.6913441]}},{"properties":{"denom":"orthodox","type":"place_of_worship","religion":"christian","Name_EN":null,"id":"a6lywtasx4n9","Name_KA":null},"type":"Feature","geometry":{"type":"Point","coordinates":[44.8270524,41.7819692]}},{"properties":{"denom":"orthodox","type":"place_of_worship","religion":"christian","Name_EN":"St. Nino Church","id":"a6lywtc60s1f","Name_KA":"______ _____ _______"},"type":"Feature","geometry":{"type":"Point","coordinates":[44.7367252,41.6709871]}},{"properties":{"denom":"orthodox","type":"place_of_worship","religion":"christian","Name_EN":"Virgin Mary Church","id":"a6lywta5fndp","Name_KA":"____________ _____ _______"},"type":"Feature","geometry":{"type":"Point","coordinates":[45.0089418,41.5368157]}},{"properties":{"denom":"orthodox","type":"place_of_worship","religion":"christian","Name_EN":"Father Davit Church","id":"a6lywt5x6o7d","Name_KA":"____ _______ _______"},"type":"Feature","geometry":{"type":"Point","coordinates":[44.8181149,41.6284577]}},{"properties":{"denom":"orthodox","type":"place_of_worship","religion":"christian","Name_EN":null,"id":"a6lywtlmis1l","Name_KA":null},"type":"Feature","geometry":{"type":"Point","coordinates":[44.7187308,41.8465383]}},{"properties":{"denom":"orthodox","type":"place_of_worship","religion":"christian","Name_EN":null,"id":"a6lywtdr6kk8","Name_KA":null},"type":"Feature","geometry":{"type":"Point","coordinates":[44.7622818,41.6607009]}},{"properties":{"denom":"orthodox","type":"place_of_worship","religion":"christian","Name_EN":null,"id":"a6lywta4p09o","Name_KA":null},"type":"Feature","geometry":{"type":"Point","coordinates":[44.9867398,41.7817252]}},{"properties":{"denom":"orthodox","type":"place_of_worship","religion":"christian","Name_EN":null,"id":"a6lywt60tn3u","Name_KA":null},"type":"Feature","geometry":{"type":"Point","coordinates":[44.9820516,41.5583511]}},{"properties":{"denom":"orthodox","type":"place_of_worship","religion":"christian","Name_EN":null,"id":"a6lywtk1i2g8","Name_KA":null},"type":"Feature","geometry":{"type":"Point","coordinates":[44.8126777,41.8011642]}},{"properties":{"denom":"orthodox","type":"place_of_worship","religion":"christian","Name_EN":null,"id":"a6lywtggg034","Name_KA":null},"type":"Feature","geometry":{"type":"Point","coordinates":[44.9536598,41.6824871]}},{"properties":{"denom":"shia","type":"place_of_worship","religion":"muslim","Name_EN":null,"id":"a6lywtgoac8o","Name_KA":null},"type":"Feature","geometry":{"type":"Point","coordinates":[44.918902,41.6366043]}},{"properties":{"denom":"orthodox","type":"place_of_worship","religion":"christian","Name_EN":null,"id":"a6lywtkvat76","Name_KA":null},"type":"Feature","geometry":{"type":"Point","coordinates":[44.877447,41.6691994]}},{"properties":{"denom":"evangelical","type":"place_of_worship","religion":"christian","Name_EN":"The Evangelical Lutheran Church","id":"a6lywteerr5g","Name_KA":"____________-__________ _________ _______"},"type":"Feature","geometry":{"type":"Point","coordinates":[45.0149118,41.5543689]}},{"properties":{"denom":"orthodox","type":"place_of_worship","religion":"christian","Name_EN":null,"id":"a6lywti9aujd","Name_KA":null},"type":"Feature","geometry":{"type":"Point","coordinates":[44.6715671,41.7566533]}},{"properties":{"denom":"orthodox","type":"place_of_worship","religion":"christian","Name_EN":"Jvari","id":"a6lywtbp3tdd","Name_KA":"_____"},"type":"Feature","geometry":{"type":"Point","coordinates":[44.7334041,41.8384309]}},{"properties":{"denom":"orthodox","type":"place_of_worship","religion":"christian","Name_EN":null,"id":"a6lywtg3m48w","Name_KA":null},"type":"Feature","geometry":{"type":"Point","coordinates":[44.7005968,41.7060209]}},{"properties":{"denom":"orthodox","type":"place_of_worship","religion":"christian","Name_EN":"Kazani","id":"a6lywtb8uzrm","Name_KA":"______"},"type":"Feature","geometry":{"type":"Point","coordinates":[44.800517,41.714492]}},{"properties":{"denom":"orthodox","type":"place_of_worship","religion":"christian","Name_EN":null,"id":"a6lywthjplp3","Name_KA":null},"type":"Feature","geometry":{"type":"Point","coordinates":[45.0217779,41.7863059]}},{"properties":{"denom":"orthodox","type":"place_of_worship","religion":"christian","Name_EN":null,"id":"a6lywtbhr5fv","Name_KA":null},"type":"Feature","geometry":{"type":"Point","coordinates":[44.852286,41.6758254]}},{"properties":{"denom":"orthodox","type":"place_of_worship","religion":"christian","Name_EN":null,"id":"a6lywteq0f3q","Name_KA":null},"type":"Feature","geometry":{"type":"Point","coordinates":[44.7723233,41.7242107]}},{"properties":{"denom":"orthodox","type":"place_of_worship","religion":"christian","Name_EN":"Amaghleba Church","id":"a6lywtk6g3sk","Name_KA":"_________ _______"},"type":"Feature","geometry":{"type":"Point","coordinates":[44.7856799,41.6173802]}},{"properties":{"denom":"orthodox","type":"place_of_worship","religion":"christian","Name_EN":null,"id":"a6lywtl4mpdv","Name_KA":null},"type":"Feature","geometry":{"type":"Point","coordinates":[44.7384675,41.7253362]}},{"properties":{"denom":"orthodox","type":"place_of_worship","religion":"christian","Name_EN":"St. Nino Church","id":"a6lywthz001m","Name_KA":"______ _____ _______"},"type":"Feature","geometry":{"type":"Point","coordinates":[44.8091242,41.7011077]}},{"properties":{"denom":"orthodox","type":"place_of_worship","religion":"christian","Name_EN":null,"id":"a6lywtbmfebt","Name_KA":null},"type":"Feature","geometry":{"type":"Point","coordinates":[44.9778628,41.5527363]}},{"properties":{"denom":"orthodox","type":"place_of_worship","religion":"christian","Name_EN":null,"id":"a6lywte3wrpv","Name_KA":null},"type":"Feature","geometry":{"type":"Point","coordinates":[44.8137579,41.6925522]}},{"properties":{"denom":"orthodox","type":"place_of_worship","religion":"christian","Name_EN":null,"id":"a6lywt6dfshg","Name_KA":null},"type":"Feature","geometry":{"type":"Point","coordinates":[44.8001143,41.795504]}},{"properties":{"denom":"orthodox","type":"place_of_worship","religion":"christian","Name_EN":null,"id":"a6lywtlnl3kq","Name_KA":null},"type":"Feature","geometry":{"type":"Point","coordinates":[44.900714,41.6474197]}},{"properties":{"denom":"orthodox","type":"place_of_worship","religion":"christian","Name_EN":null,"id":"a6lywti3lyz9","Name_KA":null},"type":"Feature","geometry":{"type":"Point","coordinates":[45.0255825,41.5592119]}},{"properties":{"denom":null,"type":"place_of_worship","religion":"muslim","Name_EN":null,"id":"a6lywt9f676q","Name_KA":null},"type":"Feature","geometry":{"type":"Point","coordinates":[44.9842721,41.5958379]}},{"properties":{"denom":"orthodox","type":"place_of_worship","religion":"christian","Name_EN":null,"id":"a6lywtb0aym5","Name_KA":null},"type":"Feature","geometry":{"type":"Point","coordinates":[44.7766885,41.7636649]}},{"properties":{"denom":"orthodox","type":"place_of_worship","religion":"christian","Name_EN":null,"id":"a6lywthnb2ed","Name_KA":null},"type":"Feature","geometry":{"type":"Point","coordinates":[44.7935837,41.764081]}},{"properties":{"denom":"orthodox","type":"place_of_worship","religion":"christian","Name_EN":null,"id":"a6lywtlhm08k","Name_KA":null},"type":"Feature","geometry":{"type":"Point","coordinates":[44.9427629,41.6594035]}},{"properties":{"denom":"orthodox","type":"place_of_worship","religion":"christian","Name_EN":null,"id":"a6lywtenmx2q","Name_KA":null},"type":"Feature","geometry":{"type":"Point","coordinates":[44.999986,41.6479489]}},{"properties":{"denom":"orthodox","type":"place_of_worship","religion":"christian","Name_EN":"St. Nino Church","id":"a6lywtc1fgad","Name_KA":"______ _____ _______"},"type":"Feature","geometry":{"type":"Point","coordinates":[44.9664148,41.567488]}},{"properties":{"denom":"orthodox","type":"place_of_worship","religion":"christian","Name_EN":"St. Giorgi Church","id":"a6lywtaycq96","Name_KA":"______ _______ _______"},"type":"Feature","geometry":{"type":"Point","coordinates":[44.8026975,41.7807318]}},{"properties":{"denom":"orthodox","type":"place_of_worship","religion":"christian","Name_EN":"St. Virgin Mary Church","id":"a6lywtfzgkph","Name_KA":"____________ _______"},"type":"Feature","geometry":{"type":"Point","coordinates":[45.0164723,41.5547545]}},{"properties":{"denom":"orthodox","type":"place_of_worship","religion":"christian","Name_EN":"Getsamania Monastery","id":"a6lywt6n9bvq","Name_KA":"___________ _________"},"type":"Feature","geometry":{"type":"Point","coordinates":[44.7116861,41.8399603]}}],"is_temporal":false,"author":{"url":null,"metadata":null,"contact_name":null,"contact_address":null,"source":null,"contact_phone":null},"source":null,"pagination":{"sort":null,"start":0,"total":81,"limit":1000000},"state":"complete","tags":"","published":"2014-08-13T11:13:03-04:00","id":119964}