{"type":"FeatureCollection","data_type":"Dataset","url_type":null,"permissions":[{"permissions":{"download":true,"view":true},"group_id":"everyone"}],"classification":null,"title":"qldpubliclibraries","count":320,"stream_id":122098,"contributor":{"url":"http://geocommons.com/users/27827","name":"c2.milne"},"data_attributes":null,"calculation_params":null,"icon_link":null,"link":"http://geocommons.com/overlays/122098.json","extent":[-27.5255,-28.9717,153.538,153.268],"geometry_types":["point"],"unique_name":null,"name":"qldpubliclibraries","feature_count":320,"description":"Data for QLD Public Libraries Locations","next_feature":null,"is_raster":false,"short_classification":"Y","stats":{"latitude":{"max":153.267598,"mean":-23.28248575,"variance":120.903153719913,"stdev":10.9955970151653,"min":-28.971738,"median":-25.910845},"postcode":{"max":4895,"mean":4540.30721003135,"variance":74719.4713629462,"stdev":273.348626049128,"min":4000,"median":4601},"longitude":{"max":153.538055,"mean":148.7925743,"variance":113.053360174403,"stdev":10.632655367988,"min":-27.525546,"median":150.742968}},"features":[{"properties":{"latitude":-24.21187,"postcode":4677,"address line 1":"Rural Transaction Centre","locality":"Agnes Water","address line 2":"3 Captain Cook Drive","longitude":151.902589,"id":"a6ag4rn9mvl7","library name":"Agnes Water Library"},"type":"Feature","geometry":{"type":"Point","coordinates":[151.902589,-24.21187]}},{"properties":{"latitude":-27.344772,"postcode":4035,"address line 1":"16 Ferguson Street","locality":"Albany Creek","address line 2":null,"longitude":152.968145,"id":"a6ag4rss691b","library name":"Albany Creek"},"type":"Feature","geometry":{"type":"Point","coordinates":[152.968145,-27.344772]}},{"properties":{"latitude":-28.034543,"postcode":4362,"address line 1":"Herbert Street","locality":"Allora","address line 2":null,"longitude":151.982889,"id":"a6ag4s18okga","library name":"Allora Library"},"type":"Feature","geometry":{"type":"Point","coordinates":[151.982889,-28.034543]}},{"properties":{"latitude":-23.651089,"postcode":4724,"address line 1":"Tennyson St","locality":"Alpha","address line 2":null,"longitude":146.640615,"id":"a6ag4s12egzn","library name":"Alpha Library"},"type":"Feature","geometry":{"type":"Point","coordinates":[146.640615,-23.651089]}},{"properties":{"latitude":-27.397622,"postcode":4183,"address line 1":"Ballow Street","locality":"North Stradbroke Island","address line 2":null,"longitude":153.438878,"id":"a6ag4rssk6ho","library name":"Amity Point Library"},"type":"Feature","geometry":{"type":"Point","coordinates":[153.438878,-27.397622]}},{"properties":{"latitude":-27.509556,"postcode":4103,"address line 1":"450 Ipswich Road","locality":"Annerley","address line 2":null,"longitude":153.033178,"id":"a6ag4rvxdwns","library name":"Annerley Library"},"type":"Feature","geometry":{"type":"Point","coordinates":[153.033178,-27.509556]}},{"properties":{"latitude":-22.971581,"postcode":4726,"address line 1":"Gordon Street","locality":"Aramac","address line 2":null,"longitude":145.242841,"id":"a6ag4rx45wo3","library name":"Ollie Landers Library"},"type":"Feature","geometry":{"type":"Point","coordinates":[145.242841,-22.971581]}},{"properties":{"latitude":-27.39465,"postcode":4054,"address line 1":"63 Cobbity Crescent","locality":"Arana Hills","address line 2":null,"longitude":152.948356,"id":"a6ag4rt6b8u2","library name":"Arana Hills Library"},"type":"Feature","geometry":{"type":"Point","coordinates":[152.948356,-27.39465]}},{"properties":{"latitude":-27.444011,"postcode":4060,"address line 1":"87 Amarina Avenue","locality":"Ashgrove","address line 2":null,"longitude":152.987049,"id":"a6ag4rnwvgwm","library name":"Ashgrove Library"},"type":"Feature","geometry":{"type":"Point","coordinates":[152.987049,-27.444011]}},{"properties":{"latitude":-17.268654,"postcode":4883,"address line 1":"16 Robert Street","locality":"Atherton","address line 2":null,"longitude":145.478881,"id":"a6ag4rpsrm4g","library name":"Atherton Library"},"type":"Feature","geometry":{"type":"Point","coordinates":[145.478881,-17.268654]}},{"properties":{"latitude":-25.794675,"postcode":4477,"address line 1":"Main Street","locality":"Augathella","address line 2":null,"longitude":146.586585,"id":"a6ag4s0ndvfk","library name":"Augathella Library"},"type":"Feature","geometry":{"type":"Point","coordinates":[146.586585,-25.794675]}},{"properties":{"latitude":-13.354924,"postcode":4871,"address line 1":"Wik Mungkan","locality":"Aurukun","address line 2":"Kang Kang Road","longitude":141.727731,"id":"a6ag4rufwluk","library name":"Aurukun Indigenous Knowledge Centre"},"type":"Feature","geometry":{"type":"Point","coordinates":[141.727731,-13.354924]}},{"properties":{"latitude":-17.343972,"postcode":4861,"address line 1":"24 Munro Street","locality":"Babinda","address line 2":null,"longitude":145.923956,"id":"a6ag4s02g2ob","library name":"Babinda Library"},"type":"Feature","geometry":{"type":"Point","coordinates":[145.923956,-17.343972]}},{"properties":{"latitude":-10.160012,"postcode":4875,"address line 1":"Nona Street","locality":"Badu Island","address line 2":null,"longitude":142.167206,"id":"a6ag4ruyrz08","library name":"Badu Island Indigenous Knowledge Centre"},"type":"Feature","geometry":{"type":"Point","coordinates":[142.167206,-10.160012]}},{"properties":{"latitude":-24.481954,"postcode":4674,"address line 1":"BDR&amp;RA","locality":"Baffle Creek","address line 2":"Shop 3/244 Coast Road","longitude":151.908367,"id":"a6ag4rp3xlwq","library name":"Baffle Creek Library"},"type":"Feature","geometry":{"type":"Point","coordinates":[151.908367,-24.481954]}},{"properties":{"latitude":-27.374268,"postcode":4014,"address line 1":"284 St Vincents Road","locality":"Banyo","address line 2":null,"longitude":153.078164,"id":"a6ag4rqcwxay","library name":"Banyo Library"},"type":"Feature","geometry":{"type":"Point","coordinates":[153.078164,-27.374268]}},{"properties":{"latitude":-23.553499,"postcode":4725,"address line 1":"Ash Street","locality":"Barcaldine","address line 2":null,"longitude":145.287361,"id":"a6ag4s1qt4xo","library name":"Barcaldine Library"},"type":"Feature","geometry":{"type":"Point","coordinates":[145.287361,-23.553499]}},{"properties":{"latitude":-24.572003,"postcode":4718,"address line 1":"Bauhinia Downs Station","locality":"Bauhinia","address line 2":null,"longitude":149.286475,"id":"a6ag4s38ydd6","library name":"Bauhinia Downs Library"},"type":"Feature","geometry":{"type":"Point","coordinates":[149.286475,-24.572003]}},{"properties":{"latitude":-20.281279,"postcode":4802,"address line 1":"Centro Whitsunday Shopping Centre","locality":"Cannonvale","address line 2":"Shute Harbour Road","longitude":148.690081,"id":"a6ag4rrv5i92","library name":"Beach Library"},"type":"Feature","geometry":{"type":"Point","coordinates":[148.690081,-20.281279]}},{"properties":{"latitude":-27.989954,"postcode":4285,"address line 1":"58 Brisbane Street","locality":"Beaudesert","address line 2":null,"longitude":152.9956,"id":"a6ag4s13tttv","library name":"Beaudesert Library"},"type":"Feature","geometry":{"type":"Point","coordinates":[152.9956,-27.989954]}},{"properties":{"latitude":-24.360546,"postcode":4829,"address line 1":"Herbert Street","locality":"Bedourie","address line 2":null,"longitude":139.46951,"id":"a6ag4s20i5lt","library name":"Bedourie Library"},"type":"Feature","geometry":{"type":"Point","coordinates":[139.46951,-24.360546]}},{"properties":{"latitude":-27.717839,"postcode":4207,"address line 1":"Crete Street","locality":"Beenleigh","address line 2":null,"longitude":153.200816,"id":"a6ag4rp5bu0m","library name":"Beenleigh Library"},"type":"Feature","geometry":{"type":"Point","coordinates":[153.200816,-27.717839]}},{"properties":{"latitude":-26.857031,"postcode":4519,"address line 1":"Peachester Road","locality":"Beerwah","address line 2":null,"longitude":152.955995,"id":"a6ag4s21vz1c","library name":"Beerwah Library"},"type":"Feature","geometry":{"type":"Point","coordinates":[152.955995,-26.857031]}},{"properties":{"latitude":-26.935309,"postcode":4408,"address line 1":"Bell State School","locality":"Bell","address line 2":"90 Dennis Street","longitude":151.450074,"id":"a6ag4ru3cy4f","library name":"Bell Library"},"type":"Feature","geometry":{"type":"Point","coordinates":[151.450074,-26.935309]}},{"properties":{"latitude":-25.510647,"postcode":4621,"address line 1":"47 Edward Street","locality":"Biggenden","address line 2":null,"longitude":152.04385,"id":"a6ag4rto9kpa","library name":"Biggenden Library"},"type":"Feature","geometry":{"type":"Point","coordinates":[152.04385,-25.510647]}},{"properties":{"latitude":-24.399737,"postcode":4715,"address line 1":"Corner Grevillea and Milton Streets","locality":"Biloela","address line 2":null,"longitude":150.512588,"id":"a6ag4rzr6pgk","library name":"Biloela Library"},"type":"Feature","geometry":{"type":"Point","coordinates":[150.512588,-24.399737]}},{"properties":{"latitude":-25.90104,"postcode":4482,"address line 1":"Billabong Boulevard","locality":"Birdsville","address line 2":null,"longitude":139.351927,"id":"a6ag4rrf811c","library name":"Birdsville Library"},"type":"Feature","geometry":{"type":"Point","coordinates":[139.351927,-25.90104]}},{"properties":{"latitude":-24.424591,"postcode":4472,"address line 1":"108 Shamrock Street","locality":"Blackall","address line 2":null,"longitude":145.46481,"id":"a6ag4s15k3eg","library name":"Blackall Library"},"type":"Feature","geometry":{"type":"Point","coordinates":[145.46481,-24.424591]}},{"properties":{"latitude":-26.884383,"postcode":4306,"address line 1":"69 Hart Street","locality":"Blackbutt","address line 2":null,"longitude":152.101593,"id":"a6ag4rtpm2g4","library name":"Blackbutt Library"},"type":"Feature","geometry":{"type":"Point","coordinates":[152.101593,-26.884383]}},{"properties":{"latitude":-23.583271,"postcode":4717,"address line 1":"Community Centre Wey Street","locality":"Blackwater","address line 2":null,"longitude":148.875958,"id":"a6ag4rxi7j3y","library name":"Blackwater Library"},"type":"Feature","geometry":{"type":"Point","coordinates":[148.875958,-23.583271]}},{"properties":{"latitude":-15.92221,"postcode":4895,"address line 1":null,"locality":"Bloomfield","address line 2":null,"longitude":145.352361,"id":"a6ag4rtmjyjz","library name":"Bloomfield Library"},"type":"Feature","geometry":{"type":"Point","coordinates":[145.352361,-15.92221]}},{"properties":{"latitude":-23.579544,"postcode":4702,"address line 1":"Church Street","locality":"Bluff","address line 2":null,"longitude":149.070563,"id":"a6ag4s2pxdyn","library name":"Bluff Library"},"type":"Feature","geometry":{"type":"Point","coordinates":[149.070563,-23.579544]}},{"properties":{"latitude":-9.23083,"postcode":4875,"address line 1":"66 Chamber Street","locality":"Boigu Island","address line 2":null,"longitude":142.219756,"id":"a6ag4rspoaad","library name":"Boigu Island Indigenous Knowledge Centre"},"type":"Feature","geometry":{"type":"Point","coordinates":[142.219756,-9.23083]}},{"properties":{"latitude":-28.031465,"postcode":4488,"address line 1":"Main Street","locality":"Bollon","address line 2":null,"longitude":147.477829,"id":"a6ag4s0kh77e","library name":"Bollon Library"},"type":"Feature","geometry":{"type":"Point","coordinates":[147.477829,-28.031465]}},{"properties":{"latitude":-27.997281,"postcode":4310,"address line 1":"High Street","locality":"Boonah","address line 2":null,"longitude":152.682238,"id":"a6ag4rr30rqe","library name":"Boonah Library"},"type":"Feature","geometry":{"type":"Point","coordinates":[152.682238,-27.997281]}},{"properties":{"latitude":-22.911164,"postcode":4829,"address line 1":"Burke Street","locality":"Boulia","address line 2":null,"longitude":139.911645,"id":"a6ag4s24yob2","library name":"Boulia Library"},"type":"Feature","geometry":{"type":"Point","coordinates":[139.911645,-22.911164]}},{"properties":{"latitude":-20.013199,"postcode":4805,"address line 1":"Herbert Street","locality":"Bowen","address line 2":null,"longitude":148.247125,"id":"a6ag4rou8oz5","library name":"Bowen Library"},"type":"Feature","geometry":{"type":"Point","coordinates":[148.247125,-20.013199]}},{"properties":{"latitude":-23.9426,"postcode":4680,"address line 1":"Wyndham Avenue","locality":"Boyne Island","address line 2":null,"longitude":151.352506,"id":"a6ag4s1qb0r8","library name":"Boyne Island Library"},"type":"Feature","geometry":{"type":"Point","coordinates":[151.352506,-23.9426]}},{"properties":{"latitude":-27.317918,"postcode":4017,"address line 1":"Corner Bracken and Barrett Streets","locality":"Bracken Ridge","address line 2":null,"longitude":153.037941,"id":"a6ag4rqx3wi1","library name":"Bracken Ridge Library"},"type":"Feature","geometry":{"type":"Point","coordinates":[153.037941,-27.317918]}},{"properties":{"latitude":-27.083544,"postcode":4507,"address line 1":"Cnr Welsby Parade and First Avenue","locality":"Bribie Island","address line 2":"Bongaree","longitude":153.159199,"id":"a6ag4rpajazz","library name":"Bribie Island Library"},"type":"Feature","geometry":{"type":"Point","coordinates":[153.159199,-27.083544]}},{"properties":{"latitude":-27.47102,"postcode":4000,"address line 1":"Brisbane Square Library and Customer Centre","locality":"Brisbane","address line 2":"266 George Street","longitude":153.022513,"id":"a6ag4rz8a8ti","library name":"Brisbane Square Libary"},"type":"Feature","geometry":{"type":"Point","coordinates":[153.022513,-27.47102]}},{"properties":{"latitude":-28.035935,"postcode":4218,"address line 1":"61 Sunshine Boulevard","locality":"Mermaid Waters","address line 2":null,"longitude":153.424051,"id":"a6ag4s1pvu9m","library name":"Broadbeach Branch Library"},"type":"Feature","geometry":{"type":"Point","coordinates":[153.424051,-28.035935]}},{"properties":{"latitude":-27.452047,"postcode":4171,"address line 1":"Corner Oxford Street and Riding Road","locality":"Bulimba","address line 2":null,"longitude":153.062693,"id":"a6ag4rqxw2zc","library name":"Bulimba Library"},"type":"Feature","geometry":{"type":"Point","coordinates":[153.062693,-27.452047]}},{"properties":{"latitude":-27.996021,"postcode":4492,"address line 1":"Shire Office","locality":"Thargomindah","address line 2":"Dowling Street","longitude":143.824114,"id":"a6ag4s1ly8w2","library name":"Bulloo Library"},"type":"Feature","geometry":{"type":"Point","coordinates":[143.824114,-27.996021]}},{"properties":{"latitude":-24.868493,"postcode":4670,"address line 1":"49 Woondooma Street","locality":"Bundaberg","address line 2":null,"longitude":152.348383,"id":"a6ag4rswcfhk","library name":"Bundaberg Library"},"type":"Feature","geometry":{"type":"Point","coordinates":[152.348383,-24.868493]}},{"properties":{"latitude":-19.576041,"postcode":4807,"address line 1":"108 Graham Street","locality":"Ayr","address line 2":null,"longitude":147.404026,"id":"a6ag4rojd4ij","library name":"Burdekin Library"},"type":"Feature","geometry":{"type":"Point","coordinates":[147.404026,-19.576041]}},{"properties":{"latitude":-17.740866,"postcode":4830,"address line 1":"Shire Office","locality":"Burketown","address line 2":"Musgrave Street","longitude":139.546286,"id":"a6ag4rp1sdij","library name":"Burketown Library"},"type":"Feature","geometry":{"type":"Point","coordinates":[139.546286,-17.740866]}},{"properties":{"latitude":-28.090145,"postcode":4220,"address line 1":"Park Avenue","locality":"Burleigh Heads","address line 2":null,"longitude":153.450733,"id":"a6ag4rv85hko","library name":"Burleigh Heads Branch Library"},"type":"Feature","geometry":{"type":"Point","coordinates":[153.450733,-28.090145]}},{"properties":{"latitude":-28.081617,"postcode":4220,"address line 1":"Cnr Christine Avenue &amp; Galeen Drive","locality":"Burleigh Waters","address line 2":null,"longitude":153.43191,"id":"a6ag4rpdvzut","library name":"Burleigh Waters Branch Library"},"type":"Feature","geometry":{"type":"Point","coordinates":[153.43191,-28.081617]}},{"properties":{"latitude":-27.156343,"postcode":4505,"address line 1":"121 Station Road","locality":"Burpengary","address line 2":null,"longitude":152.96616,"id":"a6ag4rz8gsuy","library name":"Burpengary Library"},"type":"Feature","geometry":{"type":"Point","coordinates":[152.96616,-27.156343]}},{"properties":{"latitude":-25.191272,"postcode":4659,"address line 1":"Burrum Heads Road","locality":"Burrum Heads","address line 2":null,"longitude":152.611594,"id":"a6ag4s070irw","library name":"Burrum Heads Library"},"type":"Feature","geometry":{"type":"Point","coordinates":[152.611594,-25.191272]}},{"properties":{"latitude":-18.734172,"postcode":4816,"address line 1":"Lot 72 Main St","locality":"Palm Island","address line 2":null,"longitude":146.578373,"id":"a6ag4rr1m0b5","library name":"Bwgcolman Indigenous Knowledge Center"},"type":"Feature","geometry":{"type":"Point","coordinates":[146.578373,-18.734172]}},{"properties":{"latitude":-22.848125,"postcode":4703,"address line 1":"Byfield Road","locality":"Byfield","address line 2":null,"longitude":150.651293,"id":"a6ag4rv7wml7","library name":"Byfield Library"},"type":"Feature","geometry":{"type":"Point","coordinates":[150.651293,-22.848125]}},{"properties":{"latitude":-27.084337,"postcode":4510,"address line 1":"Memorial Hall","locality":"Caboolture","address line 2":"57 King Street","longitude":152.951108,"id":"a6ag4rsatc6t","library name":"Caboolture Library"},"type":"Feature","geometry":{"type":"Point","coordinates":[152.951108,-27.084337]}},{"properties":{"latitude":-23.999676,"postcode":4680,"address line 1":"Don Cameron Drive","locality":"Calliope","address line 2":null,"longitude":151.211159,"id":"a6ag4roe48so","library name":"Calliope Library"},"type":"Feature","geometry":{"type":"Point","coordinates":[151.211159,-23.999676]}},{"properties":{"latitude":-26.803594,"postcode":4551,"address line 1":"Omrah Avenue","locality":"Caloundra","address line 2":null,"longitude":153.130864,"id":"a6ag4rnb89w1","library name":"Caloundra Library"},"type":"Feature","geometry":{"type":"Point","coordinates":[153.130864,-26.803594]}},{"properties":{"latitude":-28.017789,"postcode":4275,"address line 1":"12 Kidston Street","locality":"Canungra","address line 2":null,"longitude":153.16415,"id":"a6ag4rpa2kbj","library name":"Canungra Library"},"type":"Feature","geometry":{"type":"Point","coordinates":[153.16415,-28.017789]}},{"properties":{"latitude":-27.523248,"postcode":4157,"address line 1":"Capalaba Town Centre","locality":"Capalaba","address line 2":"Noeleen Street","longitude":153.192673,"id":"a6ag4rwie3nm","library name":"Capalaba Library"},"type":"Feature","geometry":{"type":"Point","coordinates":[153.192673,-27.523248]}},{"properties":{"latitude":-23.086601,"postcode":4723,"address line 1":"Peak Downs Street","locality":"Capella","address line 2":null,"longitude":148.023241,"id":"a6ag4rp7u9rg","library name":"Capella Library"},"type":"Feature","geometry":{"type":"Point","coordinates":[148.023241,-23.086601]}},{"properties":{"latitude":-18.267388,"postcode":4849,"address line 1":"2 Balliol Street","locality":"Cardwell","address line 2":null,"longitude":146.028922,"id":"a6ag4rvyi6lm","library name":"Cardwell Library"},"type":"Feature","geometry":{"type":"Point","coordinates":[146.028922,-18.267388]}},{"properties":{"latitude":-27.493597,"postcode":4152,"address line 1":"Corner Mayfield Road and Nyrang Street","locality":"Carina","address line 2":null,"longitude":153.090062,"id":"a6ag4s381hjj","library name":"Carina Library"},"type":"Feature","geometry":{"type":"Point","coordinates":[153.090062,-27.493597]}},{"properties":{"latitude":-27.501753,"postcode":4152,"address line 1":"Carindale Regional Shopping Centre","locality":"Carindale","address line 2":"Cnr Creek and Old Cleveland Roads","longitude":153.102379,"id":"a6ag4rsky5hp","library name":"Carindale Library"},"type":"Feature","geometry":{"type":"Point","coordinates":[153.102379,-27.501753]}},{"properties":{"latitude":-21.909047,"postcode":4739,"address line 1":"Music Street","locality":"Carmila","address line 2":null,"longitude":149.413612,"id":"a6ag4rv3ctds","library name":"Carmila Library"},"type":"Feature","geometry":{"type":"Point","coordinates":[149.413612,-21.909047]}},{"properties":{"latitude":-27.532663,"postcode":4407,"address line 1":"Taylor Street","locality":"Cecil Plains","address line 2":null,"longitude":151.190538,"id":"a6ag4rxfdwac","library name":"Cecil Plains Library"},"type":"Feature","geometry":{"type":"Point","coordinates":[151.190538,-27.532663]}},{"properties":{"latitude":-26.397155,"postcode":4470,"address line 1":"94 Alfred Street","locality":"Charleville","address line 2":null,"longitude":146.251475,"id":"a6ag4rz3x6pn","library name":"Charleville Library"},"type":"Feature","geometry":{"type":"Point","coordinates":[146.251475,-26.397155]}},{"properties":{"latitude":-20.076872,"postcode":4820,"address line 1":"130 Gill Street","locality":"Charters Towers","address line 2":null,"longitude":146.261276,"id":"a6ag4rq1af7l","library name":"Charters Towers Excelsior Library"},"type":"Feature","geometry":{"type":"Point","coordinates":[146.261276,-20.076872]}},{"properties":{"latitude":-27.386191,"postcode":4032,"address line 1":"375 Hamilton Road","locality":"Chermside","address line 2":null,"longitude":153.034932,"id":"a6ag4ro06ctf","library name":"Chermside Library"},"type":"Feature","geometry":{"type":"Point","coordinates":[153.034932,-27.386191]}},{"properties":{"latitude":-25.235938,"postcode":4660,"address line 1":"49 Churchill Street","locality":"Childers","address line 2":null,"longitude":152.279601,"id":"a6ag4rnqpd55","library name":"Childers Library"},"type":"Feature","geometry":{"type":"Point","coordinates":[152.279601,-25.235938]}},{"properties":{"latitude":-17.155932,"postcode":4871,"address line 1":"The Hub","locality":"Chillagoe","address line 2":"King Street","longitude":144.523623,"id":"a6ag4rxqk2to","library name":"Chillagoe Library"},"type":"Feature","geometry":{"type":"Point","coordinates":[144.523623,-17.155932]}},{"properties":{"latitude":-26.740111,"postcode":4413,"address line 1":"80-86 Heeney Street","locality":"Chinchilla","address line 2":null,"longitude":150.624924,"id":"a6ag4rn1xhkn","library name":"Chinchilla Library"},"type":"Feature","geometry":{"type":"Point","coordinates":[150.624924,-26.740111]}},{"properties":{"latitude":-16.920374,"postcode":4870,"address line 1":"151 Abbott Street","locality":"Cairns","address line 2":null,"longitude":145.77515,"id":"a6ag4rzeok55","library name":"City Library"},"type":"Feature","geometry":{"type":"Point","coordinates":[145.77515,-16.920374]}},{"properties":{"latitude":-19.294937,"postcode":4814,"address line 1":"4 Petunia Street","locality":"Aitkenvale","address line 2":null,"longitude":146.771759,"id":"a6ag4ry6lg3m","library name":"CityLibraries Aitkenvale Library"},"type":"Feature","geometry":{"type":"Point","coordinates":[146.771759,-19.294937]}},{"properties":{"latitude":-19.259112,"postcode":4810,"address line 1":"Level 1, Northtown on the Mall","locality":"Townsville","address line 2":"280 Flinders Mall","longitude":146.817609,"id":"a6ag4s1fr05n","library name":"CityLibraries Flinders Street Library"},"type":"Feature","geometry":{"type":"Point","coordinates":[146.817609,-19.259112]}},{"properties":{"latitude":-19.308308,"postcode":4817,"address line 1":"86 Thuringowa Drive","locality":"Thuringowa Central","address line 2":null,"longitude":146.731414,"id":"a6ag4s0f0ijf","library name":"CityLibraries Thuringowa Central Library"},"type":"Feature","geometry":{"type":"Point","coordinates":[146.731414,-19.308308]}},{"properties":{"latitude":-22.824447,"postcode":4721,"address line 1":"Herschel Street","locality":"Clermont","address line 2":null,"longitude":147.639363,"id":"a6ag4ro8o9ls","library name":"Clermont Library"},"type":"Feature","geometry":{"type":"Point","coordinates":[147.639363,-22.824447]}},{"properties":{"latitude":-27.525546,"postcode":4163,"address line 1":"Cnr Bloomfield and Middle Streets","locality":"Cleveland","address line 2":null,"longitude":153.267598,"id":"a6ag4rwiep77","library name":"Cleveland Library"},"type":"Feature","geometry":{"type":"Point","coordinates":[153.267598,-27.525546]}},{"properties":{"latitude":-27.928962,"postcode":4361,"address line 1":"Meara Place","locality":"Clifton","address line 2":null,"longitude":151.905336,"id":"a6ag4rzotzij","library name":"Clifton Library"},"type":"Feature","geometry":{"type":"Point","coordinates":[151.905336,-27.928962]}},{"properties":{"latitude":-20.705622,"postcode":4824,"address line 1":"Scarr Street","locality":"Cloncurry","address line 2":null,"longitude":140.505255,"id":"a6ag4rr1barj","library name":"Cloncurry Library"},"type":"Feature","geometry":{"type":"Point","coordinates":[140.505255,-20.705622]}},{"properties":{"latitude":-13.945344,"postcode":4871,"address line 1":null,"locality":"Coen","address line 2":null,"longitude":143.199212,"id":"a6ag4s08cyy8","library name":"Coen Library"},"type":"Feature","geometry":{"type":"Point","coordinates":[143.199212,-13.945344]}},{"properties":{"latitude":-26.319027,"postcode":4606,"address line 1":"78 Mackenzie Street","locality":"Wondai","address line 2":null,"longitude":151.873257,"id":"a6ag4rsmbtuu","library name":"Col Morris Public Library"},"type":"Feature","geometry":{"type":"Point","coordinates":[151.873257,-26.319027]}},{"properties":{"latitude":-20.551313,"postcode":4804,"address line 1":"Council Chambers","locality":"Collinsville","address line 2":null,"longitude":147.845507,"id":"a6ag4rpm3yoq","library name":"Collinsville Library"},"type":"Feature","geometry":{"type":"Point","coordinates":[147.845507,-20.551313]}},{"properties":{"latitude":-15.469998,"postcode":4871,"address line 1":"Helen Street","locality":"Cooktown","address line 2":null,"longitude":145.249922,"id":"a6ag4rz2ihli","library name":"Cooktown Library"},"type":"Feature","geometry":{"type":"Point","coordinates":[145.249922,-15.469998]}},{"properties":{"latitude":-28.168525,"postcode":4225,"address line 1":"Level 3, \"Showcase on the Beach\"","locality":"Coolangatta","address line 2":"Griffith Street","longitude":153.538055,"id":"a6ag4s2szwfe","library name":"Coolangatta Branch Library"},"type":"Feature","geometry":{"type":"Point","coordinates":[153.538055,-28.168525]}},{"properties":{"latitude":-26.530496,"postcode":4573,"address line 1":"Park Street","locality":"Coolum","address line 2":null,"longitude":153.090234,"id":"a6ag4s16gggm","library name":"Coolum Library"},"type":"Feature","geometry":{"type":"Point","coordinates":[153.090234,-26.530496]}},{"properties":{"latitude":-27.565057,"postcode":4108,"address line 1":"107 Orange Grove Road","locality":"Coopers Plains","address line 2":null,"longitude":153.039631,"id":"a6ag4rr04v0u","library name":"Coopers Plains Library"},"type":"Feature","geometry":{"type":"Point","coordinates":[153.039631,-27.565057]}},{"properties":{"latitude":-26.416192,"postcode":4563,"address line 1":"Maple St","locality":"Cooroy","address line 2":null,"longitude":152.910912,"id":"a6ag4s35d5dj","library name":"Cooroy Library"},"type":"Feature","geometry":{"type":"Point","coordinates":[152.910912,-26.416192]}},{"properties":{"latitude":-27.538889,"postcode":4075,"address line 1":"641 Oxley Road","locality":"Corinda","address line 2":null,"longitude":152.981486,"id":"a6ag4rthqlh2","library name":"Corinda Library"},"type":"Feature","geometry":{"type":"Point","coordinates":[152.981486,-27.538889]}},{"properties":{"latitude":-18.204424,"postcode":4871,"address line 1":"Samwell Street","locality":"Croydon","address line 2":null,"longitude":142.246943,"id":"a6ag4s2lo73f","library name":"Croydon Library"},"type":"Feature","geometry":{"type":"Point","coordinates":[142.246943,-18.204424]}},{"properties":{"latitude":-28.068766,"postcode":4490,"address line 1":"16 John Street","locality":"Cunnamulla","address line 2":null,"longitude":145.684483,"id":"a6ag4s2s8db0","library name":"Cunnamulla Library"},"type":"Feature","geometry":{"type":"Point","coordinates":[145.684483,-28.068766]}},{"properties":{"latitude":-21.696232,"postcode":4825,"address line 1":"Lethem Street","locality":"Dajarra","address line 2":null,"longitude":139.513739,"id":"a6ag4rs5p18i","library name":"Dajarra Library"},"type":"Feature","geometry":{"type":"Point","coordinates":[139.513739,-21.696232]}},{"properties":{"latitude":-27.183389,"postcode":4405,"address line 1":"1 Stuart Street","locality":"Dalby","address line 2":null,"longitude":151.265275,"id":"a6ag4ryfspjt","library name":"Dalby Library (Central Administration Branch)"},"type":"Feature","geometry":{"type":"Point","coordinates":[151.265275,-27.183389]}},{"properties":{"latitude":-9.412823,"postcode":4875,"address line 1":"Main Street","locality":"Dauan Island","address line 2":null,"longitude":142.539368,"id":"a6ag4rz8rn6i","library name":"Dauan Island Indigenous Knowledge Centre"},"type":"Feature","geometry":{"type":"Point","coordinates":[142.539368,-9.412823]}},{"properties":{"latitude":-27.18504,"postcode":4508,"address line 1":"Cnr Captain Cook Parade and Bayview Terrace","locality":"Deception Bay","address line 2":null,"longitude":153.029122,"id":"a6ag4rrkl0t3","library name":"Deception Bay Library"},"type":"Feature","geometry":{"type":"Point","coordinates":[153.029122,-27.18504]}},{"properties":{"latitude":-26.241087,"postcode":4605,"address line 1":"2/43 Stephens Street","locality":"Murgon","address line 2":null,"longitude":151.941835,"id":"a6ag4rn558oc","library name":"Dermont Tiernan Memorial Library"},"type":"Feature","geometry":{"type":"Point","coordinates":[151.941835,-26.241087]}},{"properties":{"latitude":-17.148105,"postcode":4872,"address line 1":"Shire Hall","locality":"Dimbulah","address line 2":"cnr Raleigh Street &amp; Burke Development Road","longitude":145.112835,"id":"a6ag4rn5k54u","library name":"Dimbulah Library"},"type":"Feature","geometry":{"type":"Point","coordinates":[145.112835,-17.148105]}},{"properties":{"latitude":-23.646215,"postcode":4702,"address line 1":"Normanby Street","locality":"Dingo","address line 2":null,"longitude":149.33012,"id":"a6ag4s0t1ldf","library name":"Dingo Library"},"type":"Feature","geometry":{"type":"Point","coordinates":[149.33012,-23.646215]}},{"properties":{"latitude":-28.585761,"postcode":4486,"address line 1":"Railway Street","locality":"Dirranbandi","address line 2":null,"longitude":148.22681,"id":"a6ag4ru1gnrm","library name":"Dirranbandi Library"},"type":"Feature","geometry":{"type":"Point","coordinates":[148.22681,-28.585761]}},{"properties":{"latitude":-17.935204,"postcode":4854,"address line 1":"34 Bryant Street","locality":"Tully","address line 2":null,"longitude":145.923452,"id":"a6ag4rtnkzh4","library name":"Dorothy Jones Library"},"type":"Feature","geometry":{"type":"Point","coordinates":[145.923452,-17.935204]}},{"properties":{"latitude":-23.71707,"postcode":4712,"address line 1":"Elizabeth Street","locality":"Duaringa","address line 2":null,"longitude":149.669398,"id":"a6ag4rpvaued","library name":"Duaringa Library"},"type":"Feature","geometry":{"type":"Point","coordinates":[149.669398,-23.71707]}},{"properties":{"latitude":-27.500668,"postcode":4183,"address line 1":"Ballow Road","locality":"Dunwich","address line 2":null,"longitude":153.403687,"id":"a6ag4s2ogz65","library name":"Dunwich Library"},"type":"Feature","geometry":{"type":"Point","coordinates":[153.403687,-27.500668]}},{"properties":{"latitude":-26.402326,"postcode":4610,"address line 1":"Durong Hall","locality":"Durong","address line 2":"8940 Wondai-Chinchilla Road","longitude":151.304913,"id":"a6ag4rzefb3z","library name":"Durong Community Library"},"type":"Feature","geometry":{"type":"Point","coordinates":[151.304913,-26.402326]}},{"properties":{"latitude":-22.587847,"postcode":4745,"address line 1":"Council Premises","locality":"Dysart","address line 2":"Shannon Crescent","longitude":148.350196,"id":"a6ag4rpn84vp","library name":"Dysart Library"},"type":"Feature","geometry":{"type":"Point","coordinates":[148.350196,-22.587847]}},{"properties":{"latitude":-16.944119,"postcode":4870,"address line 1":"Shop 128 Stockland","locality":"Earlville","address line 2":null,"longitude":145.739951,"id":"a6ag4rqbkr5l","library name":"Earlville Library"},"type":"Feature","geometry":{"type":"Point","coordinates":[145.739951,-16.944119]}},{"properties":{"latitude":-17.017368,"postcode":4865,"address line 1":"175 Bruce Highway","locality":"Edmonton","address line 2":null,"longitude":145.743733,"id":"a6ag4rq39axw","library name":"Edmonton Library"},"type":"Feature","geometry":{"type":"Point","coordinates":[145.743733,-17.017368]}},{"properties":{"latitude":-25.370576,"postcode":4627,"address line 1":"36 Moreton Street","locality":"Eidsvold","address line 2":null,"longitude":151.122426,"id":"a6ag4rnoq3as","library name":"Eidsvold Library and Tourist Information Centre"},"type":"Feature","geometry":{"type":"Point","coordinates":[151.122426,-25.370576]}},{"properties":{"latitude":-28.135984,"postcode":4221,"address line 1":"The Pines Shopping Centre","locality":"Elanora","address line 2":"Guineas Creek Road","longitude":153.469198,"id":"a6ag4rop08s3","library name":"Elanora Branch Library"},"type":"Feature","geometry":{"type":"Point","coordinates":[153.469198,-28.135984]}},{"properties":{"latitude":-23.525299,"postcode":4720,"address line 1":"44 Borilla Street","locality":"Emerald","address line 2":null,"longitude":148.162603,"id":"a6ag4rvg42ha","library name":"Emerald Library"},"type":"Feature","geometry":{"type":"Point","coordinates":[148.162603,-23.525299]}},{"properties":{"latitude":-23.257946,"postcode":4702,"address line 1":null,"locality":"Emu Park","address line 2":null,"longitude":150.827308,"id":"a6ag4rup41o8","library name":"Emu Park Library"},"type":"Feature","geometry":{"type":"Point","coordinates":[150.827308,-23.257946]}},{"properties":{"latitude":-9.587209,"postcode":4875,"address line 1":"Madige Village","locality":"Erub Island","address line 2":null,"longitude":143.774214,"id":"a6ag4s1ufwwo","library name":"Erub Island Indigenous Knowledge Centre"},"type":"Feature","geometry":{"type":"Point","coordinates":[143.774214,-9.587209]}},{"properties":{"latitude":-27.239158,"postcode":4312,"address line 1":"19 Heap Street","locality":"Esk","address line 2":null,"longitude":152.42099,"id":"a6ag4rq3wwre","library name":"Esk Library"},"type":"Feature","geometry":{"type":"Point","coordinates":[152.42099,-27.239158]}},{"properties":{"latitude":-27.405366,"postcode":4053,"address line 1":"561 South Pine Road","locality":"Everton Park","address line 2":null,"longitude":152.990397,"id":"a6ag4rprk7w4","library name":"Everton Park Library"},"type":"Feature","geometry":{"type":"Point","coordinates":[152.990397,-27.405366]}},{"properties":{"latitude":-27.508871,"postcode":4103,"address line 1":"Fairfield Gardens Shopping Centre","locality":"Fairfield","address line 2":"Fairfield Road","longitude":153.025158,"id":"a6ag4rrqxmte","library name":"Fairfield Libary"},"type":"Feature","geometry":{"type":"Point","coordinates":[153.025158,-27.508871]}},{"properties":{"latitude":-20.843186,"postcode":4821,"address line 1":"37 Gray Street","locality":"Hughenden","address line 2":null,"longitude":144.200819,"id":"a6ag4rq3xz8u","library name":"Flinders Library"},"type":"Feature","geometry":{"type":"Point","coordinates":[144.200819,-20.843186]}},{"properties":{"latitude":-27.56261,"postcode":4122,"address line 1":"Garden City Shopping Centre","locality":"Upper Mount Gravatt","address line 2":"Cnr Kessels and Logan Roads","longitude":153.080229,"id":"a6ag4s2vp3bq","library name":"Garden City Library"},"type":"Feature","geometry":{"type":"Point","coordinates":[153.080229,-27.56261]}},{"properties":{"latitude":-27.557196,"postcode":4343,"address line 1":"Lockyer Valley Cultural Centre","locality":"Gatton","address line 2":"Lake Apex Drive","longitude":152.27702,"id":"a6ag4rshwrrd","library name":"Gatton LIbrary"},"type":"Feature","geometry":{"type":"Point","coordinates":[152.27702,-27.557196]}},{"properties":{"latitude":-25.624763,"postcode":4625,"address line 1":"12 Capper Street","locality":"Gayndah","address line 2":null,"longitude":151.608887,"id":"a6ag4rq2ykpc","library name":"Gayndah Library"},"type":"Feature","geometry":{"type":"Point","coordinates":[151.608887,-25.624763]}},{"properties":{"latitude":-23.420157,"postcode":4702,"address line 1":"7 Burridge Road","locality":"Rubyvale","address line 2":null,"longitude":147.699788,"id":"a6ag4s2otl56","library name":"Gemfields Library"},"type":"Feature","geometry":{"type":"Point","coordinates":[147.699788,-23.420157]}},{"properties":{"latitude":-18.291771,"postcode":4871,"address line 1":"TerrEstrial","locality":"Georgetown","address line 2":"Low Street","longitude":143.548619,"id":"a6ag4rtpmijf","library name":"Georgetown Library"},"type":"Feature","geometry":{"type":"Point","coordinates":[143.548619,-18.291771]}},{"properties":{"latitude":-24.989622,"postcode":4671,"address line 1":"4 Dear Street","locality":"GIN GIN","address line 2":null,"longitude":151.953857,"id":"a6ag4s1e534x","library name":"Gin Gin Library"},"type":"Feature","geometry":{"type":"Point","coordinates":[151.953857,-24.989622]}},{"properties":{"latitude":-23.841082,"postcode":4680,"address line 1":"39 Goondoon Street","locality":"Gladstone","address line 2":null,"longitude":151.254289,"id":"a6ag4rrxvvdf","library name":"Gladstone Library"},"type":"Feature","geometry":{"type":"Point","coordinates":[151.254289,-23.841082]}},{"properties":{"latitude":-21.357266,"postcode":4743,"address line 1":"Shopping Centre","locality":"Glenden","address line 2":null,"longitude":148.115916,"id":"a6ag4rvmtpb2","library name":"Glenden Library"},"type":"Feature","geometry":{"type":"Point","coordinates":[148.115916,-21.357266]}},{"properties":{"latitude":-27.303709,"postcode":4354,"address line 1":"89 Mocatta Street","locality":"Goombungee","address line 2":null,"longitude":151.851407,"id":"a6ag4rzymyrb","library name":"Goombungee Public Library"},"type":"Feature","geometry":{"type":"Point","coordinates":[151.851407,-27.303709]}},{"properties":{"latitude":-26.182072,"postcode":4601,"address line 1":"Moore Street","locality":"Goomeri","address line 2":null,"longitude":152.067733,"id":"a6ag4s1eidi9","library name":"Goomeri Library"},"type":"Feature","geometry":{"type":"Point","coordinates":[152.067733,-26.182072]}},{"properties":{"latitude":-28.5486,"postcode":4390,"address line 1":"4 - 6 McLean Street","locality":"Goondiwindi","address line 2":null,"longitude":150.30756,"id":"a6ag4rrow5ec","library name":"Goondiwindi Library"},"type":"Feature","geometry":{"type":"Point","coordinates":[150.30756,-28.5486]}},{"properties":{"latitude":-21.117241,"postcode":4740,"address line 1":"54 Phillip Street","locality":"Mackay","address line 2":"Mt Pleasant","longitude":149.160218,"id":"a6ag4rqtzrbj","library name":"Gordon White Library"},"type":"Feature","geometry":{"type":"Point","coordinates":[149.160218,-21.117241]}},{"properties":{"latitude":-17.093126,"postcode":4865,"address line 1":"88 Norman Street","locality":"Gordonvale","address line 2":null,"longitude":145.785871,"id":"a6ag4rrhyzpe","library name":"Gordonvale Library"},"type":"Feature","geometry":{"type":"Point","coordinates":[145.785871,-17.093126]}},{"properties":{"latitude":-27.425209,"postcode":4051,"address line 1":"79 Evelyn Street","locality":"The Grange","address line 2":null,"longitude":153.017567,"id":"a6ag4s056zw1","library name":"Grange Library"},"type":"Feature","geometry":{"type":"Point","coordinates":[153.017567,-27.425209]}},{"properties":{"latitude":-27.730432,"postcode":4124,"address line 1":"145-167 Teviot Road","locality":"Greenbank","address line 2":null,"longitude":152.983369,"id":"a6ag4rygmfgx","library name":"Greenbank Library"},"type":"Feature","geometry":{"type":"Point","coordinates":[152.983369,-27.730432]}},{"properties":{"latitude":-26.189562,"postcode":4570,"address line 1":"8-14 Mellor Street","locality":"Gympie","address line 2":null,"longitude":152.665608,"id":"a6ag4rnj6w6r","library name":"Gympie Library"},"type":"Feature","geometry":{"type":"Point","coordinates":[152.665608,-26.189562]}},{"properties":{"latitude":-18.579464,"postcode":4850,"address line 1":"Macrossan Street","locality":"Halifax","address line 2":null,"longitude":146.285019,"id":"a6ag4rpl0laj","library name":"Halifax LIbrary"},"type":"Feature","geometry":{"type":"Point","coordinates":[146.285019,-18.579464]}},{"properties":{"latitude":-27.437869,"postcode":4007,"address line 1":"Cnr Racecourse Road and Rossiter Parade","locality":"Ascot","address line 2":null,"longitude":153.06431,"id":"a6ag4ru2w8uu","library name":"Hamilton Library"},"type":"Feature","geometry":{"type":"Point","coordinates":[153.06431,-27.437869]}},{"properties":{"latitude":-10.555555,"postcode":4875,"address line 1":"Hammond Island IKC","locality":"Hammond Island","address line 2":"Wonie Road","longitude":142.217987,"id":"a6ag4s0eosci","library name":"Hammond Island Indigenous Knowledge Centre"},"type":"Feature","geometry":{"type":"Point","coordinates":[142.217987,-10.555555]}},{"properties":{"latitude":-16.920374,"postcode":4870,"address line 1":"151 Abbott Street","locality":"Cairns","address line 2":null,"longitude":145.775158,"id":"a6ag4rqgcrrs","library name":"Cairns - Head Office"},"type":"Feature","geometry":{"type":"Point","coordinates":[145.775158,-16.920374]}},{"properties":{"latitude":-21.14291,"postcode":4740,"address line 1":"Gordon Street","locality":"Mackay","address line 2":null,"longitude":149.183028,"id":"a6ag4rq5ft57","library name":"Mackay Regional Council Libraries"},"type":"Feature","geometry":{"type":"Point","coordinates":[149.183028,-21.14291]}},{"properties":{"latitude":-28.077641,"postcode":null,"address line 1":null,"locality":null,"address line 2":null,"longitude":153.385599,"id":"a6ag4ro1zk6z","library name":"Gold Coast City Council Library"},"type":"Feature","geometry":{"type":"Point","coordinates":[153.385599,-28.077641]}},{"properties":{"latitude":153.267598,"postcode":4163,"address line 1":"Cultural Services Unit","locality":"Cleveland","address line 2":"1st Floor, Cleveland Library Building","longitude":-27.525546,"id":"a6ag4rza5bh8","library name":"Redland - Head Office"},"type":"Feature","geometry":{"type":"Point","coordinates":[-27.525546,153.267598]}},{"properties":{"latitude":-28.971738,"postcode":4486,"address line 1":"William Street","locality":"Hebel","address line 2":null,"longitude":147.795103,"id":"a6ag4rx6hm7q","library name":"Hebel Library"},"type":"Feature","geometry":{"type":"Point","coordinates":[147.795103,-28.971738]}},{"properties":{"latitude":-27.922549,"postcode":4212,"address line 1":"Cnr Lindfield Drive and Sir John Overall Drive","locality":"Helensvale","address line 2":null,"longitude":153.334004,"id":"a6ag4rxi28ik","library name":"Helensvale Branch Library"},"type":"Feature","geometry":{"type":"Point","coordinates":[153.334004,-27.922549]}},{"properties":{"latitude":-17.383779,"postcode":4888,"address line 1":"61 Grace Street","locality":"Herberton","address line 2":null,"longitude":145.385739,"id":"a6ag4rznjp4n","library name":"Herberton Library"},"type":"Feature","geometry":{"type":"Point","coordinates":[145.385739,-17.383779]}},{"properties":{"latitude":-25.28409,"postcode":4655,"address line 1":"161 Old Maryborough Road","locality":"Pialba","address line 2":null,"longitude":152.836422,"id":"a6ag4rx0f93x","library name":"Hervey Bay Library"},"type":"Feature","geometry":{"type":"Point","coordinates":[152.836422,-25.28409]}},{"properties":{"latitude":-12.62253,"postcode":4874,"address line 1":"Hibberd Drive","locality":"Weipa","address line 2":null,"longitude":141.878219,"id":"a6ag4rrw0912","library name":"Hibberd Library"},"type":"Feature","geometry":{"type":"Point","coordinates":[141.878219,-12.62253]}},{"properties":{"latitude":-27.463938,"postcode":4352,"address line 1":"Community Court","locality":"Highfields","address line 2":null,"longitude":151.953911,"id":"a6ag4rvw5zph","library name":"Highfields Library"},"type":"Feature","geometry":{"type":"Point","coordinates":[151.953911,-27.463938]}},{"properties":{"latitude":-18.651546,"postcode":4850,"address line 1":"74 Townsville Road","locality":"Ingham","address line 2":null,"longitude":146.15469,"id":"a6ag4rq8654u","library name":"Hinchinbrook Library"},"type":"Feature","geometry":{"type":"Point","coordinates":[146.15469,-18.651546]}},{"properties":{"latitude":-27.523087,"postcode":4121,"address line 1":"81 Seville Road","locality":"Holland Park","address line 2":null,"longitude":153.072059,"id":"a6ag4s2umrpq","library name":"Holland Park Library"},"type":"Feature","geometry":{"type":"Point","coordinates":[153.072059,-27.523087]}},{"properties":{"latitude":-19.661623,"postcode":4806,"address line 1":"Ninth Avenue","locality":"Home Hill","address line 2":null,"longitude":147.414551,"id":"a6ag4rq8p9ds","library name":"Home Hill Branch Library"},"type":"Feature","geometry":{"type":"Point","coordinates":[147.414551,-19.661623]}},{"properties":{"latitude":-15.294451,"postcode":4895,"address line 1":"Muni Street","locality":"via Cooktown","address line 2":"Hope Vale","longitude":145.110168,"id":"a6ag4s1ldofi","library name":"Hope Vale Indigenous Knowledge Centre"},"type":"Feature","geometry":{"type":"Point","coordinates":[145.110168,-15.294451]}},{"properties":{"latitude":-25.318076,"postcode":4659,"address line 1":"Steley Street","locality":"Howard","address line 2":null,"longitude":152.56281,"id":"a6ag4s2er4sf","library name":"Howard Library"},"type":"Feature","geometry":{"type":"Point","coordinates":[152.56281,-25.318076]}},{"properties":{"latitude":-9.901385,"postcode":4875,"address line 1":"Church Road","locality":"Yam Island","address line 2":null,"longitude":142.769394,"id":"a6ag4ru3vj5f","library name":"Iama Indigenous Knowledge Centre"},"type":"Feature","geometry":{"type":"Point","coordinates":[142.769394,-9.901385]}},{"properties":{"latitude":-23.489974,"postcode":4727,"address line 1":"20 Main Avenue","locality":"Ilfracombe","address line 2":null,"longitude":144.509912,"id":"a6ag4ru1m4yi","library name":"Ilfracombe Library"},"type":"Feature","geometry":{"type":"Point","coordinates":[144.509912,-23.489974]}},{"properties":{"latitude":-26.460104,"postcode":4570,"address line 1":"Yabba Road","locality":"Imbil","address line 2":null,"longitude":152.676337,"id":"a6ag4rqznf2q","library name":"Imbil Library"},"type":"Feature","geometry":{"type":"Point","coordinates":[152.676337,-26.460104]}},{"properties":{"latitude":-27.598882,"postcode":4077,"address line 1":"Inala Civic Centre","locality":"Inala","address line 2":"Corsair Avenue","longitude":152.973794,"id":"a6ag4rnus3x5","library name":"Inala Library"},"type":"Feature","geometry":{"type":"Point","coordinates":[152.973794,-27.598882]}},{"properties":{"latitude":-27.501582,"postcode":4068,"address line 1":"Level 4,Indooroopilly Shoppingtown","locality":"Indooroopilly","address line 2":"322 Moggill Road","longitude":152.972351,"id":"a6ag4s2ifc6x","library name":"Indooroopilly Library"},"type":"Feature","geometry":{"type":"Point","coordinates":[152.972351,-27.501582]}},{"properties":{"latitude":-28.41488,"postcode":4387,"address line 1":"Civic Centre","locality":"Inglewood","address line 2":"18 Elizabeth Street","longitude":151.081924,"id":"a6ag4rq7i6zn","library name":"Inglewood Library"},"type":"Feature","geometry":{"type":"Point","coordinates":[151.081924,-28.41488]}},{"properties":{"latitude":-10.906175,"postcode":4876,"address line 1":"52 Bowie St","locality":"Injinoo","address line 2":null,"longitude":142.322404,"id":"a6ag4rrpxmi3","library name":"Injinoo Indigenous Knowledge Centre"},"type":"Feature","geometry":{"type":"Point","coordinates":[142.322404,-10.906175]}},{"properties":{"latitude":-25.84481,"postcode":4454,"address line 1":"Hutton Street","locality":"Injune","address line 2":null,"longitude":148.565497,"id":"a6ag4rxk680o","library name":"Injune Library"},"type":"Feature","geometry":{"type":"Point","coordinates":[148.565497,-25.84481]}},{"properties":{"latitude":-17.522728,"postcode":4860,"address line 1":"49 Rankin Street","locality":"Innisfail","address line 2":null,"longitude":146.030869,"id":"a6ag4s20v6pc","library name":"Innisfail Library"},"type":"Feature","geometry":{"type":"Point","coordinates":[146.030869,-17.522728]}},{"properties":{"latitude":-27.616775,"postcode":4305,"address line 1":"Ipswich Global Information Centre","locality":"Ipswich","address line 2":"40 South Street","longitude":152.759936,"id":"a6ag4ry5c4n3","library name":"Ipswich Library and Information Service"},"type":"Feature","geometry":{"type":"Point","coordinates":[152.759936,-27.616775]}},{"properties":{"latitude":-24.260405,"postcode":4731,"address line 1":"20 St Mary Street","locality":"Isisford","address line 2":null,"longitude":144.440732,"id":"a6ag4s03t4cx","library name":"Isisford Library"},"type":"Feature","geometry":{"type":"Point","coordinates":[144.440732,-24.260405]}},{"properties":{"latitude":-26.644678,"postcode":4426,"address line 1":"Edward Street","locality":"Jackson","address line 2":null,"longitude":149.6257,"id":"a6ag4s2ghwev","library name":"Jackson Library"},"type":"Feature","geometry":{"type":"Point","coordinates":[149.6257,-26.644678]}},{"properties":{"latitude":-26.781529,"postcode":4410,"address line 1":"22 George Street","locality":"Jandowae","address line 2":null,"longitude":151.110415,"id":"a6ag4rvop28d","library name":"Jandowae Library"},"type":"Feature","geometry":{"type":"Point","coordinates":[151.110415,-26.781529]}},{"properties":{"latitude":-23.60322,"postcode":4702,"address line 1":"Shire Office","locality":"Jericho","address line 2":"Pasteur Street","longitude":146.125202,"id":"a6ag4ro5wrrp","library name":"Jericho Library"},"type":"Feature","geometry":{"type":"Point","coordinates":[146.125202,-23.60322]}},{"properties":{"latitude":-27.829864,"postcode":4280,"address line 1":"18-24 Honora Street","locality":"Jimboomba","address line 2":null,"longitude":153.026091,"id":"a6ag4s0aosdy","library name":"Jimboomba Library"},"type":"Feature","geometry":{"type":"Point","coordinates":[153.026091,-27.829864]}},{"properties":{"latitude":-27.261163,"postcode":4355,"address line 1":"Cnr New England Highway and William Street","locality":"Crows Nest","address line 2":null,"longitude":152.054381,"id":"a6ag4rulebxw","library name":"John French V.C. Memorial Library"},"type":"Feature","geometry":{"type":"Point","coordinates":[152.054381,-27.261163]}},{"properties":{"latitude":-20.657151,"postcode":4823,"address line 1":"Burke Street","locality":"Julia Creek","address line 2":null,"longitude":141.745723,"id":"a6ag4rp6vo9f","library name":"Julia Creek library"},"type":"Feature","geometry":{"type":"Point","coordinates":[141.745723,-20.657151]}},{"properties":{"latitude":-24.832891,"postcode":4736,"address line 1":"11 Dickson Street","locality":"Jundah","address line 2":null,"longitude":143.057989,"id":"a6ag4rthxvoy","library name":"Jundah Information Centre"},"type":"Feature","geometry":{"type":"Point","coordinates":[143.057989,-24.832891]}},{"properties":{"latitude":-27.248673,"postcode":4503,"address line 1":"1480 Anzac Avenue","locality":"Kallangur","address line 2":null,"longitude":152.998878,"id":"a6ag4rp98alq","library name":"Kallangur Library"},"type":"Feature","geometry":{"type":"Point","coordinates":[152.998878,-27.248673]}},{"properties":{"latitude":-17.486926,"postcode":4891,"address line 1":"Walker Street","locality":"Karumba","address line 2":null,"longitude":140.84374,"id":"a6ag4rqq087w","library name":"Karumba Library"},"type":"Feature","geometry":{"type":"Point","coordinates":[140.84374,-17.486926]}},{"properties":{"latitude":-26.699095,"postcode":4575,"address line 1":"Nanyima Street","locality":"Buddina","address line 2":null,"longitude":153.132613,"id":"a6ag4rn2j5gt","library name":"Kawana Library"},"type":"Feature","geometry":{"type":"Point","coordinates":[153.132613,-26.699095]}},{"properties":{"latitude":-26.595032,"postcode":4574,"address line 1":"Elizabeth Street","locality":"Kenilworth","address line 2":null,"longitude":152.727449,"id":"a6ag4rr5ccdh","library name":"Kenilworth Library"},"type":"Feature","geometry":{"type":"Point","coordinates":[152.727449,-26.595032]}},{"properties":{"latitude":-27.505667,"postcode":4069,"address line 1":"Kenmore Village Shopping Centre","locality":"Kenmore","address line 2":"9 Brookfield Road","longitude":152.939603,"id":"a6ag4ruz1kgx","library name":"Kenmore Library"},"type":"Feature","geometry":{"type":"Point","coordinates":[152.939603,-27.505667]}},{"properties":{"latitude":-26.941444,"postcode":4515,"address line 1":"15 Kennedy Street","locality":"Kilcoy","address line 2":null,"longitude":152.563925,"id":"a6ag4rwfcoow","library name":"Kilcoy Library"},"type":"Feature","geometry":{"type":"Point","coordinates":[152.563925,-26.941444]}},{"properties":{"latitude":-26.085617,"postcode":4600,"address line 1":"Bligh Street","locality":"Kilkivan","address line 2":null,"longitude":152.239394,"id":"a6ag4ryyo3ep","library name":"Kilkivan Library"},"type":"Feature","geometry":{"type":"Point","coordinates":[152.239394,-26.085617]}},{"properties":{"latitude":-10.234878,"postcode":4875,"address line 1":"Main Street","locality":"Moa Island","address line 2":"Kubin Village","longitude":142.218361,"id":"a6ag4s1c36uo","library name":"Kubin Indigenous Knowledge Centre"},"type":"Feature","geometry":{"type":"Point","coordinates":[142.218361,-10.234878]}},{"properties":{"latitude":-16.819079,"postcode":4881,"address line 1":"4-12 Thooree Street","locality":"Kuranda","address line 2":null,"longitude":145.634787,"id":"a6ag4rz2oq3f","library name":"Kuranda Library"},"type":"Feature","geometry":{"type":"Point","coordinates":[145.634787,-16.819079]}},{"properties":{"latitude":-27.630501,"postcode":4341,"address line 1":"off Patrick Street","locality":"Laidley","address line 2":null,"longitude":152.393997,"id":"a6ag4rrexd2y","library name":"Laidley Library"},"type":"Feature","geometry":{"type":"Point","coordinates":[152.393997,-27.630501]}},{"properties":{"latitude":-15.996348,"postcode":4871,"address line 1":null,"locality":"Lakeland","address line 2":null,"longitude":144.76899,"id":"a6ag4rw7bz7w","library name":"Lakeland Library"},"type":"Feature","geometry":{"type":"Point","coordinates":[144.76899,-15.996348]}},{"properties":{"latitude":-15.560578,"postcode":4871,"address line 1":null,"locality":"Laura","address line 2":null,"longitude":144.444642,"id":"a6ag4s0nru4m","library name":"Laura Library"},"type":"Feature","geometry":{"type":"Point","coordinates":[144.444642,-15.560578]}},{"properties":{"latitude":-27.47102,"postcode":4000,"address line 1":"Floor 11, Brisbane Square (via Reception)","locality":"Brisbane","address line 2":"266 George Street","longitude":153.022513,"id":"a6ag4s20nta9","library name":"Brisbane - Library Administration"},"type":"Feature","geometry":{"type":"Point","coordinates":[153.022513,-27.47102]}},{"properties":{"latitude":-27.642829,"postcode":4114,"address line 1":"150 Wembley Road","locality":"Logan Central","address line 2":null,"longitude":153.104171,"id":"a6ag4ru9uxsm","library name":"Logan City Council Libraries - Library Administration"},"type":"Feature","geometry":{"type":"Point","coordinates":[153.104171,-27.642829]}},{"properties":{"latitude":-27.970687,"postcode":4215,"address line 1":"Cnr Garden and Lawson Streeets","locality":"Southport","address line 2":null,"longitude":153.41241,"id":"a6ag4s1kcktx","library name":"Local Studies Library"},"type":"Feature","geometry":{"type":"Point","coordinates":[153.41241,-27.970687]}},{"properties":{"latitude":-12.785687,"postcode":4871,"address line 1":"Poucheewee Street","locality":"Lockhart River QLD","address line 2":null,"longitude":143.342292,"id":"a6ag4s2bs095","library name":"Lockhart River Indigenous Knowledge Centre"},"type":"Feature","geometry":{"type":"Point","coordinates":[143.342292,-12.785687]}},{"properties":{"latitude":-27.642829,"postcode":4114,"address line 1":"150 Wembley Road","locality":"Logan Central","address line 2":null,"longitude":153.104171,"id":"a6ag4s1kp6e7","library name":"Logan Central Library"},"type":"Feature","geometry":{"type":"Point","coordinates":[153.104171,-27.642829]}},{"properties":{"latitude":-27.655759,"postcode":4129,"address line 1":"66-70 Mandew Street","locality":"Shailer Park","address line 2":null,"longitude":153.171349,"id":"a6ag4rwprag3","library name":"Logan Hyperdome Library"},"type":"Feature","geometry":{"type":"Point","coordinates":[153.171349,-27.655759]}},{"properties":{"latitude":-27.611128,"postcode":4119,"address line 1":"Cnr Sports Drive &amp; Springwood Road","locality":"Underwood","address line 2":null,"longitude":153.118317,"id":"a6ag4s2lfb2u","library name":"Logan North Library"},"type":"Feature","geometry":{"type":"Point","coordinates":[153.118317,-27.611128]}},{"properties":{"latitude":-27.767615,"postcode":4207,"address line 1":"Wharf Street","locality":"Logan Village","address line 2":null,"longitude":153.107593,"id":"a6ag4s1oqom1","library name":"Logan Village Library"},"type":"Feature","geometry":{"type":"Point","coordinates":[153.107593,-27.767615]}},{"properties":{"latitude":-27.66489,"postcode":4118,"address line 1":"69 Grand Plaza Drive","locality":"Browns Plains","address line 2":null,"longitude":153.042415,"id":"a6ag4rqje7tf","library name":"Logan West Library"},"type":"Feature","geometry":{"type":"Point","coordinates":[153.042415,-27.66489]}},{"properties":{"latitude":-23.440781,"postcode":4730,"address line 1":"124C Eagle Street","locality":"Longreach","address line 2":null,"longitude":144.250086,"id":"a6ag4rt5905m","library name":"Longreach Library"},"type":"Feature","geometry":{"type":"Point","coordinates":[144.250086,-23.440781]}},{"properties":{"latitude":-27.46339,"postcode":4311,"address line 1":"Cnr Michel and Main Streets","locality":"Lowood","address line 2":null,"longitude":152.580249,"id":"a6ag4s1ppfnw","library name":"Lowood Library"},"type":"Feature","geometry":{"type":"Point","coordinates":[152.580249,-27.46339]}},{"properties":{"latitude":-9.956001,"postcode":4875,"address line 1":"Main Street","locality":"Mabuiag Island","address line 2":null,"longitude":142.189007,"id":"a6ag4rrhjv9l","library name":"Ngalpun Ngulaygaw Lag Resource Centre"},"type":"Feature","geometry":{"type":"Point","coordinates":[142.189007,-9.956001]}},{"properties":{"latitude":-21.14291,"postcode":4740,"address line 1":"Gordon Street","locality":"Mackay","address line 2":null,"longitude":149.183028,"id":"a6ag4rueuqas","library name":"Mackay City Library"},"type":"Feature","geometry":{"type":"Point","coordinates":[149.183028,-21.14291]}},{"properties":{"latitude":-26.846903,"postcode":4615,"address line 1":"C.W.A Hall","locality":"Maidenwell","address line 2":null,"longitude":151.799726,"id":"a6ag4rp68eil","library name":"Maidenwell Library"},"type":"Feature","geometry":{"type":"Point","coordinates":[151.799726,-26.846903]}},{"properties":{"latitude":-17.352768,"postcode":4885,"address line 1":"31-35 James Street","locality":"Malanda","address line 2":null,"longitude":145.59435,"id":"a6ag4rn5a59y","library name":"Malanda Library"},"type":"Feature","geometry":{"type":"Point","coordinates":[145.59435,-17.352768]}},{"properties":{"latitude":-26.759195,"postcode":4552,"address line 1":"5 Coral Street","locality":"Maleny","address line 2":null,"longitude":152.85318,"id":"a6ag4rtcq11a","library name":"Maleny Library"},"type":"Feature","geometry":{"type":"Point","coordinates":[152.85318,-26.759195]}},{"properties":{"latitude":-16.926743,"postcode":4870,"address line 1":"Raintrees","locality":"Manunda","address line 2":null,"longitude":145.74096,"id":"a6ag4s2whdzs","library name":"Manunda Library"},"type":"Feature","geometry":{"type":"Point","coordinates":[145.74096,-16.926743]}},{"properties":{"latitude":-16.996439,"postcode":4880,"address line 1":"221 Byrnes Street","locality":"Mareeba","address line 2":null,"longitude":145.423177,"id":"a6ag4rqyfoo3","library name":"Mareeba Library"},"type":"Feature","geometry":{"type":"Point","coordinates":[145.423177,-16.996439]}},{"properties":{"latitude":-22.813767,"postcode":4705,"address line 1":"Milman Street","locality":"Marlborough","address line 2":null,"longitude":149.88832,"id":"a6ag4rquhf8q","library name":"Marlborough Library"},"type":"Feature","geometry":{"type":"Point","coordinates":[149.88832,-22.813767]}},{"properties":{"latitude":-26.656002,"postcode":4558,"address line 1":"44 Sixth Avenue","locality":"Cotton Tree","address line 2":null,"longitude":153.101515,"id":"a6ag4rup5amc","library name":"Maroochydore Library"},"type":"Feature","geometry":{"type":"Point","coordinates":[153.101515,-26.656002]}},{"properties":{"latitude":-27.678464,"postcode":4132,"address line 1":"35 Chambers Flat Road","locality":"Marsden","address line 2":null,"longitude":153.11844,"id":"a6ag4rpg4k8r","library name":"Marsden Library"},"type":"Feature","geometry":{"type":"Point","coordinates":[153.11844,-27.678464]}},{"properties":{"latitude":-25.539837,"postcode":4650,"address line 1":"127-129 Bazaar Street","locality":"Maryborough","address line 2":null,"longitude":152.702419,"id":"a6ag4rvpy5e9","library name":"Mayborough Library"},"type":"Feature","geometry":{"type":"Point","coordinates":[152.702419,-25.539837]}},{"properties":{"latitude":-21.271629,"postcode":4823,"address line 1":"Middleton Street","locality":"McKinlay","address line 2":null,"longitude":141.289308,"id":"a6ag4rrtka60","library name":"McKinlay Library"},"type":"Feature","geometry":{"type":"Point","coordinates":[141.289308,-21.271629]}},{"properties":{"latitude":-27.323642,"postcode":4422,"address line 1":"Sara Street","locality":"Meandarra","address line 2":null,"longitude":149.882119,"id":"a6ag4ryw9r8n","library name":"Meandarra Library"},"type":"Feature","geometry":{"type":"Point","coordinates":[149.882119,-27.323642]}},{"properties":{"latitude":-22.809682,"postcode":4746,"address line 1":"Middlemount Shopping Mall","locality":"Middlemount","address line 2":null,"longitude":148.699619,"id":"a6ag4rwfpif0","library name":"Middlemount Library"},"type":"Feature","geometry":{"type":"Point","coordinates":[148.699619,-22.809682]}},{"properties":{"latitude":-26.659541,"postcode":4415,"address line 1":"Dogwood Crossing @ Miles","locality":"Miles","address line 2":"Cnr Dawson and Murilla Streets","longitude":150.186839,"id":"a6ag4s0gj1f9","library name":"Miles Library"},"type":"Feature","geometry":{"type":"Point","coordinates":[150.186839,-26.659541]}},{"properties":{"latitude":-17.511571,"postcode":4886,"address line 1":"10 Main Street","locality":"Millaa Millaa","address line 2":null,"longitude":145.613565,"id":"a6ag4rvnfwgw","library name":"Millaa Millaa Library"},"type":"Feature","geometry":{"type":"Point","coordinates":[145.613565,-17.511571]}},{"properties":{"latitude":-27.878488,"postcode":4357,"address line 1":"2-16 Campbell Street","locality":"Millmerran","address line 2":null,"longitude":151.269266,"id":"a6ag4s2bt1cr","library name":"Millmerran Library"},"type":"Feature","geometry":{"type":"Point","coordinates":[151.269266,-27.878488]}},{"properties":{"latitude":-21.15982,"postcode":4754,"address line 1":"16 Victoria Street","locality":"Mirani","address line 2":null,"longitude":148.862922,"id":"a6ag4rplwmrg","library name":"Mirani Library"},"type":"Feature","geometry":{"type":"Point","coordinates":[148.862922,-21.15982]}},{"properties":{"latitude":-24.32801,"postcode":4677,"address line 1":"34 Roe Street","locality":"Miriam Vale","address line 2":null,"longitude":151.559991,"id":"a6ag4rwap7lj","library name":"Miriam Vale Library"},"type":"Feature","geometry":{"type":"Point","coordinates":[151.559991,-24.32801]}},{"properties":{"latitude":-26.487009,"postcode":4465,"address line 1":"Cambridge Street","locality":"Mitchell","address line 2":null,"longitude":147.976323,"id":"a6ag4ruwhnb6","library name":"Mitchell Library"},"type":"Feature","geometry":{"type":"Point","coordinates":[147.976323,-26.487009]}},{"properties":{"latitude":-27.4171,"postcode":4053,"address line 1":"37 Heliopolis Parade","locality":"Mitchelton","address line 2":null,"longitude":152.978359,"id":"a6ag4rt287p1","library name":"Mitchelton Library"},"type":"Feature","geometry":{"type":"Point","coordinates":[152.978359,-27.4171]}},{"properties":{"latitude":-24.864229,"postcode":4630,"address line 1":"50 Newton Street","locality":"Monto","address line 2":null,"longitude":151.122568,"id":"a6ag4rverkw8","library name":"Monto Library"},"type":"Feature","geometry":{"type":"Point","coordinates":[151.122568,-24.864229]}},{"properties":{"latitude":-27.717013,"postcode":4406,"address line 1":"Leichhardt Highway","locality":"Moonie","address line 2":null,"longitude":150.369959,"id":"a6ag4rno0glk","library name":"Moonie Library"},"type":"Feature","geometry":{"type":"Point","coordinates":[150.369959,-27.717013]}},{"properties":{"latitude":-22.00131,"postcode":4744,"address line 1":"Grosvenor Complex","locality":"Moranbah","address line 2":"PO box 97","longitude":148.046436,"id":"a6ag4ruc9h7v","library name":"Moranbah Library"},"type":"Feature","geometry":{"type":"Point","coordinates":[148.046436,-22.00131]}},{"properties":{"latitude":-16.662054,"postcode":4871,"address line 1":"Dajbuka Street","locality":"Mornington Island","address line 2":"Gununa","longitude":139.180255,"id":"a6ag4rtn07sk","library name":"Mornington Island Library"},"type":"Feature","geometry":{"type":"Point","coordinates":[139.180255,-16.662054]}},{"properties":{"latitude":-26.415336,"postcode":4468,"address line 1":"Warrego Highway","locality":"Morven","address line 2":null,"longitude":147.112513,"id":"a6ag4s23gmmi","library name":"Morven Library"},"type":"Feature","geometry":{"type":"Point","coordinates":[147.112513,-26.415336]}},{"properties":{"latitude":-16.458913,"postcode":4873,"address line 1":"14 Mill Street","locality":"Mossman","address line 2":null,"longitude":145.375106,"id":"a6ag4rt8bzud","library name":"Mossman Library"},"type":"Feature","geometry":{"type":"Point","coordinates":[145.375106,-16.458913]}},{"properties":{"latitude":-27.474428,"postcode":4066,"address line 1":"Mt Coot-tha Road","locality":"Toowong","address line 2":null,"longitude":152.977163,"id":"a6ag4rwbxp04","library name":"Mount Coot-tha Library"},"type":"Feature","geometry":{"type":"Point","coordinates":[152.977163,-27.474428]}},{"properties":{"latitude":-27.53868,"postcode":4122,"address line 1":"8 Creek Road","locality":"Mount Gravatt","address line 2":null,"longitude":153.080299,"id":"a6ag4rwpmllh","library name":"Mount Gravatt Library"},"type":"Feature","geometry":{"type":"Point","coordinates":[153.080299,-27.53868]}},{"properties":{"latitude":-27.551089,"postcode":4074,"address line 1":"Mt Ommaney Centre","locality":"Mt Ommaney","address line 2":"123 Dandenong Road","longitude":152.936393,"id":"a6ag4rufdsue","library name":"Mount Ommaney Library"},"type":"Feature","geometry":{"type":"Point","coordinates":[152.936393,-27.551089]}},{"properties":{"latitude":-24.571938,"postcode":4718,"address line 1":"Recreation Reserve","locality":"Moura","address line 2":"McArthur Street","longitude":149.974902,"id":"a6ag4rwq3hsm","library name":"Moura Library"},"type":"Feature","geometry":{"type":"Point","coordinates":[149.974902,-24.571938]}},{"properties":{"latitude":-17.678106,"postcode":4872,"address line 1":"Opal Street","locality":"Mt Garnet","address line 2":null,"longitude":145.120618,"id":"a6ag4rzduu8a","library name":"Mount Garnet Library"},"type":"Feature","geometry":{"type":"Point","coordinates":[145.120618,-17.678106]}},{"properties":{"latitude":-20.725502,"postcode":4825,"address line 1":"23 West Street","locality":"Mount Isa","address line 2":null,"longitude":139.490597,"id":"a6ag4s3diau5","library name":"Mount Isa City Library"},"type":"Feature","geometry":{"type":"Point","coordinates":[139.490597,-20.725502]}},{"properties":{"latitude":-23.80995,"postcode":4695,"address line 1":"Raglan Street","locality":"Mount Larcom","address line 2":null,"longitude":150.978375,"id":"a6ag4rzwt5t0","library name":"Mount Larcom Library"},"type":"Feature","geometry":{"type":"Point","coordinates":[150.978375,-23.80995]}},{"properties":{"latitude":-23.645055,"postcode":4714,"address line 1":"31 Morgan Street","locality":"Mount Morgan","address line 2":null,"longitude":150.386353,"id":"a6ag4rwdlit6","library name":"Mount Morgan Library"},"type":"Feature","geometry":{"type":"Point","coordinates":[150.386353,-23.645055]}},{"properties":{"latitude":-28.078611,"postcode":4213,"address line 1":"Old Post Office Heritage Centre","locality":"Mudgeeraba","address line 2":"57 Railway Street","longitude":153.364618,"id":"a6ag4rzu9vh5","library name":"Mudgeeraba Branch Library"},"type":"Feature","geometry":{"type":"Point","coordinates":[153.364618,-28.078611]}},{"properties":{"latitude":-25.590349,"postcode":4626,"address line 1":"Lyons Street","locality":"Mundubbera","address line 2":null,"longitude":151.296651,"id":"a6ag4rnvzn5g","library name":"Mundubbera Library"},"type":"Feature","geometry":{"type":"Point","coordinates":[151.296651,-25.590349]}},{"properties":{"latitude":-26.446791,"postcode":4467,"address line 1":"Redford Street","locality":"Mungallala","address line 2":null,"longitude":147.543812,"id":"a6ag4rs6u39k","library name":"Mungallala Library"},"type":"Feature","geometry":{"type":"Point","coordinates":[147.543812,-26.446791]}},{"properties":{"latitude":-22.593473,"postcode":4732,"address line 1":"24 Bruford Street","locality":"Muttaburra","address line 2":null,"longitude":144.546513,"id":"a6ag4ryjlld7","library name":"Muttaburra Library"},"type":"Feature","geometry":{"type":"Point","coordinates":[144.546513,-22.593473]}},{"properties":{"latitude":-26.62778,"postcode":4560,"address line 1":"Cnr Bury and Currie Streets","locality":"Nambour","address line 2":null,"longitude":152.959085,"id":"a6ag4rww06ad","library name":"Nambour Library"},"type":"Feature","geometry":{"type":"Point","coordinates":[152.959085,-26.62778]}},{"properties":{"latitude":-26.670658,"postcode":4615,"address line 1":"48 Drayton Street","locality":"Nanango","address line 2":null,"longitude":152.004502,"id":"a6ag4rqolmkq","library name":"Nanango Library"},"type":"Feature","geometry":{"type":"Point","coordinates":[152.004502,-26.670658]}},{"properties":{"latitude":-27.203524,"postcode":4504,"address line 1":"Narangba Village Shopping Centre","locality":"Narangba","address line 2":"Main Street","longitude":152.960587,"id":"a6ag4rvt57o8","library name":"Narangba Library"},"type":"Feature","geometry":{"type":"Point","coordinates":[152.960587,-27.203524]}},{"properties":{"latitude":-27.99713,"postcode":4489,"address line 1":"c/- Coniston","locality":"Wyandra","address line 2":null,"longitude":146.815453,"id":"a6ag4rsyg4vk","library name":"Nebine Community Library"},"type":"Feature","geometry":{"type":"Point","coordinates":[146.815453,-27.99713]}},{"properties":{"latitude":-21.68889,"postcode":4742,"address line 1":"Reynolds Street","locality":"Nebo","address line 2":null,"longitude":148.688766,"id":"a6ag4rpxh1g1","library name":"Nebo Library"},"type":"Feature","geometry":{"type":"Point","coordinates":[148.688766,-21.68889]}},{"properties":{"latitude":-27.991318,"postcode":4211,"address line 1":"Cnr Price and White Streets","locality":"Nerang","address line 2":null,"longitude":153.335629,"id":"a6ag4rrexm26","library name":"Nerang Branch Library"},"type":"Feature","geometry":{"type":"Point","coordinates":[153.335629,-27.991318]}},{"properties":{"latitude":-27.467341,"postcode":4005,"address line 1":"135 Sydney Street","locality":"New Farm","address line 2":null,"longitude":153.04962,"id":"a6ag4rp7zkf3","library name":"New Farm Library"},"type":"Feature","geometry":{"type":"Point","coordinates":[153.04962,-27.467341]}},{"properties":{"latitude":-10.868068,"postcode":4876,"address line 1":"Brown St","locality":"New Mapoon","address line 2":null,"longitude":142.387426,"id":"a6ag4rpl9t7k","library name":"New Mapoon Indigenous Knowledge Centre"},"type":"Feature","geometry":{"type":"Point","coordinates":[142.387426,-10.868068]}},{"properties":{"latitude":-26.401172,"postcode":4566,"address line 1":"Wallace Park","locality":"Noosaville","address line 2":"Wallace Drive","longitude":153.049942,"id":"a6ag4rps0xry","library name":"Noosa Library"},"type":"Feature","geometry":{"type":"Point","coordinates":[153.049942,-26.401172]}},{"properties":{"latitude":-17.668298,"postcode":4890,"address line 1":"Cnr Caroline and Lansbourough Streets","locality":"Normanton","address line 2":null,"longitude":141.08108,"id":"a6ag4ropd1od","library name":"Normanton Library"},"type":"Feature","geometry":{"type":"Point","coordinates":[141.08108,-17.668298]}},{"properties":{"latitude":-27.240093,"postcode":4509,"address line 1":"5 Discovery Drive","locality":"North Lakes","address line 2":null,"longitude":153.017149,"id":"a6ag4rzz54tt","library name":"North Lakes Library"},"type":"Feature","geometry":{"type":"Point","coordinates":[153.017149,-27.240093]}},{"properties":{"latitude":-27.401942,"postcode":4012,"address line 1":"1 Bage Street","locality":"Nundah","address line 2":null,"longitude":153.058616,"id":"a6ag4rqnrkda","library name":"Nundah Library"},"type":"Feature","geometry":{"type":"Point","coordinates":[153.058616,-27.401942]}},{"properties":{"latitude":-27.435798,"postcode":4401,"address line 1":"62 Campbell Street","locality":"Oakey","address line 2":null,"longitude":151.72176,"id":"a6ag4s11i9ww","library name":"Oakey Library"},"type":"Feature","geometry":{"type":"Point","coordinates":[151.72176,-27.435798]}},{"properties":{"latitude":-22.621102,"postcode":4706,"address line 1":null,"locality":"Ogmore","address line 2":null,"longitude":149.659066,"id":"a6ag4s0748e3","library name":"Ogmore Library"},"type":"Feature","geometry":{"type":"Point","coordinates":[149.659066,-22.621102]}},{"properties":{"latitude":-28.117037,"postcode":4221,"address line 1":"Eleventh Avenue","locality":"Palm Beach","address line 2":null,"longitude":153.467336,"id":"a6ag4rz32xa5","library name":"Palm Beach Branch Library"},"type":"Feature","geometry":{"type":"Point","coordinates":[153.467336,-28.117037]}},{"properties":{"latitude":-25.183093,"postcode":4671,"address line 1":"34 Heusman Street","locality":"Mt Perry","address line 2":null,"longitude":151.650322,"id":"a6ag4rvf97km","library name":"Perry Library"},"type":"Feature","geometry":{"type":"Point","coordinates":[151.650322,-25.183093]}},{"properties":{"latitude":-27.715925,"postcode":4356,"address line 1":"Olympia Arcade","locality":"Pittsworth","address line 2":"104 Yandilla Street","longitude":151.633022,"id":"a6ag4rrvzh5w","library name":"Pittsworth Library"},"type":"Feature","geometry":{"type":"Point","coordinates":[151.633022,-27.715925]}},{"properties":{"latitude":-27.426033,"postcode":4183,"address line 1":"Point Lookout Public Hall","locality":"Point Lookout","address line 2":"East Coast Road","longitude":153.521029,"id":"a6ag4s1qpzpj","library name":"Point Lookout Library"},"type":"Feature","geometry":{"type":"Point","coordinates":[153.521029,-27.426033]}},{"properties":{"latitude":-14.898672,"postcode":4871,"address line 1":"Thaayorre-Munkan Library and Arts and Crafts Gallery","locality":"Pormpuraaw","address line 2":"Pormpuraaw St","longitude":141.620357,"id":"a6ag4rpt4upn","library name":"Pormpuraaw Indigenous Knowledge Centre"},"type":"Feature","geometry":{"type":"Point","coordinates":[141.620357,-14.898672]}},{"properties":{"latitude":-16.484904,"postcode":4877,"address line 1":"13-29 Mowbray Street","locality":"Port Douglas","address line 2":null,"longitude":145.464548,"id":"a6ag4rrhwvhm","library name":"Port Douglas"},"type":"Feature","geometry":{"type":"Point","coordinates":[145.464548,-16.484904]}},{"properties":{"latitude":-10.050078,"postcode":4875,"address line 1":"Main Street","locality":"Poruma Island","address line 2":null,"longitude":143.069115,"id":"a6ag4s1ze1y8","library name":"Poruma Indigenous Knowledge Centre"},"type":"Feature","geometry":{"type":"Point","coordinates":[143.069115,-10.050078]}},{"properties":{"latitude":-26.163363,"postcode":4613,"address line 1":"Blake Street","locality":"Proston","address line 2":null,"longitude":151.6012,"id":"a6ag4rq84s0l","library name":"Proston Public Library"},"type":"Feature","geometry":{"type":"Point","coordinates":[151.6012,-26.163363]}},{"properties":{"latitude":-26.613843,"postcode":4480,"address line 1":"52 Brolga Street","locality":"Quilpie","address line 2":null,"longitude":144.269006,"id":"a6ag4s07xe5m","library name":"Quilpie Shire Library"},"type":"Feature","geometry":{"type":"Point","coordinates":[144.269006,-26.613843]}},{"properties":{"latitude":-27.106124,"postcode":4403,"address line 1":"Daly Street","locality":"Quinalow","address line 2":null,"longitude":151.621242,"id":"a6ag4s0nnjfc","library name":"Quinalow Library"},"type":"Feature","geometry":{"type":"Point","coordinates":[151.621242,-27.106124]}},{"properties":{"latitude":-25.90568,"postcode":4581,"address line 1":"2/38 Rainbow Beach Road","locality":"Rainbow Beach","address line 2":null,"longitude":153.090245,"id":"a6ag4rxxap1u","library name":"Rainbow Beach Library"},"type":"Feature","geometry":{"type":"Point","coordinates":[153.090245,-25.90568]}},{"properties":{"latitude":-17.606219,"postcode":4888,"address line 1":"24 Moore Road","locality":"Ravenshoe","address line 2":null,"longitude":145.482652,"id":"a6ag4rqzdibk","library name":"Ravenshoe Library"},"type":"Feature","geometry":{"type":"Point","coordinates":[145.482652,-17.606219]}},{"properties":{"latitude":-27.648284,"postcode":4301,"address line 1":"Moreton Avenue","locality":"Redbank Plains","address line 2":null,"longitude":152.863941,"id":"a6ag4ruyajbw","library name":"Redbank Plains Library"},"type":"Feature","geometry":{"type":"Point","coordinates":[152.863941,-27.648284]}},{"properties":{"latitude":-27.605875,"postcode":4301,"address line 1":"Level 3, Redbank Plaza Shopping Centre","locality":"Redbank","address line 2":"1 Collingwood Drive","longitude":152.869477,"id":"a6ag4rvc0ds3","library name":"Redbank Plaza Branch Library"},"type":"Feature","geometry":{"type":"Point","coordinates":[152.869477,-27.605875]}},{"properties":{"latitude":-27.225116,"postcode":4020,"address line 1":"470-476 Oxley Avenue","locality":"Redcliffe","address line 2":null,"longitude":153.110994,"id":"a6ag4s1w940k","library name":"Redcliffe Library"},"type":"Feature","geometry":{"type":"Point","coordinates":[153.110994,-27.225116]}},{"properties":{"latitude":-20.729174,"postcode":4822,"address line 1":"50 Goldring Street","locality":"Richmond","address line 2":null,"longitude":143.141019,"id":"a6ag4s0khdfq","library name":"Richmond Library"},"type":"Feature","geometry":{"type":"Point","coordinates":[143.141019,-20.729174]}},{"properties":{"latitude":-28.077641,"postcode":4230,"address line 1":"Robina Town Centre Drive","locality":"Robina","address line 2":null,"longitude":153.385599,"id":"a6ag4rxnmpdf","library name":"Robina Branch LIbrary"},"type":"Feature","geometry":{"type":"Point","coordinates":[153.385599,-28.077641]}},{"properties":{"latitude":-23.381328,"postcode":4700,"address line 1":"Library Administration","locality":"Rockhampton","address line 2":"cnr William &amp; Alma Streets","longitude":150.512261,"id":"a6ag4rqqwnde","library name":"Rockhampton Library Headquarters"},"type":"Feature","geometry":{"type":"Point","coordinates":[150.512261,-23.381328]}},{"properties":{"latitude":-23.36462,"postcode":4701,"address line 1":"154 Berserker Street","locality":"North Rockhampton","address line 2":null,"longitude":150.529835,"id":"a6ag4rra4bwb","library name":"Rockhampton North Library"},"type":"Feature","geometry":{"type":"Point","coordinates":[150.529835,-23.36462]}},{"properties":{"latitude":-23.381328,"postcode":4700,"address line 1":"230 Bolsover Street","locality":"Rockhampton","address line 2":null,"longitude":150.512261,"id":"a6ag4s3cd6sr","library name":"Rockhampton Regional Library"},"type":"Feature","geometry":{"type":"Point","coordinates":[150.512261,-23.381328]}},{"properties":{"latitude":-24.462502,"postcode":4702,"address line 1":"Planet Street","locality":"Rolleston","address line 2":null,"longitude":148.623315,"id":"a6ag4rznxv77","library name":"Rolleston Library"},"type":"Feature","geometry":{"type":"Point","coordinates":[148.623315,-24.462502]}},{"properties":{"latitude":-26.572964,"postcode":4455,"address line 1":"Community Arts Centre","locality":"Roma","address line 2":"38-44 Hawthorne Street","longitude":148.788341,"id":"a6ag4s0lukuj","library name":"Roma Library"},"type":"Feature","geometry":{"type":"Point","coordinates":[148.788341,-26.572964]}},{"properties":{"latitude":-24.629893,"postcode":4674,"address line 1":"C.W.A. Hall","locality":"Rosedale","address line 2":null,"longitude":151.914482,"id":"a6ag4rso6abi","library name":"Rosedale Library"},"type":"Feature","geometry":{"type":"Point","coordinates":[151.914482,-24.629893]}},{"properties":{"latitude":-27.912728,"postcode":4216,"address line 1":"Lae Drive","locality":"Runaway Bay","address line 2":null,"longitude":153.396435,"id":"a6ag4rsbgc9n","library name":"Runaway Bay Branch Library"},"type":"Feature","geometry":{"type":"Point","coordinates":[153.396435,-27.912728]}},{"properties":{"latitude":-27.64741,"postcode":4184,"address line 1":"22 High Street","locality":"Russell Island","address line 2":null,"longitude":153.381726,"id":"a6ag4s35bs38","library name":"Russell Island Library"},"type":"Feature","geometry":{"type":"Point","coordinates":[153.381726,-27.64741]}},{"properties":{"latitude":-27.320716,"postcode":4017,"address line 1":"Seymour Street","locality":"Sandgate","address line 2":null,"longitude":153.070949,"id":"a6ag4rrotyy2","library name":"Sandgate Library"},"type":"Feature","geometry":{"type":"Point","coordinates":[153.070949,-27.320716]}},{"properties":{"latitude":-21.421721,"postcode":4737,"address line 1":"65 Broad Street","locality":"Sarina","address line 2":null,"longitude":149.216663,"id":"a6ag4rxjz82k","library name":"Sarina Library"},"type":"Feature","geometry":{"type":"Point","coordinates":[149.216663,-21.421721]}},{"properties":{"latitude":-10.849976,"postcode":4876,"address line 1":"Tumema St","locality":"Seisia","address line 2":null,"longitude":142.367535,"id":"a6ag4rolhipr","library name":"Seisia Indigeneous Knowledge Centre"},"type":"Feature","geometry":{"type":"Point","coordinates":[142.367535,-10.849976]}},{"properties":{"latitude":-16.815007,"postcode":4878,"address line 1":"Cheviot Street","locality":"Smithfield","address line 2":null,"longitude":145.693892,"id":"a6ag4rq5zqbp","library name":"Smithfield Library"},"type":"Feature","geometry":{"type":"Point","coordinates":[145.693892,-16.815007]}},{"properties":{"latitude":-27.970687,"postcode":4215,"address line 1":"Cnr Garden and Lawson Streets","locality":"Southport","address line 2":null,"longitude":153.41241,"id":"a6ag4rn5cgg4","library name":"Southport Branch Library"},"type":"Feature","geometry":{"type":"Point","coordinates":[153.41241,-27.970687]}},{"properties":{"latitude":-24.114658,"postcode":4722,"address line 1":"Eclipse Street","locality":"Springsure","address line 2":null,"longitude":148.088601,"id":"a6ag4rzc4m4w","library name":"Springsure Library"},"type":"Feature","geometry":{"type":"Point","coordinates":[148.088601,-24.114658]}},{"properties":{"latitude":-28.036569,"postcode":4487,"address line 1":"112 Victoria Street","locality":"St George","address line 2":null,"longitude":148.581054,"id":"a6ag4rq35oaj","library name":"St George Library"},"type":"Feature","geometry":{"type":"Point","coordinates":[148.581054,-28.036569]}},{"properties":{"latitude":-22.345273,"postcode":4707,"address line 1":"Macartney Steet","locality":"St Lawrence","address line 2":null,"longitude":149.533496,"id":"a6ag4s2x4ce3","library name":"St Lawrence Library"},"type":"Feature","geometry":{"type":"Point","coordinates":[149.533496,-22.345273]}},{"properties":{"latitude":-28.653763,"postcode":4380,"address line 1":"56 Lock Street","locality":"Stanthorpe","address line 2":null,"longitude":151.932914,"id":"a6ag4s2cf3h7","library name":"Stanthorpe Library"},"type":"Feature","geometry":{"type":"Point","coordinates":[151.932914,-28.653763]}},{"properties":{"latitude":-24.353769,"postcode":4730,"address line 1":"9 Stratford Street","locality":"Stonehenge","address line 2":null,"longitude":143.286333,"id":"a6ag4s08f7wg","library name":"Stonehenge Library"},"type":"Feature","geometry":{"type":"Point","coordinates":[143.286333,-24.353769]}},{"properties":{"latitude":-27.49796,"postcode":4120,"address line 1":"280 Logan Road","locality":"Stones Corner","address line 2":null,"longitude":153.043703,"id":"a6ag4rxana56","library name":"Stones Corner Library"},"type":"Feature","geometry":{"type":"Point","coordinates":[153.043703,-27.49796]}},{"properties":{"latitude":-16.875401,"postcode":4872,"address line 1":"11 Kamerunga Road","locality":"Stratford","address line 2":null,"longitude":145.732865,"id":"a6ag4rv1dux0","library name":"Stratford Library"},"type":"Feature","geometry":{"type":"Point","coordinates":[145.732865,-16.875401]}},{"properties":{"latitude":-27.311937,"postcode":4500,"address line 1":"Cnr Gympie and South Pine Roads","locality":"Strathpine","address line 2":null,"longitude":152.991362,"id":"a6ag4s1sdbop","library name":"Strathpine Library"},"type":"Feature","geometry":{"type":"Point","coordinates":[152.991362,-27.311937]}},{"properties":{"latitude":-27.611385,"postcode":4109,"address line 1":"Sunnybank Hills Shopping Centre","locality":"Sunnybank Hills","address line 2":"Cnr Compton and Calam Roads","longitude":153.054367,"id":"a6ag4s0zkio6","library name":"Sunnybank Hills Library"},"type":"Feature","geometry":{"type":"Point","coordinates":[153.054367,-27.611385]}},{"properties":{"latitude":-26.541602,"postcode":4610,"address line 1":"Haly Street","locality":"Kingaroy","address line 2":null,"longitude":151.837857,"id":"a6ag4rw3auw1","library name":"T. J. O'Neill Memorial Library"},"type":"Feature","geometry":{"type":"Point","coordinates":[151.837857,-26.541602]}},{"properties":{"latitude":-24.883195,"postcode":4478,"address line 1":"Arthur Street","locality":"Tambo","address line 2":null,"longitude":146.253444,"id":"a6ag4rxtc7v1","library name":"Tambo Library"},"type":"Feature","geometry":{"type":"Point","coordinates":[146.253444,-24.883195]}},{"properties":{"latitude":-27.924806,"postcode":4272,"address line 1":"Cnr Main Street and Yuulong Road","locality":"North Tamborine","address line 2":null,"longitude":153.185216,"id":"a6ag4rvbkty2","library name":"Tamborine Mountain Library"},"type":"Feature","geometry":{"type":"Point","coordinates":[153.185216,-27.924806]}},{"properties":{"latitude":-27.276845,"postcode":4421,"address line 1":"31 Day Street","locality":"Tara","address line 2":null,"longitude":150.459073,"id":"a6ag4s00cugb","library name":"Tara Library"},"type":"Feature","geometry":{"type":"Point","coordinates":[150.459073,-27.276845]}},{"properties":{"latitude":-25.641246,"postcode":4420,"address line 1":"24 Yaldwyn Street","locality":"Taroom","address line 2":null,"longitude":149.795977,"id":"a6ag4rt67ri2","library name":"Taroom Library"},"type":"Feature","geometry":{"type":"Point","coordinates":[149.795977,-25.641246]}},{"properties":{"latitude":-28.854785,"postcode":4385,"address line 1":"High Steet","locality":"Texas","address line 2":null,"longitude":151.167326,"id":"a6ag4s0bc7hw","library name":"Texas Library"},"type":"Feature","geometry":{"type":"Point","coordinates":[151.167326,-28.854785]}},{"properties":{"latitude":-28.634357,"postcode":4497,"address line 1":"William Street","locality":"Thallon","address line 2":null,"longitude":148.86731,"id":"a6ag4s1pt1s4","library name":"Thallon Library"},"type":"Feature","geometry":{"type":"Point","coordinates":[148.86731,-28.634357]}},{"properties":{"latitude":-24.947309,"postcode":4719,"address line 1":"The Boulevard","locality":"Theodore","address line 2":null,"longitude":150.075603,"id":"a6ag4ryzvbuj","library name":"Theodore Library"},"type":"Feature","geometry":{"type":"Point","coordinates":[150.075603,-24.947309]}},{"properties":{"latitude":-25.72812,"postcode":4650,"address line 1":"Forgan Terrace","locality":"Tiaro","address line 2":null,"longitude":152.580931,"id":"a6ag4rzjib6r","library name":"Tiaro Library"},"type":"Feature","geometry":{"type":"Point","coordinates":[152.580931,-25.72812]}},{"properties":{"latitude":-23.034578,"postcode":4709,"address line 1":"Cnr Grasstree and Anncrouye Streets","locality":"Tieri","address line 2":null,"longitude":148.34569,"id":"a6ag4rwtm4gt","library name":"Tieri Library"},"type":"Feature","geometry":{"type":"Point","coordinates":[148.34569,-23.034578]}},{"properties":{"latitude":-25.910845,"postcode":4580,"address line 1":"Tin Can Bay Road","locality":"Tin Can Bay","address line 2":null,"longitude":153.006935,"id":"a6ag4rxtcax8","library name":"Tin Can Bay Library"},"type":"Feature","geometry":{"type":"Point","coordinates":[153.006935,-25.910845]}},{"properties":{"latitude":-27.087523,"postcode":4313,"address line 1":"Gunyah Street","locality":"Toogoolawah","address line 2":null,"longitude":152.377566,"id":"a6ag4rpm5b3g","library name":"Toogoolawah Library"},"type":"Feature","geometry":{"type":"Point","coordinates":[152.377566,-27.087523]}},{"properties":{"latitude":-27.473476,"postcode":4066,"address line 1":"9 Sherwood Road","locality":"Toowong","address line 2":null,"longitude":152.996721,"id":"a6ag4s12mrf8","library name":"Toowong Library"},"type":"Feature","geometry":{"type":"Point","coordinates":[152.996721,-27.473476]}},{"properties":{"latitude":-27.561481,"postcode":4350,"address line 1":"27 Victoria Street","locality":"Toowoomba","address line 2":null,"longitude":151.950746,"id":"a6ag4rr0qe1f","library name":"Toowoomba City Library"},"type":"Feature","geometry":{"type":"Point","coordinates":[151.950746,-27.561481]}},{"properties":{"latitude":-27.562199,"postcode":4350,"address line 1":"476 Ruthven Street","locality":"Toowoomba","address line 2":null,"longitude":151.953401,"id":"a6ag4rodadbp","library name":"Local History Library"},"type":"Feature","geometry":{"type":"Point","coordinates":[151.953401,-27.562199]}},{"properties":{"latitude":-10.583524,"postcode":4875,"address line 1":"68 Douglas Street","locality":"Thursday Island","address line 2":null,"longitude":142.219831,"id":"a6ag4rzwtogw","library name":"Torres Shire Municipal Library"},"type":"Feature","geometry":{"type":"Point","coordinates":[142.219831,-10.583524]}},{"properties":{"latitude":-27.584981,"postcode":4165,"address line 1":"Lakeside Shopping Centre","locality":"Victoria Point","address line 2":"7-15 Bunker Road","longitude":153.280402,"id":"a6ag4rtf98hc","library name":"Victoria Point Library"},"type":"Feature","geometry":{"type":"Point","coordinates":[153.280402,-27.584981]}},{"properties":{"latitude":-21.160711,"postcode":4741,"address line 1":"Dutton Street","locality":"Walkerston","address line 2":null,"longitude":149.066566,"id":"a6ag4rrbanbg","library name":"Walkerston Library"},"type":"Feature","geometry":{"type":"Point","coordinates":[149.066566,-21.160711]}},{"properties":{"latitude":-26.586915,"postcode":4428,"address line 1":"Wallumbilla Cultural Hub","locality":"Wallumbilla","address line 2":"George Street","longitude":149.185839,"id":"a6ag4rywtzs0","library name":"Wallumbilla Library"},"type":"Feature","geometry":{"type":"Point","coordinates":[149.185839,-26.586915]}},{"properties":{"latitude":-26.120437,"postcode":4419,"address line 1":"6 Henderson Road","locality":"Wandoan","address line 2":null,"longitude":149.958723,"id":"a6ag4rrftdtj","library name":"Wandoan Library"},"type":"Feature","geometry":{"type":"Point","coordinates":[149.958723,-26.120437]}},{"properties":{"latitude":-27.152052,"postcode":4417,"address line 1":"62 Burrowes Street","locality":"Surat","address line 2":null,"longitude":149.06692,"id":"a6ag4rrioacm","library name":"Waroo Library"},"type":"Feature","geometry":{"type":"Point","coordinates":[149.06692,-27.152052]}},{"properties":{"latitude":-28.214907,"postcode":4370,"address line 1":"49 Albion Street","locality":"Warwick","address line 2":null,"longitude":152.034704,"id":"a6ag4rrl2dec","library name":"Warwick Library"},"type":"Feature","geometry":{"type":"Point","coordinates":[152.034704,-28.214907]}},{"properties":{"latitude":-27.485012,"postcode":4101,"address line 1":"178-180 Boundary Street","locality":"West End","address line 2":null,"longitude":152.992558,"id":"a6ag4rqt7a0x","library name":"West End Library"},"type":"Feature","geometry":{"type":"Point","coordinates":[152.992558,-27.485012]}},{"properties":{"latitude":-20.401719,"postcode":4800,"address line 1":"12 Main Street","locality":"Proserpine","address line 2":null,"longitude":148.580217,"id":"a6ag4rswwae3","library name":"Whitsunday Regional Library"},"type":"Feature","geometry":{"type":"Point","coordinates":[148.580217,-20.401719]}},{"properties":{"latitude":-25.42164,"postcode":4481,"address line 1":"Windorah Information Centre","locality":"Windorah","address line 2":"Maryborough Street","longitude":142.656602,"id":"a6ag4s0yai3v","library name":"Windorah Library"},"type":"Feature","geometry":{"type":"Point","coordinates":[142.656602,-25.42164]}},{"properties":{"latitude":-26.29204,"postcode":4605,"address line 1":"Fisher Street","locality":"Cherbourg","address line 2":null,"longitude":151.955541,"id":"a6ag4rnn3inn","library name":"Winifred Fisher Knowledge Centre"},"type":"Feature","geometry":{"type":"Point","coordinates":[151.955541,-26.29204]}},{"properties":{"latitude":-22.390089,"postcode":4735,"address line 1":"76 Elderslie Street","locality":"Winton","address line 2":null,"longitude":143.037089,"id":"a6ag4rxvefa2","library name":"Winton Library"},"type":"Feature","geometry":{"type":"Point","coordinates":[143.037089,-22.390089]}},{"properties":{"latitude":-17.89733,"postcode":4852,"address line 1":"Tully-Mission Beach Drive","locality":"Wongaling Beach","address line 2":null,"longitude":146.091557,"id":"a6ag4rrfbc9k","library name":"Wongaling Beach Library"},"type":"Feature","geometry":{"type":"Point","coordinates":[146.091557,-17.89733]}},{"properties":{"latitude":-26.954714,"postcode":4514,"address line 1":"Cnr Archer and Elizabeth Streets","locality":"Woodford","address line 2":null,"longitude":152.778175,"id":"a6ag4rnhqbo1","library name":"Woodford Library"},"type":"Feature","geometry":{"type":"Point","coordinates":[152.778175,-26.954714]}},{"properties":{"latitude":-25.102233,"postcode":4660,"address line 1":"Community Centre","locality":"Woodgate via Childers","address line 2":"The Esplanade","longitude":152.560101,"id":"a6ag4rx94hhc","library name":"Woodgate Library"},"type":"Feature","geometry":{"type":"Point","coordinates":[152.560101,-25.102233]}},{"properties":{"latitude":-15.94534,"postcode":4895,"address line 1":"Binal Mungka Bayen - Knowing Things House","locality":"Wujal Wujal","address line 2":null,"longitude":145.318823,"id":"a6ag4rtbjetb","library name":"Wujal Wujal Indigenous Knowledge Centre"},"type":"Feature","geometry":{"type":"Point","coordinates":[145.318823,-15.94534]}},{"properties":{"latitude":-27.147183,"postcode":4489,"address line 1":"Mack Street","locality":"Wyandra","address line 2":null,"longitude":146.004782,"id":"a6ag4rywr14c","library name":"Wyandra Library"},"type":"Feature","geometry":{"type":"Point","coordinates":[146.004782,-27.147183]}},{"properties":{"latitude":-27.446439,"postcode":4178,"address line 1":"Wynnum Civic Centre","locality":"Wynnum Central","address line 2":"Bay Terrace","longitude":153.176676,"id":"a6ag4rsny6dh","library name":"Wynnum Library"},"type":"Feature","geometry":{"type":"Point","coordinates":[153.176676,-27.446439]}},{"properties":{"latitude":-16.907672,"postcode":4871,"address line 1":"Cnr Noble Drive &amp; Sawmill Rd","locality":"Yarrabah","address line 2":null,"longitude":145.866809,"id":"a6ag4rzucuit","library name":"Yarrabah Library"},"type":"Feature","geometry":{"type":"Point","coordinates":[145.866809,-16.907672]}},{"properties":{"latitude":-26.840825,"postcode":4614,"address line 1":"Toomey Street","locality":"Yarraman","address line 2":null,"longitude":151.980861,"id":"a6ag4rwuhw0s","library name":"Yarraman Library"},"type":"Feature","geometry":{"type":"Point","coordinates":[151.980861,-26.840825]}},{"properties":{"latitude":-23.131175,"postcode":4703,"address line 1":"John Street","locality":"Yeppoon","address line 2":null,"longitude":150.742968,"id":"a6ag4rwco9xg","library name":"Yeppoon Library"},"type":"Feature","geometry":{"type":"Point","coordinates":[150.742968,-23.131175]}},{"properties":{"latitude":-27.969919,"postcode":4491,"address line 1":"Yowah Rural Transaction centre","locality":"Yowah via Cunnamulla","address line 2":"Harlequin Drive","longitude":144.634795,"id":"a6ag4rmvei5f","library name":"Yowah Library"},"type":"Feature","geometry":{"type":"Point","coordinates":[144.634795,-27.969919]}},{"properties":{"latitude":-26.613201,"postcode":4427,"address line 1":"Stephenson Street","locality":"Yuleba","address line 2":null,"longitude":149.382648,"id":"a6ag4rz68n60","library name":"Yuleba Library"},"type":"Feature","geometry":{"type":"Point","coordinates":[149.382648,-26.613201]}},{"properties":{"latitude":-17.271082,"postcode":4872,"address line 1":"Maud Kehoe Park","locality":"Yungaburra","address line 2":null,"longitude":145.583557,"id":"a6ag4rxbtrfd","library name":"Yungaburra Library"},"type":"Feature","geometry":{"type":"Point","coordinates":[145.583557,-17.271082]}},{"properties":{"latitude":-27.359912,"postcode":4034,"address line 1":"Cnr Jennings Street and Zillmere Road","locality":"Zillmere","address line 2":null,"longitude":153.04075,"id":"a6ag4s1gd20e","library name":"Zillmere Library"},"type":"Feature","geometry":{"type":"Point","coordinates":[153.04075,-27.359912]}}],"is_temporal":false,"author":{"url":"http://libraryhack.org/data/","metadata":"","contact_name":"","contact_address":"","source":"","contact_phone":""},"source":"http://libraryhack.org/data/","pagination":{"sort":null,"start":0,"total":320,"limit":1000000},"state":"complete","tags":"","published":"2014-08-13T00:19:43-04:00","id":122098}