{"type":"FeatureCollection","data_type":"Dataset","url_type":null,"permissions":[{"permissions":{"download":true,"view":true},"group_id":"everyone"}],"classification":null,"title":"Disaster Recovery Cases- 5/2008 - 5/2009","count":545,"stream_id":12515,"contributor":{"url":"http://geocommons.com/users/6507","name":"rwahlfeld"},"data_attributes":null,"calculation_params":null,"icon_link":null,"link":"http://geocommons.com/overlays/12515.json","extent":[-118.798,28.9727,-79.9124,43.9715],"geometry_types":["point"],"unique_name":null,"name":"Disaster Recovery Cases- 5/2008 - 5/2009","feature_count":545,"description":"","next_feature":null,"is_raster":false,"short_classification":"Y","stats":{"latitude":{"max":43.971477,"mean":32.7246767944954,"variance":20.3380181747431,"stdev":4.50976919306777,"min":28.972682,"median":30.53563},"zipcode":{"max":92382.0,"mean":62417.0513761468,"variance":253747051.861327,"stdev":15929.4397849179,"min":29520.0,"median":70153.0},"sum of services provided":{"max":3729534.54,"mean":24782.8383119266,"variance":27335589197.4787,"stdev":165334.77915272,"min":0.0,"median":0.0},"client count":{"max":365.0,"mean":15.1357798165138,"variance":1091.82711818672,"stdev":33.042807359344,"min":1.0,"median":3.0},"longitude":{"max":-79.912362,"mean":-92.2484357816514,"variance":43.3948818318631,"stdev":6.58747917126598,"min":-118.797805,"median":-90.695475}},"features":[{"properties":{"latitude":34.673857,"zipcode":29520.0,"sum of services provided":0.0,"client count":1.0,"longitude":-79.912362,"id":"a625c15dfey7"},"type":"Feature","geometry":{"type":"Point","coordinates":[-79.912362,34.673857]}},{"properties":{"latitude":33.726859,"zipcode":30035.0,"sum of services provided":150.0,"client count":1.0,"longitude":-84.206692,"id":"a625c19d6j18"},"type":"Feature","geometry":{"type":"Point","coordinates":[-84.206692,33.726859]}},{"properties":{"latitude":34.17213,"zipcode":30120.0,"sum of services provided":200.0,"client count":1.0,"longitude":-84.828794,"id":"a625c1dslx2p"},"type":"Feature","geometry":{"type":"Point","coordinates":[-84.828794,34.17213]}},{"properties":{"latitude":34.11014,"zipcode":30188.0,"sum of services provided":775.0,"client count":7.0,"longitude":-84.47099,"id":"a625c1crh0ez"},"type":"Feature","geometry":{"type":"Point","coordinates":[-84.47099,34.11014]}},{"properties":{"latitude":33.730848,"zipcode":30310.0,"sum of services provided":325.0,"client count":3.0,"longitude":-84.425475,"id":"a625c1216w2x"},"type":"Feature","geometry":{"type":"Point","coordinates":[-84.425475,33.730848]}},{"properties":{"latitude":33.74504,"zipcode":30312.0,"sum of services provided":340.0,"client count":2.0,"longitude":-84.379294,"id":"a625c13v88ao"},"type":"Feature","geometry":{"type":"Point","coordinates":[-84.379294,33.74504]}},{"properties":{"latitude":33.75814,"zipcode":30314.0,"sum of services provided":2950.72,"client count":24.0,"longitude":-84.425448,"id":"a625c118ybkw"},"type":"Feature","geometry":{"type":"Point","coordinates":[-84.425448,33.75814]}},{"properties":{"latitude":33.72478,"zipcode":30316.0,"sum of services provided":650.0,"client count":2.0,"longitude":-84.337239,"id":"a625c18onpwg"},"type":"Feature","geometry":{"type":"Point","coordinates":[-84.337239,33.72478]}},{"properties":{"latitude":33.789836,"zipcode":30318.0,"sum of services provided":150.0,"client count":1.0,"longitude":-84.439545,"id":"a625c19pjs5g"},"type":"Feature","geometry":{"type":"Point","coordinates":[-84.439545,33.789836]}},{"properties":{"latitude":34.308482,"zipcode":30501.0,"sum of services provided":0.0,"client count":1.0,"longitude":-83.82233,"id":"a625c0yzxra5"},"type":"Feature","geometry":{"type":"Point","coordinates":[-83.82233,34.308482]}},{"properties":{"latitude":34.841632,"zipcode":30576.0,"sum of services provided":0.0,"client count":1.0,"longitude":-83.474888,"id":"a625c14ql2ru"},"type":"Feature","geometry":{"type":"Point","coordinates":[-83.474888,34.841632]}},{"properties":{"latitude":33.326061,"zipcode":31026.0,"sum of services provided":0.0,"client count":1.0,"longitude":-83.388199,"id":"a625c0zl8yv3"},"type":"Feature","geometry":{"type":"Point","coordinates":[-83.388199,33.326061]}},{"properties":{"latitude":32.784841,"zipcode":31052.0,"sum of services provided":0.0,"client count":2.0,"longitude":-83.822385,"id":"a625c18sgm1x"},"type":"Feature","geometry":{"type":"Point","coordinates":[-83.822385,32.784841]}},{"properties":{"latitude":32.836562,"zipcode":31201.0,"sum of services provided":0.0,"client count":3.0,"longitude":-83.637157,"id":"a625c1bgx2dn"},"type":"Feature","geometry":{"type":"Point","coordinates":[-83.637157,32.836562]}},{"properties":{"latitude":32.84257,"zipcode":31204.0,"sum of services provided":0.0,"client count":8.0,"longitude":-83.672968,"id":"a625c10tskiy"},"type":"Feature","geometry":{"type":"Point","coordinates":[-83.672968,32.84257]}},{"properties":{"latitude":32.802,"zipcode":31206.0,"sum of services provided":0.0,"client count":71.0,"longitude":-83.674352,"id":"a625c0z0epqp"},"type":"Feature","geometry":{"type":"Point","coordinates":[-83.674352,32.802]}},{"properties":{"latitude":32.84021,"zipcode":31217.0,"sum of services provided":0.0,"client count":2.0,"longitude":-83.559994,"id":"a625c1254gik"},"type":"Feature","geometry":{"type":"Point","coordinates":[-83.559994,32.84021]}},{"properties":{"latitude":32.866135,"zipcode":31220.0,"sum of services provided":0.0,"client count":2.0,"longitude":-83.791899,"id":"a625c192uphr"},"type":"Feature","geometry":{"type":"Point","coordinates":[-83.791899,32.866135]}},{"properties":{"latitude":32.899,"zipcode":34573.0,"sum of services provided":0.0,"client count":1.0,"longitude":-83.89,"id":"a625c1eh0d2j"},"type":"Feature","geometry":{"type":"Point","coordinates":[-83.89,32.899]}},{"properties":{"latitude":32.55719,"zipcode":36078.0,"sum of services provided":200.0,"client count":1.0,"longitude":-85.911319,"id":"a625c18tcch1"},"type":"Feature","geometry":{"type":"Point","coordinates":[-85.911319,32.55719]}},{"properties":{"latitude":30.402155,"zipcode":36509.0,"sum of services provided":0.0,"client count":1.0,"longitude":-88.248039,"id":"a625c17yzrot"},"type":"Feature","geometry":{"type":"Point","coordinates":[-88.248039,30.402155]}},{"properties":{"latitude":31.378591,"zipcode":36581.0,"sum of services provided":1679.7,"client count":1.0,"longitude":-88.002082,"id":"a625c192yyau"},"type":"Feature","geometry":{"type":"Point","coordinates":[-88.002082,31.378591]}},{"properties":{"latitude":30.53818,"zipcode":36582.0,"sum of services provided":0.0,"client count":1.0,"longitude":-88.176111,"id":"a625c15ziw9u"},"type":"Feature","geometry":{"type":"Point","coordinates":[-88.176111,30.53818]}},{"properties":{"latitude":36.53832,"zipcode":37083.0,"sum of services provided":0.0,"client count":3.0,"longitude":-86.015729,"id":"a625c10vutwj"},"type":"Feature","geometry":{"type":"Point","coordinates":[-86.015729,36.53832]}},{"properties":{"latitude":36.235311,"zipcode":38560.0,"sum of services provided":0.0,"client count":1.0,"longitude":-85.873552,"id":"a625c1artmp5"},"type":"Feature","geometry":{"type":"Point","coordinates":[-85.873552,36.235311]}},{"properties":{"latitude":36.126481,"zipcode":38567.0,"sum of services provided":0.0,"client count":1.0,"longitude":-85.934262,"id":"a625c12o6qtg"},"type":"Feature","geometry":{"type":"Point","coordinates":[-85.934262,36.126481]}},{"properties":{"latitude":31.71097,"zipcode":39069.0,"sum of services provided":0.0,"client count":2.0,"longitude":-91.067409,"id":"a625c13beu81"},"type":"Feature","geometry":{"type":"Point","coordinates":[-91.067409,31.71097]}},{"properties":{"latitude":31.74985,"zipcode":39119.0,"sum of services provided":40292.7,"client count":4.0,"longitude":-89.655069,"id":"a625c1efkzme"},"type":"Feature","geometry":{"type":"Point","coordinates":[-89.655069,31.74985]}},{"properties":{"latitude":31.541215,"zipcode":39120.0,"sum of services provided":452.0,"client count":1.0,"longitude":-91.361204,"id":"a625c1aed0hx"},"type":"Feature","geometry":{"type":"Point","coordinates":[-91.361204,31.541215]}},{"properties":{"latitude":32.422313,"zipcode":39157.0,"sum of services provided":0.0,"client count":1.0,"longitude":-90.135945,"id":"a625c1a4z5z0"},"type":"Feature","geometry":{"type":"Point","coordinates":[-90.135945,32.422313]}},{"properties":{"latitude":31.806308,"zipcode":39168.0,"sum of services provided":19344.39,"client count":1.0,"longitude":-89.398538,"id":"a625c12fe2ju"},"type":"Feature","geometry":{"type":"Point","coordinates":[-89.398538,31.806308]}},{"properties":{"latitude":32.307809,"zipcode":39203.0,"sum of services provided":89.0,"client count":1.0,"longitude":-90.200908,"id":"a625c13x48sq"},"type":"Feature","geometry":{"type":"Point","coordinates":[-90.200908,32.307809]}},{"properties":{"latitude":32.36923,"zipcode":39206.0,"sum of services provided":0.0,"client count":1.0,"longitude":-90.173759,"id":"a625c15hi83k"},"type":"Feature","geometry":{"type":"Point","coordinates":[-90.173759,32.36923]}},{"properties":{"latitude":32.268261,"zipcode":39208.0,"sum of services provided":0.0,"client count":1.0,"longitude":-90.093274,"id":"a625c1b459f0"},"type":"Feature","geometry":{"type":"Point","coordinates":[-90.093274,32.268261]}},{"properties":{"latitude":32.32938,"zipcode":39209.0,"sum of services provided":450.32,"client count":1.0,"longitude":-90.258324,"id":"a625c11r48io"},"type":"Feature","geometry":{"type":"Point","coordinates":[-90.258324,32.32938]}},{"properties":{"latitude":32.51951,"zipcode":39337.0,"sum of services provided":0.0,"client count":1.0,"longitude":-89.005068,"id":"a625c10k5lvz"},"type":"Feature","geometry":{"type":"Point","coordinates":[-89.005068,32.51951]}},{"properties":{"latitude":31.395459,"zipcode":39362.0,"sum of services provided":99247.56,"client count":11.0,"longitude":-88.526441,"id":"a625c173ityu"},"type":"Feature","geometry":{"type":"Point","coordinates":[-88.526441,31.395459]}},{"properties":{"latitude":31.67882,"zipcode":39367.0,"sum of services provided":0.0,"client count":3.0,"longitude":-88.69389,"id":"a625c13gxwmc"},"type":"Feature","geometry":{"type":"Point","coordinates":[-88.69389,31.67882]}},{"properties":{"latitude":31.28313,"zipcode":39401.0,"sum of services provided":401576.25,"client count":64.0,"longitude":-89.284153,"id":"a625c18ke0cv"},"type":"Feature","geometry":{"type":"Point","coordinates":[-89.284153,31.28313]}},{"properties":{"latitude":31.318661,"zipcode":39402.0,"sum of services provided":0.0,"client count":3.0,"longitude":-89.387168,"id":"a625c11h6v5n"},"type":"Feature","geometry":{"type":"Point","coordinates":[-89.387168,31.318661]}},{"properties":{"latitude":31.19618,"zipcode":39407.0,"sum of services provided":0.0,"client count":1.0,"longitude":-89.204469,"id":"a625c1cj0ftm"},"type":"Feature","geometry":{"type":"Point","coordinates":[-89.204469,31.19618]}},{"properties":{"latitude":31.493058,"zipcode":39421.0,"sum of services provided":2032.44,"client count":2.0,"longitude":-89.710877,"id":"a625c1a1m1pb"},"type":"Feature","geometry":{"type":"Point","coordinates":[-89.710877,31.493058]}},{"properties":{"latitude":31.132629,"zipcode":39423.0,"sum of services provided":38806.0,"client count":9.0,"longitude":-88.912199,"id":"a625c18hb3m9"},"type":"Feature","geometry":{"type":"Point","coordinates":[-88.912199,31.132629]}},{"properties":{"latitude":31.020109,"zipcode":39425.0,"sum of services provided":0.0,"client count":4.0,"longitude":-89.191439,"id":"a625c11uxbfk"},"type":"Feature","geometry":{"type":"Point","coordinates":[-89.191439,31.020109]}},{"properties":{"latitude":30.631538,"zipcode":39426.0,"sum of services provided":38585.44,"client count":31.0,"longitude":-89.649799,"id":"a625c1cdzhen"},"type":"Feature","geometry":{"type":"Point","coordinates":[-89.649799,30.631538]}},{"properties":{"latitude":31.55766,"zipcode":39427.0,"sum of services provided":39482.13,"client count":3.0,"longitude":-89.790022,"id":"a625c11t6mgq"},"type":"Feature","geometry":{"type":"Point","coordinates":[-89.790022,31.55766]}},{"properties":{"latitude":31.648731,"zipcode":39428.0,"sum of services provided":42868.0,"client count":9.0,"longitude":-89.561007,"id":"a625c0z900kw"},"type":"Feature","geometry":{"type":"Point","coordinates":[-89.561007,31.648731]}},{"properties":{"latitude":31.266951,"zipcode":39429.0,"sum of services provided":83730.12,"client count":20.0,"longitude":-89.789073,"id":"a625c191ntxx"},"type":"Feature","geometry":{"type":"Point","coordinates":[-89.789073,31.266951]}},{"properties":{"latitude":31.597005,"zipcode":39437.0,"sum of services provided":5304.83,"client count":9.0,"longitude":-89.211749,"id":"a625c12i83li"},"type":"Feature","geometry":{"type":"Point","coordinates":[-89.211749,31.597005]}},{"properties":{"latitude":31.69809,"zipcode":39440.0,"sum of services provided":1170.96,"client count":5.0,"longitude":-89.139309,"id":"a625c16zscu8"},"type":"Feature","geometry":{"type":"Point","coordinates":[-89.139309,31.69809]}},{"properties":{"latitude":31.724329,"zipcode":39443.0,"sum of services provided":0.0,"client count":6.0,"longitude":-89.103047,"id":"a625c1c350pb"},"type":"Feature","geometry":{"type":"Point","coordinates":[-89.103047,31.724329]}},{"properties":{"latitude":31.14778,"zipcode":39451.0,"sum of services provided":41766.04,"client count":9.0,"longitude":-88.560319,"id":"a625c10ntr2g"},"type":"Feature","geometry":{"type":"Point","coordinates":[-88.560319,31.14778]}},{"properties":{"latitude":30.87848,"zipcode":39452.0,"sum of services provided":185137.13,"client count":77.0,"longitude":-88.601428,"id":"a625c1cdpdl1"},"type":"Feature","geometry":{"type":"Point","coordinates":[-88.601428,30.87848]}},{"properties":{"latitude":31.00278,"zipcode":39455.0,"sum of services provided":96149.26,"client count":26.0,"longitude":-89.462979,"id":"a625c14tkrim"},"type":"Feature","geometry":{"type":"Point","coordinates":[-89.462979,31.00278]}},{"properties":{"latitude":31.062617,"zipcode":39456.0,"sum of services provided":93623.55,"client count":14.0,"longitude":-88.798259,"id":"a625c0z872ct"},"type":"Feature","geometry":{"type":"Point","coordinates":[-88.798259,31.062617]}},{"properties":{"latitude":30.6679,"zipcode":39457.0,"sum of services provided":0.0,"client count":1.0,"longitude":-89.634709,"id":"a625c15txutl"},"type":"Feature","geometry":{"type":"Point","coordinates":[-89.634709,30.6679]}},{"properties":{"latitude":31.490448,"zipcode":39459.0,"sum of services provided":0.0,"client count":3.0,"longitude":-89.310461,"id":"a625c115h7xp"},"type":"Feature","geometry":{"type":"Point","coordinates":[-89.310461,31.490448]}},{"properties":{"latitude":31.178101,"zipcode":39461.0,"sum of services provided":0.0,"client count":1.0,"longitude":-88.739261,"id":"a625c11fy4zj"},"type":"Feature","geometry":{"type":"Point","coordinates":[-88.739261,31.178101]}},{"properties":{"latitude":31.174081,"zipcode":39462.0,"sum of services provided":0.0,"client count":5.0,"longitude":-89.030986,"id":"a625c12wg1sf"},"type":"Feature","geometry":{"type":"Point","coordinates":[-89.030986,31.174081]}},{"properties":{"latitude":30.48218,"zipcode":39463.0,"sum of services provided":0.0,"client count":3.0,"longitude":-89.688979,"id":"a625c0yx8ymz"},"type":"Feature","geometry":{"type":"Point","coordinates":[-89.688979,30.48218]}},{"properties":{"latitude":31.490999,"zipcode":39464.0,"sum of services provided":0.0,"client count":1.0,"longitude":-89.038941,"id":"a625c0zht3j5"},"type":"Feature","geometry":{"type":"Point","coordinates":[-89.038941,31.490999]}},{"properties":{"latitude":31.34961,"zipcode":39465.0,"sum of services provided":12770.5,"client count":10.0,"longitude":-89.216419,"id":"a625c1eod7ux"},"type":"Feature","geometry":{"type":"Point","coordinates":[-89.216419,31.34961]}},{"properties":{"latitude":30.52865,"zipcode":39466.0,"sum of services provided":70967.63,"client count":63.0,"longitude":-89.663624,"id":"a625c1d4pd03"},"type":"Feature","geometry":{"type":"Point","coordinates":[-89.663624,30.52865]}},{"properties":{"latitude":30.81898,"zipcode":39470.0,"sum of services provided":25.0,"client count":39.0,"longitude":-89.558188,"id":"a625c14wti3n"},"type":"Feature","geometry":{"type":"Point","coordinates":[-89.558188,30.81898]}},{"properties":{"latitude":31.59597,"zipcode":39474.0,"sum of services provided":41005.0,"client count":11.0,"longitude":-89.871219,"id":"a625c1bc51lz"},"type":"Feature","geometry":{"type":"Point","coordinates":[-89.871219,31.59597]}},{"properties":{"latitude":31.170161,"zipcode":39475.0,"sum of services provided":27290.0,"client count":10.0,"longitude":-89.417904,"id":"a625c15yl4un"},"type":"Feature","geometry":{"type":"Point","coordinates":[-89.417904,31.170161]}},{"properties":{"latitude":31.34362,"zipcode":39476.0,"sum of services provided":44953.42,"client count":9.0,"longitude":-88.853409,"id":"a625c12vrmmd"},"type":"Feature","geometry":{"type":"Point","coordinates":[-88.853409,31.34362]}},{"properties":{"latitude":31.05668,"zipcode":39478.0,"sum of services provided":17265.0,"client count":1.0,"longitude":-89.861397,"id":"a625c10ieasn"},"type":"Feature","geometry":{"type":"Point","coordinates":[-89.861397,31.05668]}},{"properties":{"latitude":31.534464,"zipcode":39479.0,"sum of services provided":0.0,"client count":2.0,"longitude":-89.475754,"id":"a625c14486ss"},"type":"Feature","geometry":{"type":"Point","coordinates":[-89.475754,31.534464]}},{"properties":{"latitude":31.716697,"zipcode":39480.0,"sum of services provided":0.0,"client count":1.0,"longitude":-89.310461,"id":"a625c1crfjgq"},"type":"Feature","geometry":{"type":"Point","coordinates":[-89.310461,31.716697]}},{"properties":{"latitude":31.36103,"zipcode":39482.0,"sum of services provided":20000.0,"client count":5.0,"longitude":-89.569316,"id":"a625c0z6hq08"},"type":"Feature","geometry":{"type":"Point","coordinates":[-89.569316,31.36103]}},{"properties":{"latitude":31.233092,"zipcode":39483.0,"sum of services provided":7920.03,"client count":10.0,"longitude":-89.908918,"id":"a625c0zlgbla"},"type":"Feature","geometry":{"type":"Point","coordinates":[-89.908918,31.233092]}},{"properties":{"latitude":30.38113,"zipcode":39501.0,"sum of services provided":287142.02,"client count":151.0,"longitude":-89.097287,"id":"a625c163eq9y"},"type":"Feature","geometry":{"type":"Point","coordinates":[-89.097287,30.38113]}},{"properties":{"latitude":30.46006,"zipcode":39503.0,"sum of services provided":38288.1,"client count":87.0,"longitude":-89.095889,"id":"a625c117kewm"},"type":"Feature","geometry":{"type":"Point","coordinates":[-89.095889,30.46006]}},{"properties":{"latitude":30.38032,"zipcode":39505.0,"sum of services provided":0.0,"client count":2.0,"longitude":-89.092339,"id":"a625c0znig9s"},"type":"Feature","geometry":{"type":"Point","coordinates":[-89.092339,30.38032]}},{"properties":{"latitude":30.38032,"zipcode":39506.0,"sum of services provided":0.0,"client count":1.0,"longitude":-89.092339,"id":"a625c12xkfde"},"type":"Feature","geometry":{"type":"Point","coordinates":[-89.092339,30.38032]}},{"properties":{"latitude":30.3956,"zipcode":39507.0,"sum of services provided":44244.82,"client count":33.0,"longitude":-89.035584,"id":"a625c13iynuq"},"type":"Feature","geometry":{"type":"Point","coordinates":[-89.035584,30.3956]}},{"properties":{"latitude":30.35,"zipcode":39512.0,"sum of services provided":0.0,"client count":1.0,"longitude":-89.3,"id":"a625c153vmvz"},"type":"Feature","geometry":{"type":"Point","coordinates":[-89.3,30.35]}},{"properties":{"latitude":30.301899,"zipcode":39520.0,"sum of services provided":320230.83,"client count":253.0,"longitude":-89.414719,"id":"a625c1ay46pe"},"type":"Feature","geometry":{"type":"Point","coordinates":[-89.414719,30.301899]}},{"properties":{"latitude":30.316151,"zipcode":39521.0,"sum of services provided":19967.09,"client count":4.0,"longitude":-89.34845,"id":"a625c108l7oo"},"type":"Feature","geometry":{"type":"Point","coordinates":[-89.34845,30.316151]}},{"properties":{"latitude":30.38786,"zipcode":39525.0,"sum of services provided":0.0,"client count":5.0,"longitude":-89.366759,"id":"a625c11oceyh"},"type":"Feature","geometry":{"type":"Point","coordinates":[-89.366759,30.38786]}},{"properties":{"latitude":30.40152,"zipcode":39530.0,"sum of services provided":165250.67,"client count":117.0,"longitude":-88.891365,"id":"a625c1afuq6h"},"type":"Feature","geometry":{"type":"Point","coordinates":[-88.891365,30.40152]}},{"properties":{"latitude":30.40295,"zipcode":39531.0,"sum of services provided":64472.61,"client count":30.0,"longitude":-88.966799,"id":"a625c121djl7"},"type":"Feature","geometry":{"type":"Point","coordinates":[-88.966799,30.40295]}},{"properties":{"latitude":30.46817,"zipcode":39532.0,"sum of services provided":63559.15,"client count":57.0,"longitude":-88.938416,"id":"a625c17sc6gm"},"type":"Feature","geometry":{"type":"Point","coordinates":[-88.938416,30.46817]}},{"properties":{"latitude":30.395439,"zipcode":39533.0,"sum of services provided":0.0,"client count":1.0,"longitude":-88.972801,"id":"a625c12kft87"},"type":"Feature","geometry":{"type":"Point","coordinates":[-88.972801,30.395439]}},{"properties":{"latitude":30.4,"zipcode":39537.0,"sum of services provided":0.0,"client count":1.0,"longitude":-88.89,"id":"a625c12qzf8c"},"type":"Feature","geometry":{"type":"Point","coordinates":[-88.89,30.4]}},{"properties":{"latitude":30.43777,"zipcode":39540.0,"sum of services provided":5829.55,"client count":23.0,"longitude":-88.899969,"id":"a625c15mvedx"},"type":"Feature","geometry":{"type":"Point","coordinates":[-88.899969,30.43777]}},{"properties":{"latitude":30.44777,"zipcode":39542.0,"sum of services provided":0.0,"client count":2.0,"longitude":-88.642071,"id":"a625c16vsm4q"},"type":"Feature","geometry":{"type":"Point","coordinates":[-88.642071,30.44777]}},{"properties":{"latitude":30.45938,"zipcode":39552.0,"sum of services provided":464.0,"client count":3.0,"longitude":-88.544049,"id":"a625c131azvv"},"type":"Feature","geometry":{"type":"Point","coordinates":[-88.544049,30.45938]}},{"properties":{"latitude":30.397276,"zipcode":39553.0,"sum of services provided":58937.43,"client count":95.0,"longitude":-88.642071,"id":"a625c1d2uh7z"},"type":"Feature","geometry":{"type":"Point","coordinates":[-88.642071,30.397276]}},{"properties":{"latitude":30.451953,"zipcode":39556.0,"sum of services provided":47356.02,"client count":53.0,"longitude":-89.417068,"id":"a625c13qwgmr"},"type":"Feature","geometry":{"type":"Point","coordinates":[-89.417068,30.451953]}},{"properties":{"latitude":30.24778,"zipcode":39558.0,"sum of services provided":0.0,"client count":7.0,"longitude":-89.437229,"id":"a625c11hnv7a"},"type":"Feature","geometry":{"type":"Point","coordinates":[-89.437229,30.24778]}},{"properties":{"latitude":30.3,"zipcode":39559.0,"sum of services provided":0.0,"client count":1.0,"longitude":-89.3,"id":"a625c11loxm7"},"type":"Feature","geometry":{"type":"Point","coordinates":[-89.3,30.3]}},{"properties":{"latitude":30.36069,"zipcode":39560.0,"sum of services provided":56872.26,"client count":53.0,"longitude":-89.165684,"id":"a625c1d0nqz2"},"type":"Feature","geometry":{"type":"Point","coordinates":[-89.165684,30.36069]}},{"properties":{"latitude":30.703727,"zipcode":39561.0,"sum of services provided":40056.2,"client count":5.0,"longitude":-89.147428,"id":"a625c1eqpa5o"},"type":"Feature","geometry":{"type":"Point","coordinates":[-89.147428,30.703727]}},{"properties":{"latitude":30.537109,"zipcode":39562.0,"sum of services provided":38497.6,"client count":38.0,"longitude":-88.505829,"id":"a625c0zitbaq"},"type":"Feature","geometry":{"type":"Point","coordinates":[-88.505829,30.537109]}},{"properties":{"latitude":30.411881,"zipcode":39563.0,"sum of services provided":291001.55,"client count":112.0,"longitude":-88.522706,"id":"a625c1b14z0b"},"type":"Feature","geometry":{"type":"Point","coordinates":[-88.522706,30.411881]}},{"properties":{"latitude":30.403541,"zipcode":39564.0,"sum of services provided":74997.54,"client count":77.0,"longitude":-88.775747,"id":"a625c15jc9mq"},"type":"Feature","geometry":{"type":"Point","coordinates":[-88.775747,30.403541]}},{"properties":{"latitude":30.545282,"zipcode":39565.0,"sum of services provided":704.0,"client count":33.0,"longitude":-88.746959,"id":"a625c1bt1xya"},"type":"Feature","geometry":{"type":"Point","coordinates":[-88.746959,30.545282]}},{"properties":{"latitude":30.41621,"zipcode":39566.0,"sum of services provided":0.0,"client count":3.0,"longitude":-88.807709,"id":"a625c0zf52xy"},"type":"Feature","geometry":{"type":"Point","coordinates":[-88.807709,30.41621]}},{"properties":{"latitude":30.364005,"zipcode":39567.0,"sum of services provided":105710.71,"client count":123.0,"longitude":-88.546689,"id":"a625c14rjyfh"},"type":"Feature","geometry":{"type":"Point","coordinates":[-88.546689,30.364005]}},{"properties":{"latitude":30.37118,"zipcode":39568.0,"sum of services provided":0.0,"client count":2.0,"longitude":-88.552658,"id":"a625c15kmu08"},"type":"Feature","geometry":{"type":"Point","coordinates":[-88.552658,30.37118]}},{"properties":{"latitude":30.3586,"zipcode":39571.0,"sum of services provided":124153.66,"client count":104.0,"longitude":-89.265534,"id":"a625c0zbwkqw"},"type":"Feature","geometry":{"type":"Point","coordinates":[-89.265534,30.3586]}},{"properties":{"latitude":30.252589,"zipcode":39572.0,"sum of services provided":33960.22,"client count":38.0,"longitude":-89.604842,"id":"a625c1eb80d3"},"type":"Feature","geometry":{"type":"Point","coordinates":[-89.604842,30.252589]}},{"properties":{"latitude":30.728219,"zipcode":39573.0,"sum of services provided":23822.5,"client count":34.0,"longitude":-89.173049,"id":"a625c19zoxd7"},"type":"Feature","geometry":{"type":"Point","coordinates":[-89.173049,30.728219]}},{"properties":{"latitude":30.593755,"zipcode":39574.0,"sum of services provided":75023.58,"client count":42.0,"longitude":-89.122129,"id":"a625c135btrt"},"type":"Feature","geometry":{"type":"Point","coordinates":[-89.122129,30.593755]}},{"properties":{"latitude":30.292422,"zipcode":39576.0,"sum of services provided":51043.47,"client count":116.0,"longitude":-89.381649,"id":"a625c14u9t8v"},"type":"Feature","geometry":{"type":"Point","coordinates":[-89.381649,30.292422]}},{"properties":{"latitude":30.868521,"zipcode":39577.0,"sum of services provided":173385.7,"client count":30.0,"longitude":-89.13109,"id":"a625c1ddw2iy"},"type":"Feature","geometry":{"type":"Point","coordinates":[-89.13109,30.868521]}},{"properties":{"latitude":30.368245,"zipcode":39581.0,"sum of services provided":120817.34,"client count":107.0,"longitude":-88.521869,"id":"a625c1271yok"},"type":"Feature","geometry":{"type":"Point","coordinates":[-88.521869,30.368245]}},{"properties":{"latitude":31.57414,"zipcode":39601.0,"sum of services provided":0.0,"client count":2.0,"longitude":-90.454819,"id":"a625c0z855a6"},"type":"Feature","geometry":{"type":"Point","coordinates":[-90.454819,31.57414]}},{"properties":{"latitude":31.440381,"zipcode":39629.0,"sum of services provided":0.0,"client count":1.0,"longitude":-90.458364,"id":"a625c1ei53zf"},"type":"Feature","geometry":{"type":"Point","coordinates":[-90.458364,31.440381]}},{"properties":{"latitude":31.368588,"zipcode":39641.0,"sum of services provided":4450.0,"client count":2.0,"longitude":-90.177281,"id":"a625c1cj005b"},"type":"Feature","geometry":{"type":"Point","coordinates":[-90.177281,31.368588]}},{"properties":{"latitude":31.225479,"zipcode":39648.0,"sum of services provided":0.0,"client count":2.0,"longitude":-90.437507,"id":"a625c19u6ydz"},"type":"Feature","geometry":{"type":"Point","coordinates":[-90.437507,31.225479]}},{"properties":{"latitude":31.11115,"zipcode":39652.0,"sum of services provided":0.0,"client count":2.0,"longitude":-90.452999,"id":"a625c1crwzi7"},"type":"Feature","geometry":{"type":"Point","coordinates":[-90.452999,31.11115]}},{"properties":{"latitude":31.54074,"zipcode":39654.0,"sum of services provided":0.0,"client count":1.0,"longitude":-90.132101,"id":"a625c132531k"},"type":"Feature","geometry":{"type":"Point","coordinates":[-90.132101,31.54074]}},{"properties":{"latitude":31.438659,"zipcode":39656.0,"sum of services provided":4497.27,"client count":2.0,"longitude":-89.970448,"id":"a625c1125j8l"},"type":"Feature","geometry":{"type":"Point","coordinates":[-89.970448,31.438659]}},{"properties":{"latitude":31.498632,"zipcode":39661.0,"sum of services provided":32.5,"client count":1.0,"longitude":-91.077907,"id":"a625c12opxkv"},"type":"Feature","geometry":{"type":"Point","coordinates":[-91.077907,31.498632]}},{"properties":{"latitude":31.57454,"zipcode":39663.0,"sum of services provided":0.0,"client count":1.0,"longitude":-90.009058,"id":"a625c1b9fkex"},"type":"Feature","geometry":{"type":"Point","coordinates":[-90.009058,31.57454]}},{"properties":{"latitude":31.29391,"zipcode":39666.0,"sum of services provided":0.0,"client count":1.0,"longitude":-90.465877,"id":"a625c18un0n8"},"type":"Feature","geometry":{"type":"Point","coordinates":[-90.465877,31.29391]}},{"properties":{"latitude":31.130355,"zipcode":39667.0,"sum of services provided":0.0,"client count":18.0,"longitude":-90.129489,"id":"a625c10pmwaz"},"type":"Feature","geometry":{"type":"Point","coordinates":[-90.129489,31.130355]}},{"properties":{"latitude":39.20007,"zipcode":47201.0,"sum of services provided":0.0,"client count":7.0,"longitude":-85.944719,"id":"a625c16k3icm"},"type":"Feature","geometry":{"type":"Point","coordinates":[-85.944719,39.20007]}},{"properties":{"latitude":39.23426,"zipcode":47203.0,"sum of services provided":0.0,"client count":2.0,"longitude":-85.874169,"id":"a625c12hm9li"},"type":"Feature","geometry":{"type":"Point","coordinates":[-85.874169,39.23426]}},{"properties":{"latitude":39.24947,"zipcode":47429.0,"sum of services provided":100.0,"client count":1.0,"longitude":-86.621488,"id":"a625c1a34709"},"type":"Feature","geometry":{"type":"Point","coordinates":[-86.621488,39.24947]}},{"properties":{"latitude":39.28241,"zipcode":47460.0,"sum of services provided":0.0,"client count":3.0,"longitude":-86.767299,"id":"a625c1963578"},"type":"Feature","geometry":{"type":"Point","coordinates":[-86.767299,39.28241]}},{"properties":{"latitude":41.717335,"zipcode":50023.0,"sum of services provided":0.0,"client count":2.0,"longitude":-93.629429,"id":"a625c11ie7yb"},"type":"Feature","geometry":{"type":"Point","coordinates":[-93.629429,41.717335]}},{"properties":{"latitude":41.35558,"zipcode":50125.0,"sum of services provided":0.0,"client count":1.0,"longitude":-93.568929,"id":"a625c11bxi8o"},"type":"Feature","geometry":{"type":"Point","coordinates":[-93.568929,41.35558]}},{"properties":{"latitude":41.56861,"zipcode":50265.0,"sum of services provided":0.0,"client count":1.0,"longitude":-93.741573,"id":"a625c17yq6mm"},"type":"Feature","geometry":{"type":"Point","coordinates":[-93.741573,41.56861]}},{"properties":{"latitude":41.578449,"zipcode":50266.0,"sum of services provided":0.0,"client count":1.0,"longitude":-93.792619,"id":"a625c1bugcn6"},"type":"Feature","geometry":{"type":"Point","coordinates":[-93.792619,41.578449]}},{"properties":{"latitude":41.585969,"zipcode":50309.0,"sum of services provided":0.0,"client count":2.0,"longitude":-93.620745,"id":"a625c111ptki"},"type":"Feature","geometry":{"type":"Point","coordinates":[-93.620745,41.585969]}},{"properties":{"latitude":41.624402,"zipcode":50310.0,"sum of services provided":0.0,"client count":6.0,"longitude":-93.673952,"id":"a625c15yj3tk"},"type":"Feature","geometry":{"type":"Point","coordinates":[-93.673952,41.624402]}},{"properties":{"latitude":41.60125,"zipcode":50311.0,"sum of services provided":0.0,"client count":2.0,"longitude":-93.677739,"id":"a625c160kfqq"},"type":"Feature","geometry":{"type":"Point","coordinates":[-93.677739,41.60125]}},{"properties":{"latitude":41.58638,"zipcode":50312.0,"sum of services provided":0.0,"client count":2.0,"longitude":-93.673519,"id":"a625c1bhby53"},"type":"Feature","geometry":{"type":"Point","coordinates":[-93.673519,41.58638]}},{"properties":{"latitude":41.640565,"zipcode":50313.0,"sum of services provided":0.0,"client count":4.0,"longitude":-93.617009,"id":"a625c17ltv5p"},"type":"Feature","geometry":{"type":"Point","coordinates":[-93.617009,41.640565]}},{"properties":{"latitude":41.60334,"zipcode":50314.0,"sum of services provided":0.0,"client count":20.0,"longitude":-93.631799,"id":"a625c16ee4td"},"type":"Feature","geometry":{"type":"Point","coordinates":[-93.631799,41.60334]}},{"properties":{"latitude":41.5459,"zipcode":50315.0,"sum of services provided":0.0,"client count":8.0,"longitude":-93.620899,"id":"a625c1ci8nuh"},"type":"Feature","geometry":{"type":"Point","coordinates":[-93.620899,41.5459]}},{"properties":{"latitude":41.60771,"zipcode":50316.0,"sum of services provided":0.0,"client count":5.0,"longitude":-93.598309,"id":"a625c1cr1kcw"},"type":"Feature","geometry":{"type":"Point","coordinates":[-93.598309,41.60771]}},{"properties":{"latitude":41.60989,"zipcode":50317.0,"sum of services provided":0.0,"client count":2.0,"longitude":-93.553642,"id":"a625c1cltjlj"},"type":"Feature","geometry":{"type":"Point","coordinates":[-93.553642,41.60989]}},{"properties":{"latitude":41.5333,"zipcode":50320.0,"sum of services provided":0.0,"client count":1.0,"longitude":-93.577479,"id":"a625c15r23x9"},"type":"Feature","geometry":{"type":"Point","coordinates":[-93.577479,41.5333]}},{"properties":{"latitude":41.63117,"zipcode":50322.0,"sum of services provided":0.0,"client count":3.0,"longitude":-93.727984,"id":"a625c1aqiz4i"},"type":"Feature","geometry":{"type":"Point","coordinates":[-93.727984,41.63117]}},{"properties":{"latitude":43.068245,"zipcode":50616.0,"sum of services provided":0.0,"client count":6.0,"longitude":-92.668889,"id":"a625c1d6sje8"},"type":"Feature","geometry":{"type":"Point","coordinates":[-92.668889,43.068245]}},{"properties":{"latitude":43.155909,"zipcode":50620.0,"sum of services provided":0.0,"client count":1.0,"longitude":-92.589529,"id":"a625c18ac98h"},"type":"Feature","geometry":{"type":"Point","coordinates":[-92.589529,43.155909]}},{"properties":{"latitude":42.896018,"zipcode":50636.0,"sum of services provided":0.0,"client count":1.0,"longitude":-92.807432,"id":"a625c13aa66g"},"type":"Feature","geometry":{"type":"Point","coordinates":[-92.807432,42.896018]}},{"properties":{"latitude":42.952795,"zipcode":50658.0,"sum of services provided":0.0,"client count":3.0,"longitude":-92.533678,"id":"a625c10ztg5p"},"type":"Feature","geometry":{"type":"Point","coordinates":[-92.533678,42.952795]}},{"properties":{"latitude":42.577035,"zipcode":50665.0,"sum of services provided":500.0,"client count":1.0,"longitude":-92.772819,"id":"a625c1d6g57c"},"type":"Feature","geometry":{"type":"Point","coordinates":[-92.772819,42.577035]}},{"properties":{"latitude":42.84752,"zipcode":50666.0,"sum of services provided":13.0,"client count":2.0,"longitude":-92.520809,"id":"a625c13db042"},"type":"Feature","geometry":{"type":"Point","coordinates":[-92.520809,42.84752]}},{"properties":{"latitude":42.734376,"zipcode":50677.0,"sum of services provided":126.75,"client count":12.0,"longitude":-92.470198,"id":"a625c143h6l9"},"type":"Feature","geometry":{"type":"Point","coordinates":[-92.470198,42.734376]}},{"properties":{"latitude":41.69472,"zipcode":52241.0,"sum of services provided":0.0,"client count":6.0,"longitude":-91.586979,"id":"a625c1ewlyyr"},"type":"Feature","geometry":{"type":"Point","coordinates":[-91.586979,41.69472]}},{"properties":{"latitude":41.65155,"zipcode":52246.0,"sum of services provided":0.0,"client count":1.0,"longitude":-91.566714,"id":"a625c19djwxj"},"type":"Feature","geometry":{"type":"Point","coordinates":[-91.566714,41.65155]}},{"properties":{"latitude":42.062343,"zipcode":52324.0,"sum of services provided":460.0,"client count":2.0,"longitude":-91.79762,"id":"a625c1a6eeii"},"type":"Feature","geometry":{"type":"Point","coordinates":[-91.79762,42.062343]}},{"properties":{"latitude":42.09453,"zipcode":52332.0,"sum of services provided":341.42,"client count":1.0,"longitude":-91.881309,"id":"a625c11g55tc"},"type":"Feature","geometry":{"type":"Point","coordinates":[-91.881309,42.09453]}},{"properties":{"latitude":41.98137,"zipcode":52403.0,"sum of services provided":740.0,"client count":2.0,"longitude":-91.616069,"id":"a625c1c2ogc7"},"type":"Feature","geometry":{"type":"Point","coordinates":[-91.616069,41.98137]}},{"properties":{"latitude":41.948938,"zipcode":52404.0,"sum of services provided":5895.89,"client count":19.0,"longitude":-91.687229,"id":"a625c106rqrl"},"type":"Feature","geometry":{"type":"Point","coordinates":[-91.687229,41.948938]}},{"properties":{"latitude":41.98114,"zipcode":52405.0,"sum of services provided":5605.69,"client count":22.0,"longitude":-91.710514,"id":"a625c13u30i8"},"type":"Feature","geometry":{"type":"Point","coordinates":[-91.710514,41.98114]}},{"properties":{"latitude":41.976341,"zipcode":52407.0,"sum of services provided":320.0,"client count":1.0,"longitude":-91.673767,"id":"a625c13vtb5s"},"type":"Feature","geometry":{"type":"Point","coordinates":[-91.673767,41.976341]}},{"properties":{"latitude":41.55409,"zipcode":52722.0,"sum of services provided":0.0,"client count":1.0,"longitude":-90.487529,"id":"a625c1a5872r"},"type":"Feature","geometry":{"type":"Point","coordinates":[-90.487529,41.55409]}},{"properties":{"latitude":43.39406,"zipcode":53035.0,"sum of services provided":0.0,"client count":1.0,"longitude":-88.541714,"id":"a625c16ncdy7"},"type":"Feature","geometry":{"type":"Point","coordinates":[-88.541714,43.39406]}},{"properties":{"latitude":43.07924,"zipcode":53038.0,"sum of services provided":0.0,"client count":1.0,"longitude":-88.781189,"id":"a625c19fu2j8"},"type":"Feature","geometry":{"type":"Point","coordinates":[-88.781189,43.07924]}},{"properties":{"latitude":43.10516,"zipcode":53066.0,"sum of services provided":0.0,"client count":2.0,"longitude":-88.482919,"id":"a625c149g6qp"},"type":"Feature","geometry":{"type":"Point","coordinates":[-88.482919,43.10516]}},{"properties":{"latitude":43.17334,"zipcode":53094.0,"sum of services provided":0.0,"client count":3.0,"longitude":-88.731959,"id":"a625c12jwk4n"},"type":"Feature","geometry":{"type":"Point","coordinates":[-88.731959,43.17334]}},{"properties":{"latitude":42.82297,"zipcode":53108.0,"sum of services provided":0.0,"client count":1.0,"longitude":-87.935914,"id":"a625c12e87qm"},"type":"Feature","geometry":{"type":"Point","coordinates":[-87.935914,42.82297]}},{"properties":{"latitude":42.901588,"zipcode":53132.0,"sum of services provided":0.0,"client count":3.0,"longitude":-88.005889,"id":"a625c13sie9d"},"type":"Feature","geometry":{"type":"Point","coordinates":[-88.005889,42.901588]}},{"properties":{"latitude":42.56491,"zipcode":53168.0,"sum of services provided":0.0,"client count":4.0,"longitude":-88.118859,"id":"a625c1f6d9xu"},"type":"Feature","geometry":{"type":"Point","coordinates":[-88.118859,42.56491]}},{"properties":{"latitude":42.55051,"zipcode":53170.0,"sum of services provided":0.0,"client count":2.0,"longitude":-88.168709,"id":"a625c18ldpy3"},"type":"Feature","geometry":{"type":"Point","coordinates":[-88.168709,42.55051]}},{"properties":{"latitude":42.79105,"zipcode":53185.0,"sum of services provided":0.0,"client count":1.0,"longitude":-88.198914,"id":"a625c15gm05k"},"type":"Feature","geometry":{"type":"Point","coordinates":[-88.198914,42.79105]}},{"properties":{"latitude":43.01702,"zipcode":53204.0,"sum of services provided":0.0,"client count":1.0,"longitude":-87.926069,"id":"a625c101c6jo"},"type":"Feature","geometry":{"type":"Point","coordinates":[-87.926069,43.01702]}},{"properties":{"latitude":43.05375,"zipcode":53205.0,"sum of services provided":0.0,"client count":1.0,"longitude":-87.933964,"id":"a625c10z4elr"},"type":"Feature","geometry":{"type":"Point","coordinates":[-87.933964,43.05375]}},{"properties":{"latitude":43.076635,"zipcode":53206.0,"sum of services provided":0.0,"client count":9.0,"longitude":-87.932388,"id":"a625c1dp9y85"},"type":"Feature","geometry":{"type":"Point","coordinates":[-87.932388,43.076635]}},{"properties":{"latitude":43.04683,"zipcode":53208.0,"sum of services provided":0.0,"client count":3.0,"longitude":-87.965429,"id":"a625c14scfu0"},"type":"Feature","geometry":{"type":"Point","coordinates":[-87.965429,43.04683]}},{"properties":{"latitude":43.12372,"zipcode":53209.0,"sum of services provided":0.0,"client count":13.0,"longitude":-87.947359,"id":"a625c14r9vtc"},"type":"Feature","geometry":{"type":"Point","coordinates":[-87.947359,43.12372]}},{"properties":{"latitude":43.06887,"zipcode":53210.0,"sum of services provided":0.0,"client count":2.0,"longitude":-87.974884,"id":"a625c17s2zp0"},"type":"Feature","geometry":{"type":"Point","coordinates":[-87.974884,43.06887]}},{"properties":{"latitude":43.07205,"zipcode":53212.0,"sum of services provided":0.0,"client count":2.0,"longitude":-87.909459,"id":"a625c161dky4"},"type":"Feature","geometry":{"type":"Point","coordinates":[-87.909459,43.07205]}},{"properties":{"latitude":43.02087,"zipcode":53214.0,"sum of services provided":0.0,"client count":1.0,"longitude":-88.01346,"id":"a625c1eh0n2m"},"type":"Feature","geometry":{"type":"Point","coordinates":[-88.01346,43.02087]}},{"properties":{"latitude":43.001562,"zipcode":53215.0,"sum of services provided":0.0,"client count":2.0,"longitude":-87.947001,"id":"a625c12xdz9d"},"type":"Feature","geometry":{"type":"Point","coordinates":[-87.947001,43.001562]}},{"properties":{"latitude":43.086205,"zipcode":53216.0,"sum of services provided":0.0,"client count":17.0,"longitude":-87.977739,"id":"a625c16k60uo"},"type":"Feature","geometry":{"type":"Point","coordinates":[-87.977739,43.086205]}},{"properties":{"latitude":43.11318,"zipcode":53218.0,"sum of services provided":0.0,"client count":22.0,"longitude":-87.994819,"id":"a625c13jz9p8"},"type":"Feature","geometry":{"type":"Point","coordinates":[-87.994819,43.11318]}},{"properties":{"latitude":42.9688,"zipcode":53220.0,"sum of services provided":0.0,"client count":1.0,"longitude":-87.992236,"id":"a625c162u5ra"},"type":"Feature","geometry":{"type":"Point","coordinates":[-87.992236,42.9688]}},{"properties":{"latitude":42.957535,"zipcode":53221.0,"sum of services provided":0.0,"client count":2.0,"longitude":-87.945579,"id":"a625c1fb9mte"},"type":"Feature","geometry":{"type":"Point","coordinates":[-87.945579,42.957535]}},{"properties":{"latitude":43.163735,"zipcode":53223.0,"sum of services provided":0.0,"client count":1.0,"longitude":-87.988619,"id":"a625c11q3gzh"},"type":"Feature","geometry":{"type":"Point","coordinates":[-87.988619,43.163735]}},{"properties":{"latitude":43.11766,"zipcode":53225.0,"sum of services provided":0.0,"client count":2.0,"longitude":-88.035829,"id":"a625c113vg4f"},"type":"Feature","geometry":{"type":"Point","coordinates":[-88.035829,43.11766]}},{"properties":{"latitude":42.70224,"zipcode":53403.0,"sum of services provided":0.0,"client count":1.0,"longitude":-87.806279,"id":"a625c167dag8"},"type":"Feature","geometry":{"type":"Point","coordinates":[-87.806279,42.70224]}},{"properties":{"latitude":42.74493,"zipcode":53404.0,"sum of services provided":0.0,"client count":5.0,"longitude":-87.806759,"id":"a625c17k0zfn"},"type":"Feature","geometry":{"type":"Point","coordinates":[-87.806759,42.74493]}},{"properties":{"latitude":42.71942,"zipcode":53405.0,"sum of services provided":0.0,"client count":9.0,"longitude":-87.824909,"id":"a625c1a4jizs"},"type":"Feature","geometry":{"type":"Point","coordinates":[-87.824909,42.71942]}},{"properties":{"latitude":43.05153,"zipcode":53531.0,"sum of services provided":0.0,"client count":1.0,"longitude":-89.092409,"id":"a625c1bhb724"},"type":"Feature","geometry":{"type":"Point","coordinates":[-89.092409,43.05153]}},{"properties":{"latitude":42.920133,"zipcode":53538.0,"sum of services provided":0.0,"client count":7.0,"longitude":-88.848251,"id":"a625c0ywikxx"},"type":"Feature","geometry":{"type":"Point","coordinates":[-88.848251,42.920133]}},{"properties":{"latitude":42.999411,"zipcode":53549.0,"sum of services provided":0.0,"client count":2.0,"longitude":-88.799691,"id":"a625c115qynv"},"type":"Feature","geometry":{"type":"Point","coordinates":[-88.799691,42.999411]}},{"properties":{"latitude":42.77342,"zipcode":53563.0,"sum of services provided":0.0,"client count":2.0,"longitude":-88.958679,"id":"a625c17gnr8m"},"type":"Feature","geometry":{"type":"Point","coordinates":[-88.958679,42.77342]}},{"properties":{"latitude":43.292585,"zipcode":53579.0,"sum of services provided":0.0,"client count":2.0,"longitude":-88.863579,"id":"a625c176xlta"},"type":"Feature","geometry":{"type":"Point","coordinates":[-88.863579,43.292585]}},{"properties":{"latitude":43.46119,"zipcode":53916.0,"sum of services provided":0.0,"client count":5.0,"longitude":-88.839503,"id":"a625c1cjos0g"},"type":"Feature","geometry":{"type":"Point","coordinates":[-88.839503,43.46119]}},{"properties":{"latitude":43.33374,"zipcode":53925.0,"sum of services provided":0.0,"client count":8.0,"longitude":-89.033235,"id":"a625c0yu28ek"},"type":"Feature","geometry":{"type":"Point","coordinates":[-89.033235,43.33374]}},{"properties":{"latitude":43.63581,"zipcode":53963.0,"sum of services provided":0.0,"client count":2.0,"longitude":-88.731074,"id":"a625c12a6x1l"},"type":"Feature","geometry":{"type":"Point","coordinates":[-88.731074,43.63581]}},{"properties":{"latitude":43.79818,"zipcode":54601.0,"sum of services provided":0.0,"client count":3.0,"longitude":-91.209606,"id":"a625c0zpu58c"},"type":"Feature","geometry":{"type":"Point","coordinates":[-91.209606,43.79818]}},{"properties":{"latitude":43.662531,"zipcode":54621.0,"sum of services provided":0.0,"client count":4.0,"longitude":-91.0834,"id":"a625c18a5p1l"},"type":"Feature","geometry":{"type":"Point","coordinates":[-91.0834,43.662531]}},{"properties":{"latitude":43.455457,"zipcode":54624.0,"sum of services provided":0.0,"client count":7.0,"longitude":-91.179739,"id":"a625c1eh1169"},"type":"Feature","geometry":{"type":"Point","coordinates":[-91.179739,43.455457]}},{"properties":{"latitude":43.294923,"zipcode":54631.0,"sum of services provided":0.0,"client count":19.0,"longitude":-90.853572,"id":"a625c18f0tb4"},"type":"Feature","geometry":{"type":"Point","coordinates":[-90.853572,43.294923]}},{"properties":{"latitude":43.558444,"zipcode":54632.0,"sum of services provided":0.0,"client count":1.0,"longitude":-91.173835,"id":"a625c0z235p6"},"type":"Feature","geometry":{"type":"Point","coordinates":[-91.173835,43.558444]}},{"properties":{"latitude":43.60823,"zipcode":54634.0,"sum of services provided":0.0,"client count":1.0,"longitude":-90.406692,"id":"a625c1db78ky"},"type":"Feature","geometry":{"type":"Point","coordinates":[-90.406692,43.60823]}},{"properties":{"latitude":43.599183,"zipcode":54639.0,"sum of services provided":0.0,"client count":2.0,"longitude":-90.652225,"id":"a625c1f0n75e"},"type":"Feature","geometry":{"type":"Point","coordinates":[-90.652225,43.599183]}},{"properties":{"latitude":43.718021,"zipcode":54651.0,"sum of services provided":0.0,"client count":1.0,"longitude":-90.585674,"id":"a625c12jaajs"},"type":"Feature","geometry":{"type":"Point","coordinates":[-90.585674,43.718021]}},{"properties":{"latitude":43.451719,"zipcode":54652.0,"sum of services provided":0.0,"client count":4.0,"longitude":-90.758963,"id":"a625c1cr3naf"},"type":"Feature","geometry":{"type":"Point","coordinates":[-90.758963,43.451719]}},{"properties":{"latitude":43.382002,"zipcode":54655.0,"sum of services provided":0.0,"client count":5.0,"longitude":-90.766383,"id":"a625c19fs0g5"},"type":"Feature","geometry":{"type":"Point","coordinates":[-90.766383,43.382002]}},{"properties":{"latitude":43.971477,"zipcode":54656.0,"sum of services provided":0.0,"client count":1.0,"longitude":-90.786019,"id":"a625c1clocq5"},"type":"Feature","geometry":{"type":"Point","coordinates":[-90.786019,43.971477]}},{"properties":{"latitude":43.691801,"zipcode":54658.0,"sum of services provided":0.0,"client count":1.0,"longitude":-91.192956,"id":"a625c14xp7dx"},"type":"Feature","geometry":{"type":"Point","coordinates":[-91.192956,43.691801]}},{"properties":{"latitude":43.49581,"zipcode":54664.0,"sum of services provided":0.0,"client count":1.0,"longitude":-90.634044,"id":"a625c1dplhte"},"type":"Feature","geometry":{"type":"Point","coordinates":[-90.634044,43.49581]}},{"properties":{"latitude":43.545736,"zipcode":54665.0,"sum of services provided":0.0,"client count":9.0,"longitude":-90.913289,"id":"a625c1b6pqpi"},"type":"Feature","geometry":{"type":"Point","coordinates":[-90.913289,43.545736]}},{"properties":{"latitude":43.660857,"zipcode":54667.0,"sum of services provided":0.0,"client count":3.0,"longitude":-90.855683,"id":"a625c0zgij89"},"type":"Feature","geometry":{"type":"Point","coordinates":[-90.855683,43.660857]}},{"properties":{"latitude":43.75609,"zipcode":55941.0,"sum of services provided":1000.0,"client count":1.0,"longitude":-91.344995,"id":"a625c1ezt0m7"},"type":"Feature","geometry":{"type":"Point","coordinates":[-91.344995,43.75609]}},{"properties":{"latitude":43.812635,"zipcode":55971.0,"sum of services provided":69363.72,"client count":62.0,"longitude":-91.747879,"id":"a625c10sjmtk"},"type":"Feature","geometry":{"type":"Point","coordinates":[-91.747879,43.812635]}},{"properties":{"latitude":29.98481,"zipcode":70001.0,"sum of services provided":0.0,"client count":18.0,"longitude":-90.167829,"id":"a625c16cbtaw"},"type":"Feature","geometry":{"type":"Point","coordinates":[-90.167829,29.98481]}},{"properties":{"latitude":30.00975,"zipcode":70002.0,"sum of services provided":9238.87,"client count":14.0,"longitude":-90.160419,"id":"a625c13ywmp4"},"type":"Feature","geometry":{"type":"Point","coordinates":[-90.160419,30.00975]}},{"properties":{"latitude":29.99758,"zipcode":70003.0,"sum of services provided":43694.62,"client count":16.0,"longitude":-90.215329,"id":"a625c15ml4xz"},"type":"Feature","geometry":{"type":"Point","coordinates":[-90.215329,29.99758]}},{"properties":{"latitude":29.99772,"zipcode":70005.0,"sum of services provided":0.0,"client count":4.0,"longitude":-90.132954,"id":"a625c135bqgr"},"type":"Feature","geometry":{"type":"Point","coordinates":[-90.132954,29.99772]}},{"properties":{"latitude":30.013525,"zipcode":70006.0,"sum of services provided":20001.0,"client count":5.0,"longitude":-90.191209,"id":"a625c19yg6ws"},"type":"Feature","geometry":{"type":"Point","coordinates":[-90.191209,30.013525]}},{"properties":{"latitude":29.823781,"zipcode":70030.0,"sum of services provided":0.0,"client count":1.0,"longitude":-90.448169,"id":"a625c10odfrp"},"type":"Feature","geometry":{"type":"Point","coordinates":[-90.448169,29.823781]}},{"properties":{"latitude":29.958214,"zipcode":70032.0,"sum of services provided":1716.75,"client count":13.0,"longitude":-89.998527,"id":"a625c1c0am0c"},"type":"Feature","geometry":{"type":"Point","coordinates":[-89.998527,29.958214]}},{"properties":{"latitude":29.714071,"zipcode":70036.0,"sum of services provided":0.0,"client count":4.0,"longitude":-90.115686,"id":"a625c0z5l825"},"type":"Feature","geometry":{"type":"Point","coordinates":[-90.115686,29.714071]}},{"properties":{"latitude":29.82353,"zipcode":70037.0,"sum of services provided":27841.27,"client count":20.0,"longitude":-90.006018,"id":"a625c12jvq2f"},"type":"Feature","geometry":{"type":"Point","coordinates":[-90.006018,29.82353]}},{"properties":{"latitude":29.34433,"zipcode":70038.0,"sum of services provided":29200.0,"client count":14.0,"longitude":-89.422959,"id":"a625c1f025g9"},"type":"Feature","geometry":{"type":"Point","coordinates":[-89.422959,29.34433]}},{"properties":{"latitude":29.9004,"zipcode":70039.0,"sum of services provided":0.0,"client count":3.0,"longitude":-90.389549,"id":"a625c19zefs2"},"type":"Feature","geometry":{"type":"Point","coordinates":[-90.389549,29.9004]}},{"properties":{"latitude":29.68807,"zipcode":70040.0,"sum of services provided":0.0,"client count":12.0,"longitude":-89.963449,"id":"a625c1cx4de5"},"type":"Feature","geometry":{"type":"Point","coordinates":[-89.963449,29.68807]}},{"properties":{"latitude":29.344172,"zipcode":70041.0,"sum of services provided":21295.12,"client count":22.0,"longitude":-89.500688,"id":"a625c1bbepoq"},"type":"Feature","geometry":{"type":"Point","coordinates":[-89.500688,29.344172]}},{"properties":{"latitude":29.946572,"zipcode":70043.0,"sum of services provided":107218.66,"client count":93.0,"longitude":-89.962378,"id":"a625c18z9ay1"},"type":"Feature","geometry":{"type":"Point","coordinates":[-89.962378,29.946572]}},{"properties":{"latitude":29.967562,"zipcode":70047.0,"sum of services provided":0.0,"client count":1.0,"longitude":-90.37533,"id":"a625c1bkqm1u"},"type":"Feature","geometry":{"type":"Point","coordinates":[-90.37533,29.967562]}},{"properties":{"latitude":29.387,"zipcode":70050.0,"sum of services provided":115021.43,"client count":20.0,"longitude":-89.596679,"id":"a625c1elxybs"},"type":"Feature","geometry":{"type":"Point","coordinates":[-89.596679,29.387]}},{"properties":{"latitude":30.062212,"zipcode":70052.0,"sum of services provided":26336.32,"client count":4.0,"longitude":-90.695475,"id":"a625c15nr24r"},"type":"Feature","geometry":{"type":"Point","coordinates":[-90.695475,30.062212]}},{"properties":{"latitude":29.91392,"zipcode":70053.0,"sum of services provided":36602.34,"client count":25.0,"longitude":-90.052027,"id":"a625c19a1qqc"},"type":"Feature","geometry":{"type":"Point","coordinates":[-90.052027,29.91392]}},{"properties":{"latitude":29.91662,"zipcode":70054.0,"sum of services provided":0.0,"client count":1.0,"longitude":-90.065712,"id":"a625c175fog0"},"type":"Feature","geometry":{"type":"Point","coordinates":[-90.065712,29.91662]}},{"properties":{"latitude":29.89092,"zipcode":70056.0,"sum of services provided":35937.5,"client count":34.0,"longitude":-90.030877,"id":"a625c10cyfuf"},"type":"Feature","geometry":{"type":"Point","coordinates":[-90.030877,29.89092]}},{"properties":{"latitude":29.966635,"zipcode":70057.0,"sum of services provided":60.0,"client count":1.0,"longitude":-90.424017,"id":"a625c10ahepy"},"type":"Feature","geometry":{"type":"Point","coordinates":[-90.424017,29.966635]}},{"properties":{"latitude":29.87716,"zipcode":70058.0,"sum of services provided":104900.17,"client count":64.0,"longitude":-90.06391,"id":"a625c1b8ngvm"},"type":"Feature","geometry":{"type":"Point","coordinates":[-90.06391,29.87716]}},{"properties":{"latitude":29.907471,"zipcode":70059.0,"sum of services provided":0.0,"client count":2.0,"longitude":-90.080971,"id":"a625c1atn5g2"},"type":"Feature","geometry":{"type":"Point","coordinates":[-90.080971,29.907471]}},{"properties":{"latitude":29.99112,"zipcode":70062.0,"sum of services provided":22822.4,"client count":24.0,"longitude":-90.247839,"id":"a625c1a5dss3"},"type":"Feature","geometry":{"type":"Point","coordinates":[-90.247839,29.99112]}},{"properties":{"latitude":30.02667,"zipcode":70065.0,"sum of services provided":44818.76,"client count":39.0,"longitude":-90.253019,"id":"a625c11f2sv4"},"type":"Feature","geometry":{"type":"Point","coordinates":[-90.253019,30.02667]}},{"properties":{"latitude":29.713111,"zipcode":70067.0,"sum of services provided":0.0,"client count":4.0,"longitude":-90.11045,"id":"a625c1f5gbu6"},"type":"Feature","geometry":{"type":"Point","coordinates":[-90.11045,29.713111]}},{"properties":{"latitude":30.074394,"zipcode":70068.0,"sum of services provided":0.0,"client count":8.0,"longitude":-90.481655,"id":"a625c1avlzre"},"type":"Feature","geometry":{"type":"Point","coordinates":[-90.481655,30.074394]}},{"properties":{"latitude":29.915609,"zipcode":70070.0,"sum of services provided":11430.0,"client count":3.0,"longitude":-90.360887,"id":"a625c1e294l2"},"type":"Feature","geometry":{"type":"Point","coordinates":[-90.360887,29.915609]}},{"properties":{"latitude":30.04665,"zipcode":70071.0,"sum of services provided":0.0,"client count":2.0,"longitude":-90.699829,"id":"a625c16j21zy"},"type":"Feature","geometry":{"type":"Point","coordinates":[-90.699829,30.04665]}},{"properties":{"latitude":29.86926,"zipcode":70072.0,"sum of services provided":89643.89,"client count":65.0,"longitude":-90.107869,"id":"a625c10e6557"},"type":"Feature","geometry":{"type":"Point","coordinates":[-90.107869,29.86926]}},{"properties":{"latitude":29.90143,"zipcode":70073.0,"sum of services provided":0.0,"client count":1.0,"longitude":-90.108739,"id":"a625c1b1szo3"},"type":"Feature","geometry":{"type":"Point","coordinates":[-90.108739,29.90143]}},{"properties":{"latitude":29.933726,"zipcode":70075.0,"sum of services provided":78774.22,"client count":35.0,"longitude":-89.919303,"id":"a625c10exic6"},"type":"Feature","geometry":{"type":"Point","coordinates":[-89.919303,29.933726]}},{"properties":{"latitude":30.057784,"zipcode":70076.0,"sum of services provided":0.0,"client count":1.0,"longitude":-90.634428,"id":"a625c19a0jwu"},"type":"Feature","geometry":{"type":"Point","coordinates":[-90.634428,30.057784]}},{"properties":{"latitude":29.57419,"zipcode":70082.0,"sum of services provided":20000.0,"client count":9.0,"longitude":-89.787959,"id":"a625c0z5n1dh"},"type":"Feature","geometry":{"type":"Point","coordinates":[-89.787959,29.57419]}},{"properties":{"latitude":29.538473,"zipcode":70083.0,"sum of services provided":117765.64,"client count":65.0,"longitude":-89.775032,"id":"a625c0z2i42z"},"type":"Feature","geometry":{"type":"Point","coordinates":[-89.775032,29.538473]}},{"properties":{"latitude":30.0628,"zipcode":70084.0,"sum of services provided":0.0,"client count":4.0,"longitude":-90.556484,"id":"a625c0zwob4d"},"type":"Feature","geometry":{"type":"Point","coordinates":[-90.556484,30.0628]}},{"properties":{"latitude":29.86398,"zipcode":70085.0,"sum of services provided":66277.85,"client count":31.0,"longitude":-89.827289,"id":"a625c1eu6yth"},"type":"Feature","geometry":{"type":"Point","coordinates":[-89.827289,29.86398]}},{"properties":{"latitude":30.023848,"zipcode":70086.0,"sum of services provided":0.0,"client count":1.0,"longitude":-90.857518,"id":"a625c11addob"},"type":"Feature","geometry":{"type":"Point","coordinates":[-90.857518,30.023848]}},{"properties":{"latitude":29.960805,"zipcode":70087.0,"sum of services provided":0.0,"client count":6.0,"longitude":-90.309397,"id":"a625c0zqg5nu"},"type":"Feature","geometry":{"type":"Point","coordinates":[-90.309397,29.960805]}},{"properties":{"latitude":29.978572,"zipcode":70090.0,"sum of services provided":20000.0,"client count":1.0,"longitude":-90.712843,"id":"a625c193e6y4"},"type":"Feature","geometry":{"type":"Point","coordinates":[-90.712843,29.978572]}},{"properties":{"latitude":29.26703,"zipcode":70091.0,"sum of services provided":0.0,"client count":6.0,"longitude":-89.358129,"id":"a625c17fspta"},"type":"Feature","geometry":{"type":"Point","coordinates":[-89.358129,29.26703]}},{"properties":{"latitude":29.90296,"zipcode":70092.0,"sum of services provided":105370.93,"client count":65.0,"longitude":-89.897599,"id":"a625c1a1r2wt"},"type":"Feature","geometry":{"type":"Point","coordinates":[-89.897599,29.90296]}},{"properties":{"latitude":29.85013,"zipcode":70093.0,"sum of services provided":0.0,"client count":1.0,"longitude":-89.988579,"id":"a625c1f7mynz"},"type":"Feature","geometry":{"type":"Point","coordinates":[-89.988579,29.85013]}},{"properties":{"latitude":29.9118,"zipcode":70094.0,"sum of services provided":76461.06,"client count":43.0,"longitude":-90.17917,"id":"a625c10fg5h9"},"type":"Feature","geometry":{"type":"Point","coordinates":[-90.17917,29.9118]}},{"properties":{"latitude":29.95674,"zipcode":70112.0,"sum of services provided":36230.33,"client count":34.0,"longitude":-90.076519,"id":"a625c16oy9rw"},"type":"Feature","geometry":{"type":"Point","coordinates":[-90.076519,29.95674]}},{"properties":{"latitude":29.943603,"zipcode":70113.0,"sum of services provided":26493.08,"client count":37.0,"longitude":-90.083535,"id":"a625c1ca0oxl"},"type":"Feature","geometry":{"type":"Point","coordinates":[-90.083535,29.943603]}},{"properties":{"latitude":29.93738,"zipcode":70114.0,"sum of services provided":76863.29,"client count":77.0,"longitude":-90.034223,"id":"a625c16nlqyd"},"type":"Feature","geometry":{"type":"Point","coordinates":[-90.034223,29.93738]}},{"properties":{"latitude":29.92707,"zipcode":70115.0,"sum of services provided":78796.41,"client count":66.0,"longitude":-90.102014,"id":"a625c1f8urz8"},"type":"Feature","geometry":{"type":"Point","coordinates":[-90.102014,29.92707]}},{"properties":{"latitude":29.96714,"zipcode":70116.0,"sum of services provided":60957.25,"client count":53.0,"longitude":-90.065389,"id":"a625c1175tpn"},"type":"Feature","geometry":{"type":"Point","coordinates":[-90.065389,29.96714]}},{"properties":{"latitude":29.970181,"zipcode":70117.0,"sum of services provided":377774.43,"client count":227.0,"longitude":-90.031529,"id":"a625c15g1xc4"},"type":"Feature","geometry":{"type":"Point","coordinates":[-90.031529,29.970181]}},{"properties":{"latitude":29.95117,"zipcode":70118.0,"sum of services provided":133824.65,"client count":96.0,"longitude":-90.123899,"id":"a625c0ysu1fo"},"type":"Feature","geometry":{"type":"Point","coordinates":[-90.123899,29.95117]}},{"properties":{"latitude":29.976298,"zipcode":70119.0,"sum of services provided":124672.86,"client count":131.0,"longitude":-90.086636,"id":"a625c10afi9u"},"type":"Feature","geometry":{"type":"Point","coordinates":[-90.086636,29.976298]}},{"properties":{"latitude":29.96305,"zipcode":70121.0,"sum of services provided":20001.0,"client count":10.0,"longitude":-90.159809,"id":"a625c119psd2"},"type":"Feature","geometry":{"type":"Point","coordinates":[-90.159809,29.96305]}},{"properties":{"latitude":30.00855,"zipcode":70122.0,"sum of services provided":3729534.54,"client count":135.0,"longitude":-90.063624,"id":"a625c17i7wrh"},"type":"Feature","geometry":{"type":"Point","coordinates":[-90.063624,30.00855]}},{"properties":{"latitude":29.95352,"zipcode":70123.0,"sum of services provided":5138.0,"client count":10.0,"longitude":-90.207409,"id":"a625c1e314hc"},"type":"Feature","geometry":{"type":"Point","coordinates":[-90.207409,29.95352]}},{"properties":{"latitude":30.0046,"zipcode":70124.0,"sum of services provided":24868.78,"client count":9.0,"longitude":-90.106774,"id":"a625c198lpt8"},"type":"Feature","geometry":{"type":"Point","coordinates":[-90.106774,30.0046]}},{"properties":{"latitude":29.951349,"zipcode":70125.0,"sum of services provided":68218.01,"client count":94.0,"longitude":-90.103738,"id":"a625c15yaqij"},"type":"Feature","geometry":{"type":"Point","coordinates":[-90.103738,29.951349]}},{"properties":{"latitude":30.01591,"zipcode":70126.0,"sum of services provided":252489.01,"client count":184.0,"longitude":-90.021469,"id":"a625c1csogrg"},"type":"Feature","geometry":{"type":"Point","coordinates":[-90.021469,30.01591]}},{"properties":{"latitude":30.030892,"zipcode":70127.0,"sum of services provided":135641.31,"client count":136.0,"longitude":-89.979016,"id":"a625c110cud8"},"type":"Feature","geometry":{"type":"Point","coordinates":[-89.979016,30.030892]}},{"properties":{"latitude":30.04824,"zipcode":70128.0,"sum of services provided":109818.02,"client count":69.0,"longitude":-89.957229,"id":"a625c1398tdv"},"type":"Feature","geometry":{"type":"Point","coordinates":[-89.957229,30.04824]}},{"properties":{"latitude":30.042308,"zipcode":70129.0,"sum of services provided":21818.93,"client count":25.0,"longitude":-89.908879,"id":"a625c0zpb4s9"},"type":"Feature","geometry":{"type":"Point","coordinates":[-89.908879,30.042308]}},{"properties":{"latitude":29.938769,"zipcode":70130.0,"sum of services provided":180.0,"client count":20.0,"longitude":-90.071164,"id":"a625c19cd41j"},"type":"Feature","geometry":{"type":"Point","coordinates":[-90.071164,29.938769]}},{"properties":{"latitude":29.91644,"zipcode":70131.0,"sum of services provided":19706.0,"client count":19.0,"longitude":-89.988389,"id":"a625c0zgfdlz"},"type":"Feature","geometry":{"type":"Point","coordinates":[-89.988389,29.91644]}},{"properties":{"latitude":29.95369,"zipcode":70146.0,"sum of services provided":20000.0,"client count":1.0,"longitude":-90.077759,"id":"a625c13mr0a9"},"type":"Feature","geometry":{"type":"Point","coordinates":[-90.077759,29.95369]}},{"properties":{"latitude":29.95369,"zipcode":70150.0,"sum of services provided":0.0,"client count":1.0,"longitude":-90.077759,"id":"a625c13k4ufw"},"type":"Feature","geometry":{"type":"Point","coordinates":[-90.077759,29.95369]}},{"properties":{"latitude":29.95369,"zipcode":70153.0,"sum of services provided":0.0,"client count":1.0,"longitude":-90.077759,"id":"a625c1bvvjp1"},"type":"Feature","geometry":{"type":"Point","coordinates":[-90.077759,29.95369]}},{"properties":{"latitude":29.95369,"zipcode":70174.0,"sum of services provided":0.0,"client count":1.0,"longitude":-90.077759,"id":"a625c14lsuqx"},"type":"Feature","geometry":{"type":"Point","coordinates":[-90.077759,29.95369]}},{"properties":{"latitude":29.7969,"zipcode":70301.0,"sum of services provided":0.0,"client count":12.0,"longitude":-90.814259,"id":"a625c11v6et8"},"type":"Feature","geometry":{"type":"Point","coordinates":[-90.814259,29.7969]}},{"properties":{"latitude":29.949388,"zipcode":70339.0,"sum of services provided":0.0,"client count":3.0,"longitude":-91.206819,"id":"a625c11um4j6"},"type":"Feature","geometry":{"type":"Point","coordinates":[-91.206819,29.949388]}},{"properties":{"latitude":30.023999,"zipcode":70341.0,"sum of services provided":0.0,"client count":17.0,"longitude":-91.049702,"id":"a625c15hq0lh"},"type":"Feature","geometry":{"type":"Point","coordinates":[-91.049702,30.023999]}},{"properties":{"latitude":29.550284,"zipcode":70343.0,"sum of services provided":0.0,"client count":4.0,"longitude":-90.592966,"id":"a625c19m2dm2"},"type":"Feature","geometry":{"type":"Point","coordinates":[-90.592966,29.550284]}},{"properties":{"latitude":29.415241,"zipcode":70344.0,"sum of services provided":0.0,"client count":14.0,"longitude":-90.606999,"id":"a625c164flzl"},"type":"Feature","geometry":{"type":"Point","coordinates":[-90.606999,29.415241]}},{"properties":{"latitude":29.51903,"zipcode":70345.0,"sum of services provided":0.0,"client count":2.0,"longitude":-90.339969,"id":"a625c0zmb01l"},"type":"Feature","geometry":{"type":"Point","coordinates":[-90.339969,29.51903]}},{"properties":{"latitude":30.102202,"zipcode":70346.0,"sum of services provided":4736.88,"client count":21.0,"longitude":-90.994568,"id":"a625c1dg94x0"},"type":"Feature","geometry":{"type":"Point","coordinates":[-90.994568,30.102202]}},{"properties":{"latitude":29.405924,"zipcode":70353.0,"sum of services provided":0.0,"client count":16.0,"longitude":-90.705337,"id":"a625c1eyvhwg"},"type":"Feature","geometry":{"type":"Point","coordinates":[-90.705337,29.405924]}},{"properties":{"latitude":29.427389,"zipcode":70354.0,"sum of services provided":0.0,"client count":4.0,"longitude":-90.292418,"id":"a625c0z6swg3"},"type":"Feature","geometry":{"type":"Point","coordinates":[-90.292418,29.427389]}},{"properties":{"latitude":29.701591,"zipcode":70355.0,"sum of services provided":0.0,"client count":1.0,"longitude":-90.479431,"id":"a625c130i3eh"},"type":"Feature","geometry":{"type":"Point","coordinates":[-90.479431,29.701591]}},{"properties":{"latitude":29.65702,"zipcode":70356.0,"sum of services provided":0.0,"client count":1.0,"longitude":-90.972959,"id":"a625c10p9lur"},"type":"Feature","geometry":{"type":"Point","coordinates":[-90.972959,29.65702]}},{"properties":{"latitude":29.34287,"zipcode":70357.0,"sum of services provided":0.0,"client count":4.0,"longitude":-90.247077,"id":"a625c12a9q7n"},"type":"Feature","geometry":{"type":"Point","coordinates":[-90.247077,29.34287]}},{"properties":{"latitude":29.683481,"zipcode":70359.0,"sum of services provided":214757.8,"client count":14.0,"longitude":-90.774047,"id":"a625c1b1lvs5"},"type":"Feature","geometry":{"type":"Point","coordinates":[-90.774047,29.683481]}},{"properties":{"latitude":29.593112,"zipcode":70360.0,"sum of services provided":0.0,"client count":5.0,"longitude":-90.747998,"id":"a625c11numvk"},"type":"Feature","geometry":{"type":"Point","coordinates":[-90.747998,29.593112]}},{"properties":{"latitude":29.57073,"zipcode":70363.0,"sum of services provided":52233.23,"client count":18.0,"longitude":-90.69429,"id":"a625c1ecd68o"},"type":"Feature","geometry":{"type":"Point","coordinates":[-90.69429,29.57073]}},{"properties":{"latitude":29.632038,"zipcode":70364.0,"sum of services provided":3335.0,"client count":37.0,"longitude":-90.711329,"id":"a625c11p9ntf"},"type":"Feature","geometry":{"type":"Point","coordinates":[-90.711329,29.632038]}},{"properties":{"latitude":29.835068,"zipcode":70372.0,"sum of services provided":0.0,"client count":3.0,"longitude":-90.962516,"id":"a625c1c9btgf"},"type":"Feature","geometry":{"type":"Point","coordinates":[-90.962516,29.835068]}},{"properties":{"latitude":29.480669,"zipcode":70377.0,"sum of services provided":20000.0,"client count":11.0,"longitude":-90.54347,"id":"a625c1bihbss"},"type":"Feature","geometry":{"type":"Point","coordinates":[-90.54347,29.480669]}},{"properties":{"latitude":29.930432,"zipcode":70390.0,"sum of services provided":0.0,"client count":21.0,"longitude":-91.017162,"id":"a625c1acpo4d"},"type":"Feature","geometry":{"type":"Point","coordinates":[-91.017162,29.930432]}},{"properties":{"latitude":29.99613,"zipcode":70391.0,"sum of services provided":0.0,"client count":3.0,"longitude":-91.056329,"id":"a625c10pzdpj"},"type":"Feature","geometry":{"type":"Point","coordinates":[-91.056329,29.99613]}},{"properties":{"latitude":29.712612,"zipcode":70394.0,"sum of services provided":0.0,"client count":6.0,"longitude":-90.593592,"id":"a625c13c09od"},"type":"Feature","geometry":{"type":"Point","coordinates":[-90.593592,29.712612]}},{"properties":{"latitude":29.401621,"zipcode":70397.0,"sum of services provided":0.0,"client count":9.0,"longitude":-90.756719,"id":"a625c11hrey8"},"type":"Feature","geometry":{"type":"Point","coordinates":[-90.756719,29.401621]}},{"properties":{"latitude":30.5192,"zipcode":70401.0,"sum of services provided":0.0,"client count":9.0,"longitude":-90.479549,"id":"a625c15l8apm"},"type":"Feature","geometry":{"type":"Point","coordinates":[-90.479549,30.5192]}},{"properties":{"latitude":30.515539,"zipcode":70402.0,"sum of services provided":0.0,"client count":1.0,"longitude":-90.468483,"id":"a625c180x2ym"},"type":"Feature","geometry":{"type":"Point","coordinates":[-90.468483,30.515539]}},{"properties":{"latitude":30.48618,"zipcode":70403.0,"sum of services provided":1331.98,"client count":8.0,"longitude":-90.478389,"id":"a625c19u3woy"},"type":"Feature","geometry":{"type":"Point","coordinates":[-90.478389,30.48618]}},{"properties":{"latitude":30.504169,"zipcode":70404.0,"sum of services provided":0.0,"client count":1.0,"longitude":-90.458397,"id":"a625c1c49fxk"},"type":"Feature","geometry":{"type":"Point","coordinates":[-90.458397,30.504169]}},{"properties":{"latitude":30.482407,"zipcode":70420.0,"sum of services provided":0.0,"client count":4.0,"longitude":-90.004879,"id":"a625c1dn79oq"},"type":"Feature","geometry":{"type":"Point","coordinates":[-90.004879,30.482407]}},{"properties":{"latitude":30.72625,"zipcode":70422.0,"sum of services provided":39586.98,"client count":27.0,"longitude":-90.534089,"id":"a625c0zj5up8"},"type":"Feature","geometry":{"type":"Point","coordinates":[-90.534089,30.72625]}},{"properties":{"latitude":30.9302,"zipcode":70426.0,"sum of services provided":20000.0,"client count":7.0,"longitude":-89.86753,"id":"a625c14qaghb"},"type":"Feature","geometry":{"type":"Point","coordinates":[-89.86753,30.9302]}},{"properties":{"latitude":30.76725,"zipcode":70427.0,"sum of services provided":6625.95,"client count":15.0,"longitude":-89.876489,"id":"a625c15qn34d"},"type":"Feature","geometry":{"type":"Point","coordinates":[-89.876489,30.76725]}},{"properties":{"latitude":30.790621,"zipcode":70429.0,"sum of services provided":0.0,"client count":1.0,"longitude":-89.864311,"id":"a625c1627rdc"},"type":"Feature","geometry":{"type":"Point","coordinates":[-89.864311,30.790621]}},{"properties":{"latitude":30.61354,"zipcode":70431.0,"sum of services provided":13030.0,"client count":4.0,"longitude":-89.947383,"id":"a625c11jso78"},"type":"Feature","geometry":{"type":"Point","coordinates":[-89.947383,30.61354]}},{"properties":{"latitude":30.461752,"zipcode":70433.0,"sum of services provided":0.0,"client count":15.0,"longitude":-90.104077,"id":"a625c13rfeho"},"type":"Feature","geometry":{"type":"Point","coordinates":[-90.104077,30.461752]}},{"properties":{"latitude":30.54101,"zipcode":70435.0,"sum of services provided":0.0,"client count":2.0,"longitude":-90.091948,"id":"a625c15a6uau"},"type":"Feature","geometry":{"type":"Point","coordinates":[-90.091948,30.54101]}},{"properties":{"latitude":30.824825,"zipcode":70436.0,"sum of services provided":0.0,"client count":2.0,"longitude":-90.529009,"id":"a625c1a7vifs"},"type":"Feature","geometry":{"type":"Point","coordinates":[-90.529009,30.824825]}},{"properties":{"latitude":30.61334,"zipcode":70437.0,"sum of services provided":0.0,"client count":6.0,"longitude":-90.198592,"id":"a625c17xxr9c"},"type":"Feature","geometry":{"type":"Point","coordinates":[-90.198592,30.61334]}},{"properties":{"latitude":30.858418,"zipcode":70438.0,"sum of services provided":54150.0,"client count":30.0,"longitude":-90.123058,"id":"a625c11dn2y6"},"type":"Feature","geometry":{"type":"Point","coordinates":[-90.123058,30.858418]}},{"properties":{"latitude":30.86451,"zipcode":70441.0,"sum of services provided":77055.81,"client count":10.0,"longitude":-90.728469,"id":"a625c12f545m"},"type":"Feature","geometry":{"type":"Point","coordinates":[-90.728469,30.86451]}},{"properties":{"latitude":30.63179,"zipcode":70443.0,"sum of services provided":0.0,"client count":11.0,"longitude":-90.518902,"id":"a625c10fi3jn"},"type":"Feature","geometry":{"type":"Point","coordinates":[-90.518902,30.63179]}},{"properties":{"latitude":30.911099,"zipcode":70444.0,"sum of services provided":20000.0,"client count":8.0,"longitude":-90.485279,"id":"a625c1dn63c5"},"type":"Feature","geometry":{"type":"Point","coordinates":[-90.485279,30.911099]}},{"properties":{"latitude":30.328145,"zipcode":70445.0,"sum of services provided":6699.31,"client count":17.0,"longitude":-89.928599,"id":"a625c15kyhf7"},"type":"Feature","geometry":{"type":"Point","coordinates":[-89.928599,30.328145]}},{"properties":{"latitude":30.60667,"zipcode":70446.0,"sum of services provided":0.0,"client count":3.0,"longitude":-90.343729,"id":"a625c1dpmg4q"},"type":"Feature","geometry":{"type":"Point","coordinates":[-90.343729,30.60667]}},{"properties":{"latitude":30.433412,"zipcode":70447.0,"sum of services provided":0.0,"client count":1.0,"longitude":-90.186101,"id":"a625c135fxab"},"type":"Feature","geometry":{"type":"Point","coordinates":[-90.186101,30.433412]}},{"properties":{"latitude":30.370594,"zipcode":70448.0,"sum of services provided":0.0,"client count":8.0,"longitude":-90.057863,"id":"a625c18s89lm"},"type":"Feature","geometry":{"type":"Point","coordinates":[-90.057863,30.370594]}},{"properties":{"latitude":30.271484,"zipcode":70449.0,"sum of services provided":0.0,"client count":4.0,"longitude":-90.713058,"id":"a625c1epwej5"},"type":"Feature","geometry":{"type":"Point","coordinates":[-90.713058,30.271484]}},{"properties":{"latitude":30.938362,"zipcode":70450.0,"sum of services provided":0.0,"client count":5.0,"longitude":-90.271928,"id":"a625c1ez078f"},"type":"Feature","geometry":{"type":"Point","coordinates":[-90.271928,30.938362]}},{"properties":{"latitude":30.54393,"zipcode":70451.0,"sum of services provided":0.0,"client count":2.0,"longitude":-90.477179,"id":"a625c1d7maw4"},"type":"Feature","geometry":{"type":"Point","coordinates":[-90.477179,30.54393]}},{"properties":{"latitude":30.393448,"zipcode":70452.0,"sum of services provided":20174.14,"client count":15.0,"longitude":-89.771619,"id":"a625c1d5o1oc"},"type":"Feature","geometry":{"type":"Point","coordinates":[-89.771619,30.393448]}},{"properties":{"latitude":30.695421,"zipcode":70453.0,"sum of services provided":0.0,"client count":1.0,"longitude":-90.764709,"id":"a625c1dsfcwq"},"type":"Feature","geometry":{"type":"Point","coordinates":[-90.764709,30.695421]}},{"properties":{"latitude":30.44133,"zipcode":70454.0,"sum of services provided":22247.1,"client count":13.0,"longitude":-90.409567,"id":"a625c1091q85"},"type":"Feature","geometry":{"type":"Point","coordinates":[-90.409567,30.44133]}},{"properties":{"latitude":30.5164,"zipcode":70455.0,"sum of services provided":0.0,"client count":3.0,"longitude":-90.335129,"id":"a625c1ehpxbc"},"type":"Feature","geometry":{"type":"Point","coordinates":[-90.335129,30.5164]}},{"properties":{"latitude":30.77515,"zipcode":70456.0,"sum of services provided":0.0,"client count":15.0,"longitude":-90.517589,"id":"a625c139773t"},"type":"Feature","geometry":{"type":"Point","coordinates":[-90.517589,30.77515]}},{"properties":{"latitude":30.273393,"zipcode":70458.0,"sum of services provided":9070.0,"client count":41.0,"longitude":-89.77273,"id":"a625c1f4c767"},"type":"Feature","geometry":{"type":"Point","coordinates":[-89.77273,30.273393]}},{"properties":{"latitude":30.275761,"zipcode":70459.0,"sum of services provided":0.0,"client count":5.0,"longitude":-89.781662,"id":"a625c17vlt21"},"type":"Feature","geometry":{"type":"Point","coordinates":[-89.781662,30.275761]}},{"properties":{"latitude":30.3009,"zipcode":70460.0,"sum of services provided":415.0,"client count":38.0,"longitude":-89.813179,"id":"a625c1414070"},"type":"Feature","geometry":{"type":"Point","coordinates":[-89.813179,30.3009]}},{"properties":{"latitude":30.27096,"zipcode":70461.0,"sum of services provided":7509.1,"client count":39.0,"longitude":-89.730669,"id":"a625c1agkoqk"},"type":"Feature","geometry":{"type":"Point","coordinates":[-89.730669,30.27096]}},{"properties":{"latitude":30.400871,"zipcode":70462.0,"sum of services provided":0.0,"client count":6.0,"longitude":-90.571542,"id":"a625c1a7mr14"},"type":"Feature","geometry":{"type":"Point","coordinates":[-90.571542,30.400871]}},{"properties":{"latitude":30.648991,"zipcode":70463.0,"sum of services provided":0.0,"client count":1.0,"longitude":-89.893951,"id":"a625c17dgjfg"},"type":"Feature","geometry":{"type":"Point","coordinates":[-89.893951,30.648991]}},{"properties":{"latitude":30.87421,"zipcode":70465.0,"sum of services provided":0.0,"client count":2.0,"longitude":-90.510964,"id":"a625c16kfi61"},"type":"Feature","geometry":{"type":"Point","coordinates":[-90.510964,30.87421]}},{"properties":{"latitude":30.567355,"zipcode":70466.0,"sum of services provided":20000.0,"client count":2.0,"longitude":-90.490053,"id":"a625c178p8bq"},"type":"Feature","geometry":{"type":"Point","coordinates":[-90.490053,30.567355]}},{"properties":{"latitude":30.372549,"zipcode":70470.0,"sum of services provided":0.0,"client count":1.0,"longitude":-90.079079,"id":"a625c137wdkm"},"type":"Feature","geometry":{"type":"Point","coordinates":[-90.079079,30.372549]}},{"properties":{"latitude":30.40361,"zipcode":70471.0,"sum of services provided":0.0,"client count":2.0,"longitude":-90.082608,"id":"a625c0zqfefr"},"type":"Feature","geometry":{"type":"Point","coordinates":[-90.082608,30.40361]}},{"properties":{"latitude":30.234739,"zipcode":70501.0,"sum of services provided":0.0,"client count":1.0,"longitude":-92.008343,"id":"a625c1bx1fp1"},"type":"Feature","geometry":{"type":"Point","coordinates":[-92.008343,30.234739]}},{"properties":{"latitude":30.208862,"zipcode":70506.0,"sum of services provided":0.0,"client count":1.0,"longitude":-92.062956,"id":"a625c1b1bwqw"},"type":"Feature","geometry":{"type":"Point","coordinates":[-92.062956,30.208862]}},{"properties":{"latitude":29.953289,"zipcode":70510.0,"sum of services provided":50771.45,"client count":22.0,"longitude":-92.144404,"id":"a625c16b3vzl"},"type":"Feature","geometry":{"type":"Point","coordinates":[-92.144404,29.953289]}},{"properties":{"latitude":30.292169,"zipcode":70517.0,"sum of services provided":20000.0,"client count":1.0,"longitude":-91.865839,"id":"a625c19yk57p"},"type":"Feature","geometry":{"type":"Point","coordinates":[-91.865839,30.292169]}},{"properties":{"latitude":29.876663,"zipcode":70523.0,"sum of services provided":12126.2,"client count":1.0,"longitude":-91.531513,"id":"a625c1f68c1l"},"type":"Feature","geometry":{"type":"Point","coordinates":[-91.531513,29.876663]}},{"properties":{"latitude":30.407732,"zipcode":70525.0,"sum of services provided":0.0,"client count":1.0,"longitude":-92.216276,"id":"a625c1am9qf6"},"type":"Feature","geometry":{"type":"Point","coordinates":[-92.216276,30.407732]}},{"properties":{"latitude":30.21693,"zipcode":70526.0,"sum of services provided":0.0,"client count":1.0,"longitude":-92.378419,"id":"a625c0ywsvak"},"type":"Feature","geometry":{"type":"Point","coordinates":[-92.378419,30.21693]}},{"properties":{"latitude":30.210569,"zipcode":70527.0,"sum of services provided":20000.0,"client count":1.0,"longitude":-92.372231,"id":"a625c17a4y5e"},"type":"Feature","geometry":{"type":"Point","coordinates":[-92.372231,30.210569]}},{"properties":{"latitude":29.9498,"zipcode":70528.0,"sum of services provided":19652.0,"client count":8.0,"longitude":-91.987639,"id":"a625c1ata4ix"},"type":"Feature","geometry":{"type":"Point","coordinates":[-91.987639,29.9498]}},{"properties":{"latitude":29.948014,"zipcode":70533.0,"sum of services provided":85284.02,"client count":16.0,"longitude":-92.034158,"id":"a625c19qxfl4"},"type":"Feature","geometry":{"type":"Point","coordinates":[-92.034158,29.948014]}},{"properties":{"latitude":29.773406,"zipcode":70538.0,"sum of services provided":20000.0,"client count":5.0,"longitude":-91.517626,"id":"a625c11ds6t8"},"type":"Feature","geometry":{"type":"Point","coordinates":[-91.517626,29.773406]}},{"properties":{"latitude":29.908655,"zipcode":70544.0,"sum of services provided":21404.8,"client count":3.0,"longitude":-91.660474,"id":"a625c1b5gjwl"},"type":"Feature","geometry":{"type":"Point","coordinates":[-91.660474,29.908655]}},{"properties":{"latitude":30.23286,"zipcode":70546.0,"sum of services provided":6936.11,"client count":6.0,"longitude":-92.663399,"id":"a625c18d5lkm"},"type":"Feature","geometry":{"type":"Point","coordinates":[-92.663399,30.23286]}},{"properties":{"latitude":29.991921,"zipcode":70548.0,"sum of services provided":3275.0,"client count":7.0,"longitude":-92.298959,"id":"a625c1euoqtd"},"type":"Feature","geometry":{"type":"Point","coordinates":[-92.298959,29.991921]}},{"properties":{"latitude":30.06913,"zipcode":70552.0,"sum of services provided":20000.0,"client count":1.0,"longitude":-91.691602,"id":"a625c1eqac3t"},"type":"Feature","geometry":{"type":"Point","coordinates":[-91.691602,30.06913]}},{"properties":{"latitude":29.98537,"zipcode":70560.0,"sum of services provided":99841.87,"client count":23.0,"longitude":-91.846439,"id":"a625c1d51n4m"},"type":"Feature","geometry":{"type":"Point","coordinates":[-91.846439,29.98537]}},{"properties":{"latitude":30.53093,"zipcode":70570.0,"sum of services provided":0.0,"client count":4.0,"longitude":-92.099238,"id":"a625c1cnzupw"},"type":"Feature","geometry":{"type":"Point","coordinates":[-92.099238,30.53093]}},{"properties":{"latitude":30.234065,"zipcode":70578.0,"sum of services provided":19814.62,"client count":3.0,"longitude":-92.264479,"id":"a625c0zu8r39"},"type":"Feature","geometry":{"type":"Point","coordinates":[-92.264479,30.234065]}},{"properties":{"latitude":30.14312,"zipcode":70582.0,"sum of services provided":0.0,"client count":1.0,"longitude":-91.815659,"id":"a625c188qk8q"},"type":"Feature","geometry":{"type":"Point","coordinates":[-91.815659,30.14312]}},{"properties":{"latitude":30.22566,"zipcode":70601.0,"sum of services provided":116652.53,"client count":63.0,"longitude":-93.204189,"id":"a625c0zkdi2k"},"type":"Feature","geometry":{"type":"Point","coordinates":[-93.204189,30.22566]}},{"properties":{"latitude":30.224079,"zipcode":70602.0,"sum of services provided":0.0,"client count":1.0,"longitude":-93.2201,"id":"a625c1efa364"},"type":"Feature","geometry":{"type":"Point","coordinates":[-93.2201,30.224079]}},{"properties":{"latitude":30.165278,"zipcode":70605.0,"sum of services provided":25094.3,"client count":9.0,"longitude":-93.251059,"id":"a625c17ymel4"},"type":"Feature","geometry":{"type":"Point","coordinates":[-93.251059,30.165278]}},{"properties":{"latitude":30.139637,"zipcode":70607.0,"sum of services provided":112972.32,"client count":27.0,"longitude":-93.198229,"id":"a625c17zepcc"},"type":"Feature","geometry":{"type":"Point","coordinates":[-93.198229,30.139637]}},{"properties":{"latitude":30.32576,"zipcode":70611.0,"sum of services provided":28239.97,"client count":5.0,"longitude":-93.213449,"id":"a625c10fufx6"},"type":"Feature","geometry":{"type":"Point","coordinates":[-93.213449,30.32576]}},{"properties":{"latitude":30.24041,"zipcode":70615.0,"sum of services provided":21902.46,"client count":12.0,"longitude":-93.149689,"id":"a625c1buntfo"},"type":"Feature","geometry":{"type":"Point","coordinates":[-93.149689,30.24041]}},{"properties":{"latitude":30.07901,"zipcode":70630.0,"sum of services provided":0.0,"client count":2.0,"longitude":-93.018092,"id":"a625c1611ud3"},"type":"Feature","geometry":{"type":"Point","coordinates":[-93.018092,30.07901]}},{"properties":{"latitude":29.807005,"zipcode":70631.0,"sum of services provided":93876.47,"client count":11.0,"longitude":-93.302418,"id":"a625c1e5niz1"},"type":"Feature","geometry":{"type":"Point","coordinates":[-93.302418,29.807005]}},{"properties":{"latitude":29.812359,"zipcode":70632.0,"sum of services provided":0.0,"client count":3.0,"longitude":-93.07755,"id":"a625c0z4dx92"},"type":"Feature","geometry":{"type":"Point","coordinates":[-93.07755,29.812359]}},{"properties":{"latitude":30.45348,"zipcode":70633.0,"sum of services provided":77499.97,"client count":8.0,"longitude":-93.407603,"id":"a625c147t2ku"},"type":"Feature","geometry":{"type":"Point","coordinates":[-93.407603,30.45348]}},{"properties":{"latitude":30.823827,"zipcode":70634.0,"sum of services provided":117098.7,"client count":8.0,"longitude":-93.258289,"id":"a625c19ys2pe"},"type":"Feature","geometry":{"type":"Point","coordinates":[-93.258289,30.823827]}},{"properties":{"latitude":29.745328,"zipcode":70643.0,"sum of services provided":13033.0,"client count":1.0,"longitude":-92.882065,"id":"a625c1avnjqu"},"type":"Feature","geometry":{"type":"Point","coordinates":[-92.882065,29.745328]}},{"properties":{"latitude":30.79008,"zipcode":70644.0,"sum of services provided":17950.0,"client count":1.0,"longitude":-92.949165,"id":"a625c19tw3il"},"type":"Feature","geometry":{"type":"Point","coordinates":[-92.949165,30.79008]}},{"properties":{"latitude":29.989295,"zipcode":70645.0,"sum of services provided":20000.0,"client count":4.0,"longitude":-93.366669,"id":"a625c145q0cx"},"type":"Feature","geometry":{"type":"Point","coordinates":[-93.366669,29.989295]}},{"properties":{"latitude":30.24001,"zipcode":70647.0,"sum of services provided":22565.2,"client count":4.0,"longitude":-93.018428,"id":"a625c110jl02"},"type":"Feature","geometry":{"type":"Point","coordinates":[-93.018428,30.24001]}},{"properties":{"latitude":30.48658,"zipcode":70648.0,"sum of services provided":20000.0,"client count":3.0,"longitude":-92.855619,"id":"a625c15docvz"},"type":"Feature","geometry":{"type":"Point","coordinates":[-92.855619,30.48658]}},{"properties":{"latitude":30.601929,"zipcode":70652.0,"sum of services provided":14500.0,"client count":1.0,"longitude":-93.236389,"id":"a625c11t6tql"},"type":"Feature","geometry":{"type":"Point","coordinates":[-93.236389,30.601929]}},{"properties":{"latitude":30.686518,"zipcode":70653.0,"sum of services provided":20000.0,"client count":1.0,"longitude":-93.553239,"id":"a625c0zgjtfj"},"type":"Feature","geometry":{"type":"Point","coordinates":[-93.553239,30.686518]}},{"properties":{"latitude":30.618319,"zipcode":70655.0,"sum of services provided":2900.0,"client count":1.0,"longitude":-92.75063,"id":"a625c17hfur1"},"type":"Feature","geometry":{"type":"Point","coordinates":[-92.75063,30.618319]}},{"properties":{"latitude":30.47376,"zipcode":70657.0,"sum of services provided":14869.9,"client count":3.0,"longitude":-93.181609,"id":"a625c15tw6ix"},"type":"Feature","geometry":{"type":"Point","coordinates":[-93.181609,30.47376]}},{"properties":{"latitude":30.51557,"zipcode":70658.0,"sum of services provided":59877.25,"client count":3.0,"longitude":-93.045954,"id":"a625c167zb32"},"type":"Feature","geometry":{"type":"Point","coordinates":[-93.045954,30.51557]}},{"properties":{"latitude":30.55584,"zipcode":70660.0,"sum of services provided":23200.0,"client count":2.0,"longitude":-93.435192,"id":"a625c1e9og0q"},"type":"Feature","geometry":{"type":"Point","coordinates":[-93.435192,30.55584]}},{"properties":{"latitude":30.356493,"zipcode":70661.0,"sum of services provided":20400.0,"client count":2.0,"longitude":-93.660637,"id":"a625c1axrvxn"},"type":"Feature","geometry":{"type":"Point","coordinates":[-93.660637,30.356493]}},{"properties":{"latitude":30.24386,"zipcode":70663.0,"sum of services provided":13892.69,"client count":5.0,"longitude":-93.359379,"id":"a625c1c5vo1v"},"type":"Feature","geometry":{"type":"Point","coordinates":[-93.359379,30.24386]}},{"properties":{"latitude":30.236589,"zipcode":70664.0,"sum of services provided":13669.16,"client count":1.0,"longitude":-93.377983,"id":"a625c14kxif7"},"type":"Feature","geometry":{"type":"Point","coordinates":[-93.377983,30.236589]}},{"properties":{"latitude":30.17249,"zipcode":70665.0,"sum of services provided":0.0,"client count":3.0,"longitude":-93.382379,"id":"a625c127527p"},"type":"Feature","geometry":{"type":"Point","coordinates":[-93.382379,30.17249]}},{"properties":{"latitude":30.1966,"zipcode":70668.0,"sum of services provided":200.0,"client count":2.0,"longitude":-93.588629,"id":"a625c1drpg1a"},"type":"Feature","geometry":{"type":"Point","coordinates":[-93.588629,30.1966]}},{"properties":{"latitude":30.25682,"zipcode":70669.0,"sum of services provided":0.0,"client count":1.0,"longitude":-93.264439,"id":"a625c15ogkyz"},"type":"Feature","geometry":{"type":"Point","coordinates":[-93.264439,30.25682]}},{"properties":{"latitude":30.57989,"zipcode":70706.0,"sum of services provided":19400.0,"client count":1.0,"longitude":-90.93419,"id":"a625c1c9eh15"},"type":"Feature","geometry":{"type":"Point","coordinates":[-90.93419,30.57989]}},{"properties":{"latitude":30.35548,"zipcode":70710.0,"sum of services provided":54255.35,"client count":4.0,"longitude":-91.260979,"id":"a625c15qpfgx"},"type":"Feature","geometry":{"type":"Point","coordinates":[-91.260979,30.35548]}},{"properties":{"latitude":30.51551,"zipcode":70711.0,"sum of services provided":0.0,"client count":5.0,"longitude":-90.584567,"id":"a625c1dll9zf"},"type":"Feature","geometry":{"type":"Point","coordinates":[-90.584567,30.51551]}},{"properties":{"latitude":30.582905,"zipcode":70714.0,"sum of services provided":11913.58,"client count":22.0,"longitude":-91.146599,"id":"a625c0z2l1g4"},"type":"Feature","geometry":{"type":"Point","coordinates":[-91.146599,30.582905]}},{"properties":{"latitude":30.80426,"zipcode":70715.0,"sum of services provided":0.0,"client count":3.0,"longitude":-91.656429,"id":"a625c1ebs6m4"},"type":"Feature","geometry":{"type":"Point","coordinates":[-91.656429,30.80426]}},{"properties":{"latitude":30.38899,"zipcode":70719.0,"sum of services provided":72417.26,"client count":4.0,"longitude":-91.251419,"id":"a625c1bnu7mj"},"type":"Feature","geometry":{"type":"Point","coordinates":[-91.251419,30.38899]}},{"properties":{"latitude":30.842699,"zipcode":70722.0,"sum of services provided":0.0,"client count":1.0,"longitude":-90.959555,"id":"a625c1b8pfzh"},"type":"Feature","geometry":{"type":"Point","coordinates":[-90.959555,30.842699]}},{"properties":{"latitude":30.066773,"zipcode":70723.0,"sum of services provided":20000.0,"client count":3.0,"longitude":-90.855527,"id":"a625c1dufwwv"},"type":"Feature","geometry":{"type":"Point","coordinates":[-90.855527,30.066773]}},{"properties":{"latitude":30.133268,"zipcode":70725.0,"sum of services provided":0.0,"client count":2.0,"longitude":-90.956111,"id":"a625c1biykmz"},"type":"Feature","geometry":{"type":"Point","coordinates":[-90.956111,30.133268]}},{"properties":{"latitude":30.4595,"zipcode":70726.0,"sum of services provided":20000.0,"client count":16.0,"longitude":-90.925591,"id":"a625c1dqrc6x"},"type":"Feature","geometry":{"type":"Point","coordinates":[-90.925591,30.4595]}},{"properties":{"latitude":30.56626,"zipcode":70729.0,"sum of services provided":0.0,"client count":3.0,"longitude":-91.362739,"id":"a625c14zgg54"},"type":"Feature","geometry":{"type":"Point","coordinates":[-91.362739,30.56626]}},{"properties":{"latitude":30.826093,"zipcode":70730.0,"sum of services provided":0.0,"client count":1.0,"longitude":-91.105482,"id":"a625c16zmin6"},"type":"Feature","geometry":{"type":"Point","coordinates":[-91.105482,30.826093]}},{"properties":{"latitude":30.311359,"zipcode":70733.0,"sum of services provided":0.0,"client count":1.0,"longitude":-90.804128,"id":"a625c12e7o81"},"type":"Feature","geometry":{"type":"Point","coordinates":[-90.804128,30.311359]}},{"properties":{"latitude":30.226108,"zipcode":70734.0,"sum of services provided":19981.5,"client count":2.0,"longitude":-90.999897,"id":"a625c12x71yd"},"type":"Feature","geometry":{"type":"Point","coordinates":[-90.999897,30.226108]}},{"properties":{"latitude":30.23788,"zipcode":70737.0,"sum of services provided":69837.91,"client count":13.0,"longitude":-90.919789,"id":"a625c16bukp9"},"type":"Feature","geometry":{"type":"Point","coordinates":[-90.919789,30.23788]}},{"properties":{"latitude":30.53563,"zipcode":70739.0,"sum of services provided":0.0,"client count":2.0,"longitude":-91.002178,"id":"a625c115c3ss"},"type":"Feature","geometry":{"type":"Point","coordinates":[-91.002178,30.53563]}},{"properties":{"latitude":30.372407,"zipcode":70740.0,"sum of services provided":0.0,"client count":4.0,"longitude":-91.419437,"id":"a625c1a0gnkw"},"type":"Feature","geometry":{"type":"Point","coordinates":[-91.419437,30.372407]}},{"properties":{"latitude":30.016979,"zipcode":70743.0,"sum of services provided":9802.25,"client count":1.0,"longitude":-90.77964,"id":"a625c12ir9jd"},"type":"Feature","geometry":{"type":"Point","coordinates":[-90.77964,30.016979]}},{"properties":{"latitude":30.51653,"zipcode":70744.0,"sum of services provided":0.0,"client count":1.0,"longitude":-90.651351,"id":"a625c14dk8ip"},"type":"Feature","geometry":{"type":"Point","coordinates":[-90.651351,30.51653]}},{"properties":{"latitude":30.805708,"zipcode":70748.0,"sum of services provided":0.0,"client count":2.0,"longitude":-91.225979,"id":"a625c1868gah"},"type":"Feature","geometry":{"type":"Point","coordinates":[-91.225979,30.805708]}},{"properties":{"latitude":30.96669,"zipcode":70753.0,"sum of services provided":0.0,"client count":3.0,"longitude":-91.724449,"id":"a625c1e60lat"},"type":"Feature","geometry":{"type":"Point","coordinates":[-91.724449,30.96669]}},{"properties":{"latitude":30.438112,"zipcode":70754.0,"sum of services provided":0.0,"client count":2.0,"longitude":-90.765428,"id":"a625c153m360"},"type":"Feature","geometry":{"type":"Point","coordinates":[-90.765428,30.438112]}},{"properties":{"latitude":30.558002,"zipcode":70755.0,"sum of services provided":0.0,"client count":2.0,"longitude":-91.539639,"id":"a625c0zvi64s"},"type":"Feature","geometry":{"type":"Point","coordinates":[-91.539639,30.558002]}},{"properties":{"latitude":30.55363,"zipcode":70756.0,"sum of services provided":0.0,"client count":1.0,"longitude":-91.645269,"id":"a625c12y5dim"},"type":"Feature","geometry":{"type":"Point","coordinates":[-91.645269,30.55363]}},{"properties":{"latitude":30.4779,"zipcode":70757.0,"sum of services provided":0.0,"client count":3.0,"longitude":-91.520891,"id":"a625c1c69z2g"},"type":"Feature","geometry":{"type":"Point","coordinates":[-91.520891,30.4779]}},{"properties":{"latitude":30.713383,"zipcode":70759.0,"sum of services provided":0.0,"client count":3.0,"longitude":-91.607599,"id":"a625c13awhbj"},"type":"Feature","geometry":{"type":"Point","coordinates":[-91.607599,30.713383]}},{"properties":{"latitude":30.700089,"zipcode":70760.0,"sum of services provided":0.0,"client count":44.0,"longitude":-91.445399,"id":"a625c19i8vvv"},"type":"Feature","geometry":{"type":"Point","coordinates":[-91.445399,30.700089]}},{"properties":{"latitude":30.035219,"zipcode":70763.0,"sum of services provided":0.0,"client count":1.0,"longitude":-90.740084,"id":"a625c1era476"},"type":"Feature","geometry":{"type":"Point","coordinates":[-90.740084,30.035219]}},{"properties":{"latitude":30.271582,"zipcode":70764.0,"sum of services provided":79026.96,"client count":30.0,"longitude":-91.247196,"id":"a625c19xdrab"},"type":"Feature","geometry":{"type":"Point","coordinates":[-91.247196,30.271582]}},{"properties":{"latitude":30.289021,"zipcode":70765.0,"sum of services provided":0.0,"client count":1.0,"longitude":-91.235039,"id":"a625c18w4xey"},"type":"Feature","geometry":{"type":"Point","coordinates":[-91.235039,30.289021]}},{"properties":{"latitude":30.47715,"zipcode":70767.0,"sum of services provided":14186.92,"client count":10.0,"longitude":-91.266918,"id":"a625c18rljiw"},"type":"Feature","geometry":{"type":"Point","coordinates":[-91.266918,30.47715]}},{"properties":{"latitude":30.31343,"zipcode":70769.0,"sum of services provided":20000.0,"client count":4.0,"longitude":-90.941129,"id":"a625c192uoou"},"type":"Feature","geometry":{"type":"Point","coordinates":[-90.941129,30.31343]}},{"properties":{"latitude":30.441324,"zipcode":70772.0,"sum of services provided":0.0,"client count":6.0,"longitude":-91.454403,"id":"a625c11eyyvp"},"type":"Feature","geometry":{"type":"Point","coordinates":[-91.454403,30.441324]}},{"properties":{"latitude":30.58149,"zipcode":70773.0,"sum of services provided":0.0,"client count":1.0,"longitude":-91.38978,"id":"a625c17kxcx4"},"type":"Feature","geometry":{"type":"Point","coordinates":[-91.38978,30.58149]}},{"properties":{"latitude":30.230638,"zipcode":70774.0,"sum of services provided":0.0,"client count":2.0,"longitude":-90.83939,"id":"a625c0zbqmqc"},"type":"Feature","geometry":{"type":"Point","coordinates":[-90.83939,30.230638]}},{"properties":{"latitude":30.868719,"zipcode":70775.0,"sum of services provided":0.0,"client count":6.0,"longitude":-91.380809,"id":"a625c18w7kh3"},"type":"Feature","geometry":{"type":"Point","coordinates":[-91.380809,30.868719]}},{"properties":{"latitude":30.269931,"zipcode":70776.0,"sum of services provided":0.0,"client count":1.0,"longitude":-91.097707,"id":"a625c1a898ev"},"type":"Feature","geometry":{"type":"Point","coordinates":[-91.097707,30.269931]}},{"properties":{"latitude":30.928882,"zipcode":70782.0,"sum of services provided":0.0,"client count":1.0,"longitude":-91.552348,"id":"a625c19iybbv"},"type":"Feature","geometry":{"type":"Point","coordinates":[-91.552348,30.928882]}},{"properties":{"latitude":30.517238,"zipcode":70785.0,"sum of services provided":0.0,"client count":3.0,"longitude":-90.848629,"id":"a625c1492cfm"},"type":"Feature","geometry":{"type":"Point","coordinates":[-90.848629,30.517238]}},{"properties":{"latitude":30.164948,"zipcode":70788.0,"sum of services provided":0.0,"client count":7.0,"longitude":-91.165876,"id":"a625c126w2ff"},"type":"Feature","geometry":{"type":"Point","coordinates":[-91.165876,30.164948]}},{"properties":{"latitude":30.656368,"zipcode":70791.0,"sum of services provided":0.0,"client count":15.0,"longitude":-91.16425,"id":"a625c180vty5"},"type":"Feature","geometry":{"type":"Point","coordinates":[-91.16425,30.656368]}},{"properties":{"latitude":30.449385,"zipcode":70801.0,"sum of services provided":0.0,"client count":1.0,"longitude":-91.187599,"id":"a625c1d62luh"},"type":"Feature","geometry":{"type":"Point","coordinates":[-91.187599,30.449385]}},{"properties":{"latitude":30.44768,"zipcode":70802.0,"sum of services provided":2509.26,"client count":150.0,"longitude":-91.171269,"id":"a625c11oiaod"},"type":"Feature","geometry":{"type":"Point","coordinates":[-91.171269,30.44768]}},{"properties":{"latitude":30.487225,"zipcode":70805.0,"sum of services provided":19835.88,"client count":153.0,"longitude":-91.151889,"id":"a625c17ch78a"},"type":"Feature","geometry":{"type":"Point","coordinates":[-91.151889,30.487225]}},{"properties":{"latitude":30.44796,"zipcode":70806.0,"sum of services provided":80.0,"client count":74.0,"longitude":-91.131944,"id":"a625c1c0vl35"},"type":"Feature","geometry":{"type":"Point","coordinates":[-91.131944,30.44796]}},{"properties":{"latitude":30.534793,"zipcode":70807.0,"sum of services provided":40.0,"client count":61.0,"longitude":-91.175379,"id":"a625c1d1t560"},"type":"Feature","geometry":{"type":"Point","coordinates":[-91.175379,30.534793]}},{"properties":{"latitude":30.408524,"zipcode":70808.0,"sum of services provided":0.0,"client count":17.0,"longitude":-91.144847,"id":"a625c1dmt1xo"},"type":"Feature","geometry":{"type":"Point","coordinates":[-91.144847,30.408524]}},{"properties":{"latitude":30.399901,"zipcode":70809.0,"sum of services provided":0.0,"client count":13.0,"longitude":-91.07902,"id":"a625c1dfysab"},"type":"Feature","geometry":{"type":"Point","coordinates":[-91.07902,30.399901]}},{"properties":{"latitude":30.35658,"zipcode":70810.0,"sum of services provided":290.0,"client count":30.0,"longitude":-91.086829,"id":"a625c1edou9z"},"type":"Feature","geometry":{"type":"Point","coordinates":[-91.086829,30.35658]}},{"properties":{"latitude":30.530032,"zipcode":70811.0,"sum of services provided":0.0,"client count":33.0,"longitude":-91.126167,"id":"a625c1a0n4lt"},"type":"Feature","geometry":{"type":"Point","coordinates":[-91.126167,30.530032]}},{"properties":{"latitude":30.505371,"zipcode":70812.0,"sum of services provided":5.0,"client count":32.0,"longitude":-91.118419,"id":"a625c1bhea7s"},"type":"Feature","geometry":{"type":"Point","coordinates":[-91.118419,30.505371]}},{"properties":{"latitude":30.52469,"zipcode":70813.0,"sum of services provided":0.0,"client count":1.0,"longitude":-91.190716,"id":"a625c1ccyhta"},"type":"Feature","geometry":{"type":"Point","coordinates":[-91.190716,30.52469]}},{"properties":{"latitude":30.4841,"zipcode":70814.0,"sum of services provided":0.0,"client count":11.0,"longitude":-91.071924,"id":"a625c10ll9oa"},"type":"Feature","geometry":{"type":"Point","coordinates":[-91.071924,30.4841]}},{"properties":{"latitude":30.454585,"zipcode":70815.0,"sum of services provided":0.0,"client count":50.0,"longitude":-91.067188,"id":"a625c1860dok"},"type":"Feature","geometry":{"type":"Point","coordinates":[-91.067188,30.454585]}},{"properties":{"latitude":30.42537,"zipcode":70816.0,"sum of services provided":0.0,"client count":41.0,"longitude":-91.036959,"id":"a625c1804v0s"},"type":"Feature","geometry":{"type":"Point","coordinates":[-91.036959,30.42537]}},{"properties":{"latitude":30.389,"zipcode":70817.0,"sum of services provided":245.0,"client count":3.0,"longitude":-91.002411,"id":"a625c1e1o6qk"},"type":"Feature","geometry":{"type":"Point","coordinates":[-91.002411,30.389]}},{"properties":{"latitude":30.542179,"zipcode":70818.0,"sum of services provided":0.0,"client count":4.0,"longitude":-91.05122,"id":"a625c19dnrts"},"type":"Feature","geometry":{"type":"Point","coordinates":[-91.05122,30.542179]}},{"properties":{"latitude":30.466001,"zipcode":70819.0,"sum of services provided":0.0,"client count":12.0,"longitude":-91.015059,"id":"a625c0zilxgr"},"type":"Feature","geometry":{"type":"Point","coordinates":[-91.015059,30.466001]}},{"properties":{"latitude":30.3801,"zipcode":70820.0,"sum of services provided":0.0,"client count":20.0,"longitude":-91.173583,"id":"a625c16yakgj"},"type":"Feature","geometry":{"type":"Point","coordinates":[-91.173583,30.3801]}},{"properties":{"latitude":32.45438,"zipcode":71202.0,"sum of services provided":0.0,"client count":1.0,"longitude":-92.088749,"id":"a625c16xiigy"},"type":"Feature","geometry":{"type":"Point","coordinates":[-92.088749,32.45438]}},{"properties":{"latitude":32.45328,"zipcode":71269.0,"sum of services provided":0.0,"client count":1.0,"longitude":-91.778068,"id":"a625c16fijns"},"type":"Feature","geometry":{"type":"Point","coordinates":[-91.778068,32.45328]}},{"properties":{"latitude":32.52752,"zipcode":71291.0,"sum of services provided":0.0,"client count":1.0,"longitude":-92.174649,"id":"a625c1dqu6im"},"type":"Feature","geometry":{"type":"Point","coordinates":[-92.174649,32.52752]}},{"properties":{"latitude":32.15828,"zipcode":71295.0,"sum of services provided":0.0,"client count":3.0,"longitude":-91.713233,"id":"a625c1e3des5"},"type":"Feature","geometry":{"type":"Point","coordinates":[-91.713233,32.15828]}},{"properties":{"latitude":31.262853,"zipcode":71302.0,"sum of services provided":0.0,"client count":2.0,"longitude":-92.426122,"id":"a625c13cgwdk"},"type":"Feature","geometry":{"type":"Point","coordinates":[-92.426122,31.262853]}},{"properties":{"latitude":31.640555,"zipcode":71334.0,"sum of services provided":0.0,"client count":1.0,"longitude":-91.548784,"id":"a625c12vi5df"},"type":"Feature","geometry":{"type":"Point","coordinates":[-91.548784,31.640555]}},{"properties":{"latitude":31.36137,"zipcode":71348.0,"sum of services provided":0.0,"client count":1.0,"longitude":-92.331199,"id":"a625c18f5kyy"},"type":"Feature","geometry":{"type":"Point","coordinates":[-92.331199,31.36137]}},{"properties":{"latitude":30.70784,"zipcode":71358.0,"sum of services provided":20000.0,"client count":1.0,"longitude":-91.912003,"id":"a625c1e8z1qm"},"type":"Feature","geometry":{"type":"Point","coordinates":[-91.912003,30.70784]}},{"properties":{"latitude":31.34893,"zipcode":71360.0,"sum of services provided":0.0,"client count":1.0,"longitude":-92.398517,"id":"a625c1c0a1bm"},"type":"Feature","geometry":{"type":"Point","coordinates":[-92.398517,31.34893]}},{"properties":{"latitude":30.970685,"zipcode":71369.0,"sum of services provided":0.0,"client count":1.0,"longitude":-91.843289,"id":"a625c169kzvi"},"type":"Feature","geometry":{"type":"Point","coordinates":[-91.843289,30.970685]}},{"properties":{"latitude":31.964879,"zipcode":71378.0,"sum of services provided":0.0,"client count":2.0,"longitude":-91.687048,"id":"a625c11ltzuk"},"type":"Feature","geometry":{"type":"Point","coordinates":[-91.687048,31.964879]}},{"properties":{"latitude":31.89996,"zipcode":71425.0,"sum of services provided":0.0,"client count":1.0,"longitude":-91.882258,"id":"a625c12m4cny"},"type":"Feature","geometry":{"type":"Point","coordinates":[-91.882258,31.89996]}},{"properties":{"latitude":30.820925,"zipcode":71463.0,"sum of services provided":0.0,"client count":1.0,"longitude":-92.669539,"id":"a625c1c3sddr"},"type":"Feature","geometry":{"type":"Point","coordinates":[-92.669539,30.820925]}},{"properties":{"latitude":31.33173,"zipcode":75901.0,"sum of services provided":0.0,"client count":1.0,"longitude":-94.696349,"id":"a625c19o63ph"},"type":"Feature","geometry":{"type":"Point","coordinates":[-94.696349,31.33173]}},{"properties":{"latitude":30.689018,"zipcode":75928.0,"sum of services provided":0.0,"client count":1.0,"longitude":-93.731499,"id":"a625c17yxmrw"},"type":"Feature","geometry":{"type":"Point","coordinates":[-93.731499,30.689018]}},{"properties":{"latitude":30.939839,"zipcode":75951.0,"sum of services provided":0.0,"client count":11.0,"longitude":-94.045299,"id":"a625c1ecc5ob"},"type":"Feature","geometry":{"type":"Point","coordinates":[-94.045299,30.939839]}},{"properties":{"latitude":30.83824,"zipcode":75966.0,"sum of services provided":0.0,"client count":1.0,"longitude":-93.746039,"id":"a625c10dd5wh"},"type":"Feature","geometry":{"type":"Point","coordinates":[-93.746039,30.83824]}},{"properties":{"latitude":31.24361,"zipcode":75968.0,"sum of services provided":0.0,"client count":1.0,"longitude":-93.968269,"id":"a625c13lz185"},"type":"Feature","geometry":{"type":"Point","coordinates":[-93.968269,31.24361]}},{"properties":{"latitude":30.76092,"zipcode":75979.0,"sum of services provided":0.0,"client count":1.0,"longitude":-94.404037,"id":"a625c11a8mdx"},"type":"Feature","geometry":{"type":"Point","coordinates":[-94.404037,30.76092]}},{"properties":{"latitude":32.63459,"zipcode":76001.0,"sum of services provided":0.0,"client count":1.0,"longitude":-97.148269,"id":"a625c125wgrl"},"type":"Feature","geometry":{"type":"Point","coordinates":[-97.148269,32.63459]}},{"properties":{"latitude":33.63046,"zipcode":76240.0,"sum of services provided":2167.95,"client count":16.0,"longitude":-97.135859,"id":"a625c1cs8mk7"},"type":"Feature","geometry":{"type":"Point","coordinates":[-97.135859,33.63046]}},{"properties":{"latitude":32.37763,"zipcode":76476.0,"sum of services provided":550.0,"client count":1.0,"longitude":-97.908719,"id":"a625c0z0eecf"},"type":"Feature","geometry":{"type":"Point","coordinates":[-97.908719,32.37763]}},{"properties":{"latitude":31.304379,"zipcode":76632.0,"sum of services provided":200.0,"client count":1.0,"longitude":-97.082914,"id":"a625c1ezfm7x"},"type":"Feature","geometry":{"type":"Point","coordinates":[-97.082914,31.304379]}},{"properties":{"latitude":29.726942,"zipcode":77004.0,"sum of services provided":100.0,"client count":1.0,"longitude":-95.361667,"id":"a625c1clq2kx"},"type":"Feature","geometry":{"type":"Point","coordinates":[-95.361667,29.726942]}},{"properties":{"latitude":29.696526,"zipcode":77021.0,"sum of services provided":0.0,"client count":1.0,"longitude":-95.357321,"id":"a625c1bud72j"},"type":"Feature","geometry":{"type":"Point","coordinates":[-95.357321,29.696526]}},{"properties":{"latitude":29.859517,"zipcode":77093.0,"sum of services provided":0.0,"client count":1.0,"longitude":-95.339159,"id":"a625c153mxhv"},"type":"Feature","geometry":{"type":"Point","coordinates":[-95.339159,29.859517]}},{"properties":{"latitude":29.690901,"zipcode":77501.0,"sum of services provided":0.0,"client count":1.0,"longitude":-95.19632,"id":"a625c133z68z"},"type":"Feature","geometry":{"type":"Point","coordinates":[-95.19632,29.690901]}},{"properties":{"latitude":29.67954,"zipcode":77502.0,"sum of services provided":0.0,"client count":2.0,"longitude":-95.200989,"id":"a625c152u8u5"},"type":"Feature","geometry":{"type":"Point","coordinates":[-95.200989,29.67954]}},{"properties":{"latitude":29.691882,"zipcode":77503.0,"sum of services provided":120.0,"client count":1.0,"longitude":-95.158612,"id":"a625c1067k9n"},"type":"Feature","geometry":{"type":"Point","coordinates":[-95.158612,29.691882]}},{"properties":{"latitude":29.704675,"zipcode":77506.0,"sum of services provided":0.0,"client count":1.0,"longitude":-95.202179,"id":"a625c1cxyd37"},"type":"Feature","geometry":{"type":"Point","coordinates":[-95.202179,29.704675]}},{"properties":{"latitude":29.731123,"zipcode":77514.0,"sum of services provided":200.0,"client count":3.0,"longitude":-94.654809,"id":"a625c15b4nia"},"type":"Feature","geometry":{"type":"Point","coordinates":[-94.654809,29.731123]}},{"properties":{"latitude":29.728359,"zipcode":77522.0,"sum of services provided":0.0,"client count":1.0,"longitude":-94.996941,"id":"a625c14r3k0b"},"type":"Feature","geometry":{"type":"Point","coordinates":[-94.996941,29.728359]}},{"properties":{"latitude":29.465845,"zipcode":77539.0,"sum of services provided":0.0,"client count":1.0,"longitude":-95.035567,"id":"a625c109k73t"},"type":"Feature","geometry":{"type":"Point","coordinates":[-95.035567,29.465845]}},{"properties":{"latitude":28.972682,"zipcode":77541.0,"sum of services provided":0.0,"client count":1.0,"longitude":-95.346052,"id":"a625c1et5cdg"},"type":"Feature","geometry":{"type":"Point","coordinates":[-95.346052,28.972682]}},{"properties":{"latitude":29.29955,"zipcode":77550.0,"sum of services provided":892.78,"client count":101.0,"longitude":-94.791759,"id":"a625c16er1h5"},"type":"Feature","geometry":{"type":"Point","coordinates":[-94.791759,29.29955]}},{"properties":{"latitude":29.279873,"zipcode":77551.0,"sum of services provided":175.0,"client count":29.0,"longitude":-94.828393,"id":"a625c11pjjzt"},"type":"Feature","geometry":{"type":"Point","coordinates":[-94.828393,29.279873]}},{"properties":{"latitude":29.29533,"zipcode":77553.0,"sum of services provided":0.0,"client count":4.0,"longitude":-94.807861,"id":"a625c1aruj3m"},"type":"Feature","geometry":{"type":"Point","coordinates":[-94.807861,29.29533]}},{"properties":{"latitude":29.215331,"zipcode":77554.0,"sum of services provided":0.0,"client count":1.0,"longitude":-94.939738,"id":"a625c1didu5g"},"type":"Feature","geometry":{"type":"Point","coordinates":[-94.939738,29.215331]}},{"properties":{"latitude":29.29533,"zipcode":77555.0,"sum of services provided":0.0,"client count":1.0,"longitude":-94.807861,"id":"a625c16vxy4x"},"type":"Feature","geometry":{"type":"Point","coordinates":[-94.807861,29.29533]}},{"properties":{"latitude":29.85847,"zipcode":77560.0,"sum of services provided":0.0,"client count":2.0,"longitude":-94.626889,"id":"a625c14h7ux6"},"type":"Feature","geometry":{"type":"Point","coordinates":[-94.626889,29.85847]}},{"properties":{"latitude":29.341531,"zipcode":77563.0,"sum of services provided":1083.0,"client count":2.0,"longitude":-94.996794,"id":"a625c19bjsq5"},"type":"Feature","geometry":{"type":"Point","coordinates":[-94.996794,29.341531]}},{"properties":{"latitude":29.36845,"zipcode":77568.0,"sum of services provided":0.0,"client count":3.0,"longitude":-94.977729,"id":"a625c0z4pjf5"},"type":"Feature","geometry":{"type":"Point","coordinates":[-94.977729,29.36845]}},{"properties":{"latitude":30.067593,"zipcode":77575.0,"sum of services provided":0.0,"client count":1.0,"longitude":-94.760386,"id":"a625c18wdupu"},"type":"Feature","geometry":{"type":"Point","coordinates":[-94.760386,30.067593]}},{"properties":{"latitude":29.57706,"zipcode":77586.0,"sum of services provided":0.0,"client count":1.0,"longitude":-95.032389,"id":"a625c0zt0jnz"},"type":"Feature","geometry":{"type":"Point","coordinates":[-95.032389,29.57706]}},{"properties":{"latitude":29.38791,"zipcode":77590.0,"sum of services provided":0.0,"client count":1.0,"longitude":-94.919824,"id":"a625c19ia3wh"},"type":"Feature","geometry":{"type":"Point","coordinates":[-94.919824,29.38791]}},{"properties":{"latitude":29.853857,"zipcode":77597.0,"sum of services provided":0.0,"client count":1.0,"longitude":-94.669095,"id":"a625c1acndy3"},"type":"Feature","geometry":{"type":"Point","coordinates":[-94.669095,29.853857]}},{"properties":{"latitude":30.02968,"zipcode":77611.0,"sum of services provided":12707.67,"client count":31.0,"longitude":-93.837139,"id":"a625c13mrp5u"},"type":"Feature","geometry":{"type":"Point","coordinates":[-93.837139,30.02968]}},{"properties":{"latitude":29.944833,"zipcode":77619.0,"sum of services provided":0.0,"client count":1.0,"longitude":-93.916356,"id":"a625c1cnianx"},"type":"Feature","geometry":{"type":"Point","coordinates":[-93.916356,29.944833]}},{"properties":{"latitude":30.39451,"zipcode":77625.0,"sum of services provided":300.0,"client count":1.0,"longitude":-94.340629,"id":"a625c15m8w7z"},"type":"Feature","geometry":{"type":"Point","coordinates":[-94.340629,30.39451]}},{"properties":{"latitude":30.201647,"zipcode":77626.0,"sum of services provided":600.0,"client count":4.0,"longitude":-93.870364,"id":"a625c14y81j1"},"type":"Feature","geometry":{"type":"Point","coordinates":[-93.870364,30.201647]}},{"properties":{"latitude":29.974093,"zipcode":77627.0,"sum of services provided":0.0,"client count":1.0,"longitude":-94.002296,"id":"a625c1ayrq04"},"type":"Feature","geometry":{"type":"Point","coordinates":[-94.002296,29.974093]}},{"properties":{"latitude":30.08589,"zipcode":77630.0,"sum of services provided":103731.17,"client count":365.0,"longitude":-93.789519,"id":"a625c1b7er5n"},"type":"Feature","geometry":{"type":"Point","coordinates":[-93.789519,30.08589]}},{"properties":{"latitude":30.0931,"zipcode":77631.0,"sum of services provided":700.0,"client count":2.0,"longitude":-93.736923,"id":"a625c0zcdreo"},"type":"Feature","geometry":{"type":"Point","coordinates":[-93.736923,30.0931]}},{"properties":{"latitude":30.19208,"zipcode":77632.0,"sum of services provided":7256.25,"client count":29.0,"longitude":-93.803113,"id":"a625c14nr1lf"},"type":"Feature","geometry":{"type":"Point","coordinates":[-93.803113,30.19208]}},{"properties":{"latitude":29.869819,"zipcode":77640.0,"sum of services provided":1000.0,"client count":18.0,"longitude":-93.96787,"id":"a625c17y8e2w"},"type":"Feature","geometry":{"type":"Point","coordinates":[-93.96787,29.869819]}},{"properties":{"latitude":29.924131,"zipcode":77642.0,"sum of services provided":700.0,"client count":14.0,"longitude":-93.931758,"id":"a625c14m10i0"},"type":"Feature","geometry":{"type":"Point","coordinates":[-93.931758,29.924131]}},{"properties":{"latitude":29.428492,"zipcode":77650.0,"sum of services provided":0.0,"client count":4.0,"longitude":-94.678796,"id":"a625c16xsid4"},"type":"Feature","geometry":{"type":"Point","coordinates":[-94.678796,29.428492]}},{"properties":{"latitude":29.73295,"zipcode":77655.0,"sum of services provided":0.0,"client count":1.0,"longitude":-93.894859,"id":"a625c193qdpz"},"type":"Feature","geometry":{"type":"Point","coordinates":[-93.894859,29.73295]}},{"properties":{"latitude":30.24144,"zipcode":77657.0,"sum of services provided":0.0,"client count":1.0,"longitude":-94.203769,"id":"a625c15visyw"},"type":"Feature","geometry":{"type":"Point","coordinates":[-94.203769,30.24144]}},{"properties":{"latitude":29.79136,"zipcode":77661.0,"sum of services provided":0.0,"client count":1.0,"longitude":-94.378727,"id":"a625c0yv3ypd"},"type":"Feature","geometry":{"type":"Point","coordinates":[-94.378727,29.79136]}},{"properties":{"latitude":30.147374,"zipcode":77662.0,"sum of services provided":6243.56,"client count":28.0,"longitude":-94.010699,"id":"a625c107wp7a"},"type":"Feature","geometry":{"type":"Point","coordinates":[-94.010699,30.147374]}},{"properties":{"latitude":29.81691,"zipcode":77665.0,"sum of services provided":0.0,"client count":2.0,"longitude":-94.37542,"id":"a625c15tmke8"},"type":"Feature","geometry":{"type":"Point","coordinates":[-94.37542,29.81691]}},{"properties":{"latitude":30.074033,"zipcode":77701.0,"sum of services provided":0.0,"client count":12.0,"longitude":-94.105012,"id":"a625c1bkopct"},"type":"Feature","geometry":{"type":"Point","coordinates":[-94.105012,30.074033]}},{"properties":{"latitude":30.11212,"zipcode":77703.0,"sum of services provided":0.0,"client count":9.0,"longitude":-94.116734,"id":"a625c1b2yqpq"},"type":"Feature","geometry":{"type":"Point","coordinates":[-94.116734,30.11212]}},{"properties":{"latitude":30.00832,"zipcode":77705.0,"sum of services provided":1740.0,"client count":22.0,"longitude":-94.117934,"id":"a625c16hduhf"},"type":"Feature","geometry":{"type":"Point","coordinates":[-94.117934,30.00832]}},{"properties":{"latitude":30.09882,"zipcode":77706.0,"sum of services provided":208.0,"client count":1.0,"longitude":-94.164746,"id":"a625c1ddzx28"},"type":"Feature","geometry":{"type":"Point","coordinates":[-94.164746,30.09882]}},{"properties":{"latitude":30.066093,"zipcode":77707.0,"sum of services provided":0.0,"client count":1.0,"longitude":-94.175475,"id":"a625c18vlmae"},"type":"Feature","geometry":{"type":"Point","coordinates":[-94.175475,30.066093]}},{"properties":{"latitude":30.141669,"zipcode":77708.0,"sum of services provided":0.0,"client count":1.0,"longitude":-94.164279,"id":"a625c19tb008"},"type":"Feature","geometry":{"type":"Point","coordinates":[-94.164279,30.141669]}},{"properties":{"latitude":30.0866,"zipcode":77713.0,"sum of services provided":400.0,"client count":4.0,"longitude":-94.268059,"id":"a625c1c5rp86"},"type":"Feature","geometry":{"type":"Point","coordinates":[-94.268059,30.0866]}},{"properties":{"latitude":29.578557,"zipcode":78247.0,"sum of services provided":100.0,"client count":1.0,"longitude":-98.410862,"id":"a625c1b52q3y"},"type":"Feature","geometry":{"type":"Point","coordinates":[-98.410862,29.578557]}},{"properties":{"latitude":40.47473,"zipcode":80550.0,"sum of services provided":22704.69,"client count":13.0,"longitude":-104.906879,"id":"a625c1d370sc"},"type":"Feature","geometry":{"type":"Point","coordinates":[-104.906879,40.47473]}},{"properties":{"latitude":40.231881,"zipcode":80651.0,"sum of services provided":0.0,"client count":2.0,"longitude":-104.817779,"id":"a625c1bpasz5"},"type":"Feature","geometry":{"type":"Point","coordinates":[-104.817779,40.231881]}},{"properties":{"latitude":35.253129,"zipcode":86004.0,"sum of services provided":100.0,"client count":1.0,"longitude":-111.50441,"id":"a625c1e3n7l6"},"type":"Feature","geometry":{"type":"Point","coordinates":[-111.50441,35.253129]}},{"properties":{"latitude":34.053322,"zipcode":90082.0,"sum of services provided":1100.0,"client count":1.0,"longitude":-118.24498,"id":"a625c132g7sc"},"type":"Feature","geometry":{"type":"Point","coordinates":[-118.24498,34.053322]}},{"properties":{"latitude":34.052219,"zipcode":90265.0,"sum of services provided":0.0,"client count":6.0,"longitude":-118.797805,"id":"a625c14so5t9"},"type":"Feature","geometry":{"type":"Point","coordinates":[-118.797805,34.052219]}},{"properties":{"latitude":34.3057,"zipcode":91342.0,"sum of services provided":125.0,"client count":8.0,"longitude":-118.428299,"id":"a625c0z8nl1z"},"type":"Feature","geometry":{"type":"Point","coordinates":[-118.428299,34.3057]}},{"properties":{"latitude":34.424131,"zipcode":91351.0,"sum of services provided":0.0,"client count":1.0,"longitude":-118.472512,"id":"a625c1ahbi5h"},"type":"Feature","geometry":{"type":"Point","coordinates":[-118.472512,34.424131]}},{"properties":{"latitude":32.636801,"zipcode":91910.0,"sum of services provided":700.0,"client count":1.0,"longitude":-117.054126,"id":"a625c17cgur1"},"type":"Feature","geometry":{"type":"Point","coordinates":[-117.054126,32.636801]}},{"properties":{"latitude":32.616996,"zipcode":91917.0,"sum of services provided":17746.15,"client count":16.0,"longitude":-116.733808,"id":"a625c1djiemm"},"type":"Feature","geometry":{"type":"Point","coordinates":[-116.733808,32.616996]}},{"properties":{"latitude":32.71462,"zipcode":91935.0,"sum of services provided":30829.91,"client count":11.0,"longitude":-116.813679,"id":"a625c157mitg"},"type":"Feature","geometry":{"type":"Point","coordinates":[-116.813679,32.71462]}},{"properties":{"latitude":32.62516,"zipcode":91963.0,"sum of services provided":6785.0,"client count":11.0,"longitude":-116.613508,"id":"a625c147qznl"},"type":"Feature","geometry":{"type":"Point","coordinates":[-116.613508,32.62516]}},{"properties":{"latitude":32.72254,"zipcode":91977.0,"sum of services provided":500.0,"client count":1.0,"longitude":-116.997109,"id":"a625c10t1nfa"},"type":"Feature","geometry":{"type":"Point","coordinates":[-116.997109,32.72254]}},{"properties":{"latitude":32.585305,"zipcode":91980.0,"sum of services provided":800.0,"client count":2.0,"longitude":-116.620776,"id":"a625c1byor6c"},"type":"Feature","geometry":{"type":"Point","coordinates":[-116.620776,32.585305]}},{"properties":{"latitude":32.82384,"zipcode":92021.0,"sum of services provided":200.0,"client count":1.0,"longitude":-116.909049,"id":"a625c1cabydd"},"type":"Feature","geometry":{"type":"Point","coordinates":[-116.909049,32.82384]}},{"properties":{"latitude":33.054169,"zipcode":92024.0,"sum of services provided":88.0,"client count":1.0,"longitude":-117.267574,"id":"a625c17rnx86"},"type":"Feature","geometry":{"type":"Point","coordinates":[-117.267574,33.054169]}},{"properties":{"latitude":33.09794,"zipcode":92025.0,"sum of services provided":28937.36,"client count":35.0,"longitude":-117.06709,"id":"a625c16g3uz3"},"type":"Feature","geometry":{"type":"Point","coordinates":[-117.06709,33.09794]}},{"properties":{"latitude":33.134992,"zipcode":92027.0,"sum of services provided":22931.3,"client count":11.0,"longitude":-117.044128,"id":"a625c15j9tck"},"type":"Feature","geometry":{"type":"Point","coordinates":[-117.044128,33.134992]}},{"properties":{"latitude":33.36788,"zipcode":92028.0,"sum of services provided":97268.47,"client count":136.0,"longitude":-117.217509,"id":"a625c131241c"},"type":"Feature","geometry":{"type":"Point","coordinates":[-117.217509,33.36788]}},{"properties":{"latitude":33.092979,"zipcode":92029.0,"sum of services provided":7362.26,"client count":6.0,"longitude":-117.107707,"id":"a625c14xofbi"},"type":"Feature","geometry":{"type":"Point","coordinates":[-117.107707,33.092979]}},{"properties":{"latitude":33.371431,"zipcode":92059.0,"sum of services provided":400.0,"client count":3.0,"longitude":-117.06775,"id":"a625c14m6fmd"},"type":"Feature","geometry":{"type":"Point","coordinates":[-117.06775,33.371431]}},{"properties":{"latitude":33.32251,"zipcode":92060.0,"sum of services provided":3079.3,"client count":1.0,"longitude":-116.876149,"id":"a625c136e2rv"},"type":"Feature","geometry":{"type":"Point","coordinates":[-116.876149,33.32251]}},{"properties":{"latitude":33.310301,"zipcode":92061.0,"sum of services provided":20974.57,"client count":14.0,"longitude":-116.95356,"id":"a625c15yknh0"},"type":"Feature","geometry":{"type":"Point","coordinates":[-116.95356,33.310301]}},{"properties":{"latitude":32.9765,"zipcode":92064.0,"sum of services provided":975.0,"client count":6.0,"longitude":-117.038399,"id":"a625c14u1z49"},"type":"Feature","geometry":{"type":"Point","coordinates":[-117.038399,32.9765]}},{"properties":{"latitude":33.033,"zipcode":92065.0,"sum of services provided":170704.56,"client count":80.0,"longitude":-116.847109,"id":"a625c1dht77l"},"type":"Feature","geometry":{"type":"Point","coordinates":[-116.847109,33.033]}},{"properties":{"latitude":33.153813,"zipcode":92069.0,"sum of services provided":2250.0,"client count":1.0,"longitude":-117.155166,"id":"a625c0yv16va"},"type":"Feature","geometry":{"type":"Point","coordinates":[-117.155166,33.153813]}},{"properties":{"latitude":33.25986,"zipcode":92082.0,"sum of services provided":122373.16,"client count":36.0,"longitude":-117.029989,"id":"a625c0yxu844"},"type":"Feature","geometry":{"type":"Point","coordinates":[-117.029989,33.25986]}},{"properties":{"latitude":33.013849,"zipcode":92127.0,"sum of services provided":9000.69,"client count":13.0,"longitude":-117.119634,"id":"a625c161dm35"},"type":"Feature","geometry":{"type":"Point","coordinates":[-117.119634,33.013849]}},{"properties":{"latitude":33.004046,"zipcode":92128.0,"sum of services provided":6836.26,"client count":13.0,"longitude":-117.069652,"id":"a625c11x84sa"},"type":"Feature","geometry":{"type":"Point","coordinates":[-117.069652,33.004046]}},{"properties":{"latitude":34.246649,"zipcode":92317.0,"sum of services provided":0.0,"client count":1.0,"longitude":-117.209448,"id":"a625c137341b"},"type":"Feature","geometry":{"type":"Point","coordinates":[-117.209448,34.246649]}},{"properties":{"latitude":34.240269,"zipcode":92325.0,"sum of services provided":0.0,"client count":3.0,"longitude":-117.272086,"id":"a625c19idi4x"},"type":"Feature","geometry":{"type":"Point","coordinates":[-117.272086,34.240269]}},{"properties":{"latitude":34.239279,"zipcode":92341.0,"sum of services provided":0.0,"client count":1.0,"longitude":-117.073679,"id":"a625c1bq94s1"},"type":"Feature","geometry":{"type":"Point","coordinates":[-117.073679,34.239279]}},{"properties":{"latitude":34.260864,"zipcode":92352.0,"sum of services provided":0.0,"client count":12.0,"longitude":-117.196234,"id":"a625c1ep8dp2"},"type":"Feature","geometry":{"type":"Point","coordinates":[-117.196234,34.260864]}},{"properties":{"latitude":34.205602,"zipcode":92382.0,"sum of services provided":0.0,"client count":11.0,"longitude":-117.110408,"id":"a625c1bkgvh1"},"type":"Feature","geometry":{"type":"Point","coordinates":[-117.110408,34.205602]}}],"is_temporal":false,"author":{"url":"","metadata":"","contact_name":"","contact_address":"","source":"","contact_phone":""},"source":"","pagination":{"sort":null,"start":0,"total":545,"limit":1000000},"state":"complete","tags":"","published":"2014-08-10T15:13:11-04:00","id":12515}