{"type":"FeatureCollection","data_type":"Dataset","url_type":null,"permissions":[{"permissions":{"download":true,"view":true},"group_id":"everyone"}],"classification":null,"title":"Wootan Inquiries","count":252,"stream_id":12915,"contributor":{"url":"http://geocommons.com/users/6799","name":"tgrww@tgslc.org"},"data_attributes":null,"calculation_params":null,"icon_link":null,"link":"http://geocommons.com/overlays/12915.json","extent":[-149.789,25.8909,-70.6238,61.0935],"geometry_types":["point"],"unique_name":null,"name":"Wootan Inquiries","feature_count":252,"description":"Grant inquiries","next_feature":null,"is_raster":false,"short_classification":"Y","stats":{"latitude":{"max":61.09349,"mean":35.2169083412698,"variance":41.0798665020057,"stdev":6.40935772928971,"min":25.89088,"median":32.977513},"zipcode":{"max":99516.0,"mean":65262.8333333333,"variance":575539202.490039,"stdev":23990.3981311282,"min":2150.0,"median":76006.0},"longitude":{"max":-70.623758,"mean":-95.4740162857144,"variance":203.282656950815,"stdev":14.25772271265,"min":-149.789217,"median":-96.761919}},"features":[{"properties":{"name":"1-May","city":"","latitude":33.075418,"zipcode":75077.0,"longitude":-97.054009,"id":"a66c3xxdnbjy","address":"","state":""},"type":"Feature","geometry":{"type":"Point","coordinates":[-97.054009,33.075418]}},{"properties":{"name":"1-May","city":"","latitude":32.40225,"zipcode":75165.0,"longitude":-96.828284,"id":"a66c3y5rgxbe","address":"","state":""},"type":"Feature","geometry":{"type":"Point","coordinates":[-96.828284,32.40225]}},{"properties":{"name":"1-May","city":"","latitude":36.142341,"zipcode":89117.0,"longitude":-115.282793,"id":"a66c3y0enqwz","address":"","state":""},"type":"Feature","geometry":{"type":"Point","coordinates":[-115.282793,36.142341]}},{"properties":{"name":"1-May","city":"","latitude":32.77918,"zipcode":75212.0,"longitude":-96.869769,"id":"a66c3ybv5nh3","address":"","state":""},"type":"Feature","geometry":{"type":"Point","coordinates":[-96.869769,32.77918]}},{"properties":{"name":"10-Apr","city":"","latitude":30.620501,"zipcode":77841.0,"longitude":-96.325951,"id":"a66c3xyap5uv","address":"","state":""},"type":"Feature","geometry":{"type":"Point","coordinates":[-96.325951,30.620501]}},{"properties":{"name":"10-Apr","city":"","latitude":32.63459,"zipcode":76001.0,"longitude":-97.148269,"id":"a66c3y9ptgnk","address":"","state":""},"type":"Feature","geometry":{"type":"Point","coordinates":[-97.148269,32.63459]}},{"properties":{"name":"10-Apr","city":"","latitude":45.537635,"zipcode":97213.0,"longitude":-122.600019,"id":"a66c3y8g44iv","address":"","state":""},"type":"Feature","geometry":{"type":"Point","coordinates":[-122.600019,45.537635]}},{"properties":{"name":"10-Apr","city":"","latitude":35.22195,"zipcode":28205.0,"longitude":-80.7904,"id":"a66c3xzlx9ri","address":"","state":""},"type":"Feature","geometry":{"type":"Point","coordinates":[-80.7904,35.22195]}},{"properties":{"name":"10-Apr","city":"","latitude":39.18203,"zipcode":45213.0,"longitude":-84.420385,"id":"a66c3y3hqssg","address":"","state":""},"type":"Feature","geometry":{"type":"Point","coordinates":[-84.420385,39.18203]}},{"properties":{"name":"11-Apr","city":"","latitude":61.09349,"zipcode":99516.0,"longitude":-149.789217,"id":"a66c3y4b9sdj","address":"","state":""},"type":"Feature","geometry":{"type":"Point","coordinates":[-149.789217,61.09349]}},{"properties":{"name":"11-May","city":"","latitude":32.778049,"zipcode":75339.0,"longitude":-96.795601,"id":"a66c3y4dq0g5","address":"","state":""},"type":"Feature","geometry":{"type":"Point","coordinates":[-96.795601,32.778049]}},{"properties":{"name":"11-May","city":"","latitude":41.76073,"zipcode":60649.0,"longitude":-87.571849,"id":"a66c3y9gfx11","address":"","state":""},"type":"Feature","geometry":{"type":"Point","coordinates":[-87.571849,41.76073]}},{"properties":{"name":"11-May","city":"","latitude":30.68062,"zipcode":77807.0,"longitude":-96.446789,"id":"a66c3ybpdzbj","address":"","state":""},"type":"Feature","geometry":{"type":"Point","coordinates":[-96.446789,30.68062]}},{"properties":{"name":"12-May","city":"","latitude":25.921319,"zipcode":78521.0,"longitude":-97.451382,"id":"a66c3xyddybv","address":"","state":""},"type":"Feature","geometry":{"type":"Point","coordinates":[-97.451382,25.921319]}},{"properties":{"name":"13-Apr","city":"","latitude":30.65848,"zipcode":77802.0,"longitude":-96.328759,"id":"a66c3y1ow0xq","address":"","state":""},"type":"Feature","geometry":{"type":"Point","coordinates":[-96.328759,30.65848]}},{"properties":{"name":"13-Apr","city":"","latitude":35.10032,"zipcode":79118.0,"longitude":-101.817624,"id":"a66c3xxueuoo","address":"","state":""},"type":"Feature","geometry":{"type":"Point","coordinates":[-101.817624,35.10032]}},{"properties":{"name":"13-Apr","city":"","latitude":40.749124,"zipcode":11368.0,"longitude":-73.856261,"id":"a66c3xwfie2j","address":"","state":""},"type":"Feature","geometry":{"type":"Point","coordinates":[-73.856261,40.749124]}},{"properties":{"name":"13-Apr","city":"","latitude":41.452846,"zipcode":44145.0,"longitude":-81.925649,"id":"a66c3y665eam","address":"","state":""},"type":"Feature","geometry":{"type":"Point","coordinates":[-81.925649,41.452846]}},{"properties":{"name":"13-Apr","city":"","latitude":41.388979,"zipcode":44146.0,"longitude":-81.524624,"id":"a66c3y5d7ls4","address":"","state":""},"type":"Feature","geometry":{"type":"Point","coordinates":[-81.524624,41.388979]}},{"properties":{"name":"13-Apr","city":"","latitude":32.73386,"zipcode":75181.0,"longitude":-96.560289,"id":"a66c3xx6tkre","address":"","state":""},"type":"Feature","geometry":{"type":"Point","coordinates":[-96.560289,32.73386]}},{"properties":{"name":"13-Apr","city":"","latitude":32.91148,"zipcode":75243.0,"longitude":-96.736609,"id":"a66c3yanh2r6","address":"","state":""},"type":"Feature","geometry":{"type":"Point","coordinates":[-96.736609,32.91148]}},{"properties":{"name":"13-Apr","city":"","latitude":61.09349,"zipcode":99516.0,"longitude":-149.789217,"id":"a66c3yaozm0a","address":"","state":""},"type":"Feature","geometry":{"type":"Point","coordinates":[-149.789217,61.09349]}},{"properties":{"name":"13-Apr","city":"","latitude":61.09349,"zipcode":99516.0,"longitude":-149.789217,"id":"a66c3y5u1blz","address":"","state":""},"type":"Feature","geometry":{"type":"Point","coordinates":[-149.789217,61.09349]}},{"properties":{"name":"13-Apr","city":"","latitude":30.65848,"zipcode":77802.0,"longitude":-96.328759,"id":"a66c3y02uqiv","address":"","state":""},"type":"Feature","geometry":{"type":"Point","coordinates":[-96.328759,30.65848]}},{"properties":{"name":"13-Apr","city":"","latitude":31.777698,"zipcode":79902.0,"longitude":-106.495812,"id":"a66c3y44iihk","address":"","state":""},"type":"Feature","geometry":{"type":"Point","coordinates":[-106.495812,31.777698]}},{"properties":{"name":"13-Apr","city":"","latitude":32.96908,"zipcode":75248.0,"longitude":-96.794569,"id":"a66c3y03cy14","address":"","state":""},"type":"Feature","geometry":{"type":"Point","coordinates":[-96.794569,32.96908]}},{"properties":{"name":"13-Apr","city":"","latitude":32.65078,"zipcode":76133.0,"longitude":-97.378009,"id":"a66c3y7jy60a","address":"","state":""},"type":"Feature","geometry":{"type":"Point","coordinates":[-97.378009,32.65078]}},{"properties":{"name":"13-Apr","city":"","latitude":30.985559,"zipcode":76554.0,"longitude":-97.35868,"id":"a66c3yc1mms6","address":"","state":""},"type":"Feature","geometry":{"type":"Point","coordinates":[-97.35868,30.985559]}},{"properties":{"name":"13-Apr","city":"","latitude":30.985559,"zipcode":76554.0,"longitude":-97.35868,"id":"a66c3xy0d9t0","address":"","state":""},"type":"Feature","geometry":{"type":"Point","coordinates":[-97.35868,30.985559]}},{"properties":{"name":"13-Apr","city":"","latitude":61.09349,"zipcode":99516.0,"longitude":-149.789217,"id":"a66c3y7e7v67","address":"","state":""},"type":"Feature","geometry":{"type":"Point","coordinates":[-149.789217,61.09349]}},{"properties":{"name":"13-May","city":"","latitude":32.927022,"zipcode":75089.0,"longitude":-96.547571,"id":"a66c3ya3sd0l","address":"","state":""},"type":"Feature","geometry":{"type":"Point","coordinates":[-96.547571,32.927022]}},{"properties":{"name":"14-Apr","city":"","latitude":30.573643,"zipcode":77845.0,"longitude":-96.288782,"id":"a66c3y0pwzbb","address":"","state":""},"type":"Feature","geometry":{"type":"Point","coordinates":[-96.288782,30.573643]}},{"properties":{"name":"14-Apr","city":"","latitude":45.792449,"zipcode":98642.0,"longitude":-122.69138,"id":"a66c3xycnsiw","address":"","state":""},"type":"Feature","geometry":{"type":"Point","coordinates":[-122.69138,45.792449]}},{"properties":{"name":"14-Apr","city":"","latitude":30.985559,"zipcode":76554.0,"longitude":-97.35868,"id":"a66c3xyanrng","address":"","state":""},"type":"Feature","geometry":{"type":"Point","coordinates":[-97.35868,30.985559]}},{"properties":{"name":"14-Apr","city":"","latitude":47.84413,"zipcode":98012.0,"longitude":-122.204749,"id":"a66c3yas8jyw","address":"","state":""},"type":"Feature","geometry":{"type":"Point","coordinates":[-122.204749,47.84413]}},{"properties":{"name":"14-Apr","city":"","latitude":45.792449,"zipcode":98642.0,"longitude":-122.69138,"id":"a66c3xxidf3n","address":"","state":""},"type":"Feature","geometry":{"type":"Point","coordinates":[-122.69138,45.792449]}},{"properties":{"name":"14-Apr","city":"","latitude":37.867081,"zipcode":94704.0,"longitude":-122.261164,"id":"a66c3yc5hewd","address":"","state":""},"type":"Feature","geometry":{"type":"Point","coordinates":[-122.261164,37.867081]}},{"properties":{"name":"14-Apr","city":"","latitude":33.246327,"zipcode":76234.0,"longitude":-97.562041,"id":"a66c3y5zhap2","address":"","state":""},"type":"Feature","geometry":{"type":"Point","coordinates":[-97.562041,33.246327]}},{"properties":{"name":"14-Apr","city":"","latitude":31.86612,"zipcode":79932.0,"longitude":-106.598729,"id":"a66c3xzdsiqj","address":"","state":""},"type":"Feature","geometry":{"type":"Point","coordinates":[-106.598729,31.86612]}},{"properties":{"name":"14-Apr","city":"","latitude":27.576493,"zipcode":78041.0,"longitude":-99.46694,"id":"a66c3y8h3d9r","address":"","state":""},"type":"Feature","geometry":{"type":"Point","coordinates":[-99.46694,27.576493]}},{"properties":{"name":"14-Apr","city":"","latitude":30.34438,"zipcode":78731.0,"longitude":-97.764879,"id":"a66c3y7k3vv2","address":"","state":""},"type":"Feature","geometry":{"type":"Point","coordinates":[-97.764879,30.34438]}},{"properties":{"name":"14-Apr","city":"","latitude":30.34438,"zipcode":78731.0,"longitude":-97.764879,"id":"a66c3y3cxdov","address":"","state":""},"type":"Feature","geometry":{"type":"Point","coordinates":[-97.764879,30.34438]}},{"properties":{"name":"14-Apr","city":"","latitude":41.44744,"zipcode":44109.0,"longitude":-81.702639,"id":"a66c3y4kcpia","address":"","state":""},"type":"Feature","geometry":{"type":"Point","coordinates":[-81.702639,41.44744]}},{"properties":{"name":"14-Apr","city":"","latitude":32.596199,"zipcode":75115.0,"longitude":-96.861115,"id":"a66c3y9ijvlk","address":"","state":""},"type":"Feature","geometry":{"type":"Point","coordinates":[-96.861115,32.596199]}},{"properties":{"name":"14-Apr","city":"","latitude":41.43109,"zipcode":44135.0,"longitude":-81.807204,"id":"a66c3y343s6l","address":"","state":""},"type":"Feature","geometry":{"type":"Point","coordinates":[-81.807204,41.43109]}},{"properties":{"name":"15-Apr","city":"","latitude":61.09349,"zipcode":99516.0,"longitude":-149.789217,"id":"a66c3ycgq6vo","address":"","state":""},"type":"Feature","geometry":{"type":"Point","coordinates":[-149.789217,61.09349]}},{"properties":{"name":"15-Apr","city":"","latitude":29.45999,"zipcode":78228.0,"longitude":-98.56866,"id":"a66c3xzluqgy","address":"","state":""},"type":"Feature","geometry":{"type":"Point","coordinates":[-98.56866,29.45999]}},{"properties":{"name":"15-Apr","city":"","latitude":41.03652,"zipcode":10533.0,"longitude":-73.859739,"id":"a66c3y3hx88u","address":"","state":""},"type":"Feature","geometry":{"type":"Point","coordinates":[-73.859739,41.03652]}},{"properties":{"name":"15-Apr","city":"","latitude":33.933141,"zipcode":30067.0,"longitude":-84.467988,"id":"a66c3y4ilm28","address":"","state":""},"type":"Feature","geometry":{"type":"Point","coordinates":[-84.467988,33.933141]}},{"properties":{"name":"15-Apr","city":"","latitude":33.75814,"zipcode":30314.0,"longitude":-84.425448,"id":"a66c3y7sqyl4","address":"","state":""},"type":"Feature","geometry":{"type":"Point","coordinates":[-84.425448,33.75814]}},{"properties":{"name":"15-Apr","city":"","latitude":41.5526,"zipcode":44143.0,"longitude":-81.480899,"id":"a66c3xxr041d","address":"","state":""},"type":"Feature","geometry":{"type":"Point","coordinates":[-81.480899,41.5526]}},{"properties":{"name":"15-Apr","city":"","latitude":41.073855,"zipcode":44507.0,"longitude":-80.656179,"id":"a66c3y9ajvp7","address":"","state":""},"type":"Feature","geometry":{"type":"Point","coordinates":[-80.656179,41.073855]}},{"properties":{"name":"15-Apr","city":"","latitude":32.668731,"zipcode":75241.0,"longitude":-96.78017,"id":"a66c3y45pvhw","address":"","state":""},"type":"Feature","geometry":{"type":"Point","coordinates":[-96.78017,32.668731]}},{"properties":{"name":"15-Apr","city":"","latitude":30.34438,"zipcode":78731.0,"longitude":-97.764879,"id":"a66c3y75j8ce","address":"","state":""},"type":"Feature","geometry":{"type":"Point","coordinates":[-97.764879,30.34438]}},{"properties":{"name":"15-Apr","city":"","latitude":61.09349,"zipcode":99516.0,"longitude":-149.789217,"id":"a66c3y0zwqcs","address":"","state":""},"type":"Feature","geometry":{"type":"Point","coordinates":[-149.789217,61.09349]}},{"properties":{"name":"15-Apr","city":"","latitude":29.952175,"zipcode":77067.0,"longitude":-95.450159,"id":"a66c3ybd9fyj","address":"","state":""},"type":"Feature","geometry":{"type":"Point","coordinates":[-95.450159,29.952175]}},{"properties":{"name":"15-May","city":"","latitude":31.1115,"zipcode":76543.0,"longitude":-97.693479,"id":"a66c3xywtdjz","address":"","state":""},"type":"Feature","geometry":{"type":"Point","coordinates":[-97.693479,31.1115]}},{"properties":{"name":"15-May","city":"","latitude":33.75814,"zipcode":30314.0,"longitude":-84.425448,"id":"a66c3y79ctyf","address":"","state":""},"type":"Feature","geometry":{"type":"Point","coordinates":[-84.425448,33.75814]}},{"properties":{"name":"16-Apr","city":"","latitude":25.89088,"zipcode":33161.0,"longitude":-80.182444,"id":"a66c3y2gckhi","address":"","state":""},"type":"Feature","geometry":{"type":"Point","coordinates":[-80.182444,25.89088]}},{"properties":{"name":"16-Apr","city":"","latitude":33.75814,"zipcode":30314.0,"longitude":-84.425448,"id":"a66c3y7se2t1","address":"","state":""},"type":"Feature","geometry":{"type":"Point","coordinates":[-84.425448,33.75814]}},{"properties":{"name":"16-Apr","city":"","latitude":47.84413,"zipcode":98012.0,"longitude":-122.204749,"id":"a66c3y9ly8hu","address":"","state":""},"type":"Feature","geometry":{"type":"Point","coordinates":[-122.204749,47.84413]}},{"properties":{"name":"16-Apr","city":"","latitude":34.13899,"zipcode":91702.0,"longitude":-117.901889,"id":"a66c3y4nv1zd","address":"","state":""},"type":"Feature","geometry":{"type":"Point","coordinates":[-117.901889,34.13899]}},{"properties":{"name":"16-Apr","city":"","latitude":41.38442,"zipcode":44139.0,"longitude":-81.437743,"id":"a66c3y7xrg72","address":"","state":""},"type":"Feature","geometry":{"type":"Point","coordinates":[-81.437743,41.38442]}},{"properties":{"name":"16-Apr","city":"","latitude":33.75814,"zipcode":30314.0,"longitude":-84.425448,"id":"a66c3yb1nn4o","address":"","state":""},"type":"Feature","geometry":{"type":"Point","coordinates":[-84.425448,33.75814]}},{"properties":{"name":"17-Apr","city":"","latitude":33.411811,"zipcode":75501.0,"longitude":-94.114659,"id":"a66c3xzr7dcw","address":"","state":""},"type":"Feature","geometry":{"type":"Point","coordinates":[-94.114659,33.411811]}},{"properties":{"name":"17-Apr","city":"","latitude":41.03652,"zipcode":10533.0,"longitude":-73.859739,"id":"a66c3y71m3ge","address":"","state":""},"type":"Feature","geometry":{"type":"Point","coordinates":[-73.859739,41.03652]}},{"properties":{"name":"17-Apr","city":"","latitude":29.72519,"zipcode":77082.0,"longitude":-95.626929,"id":"a66c3y8wf2so","address":"","state":""},"type":"Feature","geometry":{"type":"Point","coordinates":[-95.626929,29.72519]}},{"properties":{"name":"17-Apr","city":"","latitude":30.500589,"zipcode":78613.0,"longitude":-97.828653,"id":"a66c3xwqifeg","address":"","state":""},"type":"Feature","geometry":{"type":"Point","coordinates":[-97.828653,30.500589]}},{"properties":{"name":"17-Apr","city":"","latitude":34.02781,"zipcode":90018.0,"longitude":-118.317664,"id":"a66c3xwp0eeg","address":"","state":""},"type":"Feature","geometry":{"type":"Point","coordinates":[-118.317664,34.02781]}},{"properties":{"name":"17-Apr","city":"","latitude":46.984145,"zipcode":98520.0,"longitude":-123.810034,"id":"a66c3y1zg9gh","address":"","state":""},"type":"Feature","geometry":{"type":"Point","coordinates":[-123.810034,46.984145]}},{"properties":{"name":"17-Apr","city":"","latitude":33.02214,"zipcode":75075.0,"longitude":-96.736429,"id":"a66c3y6qxo5s","address":"","state":""},"type":"Feature","geometry":{"type":"Point","coordinates":[-96.736429,33.02214]}},{"properties":{"name":"17-Apr","city":"","latitude":29.726942,"zipcode":77004.0,"longitude":-95.361667,"id":"a66c3y11bvmg","address":"","state":""},"type":"Feature","geometry":{"type":"Point","coordinates":[-95.361667,29.726942]}},{"properties":{"name":"18-May","city":"","latitude":40.67222,"zipcode":11213.0,"longitude":-73.936369,"id":"a66c3yac00ca","address":"","state":""},"type":"Feature","geometry":{"type":"Point","coordinates":[-73.936369,40.67222]}},{"properties":{"name":"18-May","city":"","latitude":43.590512,"zipcode":49421.0,"longitude":-86.068989,"id":"a66c3y8w5bzz","address":"","state":""},"type":"Feature","geometry":{"type":"Point","coordinates":[-86.068989,43.590512]}},{"properties":{"name":"19-May","city":"","latitude":29.599522,"zipcode":77489.0,"longitude":-95.516523,"id":"a66c3xzws1ei","address":"","state":""},"type":"Feature","geometry":{"type":"Point","coordinates":[-95.516523,29.599522]}},{"properties":{"name":"2-Apr","city":"","latitude":30.573643,"zipcode":77845.0,"longitude":-96.288782,"id":"a66c3y40yjuk","address":"","state":""},"type":"Feature","geometry":{"type":"Point","coordinates":[-96.288782,30.573643]}},{"properties":{"name":"2-Apr","city":"","latitude":32.63513,"zipcode":75137.0,"longitude":-96.911099,"id":"a66c3y37sm7o","address":"","state":""},"type":"Feature","geometry":{"type":"Point","coordinates":[-96.911099,32.63513]}},{"properties":{"name":"2-Apr","city":"","latitude":32.645229,"zipcode":75249.0,"longitude":-96.957219,"id":"a66c3y5xs7qx","address":"","state":""},"type":"Feature","geometry":{"type":"Point","coordinates":[-96.957219,32.645229]}},{"properties":{"name":"2-Apr","city":"","latitude":32.645229,"zipcode":75249.0,"longitude":-96.957219,"id":"a66c3xyyqm8t","address":"","state":""},"type":"Feature","geometry":{"type":"Point","coordinates":[-96.957219,32.645229]}},{"properties":{"name":"2-Apr","city":"","latitude":33.411811,"zipcode":75501.0,"longitude":-94.114659,"id":"a66c3y9hb9d7","address":"","state":""},"type":"Feature","geometry":{"type":"Point","coordinates":[-94.114659,33.411811]}},{"properties":{"name":"2-Apr","city":"","latitude":33.215695,"zipcode":76201.0,"longitude":-97.145579,"id":"a66c3y4l048s","address":"","state":""},"type":"Feature","geometry":{"type":"Point","coordinates":[-97.145579,33.215695]}},{"properties":{"name":"2-Apr","city":"","latitude":32.84551,"zipcode":75062.0,"longitude":-96.956249,"id":"a66c3yashpom","address":"","state":""},"type":"Feature","geometry":{"type":"Point","coordinates":[-96.956249,32.84551]}},{"properties":{"name":"2-Apr","city":"","latitude":27.768866,"zipcode":78404.0,"longitude":-97.399333,"id":"a66c3y3fyxb9","address":"","state":""},"type":"Feature","geometry":{"type":"Point","coordinates":[-97.399333,27.768866]}},{"properties":{"name":"2-Apr","city":"","latitude":26.243611,"zipcode":78560.0,"longitude":-98.478379,"id":"a66c3y9r2y1h","address":"","state":""},"type":"Feature","geometry":{"type":"Point","coordinates":[-98.478379,26.243611]}},{"properties":{"name":"2-Apr","city":"","latitude":33.14125,"zipcode":75034.0,"longitude":-96.848387,"id":"a66c3y22ume7","address":"","state":""},"type":"Feature","geometry":{"type":"Point","coordinates":[-96.848387,33.14125]}},{"properties":{"name":"2-Apr","city":"","latitude":35.51183,"zipcode":79065.0,"longitude":-100.936419,"id":"a66c3ybq3i3s","address":"","state":""},"type":"Feature","geometry":{"type":"Point","coordinates":[-100.936419,35.51183]}},{"properties":{"name":"2-Apr","city":"","latitude":32.84551,"zipcode":75062.0,"longitude":-96.956249,"id":"a66c3xwf8b6z","address":"","state":""},"type":"Feature","geometry":{"type":"Point","coordinates":[-96.956249,32.84551]}},{"properties":{"name":"2-Apr","city":"","latitude":32.96538,"zipcode":75006.0,"longitude":-96.889984,"id":"a66c3y4pkxi4","address":"","state":""},"type":"Feature","geometry":{"type":"Point","coordinates":[-96.889984,32.96538]}},{"properties":{"name":"2-Apr","city":"","latitude":28.524086,"zipcode":32811.0,"longitude":-81.444939,"id":"a66c3y83tn50","address":"","state":""},"type":"Feature","geometry":{"type":"Point","coordinates":[-81.444939,28.524086]}},{"properties":{"name":"2-Apr","city":"","latitude":33.04872,"zipcode":75057.0,"longitude":-96.996484,"id":"a66c3xz6nigy","address":"","state":""},"type":"Feature","geometry":{"type":"Point","coordinates":[-96.996484,33.04872]}},{"properties":{"name":"2-Apr","city":"","latitude":28.524086,"zipcode":32811.0,"longitude":-81.444939,"id":"a66c3y6j62as","address":"","state":""},"type":"Feature","geometry":{"type":"Point","coordinates":[-81.444939,28.524086]}},{"properties":{"name":"20-Apr","city":"","latitude":32.965547,"zipcode":76082.0,"longitude":-97.69325,"id":"a66c3y1vtbfu","address":"","state":""},"type":"Feature","geometry":{"type":"Point","coordinates":[-97.69325,32.965547]}},{"properties":{"name":"20-Apr","city":"","latitude":40.112628,"zipcode":19020.0,"longitude":-74.938173,"id":"a66c3y20swn2","address":"","state":""},"type":"Feature","geometry":{"type":"Point","coordinates":[-74.938173,40.112628]}},{"properties":{"name":"20-Apr","city":"","latitude":33.33033,"zipcode":75009.0,"longitude":-96.761919,"id":"a66c3xxgfwwg","address":"","state":""},"type":"Feature","geometry":{"type":"Point","coordinates":[-96.761919,33.33033]}},{"properties":{"name":"20-Apr","city":"","latitude":32.99873,"zipcode":75287.0,"longitude":-96.843764,"id":"a66c3y03gzfx","address":"","state":""},"type":"Feature","geometry":{"type":"Point","coordinates":[-96.843764,32.99873]}},{"properties":{"name":"20-May","city":"","latitude":32.77297,"zipcode":75210.0,"longitude":-96.751969,"id":"a66c3ycjdmvi","address":"","state":""},"type":"Feature","geometry":{"type":"Point","coordinates":[-96.751969,32.77297]}},{"properties":{"name":"20-May","city":"","latitude":36.214132,"zipcode":28607.0,"longitude":-81.662022,"id":"a66c3y0spzaj","address":"","state":""},"type":"Feature","geometry":{"type":"Point","coordinates":[-81.662022,36.214132]}},{"properties":{"name":"21-Apr","city":"","latitude":33.75814,"zipcode":30314.0,"longitude":-84.425448,"id":"a66c3ybuqzk3","address":"","state":""},"type":"Feature","geometry":{"type":"Point","coordinates":[-84.425448,33.75814]}},{"properties":{"name":"21-Apr","city":"","latitude":33.057549,"zipcode":75023.0,"longitude":-96.73459,"id":"a66c3ycqdua2","address":"","state":""},"type":"Feature","geometry":{"type":"Point","coordinates":[-96.73459,33.057549]}},{"properties":{"name":"21-Apr","city":"","latitude":33.33033,"zipcode":75009.0,"longitude":-96.761919,"id":"a66c3y8p1yby","address":"","state":""},"type":"Feature","geometry":{"type":"Point","coordinates":[-96.761919,33.33033]}},{"properties":{"name":"21-Apr","city":"","latitude":41.5262,"zipcode":44121.0,"longitude":-81.532579,"id":"a66c3ya90rah","address":"","state":""},"type":"Feature","geometry":{"type":"Point","coordinates":[-81.532579,41.5262]}},{"properties":{"name":"21-Apr","city":"","latitude":32.72959,"zipcode":75051.0,"longitude":-97.006129,"id":"a66c3y9os60x","address":"","state":""},"type":"Feature","geometry":{"type":"Point","coordinates":[-97.006129,32.72959]}},{"properties":{"name":"21-Apr","city":"","latitude":33.75814,"zipcode":30314.0,"longitude":-84.425448,"id":"a66c3y2430r4","address":"","state":""},"type":"Feature","geometry":{"type":"Point","coordinates":[-84.425448,33.75814]}},{"properties":{"name":"21-Apr","city":"","latitude":33.812874,"zipcode":30033.0,"longitude":-84.28354,"id":"a66c3ybov2px","address":"","state":""},"type":"Feature","geometry":{"type":"Point","coordinates":[-84.28354,33.812874]}},{"properties":{"name":"21-Apr","city":"","latitude":39.5363,"zipcode":21014.0,"longitude":-76.350069,"id":"a66c3yckek6h","address":"","state":""},"type":"Feature","geometry":{"type":"Point","coordinates":[-76.350069,39.5363]}},{"properties":{"name":"21-Apr","city":"","latitude":30.65848,"zipcode":77802.0,"longitude":-96.328759,"id":"a66c3y39jj9q","address":"","state":""},"type":"Feature","geometry":{"type":"Point","coordinates":[-96.328759,30.65848]}},{"properties":{"name":"21-Apr","city":"","latitude":41.889848,"zipcode":2360.0,"longitude":-70.623758,"id":"a66c3y9wqwii","address":"","state":""},"type":"Feature","geometry":{"type":"Point","coordinates":[-70.623758,41.889848]}},{"properties":{"name":"21-Apr","city":"","latitude":32.76428,"zipcode":76108.0,"longitude":-97.490762,"id":"a66c3y3n44yx","address":"","state":""},"type":"Feature","geometry":{"type":"Point","coordinates":[-97.490762,32.76428]}},{"properties":{"name":"21-Apr","city":"","latitude":32.582352,"zipcode":76063.0,"longitude":-97.124936,"id":"a66c3yb71qli","address":"","state":""},"type":"Feature","geometry":{"type":"Point","coordinates":[-97.124936,32.582352]}},{"properties":{"name":"21-Apr","city":"","latitude":30.65848,"zipcode":77802.0,"longitude":-96.328759,"id":"a66c3y2ndpwp","address":"","state":""},"type":"Feature","geometry":{"type":"Point","coordinates":[-96.328759,30.65848]}},{"properties":{"name":"21-Apr","city":"","latitude":41.889848,"zipcode":2360.0,"longitude":-70.623758,"id":"a66c3ybinl34","address":"","state":""},"type":"Feature","geometry":{"type":"Point","coordinates":[-70.623758,41.889848]}},{"properties":{"name":"21-May","city":"","latitude":33.58648,"zipcode":79401.0,"longitude":-101.850759,"id":"a66c3y32kcgw","address":"","state":""},"type":"Feature","geometry":{"type":"Point","coordinates":[-101.850759,33.58648]}},{"properties":{"name":"21-May","city":"","latitude":31.1115,"zipcode":76543.0,"longitude":-97.693479,"id":"a66c3y1xoiyo","address":"","state":""},"type":"Feature","geometry":{"type":"Point","coordinates":[-97.693479,31.1115]}},{"properties":{"name":"22-Apr","city":"","latitude":40.167453,"zipcode":19054.0,"longitude":-74.82154,"id":"a66c3y1vfu6e","address":"","state":""},"type":"Feature","geometry":{"type":"Point","coordinates":[-74.82154,40.167453]}},{"properties":{"name":"22-Apr","city":"","latitude":41.739575,"zipcode":60620.0,"longitude":-87.652829,"id":"a66c3xwl0ulz","address":"","state":""},"type":"Feature","geometry":{"type":"Point","coordinates":[-87.652829,41.739575]}},{"properties":{"name":"22-Apr","city":"","latitude":32.45112,"zipcode":71292.0,"longitude":-92.196953,"id":"a66c3xwvu1ux","address":"","state":""},"type":"Feature","geometry":{"type":"Point","coordinates":[-92.196953,32.45112]}},{"properties":{"name":"22-Apr","city":"","latitude":33.30603,"zipcode":92274.0,"longitude":-115.987429,"id":"a66c3y8bmxfn","address":"","state":""},"type":"Feature","geometry":{"type":"Point","coordinates":[-115.987429,33.30603]}},{"properties":{"name":"23-Apr","city":"","latitude":32.96796,"zipcode":75019.0,"longitude":-96.984379,"id":"a66c3yapv57h","address":"","state":""},"type":"Feature","geometry":{"type":"Point","coordinates":[-96.984379,32.96796]}},{"properties":{"name":"23-Apr","city":"","latitude":32.47668,"zipcode":76065.0,"longitude":-96.979476,"id":"a66c3y4k1lel","address":"","state":""},"type":"Feature","geometry":{"type":"Point","coordinates":[-96.979476,32.47668]}},{"properties":{"name":"23-Apr","city":"","latitude":30.613768,"zipcode":77840.0,"longitude":-96.325519,"id":"a66c3yb7rv1b","address":"","state":""},"type":"Feature","geometry":{"type":"Point","coordinates":[-96.325519,30.613768]}},{"properties":{"name":"23-Apr","city":"","latitude":45.792449,"zipcode":98642.0,"longitude":-122.69138,"id":"a66c3xz0ajxz","address":"","state":""},"type":"Feature","geometry":{"type":"Point","coordinates":[-122.69138,45.792449]}},{"properties":{"name":"24-Apr","city":"","latitude":40.704938,"zipcode":7114.0,"longitude":-74.180798,"id":"a66c3xx640by","address":"","state":""},"type":"Feature","geometry":{"type":"Point","coordinates":[-74.180798,40.704938]}},{"properties":{"name":"24-Apr","city":"","latitude":41.38442,"zipcode":44139.0,"longitude":-81.437743,"id":"a66c3y0igrc0","address":"","state":""},"type":"Feature","geometry":{"type":"Point","coordinates":[-81.437743,41.38442]}},{"properties":{"name":"24-Apr","city":"","latitude":30.620501,"zipcode":77844.0,"longitude":-96.325951,"id":"a66c3xy169o4","address":"","state":""},"type":"Feature","geometry":{"type":"Point","coordinates":[-96.325951,30.620501]}},{"properties":{"name":"24-Apr","city":"","latitude":33.145545,"zipcode":75035.0,"longitude":-96.778188,"id":"a66c3y4x9t5q","address":"","state":""},"type":"Feature","geometry":{"type":"Point","coordinates":[-96.778188,33.145545]}},{"properties":{"name":"24-Apr","city":"","latitude":32.8026,"zipcode":75060.0,"longitude":-96.956369,"id":"a66c3xz0p3v3","address":"","state":""},"type":"Feature","geometry":{"type":"Point","coordinates":[-96.956369,32.8026]}},{"properties":{"name":"24-Apr","city":"","latitude":33.075418,"zipcode":75077.0,"longitude":-97.054009,"id":"a66c3ybqf6by","address":"","state":""},"type":"Feature","geometry":{"type":"Point","coordinates":[-97.054009,33.075418]}},{"properties":{"name":"24-Apr","city":"","latitude":32.47668,"zipcode":76065.0,"longitude":-96.979476,"id":"a66c3y1ewmzf","address":"","state":""},"type":"Feature","geometry":{"type":"Point","coordinates":[-96.979476,32.47668]}},{"properties":{"name":"24-Apr","city":"","latitude":45.06571,"zipcode":55429.0,"longitude":-93.337559,"id":"a66c3y0jza9u","address":"","state":""},"type":"Feature","geometry":{"type":"Point","coordinates":[-93.337559,45.06571]}},{"properties":{"name":"27-Apr","city":"","latitude":32.924855,"zipcode":75040.0,"longitude":-96.625269,"id":"a66c3y0kyayb","address":"","state":""},"type":"Feature","geometry":{"type":"Point","coordinates":[-96.625269,32.924855]}},{"properties":{"name":"27-Apr","city":"","latitude":32.91148,"zipcode":75243.0,"longitude":-96.736609,"id":"a66c3y1mwdz0","address":"","state":""},"type":"Feature","geometry":{"type":"Point","coordinates":[-96.736609,32.91148]}},{"properties":{"name":"27-Apr","city":"","latitude":31.101267,"zipcode":76501.0,"longitude":-97.31562,"id":"a66c3y2o0mzj","address":"","state":""},"type":"Feature","geometry":{"type":"Point","coordinates":[-97.31562,31.101267]}},{"properties":{"name":"27-Apr","city":"","latitude":31.806256,"zipcode":88063.0,"longitude":-106.587485,"id":"a66c3ycp3e5g","address":"","state":""},"type":"Feature","geometry":{"type":"Point","coordinates":[-106.587485,31.806256]}},{"properties":{"name":"27-Apr","city":"","latitude":38.395533,"zipcode":95472.0,"longitude":-122.841629,"id":"a66c3y5quez9","address":"","state":""},"type":"Feature","geometry":{"type":"Point","coordinates":[-122.841629,38.395533]}},{"properties":{"name":"28-Apr","city":"","latitude":34.790981,"zipcode":35762.0,"longitude":-86.57209,"id":"a66c3y893ygb","address":"","state":""},"type":"Feature","geometry":{"type":"Point","coordinates":[-86.57209,34.790981]}},{"properties":{"name":"28-Apr","city":"","latitude":39.965355,"zipcode":43215.0,"longitude":-83.003538,"id":"a66c3y0w2zvb","address":"","state":""},"type":"Feature","geometry":{"type":"Point","coordinates":[-83.003538,39.965355]}},{"properties":{"name":"28-Apr","city":"","latitude":32.589927,"zipcode":75104.0,"longitude":-96.949749,"id":"a66c3y2df1yq","address":"","state":""},"type":"Feature","geometry":{"type":"Point","coordinates":[-96.949749,32.589927]}},{"properties":{"name":"28-Apr","city":"","latitude":33.23485,"zipcode":76209.0,"longitude":-97.111875,"id":"a66c3y42r4jz","address":"","state":""},"type":"Feature","geometry":{"type":"Point","coordinates":[-97.111875,33.23485]}},{"properties":{"name":"28-Apr","city":"","latitude":30.00808,"zipcode":77090.0,"longitude":-95.442999,"id":"a66c3xxgzaes","address":"","state":""},"type":"Feature","geometry":{"type":"Point","coordinates":[-95.442999,30.00808]}},{"properties":{"name":"28-Apr","city":"","latitude":35.169006,"zipcode":79109.0,"longitude":-101.880828,"id":"a66c3y1czkmu","address":"","state":""},"type":"Feature","geometry":{"type":"Point","coordinates":[-101.880828,35.169006]}},{"properties":{"name":"28-Apr","city":"","latitude":35.86659,"zipcode":27616.0,"longitude":-78.546018,"id":"a66c3xwrcshc","address":"","state":""},"type":"Feature","geometry":{"type":"Point","coordinates":[-78.546018,35.86659]}},{"properties":{"name":"29-Apr","city":"","latitude":32.82907,"zipcode":75206.0,"longitude":-96.771209,"id":"a66c3xz17h7m","address":"","state":""},"type":"Feature","geometry":{"type":"Point","coordinates":[-96.771209,32.82907]}},{"properties":{"name":"29-Apr","city":"","latitude":32.688111,"zipcode":76016.0,"longitude":-97.190089,"id":"a66c3y8e86w0","address":"","state":""},"type":"Feature","geometry":{"type":"Point","coordinates":[-97.190089,32.688111]}},{"properties":{"name":"29-Apr","city":"","latitude":34.08518,"zipcode":76354.0,"longitude":-98.571602,"id":"a66c3ybyyjlg","address":"","state":""},"type":"Feature","geometry":{"type":"Point","coordinates":[-98.571602,34.08518]}},{"properties":{"name":"29-Apr","city":"","latitude":35.754551,"zipcode":27606.0,"longitude":-78.716852,"id":"a66c3xzjkw5v","address":"","state":""},"type":"Feature","geometry":{"type":"Point","coordinates":[-78.716852,35.754551]}},{"properties":{"name":"29-Apr","city":"","latitude":30.039365,"zipcode":77377.0,"longitude":-95.635309,"id":"a66c3y5bx5yt","address":"","state":""},"type":"Feature","geometry":{"type":"Point","coordinates":[-95.635309,30.039365]}},{"properties":{"name":"29-Apr","city":"","latitude":30.638482,"zipcode":77801.0,"longitude":-96.359745,"id":"a66c3y1h25e1","address":"","state":""},"type":"Feature","geometry":{"type":"Point","coordinates":[-96.359745,30.638482]}},{"properties":{"name":"29-Apr","city":"","latitude":27.707729,"zipcode":78412.0,"longitude":-97.351798,"id":"a66c3y4e40pz","address":"","state":""},"type":"Feature","geometry":{"type":"Point","coordinates":[-97.351798,27.707729]}},{"properties":{"name":"29-Apr","city":"","latitude":32.387639,"zipcode":76465.0,"longitude":-98.167677,"id":"a66c3y44ala0","address":"","state":""},"type":"Feature","geometry":{"type":"Point","coordinates":[-98.167677,32.387639]}},{"properties":{"name":"29-Apr","city":"","latitude":34.054274,"zipcode":90035.0,"longitude":-118.381091,"id":"a66c3y0euouw","address":"","state":""},"type":"Feature","geometry":{"type":"Point","coordinates":[-118.381091,34.054274]}},{"properties":{"name":"29-Apr","city":"","latitude":35.169006,"zipcode":79109.0,"longitude":-101.880828,"id":"a66c3yag1xrs","address":"","state":""},"type":"Feature","geometry":{"type":"Point","coordinates":[-101.880828,35.169006]}},{"properties":{"name":"3-Apr","city":"","latitude":33.21926,"zipcode":76207.0,"longitude":-97.183959,"id":"a66c3y8dtvsl","address":"","state":""},"type":"Feature","geometry":{"type":"Point","coordinates":[-97.183959,33.21926]}},{"properties":{"name":"3-Apr","city":"","latitude":33.215695,"zipcode":76201.0,"longitude":-97.145579,"id":"a66c3xwoth6p","address":"","state":""},"type":"Feature","geometry":{"type":"Point","coordinates":[-97.145579,33.215695]}},{"properties":{"name":"3-Apr","city":"","latitude":33.411811,"zipcode":75501.0,"longitude":-94.114659,"id":"a66c3ybejgku","address":"","state":""},"type":"Feature","geometry":{"type":"Point","coordinates":[-94.114659,33.411811]}},{"properties":{"name":"3-Apr","city":"","latitude":29.840918,"zipcode":77084.0,"longitude":-95.669569,"id":"a66c3yc0omwd","address":"","state":""},"type":"Feature","geometry":{"type":"Point","coordinates":[-95.669569,29.840918]}},{"properties":{"name":"30-Apr","city":"","latitude":32.596199,"zipcode":75115.0,"longitude":-96.861115,"id":"a66c3y3q4772","address":"","state":""},"type":"Feature","geometry":{"type":"Point","coordinates":[-96.861115,32.596199]}},{"properties":{"name":"30-Apr","city":"","latitude":33.816456,"zipcode":76261.0,"longitude":-97.941609,"id":"a66c3yccn5gb","address":"","state":""},"type":"Feature","geometry":{"type":"Point","coordinates":[-97.941609,33.816456]}},{"properties":{"name":"30-Apr","city":"","latitude":29.599522,"zipcode":77489.0,"longitude":-95.516523,"id":"a66c3y0wczvh","address":"","state":""},"type":"Feature","geometry":{"type":"Point","coordinates":[-95.516523,29.599522]}},{"properties":{"name":"30-Apr","city":"","latitude":32.405891,"zipcode":79602.0,"longitude":-99.716059,"id":"a66c3yaeilm9","address":"","state":""},"type":"Feature","geometry":{"type":"Point","coordinates":[-99.716059,32.405891]}},{"properties":{"name":"30-Apr","city":"","latitude":32.405891,"zipcode":79602.0,"longitude":-99.716059,"id":"a66c3y2675b0","address":"","state":""},"type":"Feature","geometry":{"type":"Point","coordinates":[-99.716059,32.405891]}},{"properties":{"name":"30-Apr","city":"","latitude":39.29062,"zipcode":45240.0,"longitude":-84.523628,"id":"a66c3y6kb56m","address":"","state":""},"type":"Feature","geometry":{"type":"Point","coordinates":[-84.523628,39.29062]}},{"properties":{"name":"30-Apr","city":"","latitude":32.65078,"zipcode":76133.0,"longitude":-97.378009,"id":"a66c3xz8b2v4","address":"","state":""},"type":"Feature","geometry":{"type":"Point","coordinates":[-97.378009,32.65078]}},{"properties":{"name":"30-Apr","city":"","latitude":41.33202,"zipcode":6468.0,"longitude":-73.227828,"id":"a66c3yaffli1","address":"","state":""},"type":"Feature","geometry":{"type":"Point","coordinates":[-73.227828,41.33202]}},{"properties":{"name":"4-May","city":"","latitude":34.06686,"zipcode":29203.0,"longitude":-81.022404,"id":"a66c3y8o9byb","address":"","state":""},"type":"Feature","geometry":{"type":"Point","coordinates":[-81.022404,34.06686]}},{"properties":{"name":"4-May","city":"","latitude":32.899991,"zipcode":30286.0,"longitude":-84.333299,"id":"a66c3y94hhci","address":"","state":""},"type":"Feature","geometry":{"type":"Point","coordinates":[-84.333299,32.899991]}},{"properties":{"name":"4-May","city":"","latitude":40.040251,"zipcode":43830.0,"longitude":-82.109419,"id":"a66c3yalqlx3","address":"","state":""},"type":"Feature","geometry":{"type":"Point","coordinates":[-82.109419,40.040251]}},{"properties":{"name":"4-May","city":"","latitude":41.37797,"zipcode":44130.0,"longitude":-81.781288,"id":"a66c3y4fu28w","address":"","state":""},"type":"Feature","geometry":{"type":"Point","coordinates":[-81.781288,41.37797]}},{"properties":{"name":"4-May","city":"","latitude":30.42537,"zipcode":70816.0,"longitude":-91.036959,"id":"a66c3xy6hdmu","address":"","state":""},"type":"Feature","geometry":{"type":"Point","coordinates":[-91.036959,30.42537]}},{"properties":{"name":"4-May","city":"","latitude":35.43089,"zipcode":28789.0,"longitude":-83.301149,"id":"a66c3xyh662j","address":"","state":""},"type":"Feature","geometry":{"type":"Point","coordinates":[-83.301149,35.43089]}},{"properties":{"name":"4-May","city":"","latitude":32.77297,"zipcode":75210.0,"longitude":-96.751969,"id":"a66c3ybahj5p","address":"","state":""},"type":"Feature","geometry":{"type":"Point","coordinates":[-96.751969,32.77297]}},{"properties":{"name":"4-May","city":"","latitude":32.386747,"zipcode":75662.0,"longitude":-94.874662,"id":"a66c3xwreq5y","address":"","state":""},"type":"Feature","geometry":{"type":"Point","coordinates":[-94.874662,32.386747]}},{"properties":{"name":"4-May","city":"","latitude":40.23756,"zipcode":19446.0,"longitude":-75.293859,"id":"a66c3y49fc9h","address":"","state":""},"type":"Feature","geometry":{"type":"Point","coordinates":[-75.293859,40.23756]}},{"properties":{"name":"4-May","city":"","latitude":33.348676,"zipcode":76374.0,"longitude":-98.74296,"id":"a66c3y34cucd","address":"","state":""},"type":"Feature","geometry":{"type":"Point","coordinates":[-98.74296,33.348676]}},{"properties":{"name":"4-May","city":"","latitude":30.862448,"zipcode":76520.0,"longitude":-96.959153,"id":"a66c3xwekfzh","address":"","state":""},"type":"Feature","geometry":{"type":"Point","coordinates":[-96.959153,30.862448]}},{"properties":{"name":"4-May","city":"","latitude":30.613768,"zipcode":77840.0,"longitude":-96.325519,"id":"a66c3ya5tpku","address":"","state":""},"type":"Feature","geometry":{"type":"Point","coordinates":[-96.325519,30.613768]}},{"properties":{"name":"4-May","city":"","latitude":42.397035,"zipcode":2150.0,"longitude":-71.033184,"id":"a66c3ycq88u8","address":"","state":""},"type":"Feature","geometry":{"type":"Point","coordinates":[-71.033184,42.397035]}},{"properties":{"name":"4-May","city":"","latitude":32.582352,"zipcode":76063.0,"longitude":-97.124936,"id":"a66c3xxr0z03","address":"","state":""},"type":"Feature","geometry":{"type":"Point","coordinates":[-97.124936,32.582352]}},{"properties":{"name":"5-May","city":"","latitude":41.371395,"zipcode":44035.0,"longitude":-82.106518,"id":"a66c3y6iwpe3","address":"","state":""},"type":"Feature","geometry":{"type":"Point","coordinates":[-82.106518,41.371395]}},{"properties":{"name":"5-May","city":"","latitude":37.95449,"zipcode":47620.0,"longitude":-87.883077,"id":"a66c3y1t3nma","address":"","state":""},"type":"Feature","geometry":{"type":"Point","coordinates":[-87.883077,37.95449]}},{"properties":{"name":"5-May","city":"","latitude":40.733405,"zipcode":7306.0,"longitude":-74.066398,"id":"a66c3xzaddx1","address":"","state":""},"type":"Feature","geometry":{"type":"Point","coordinates":[-74.066398,40.733405]}},{"properties":{"name":"5-May","city":"","latitude":32.40225,"zipcode":75165.0,"longitude":-96.828284,"id":"a66c3y1ptppx","address":"","state":""},"type":"Feature","geometry":{"type":"Point","coordinates":[-96.828284,32.40225]}},{"properties":{"name":"5-May","city":"","latitude":32.721974,"zipcode":75217.0,"longitude":-96.676129,"id":"a66c3xz7ae5e","address":"","state":""},"type":"Feature","geometry":{"type":"Point","coordinates":[-96.676129,32.721974]}},{"properties":{"name":"5-May","city":"","latitude":30.330002,"zipcode":77316.0,"longitude":-95.646099,"id":"a66c3yb4liim","address":"","state":""},"type":"Feature","geometry":{"type":"Point","coordinates":[-95.646099,30.330002]}},{"properties":{"name":"5-May","city":"","latitude":29.534196,"zipcode":78216.0,"longitude":-98.492503,"id":"a66c3y8v6hpl","address":"","state":""},"type":"Feature","geometry":{"type":"Point","coordinates":[-98.492503,29.534196]}},{"properties":{"name":"5-May","city":"","latitude":30.08138,"zipcode":78610.0,"longitude":-97.830922,"id":"a66c3yakl5dj","address":"","state":""},"type":"Feature","geometry":{"type":"Point","coordinates":[-97.830922,30.08138]}},{"properties":{"name":"5-May","city":"","latitude":45.792449,"zipcode":98642.0,"longitude":-122.69138,"id":"a66c3ycj64h6","address":"","state":""},"type":"Feature","geometry":{"type":"Point","coordinates":[-122.69138,45.792449]}},{"properties":{"name":"5-May","city":"","latitude":42.397035,"zipcode":2150.0,"longitude":-71.033184,"id":"a66c3y8bp58f","address":"","state":""},"type":"Feature","geometry":{"type":"Point","coordinates":[-71.033184,42.397035]}},{"properties":{"name":"5-May","city":"","latitude":41.74486,"zipcode":60619.0,"longitude":-87.606259,"id":"a66c3y2qbtxp","address":"","state":""},"type":"Feature","geometry":{"type":"Point","coordinates":[-87.606259,41.74486]}},{"properties":{"name":"6-Apr","city":"","latitude":35.51183,"zipcode":79065.0,"longitude":-100.936419,"id":"a66c3yaqo0uc","address":"","state":""},"type":"Feature","geometry":{"type":"Point","coordinates":[-100.936419,35.51183]}},{"properties":{"name":"6-Apr","city":"","latitude":33.75814,"zipcode":30314.0,"longitude":-84.425448,"id":"a66c3xy6pzzf","address":"","state":""},"type":"Feature","geometry":{"type":"Point","coordinates":[-84.425448,33.75814]}},{"properties":{"name":"6-Apr","city":"","latitude":41.994751,"zipcode":16426.0,"longitude":-80.144939,"id":"a66c3y8ffbru","address":"","state":""},"type":"Feature","geometry":{"type":"Point","coordinates":[-80.144939,41.994751]}},{"properties":{"name":"6-Apr","city":"","latitude":32.818489,"zipcode":75150.0,"longitude":-96.63142,"id":"a66c3y5cbc2c","address":"","state":""},"type":"Feature","geometry":{"type":"Point","coordinates":[-96.63142,32.818489]}},{"properties":{"name":"6-Apr","city":"","latitude":33.35638,"zipcode":79518.0,"longitude":-100.684179,"id":"a66c3y6b8zsk","address":"","state":""},"type":"Feature","geometry":{"type":"Point","coordinates":[-100.684179,33.35638]}},{"properties":{"name":"6-Apr","city":"","latitude":41.59805,"zipcode":60473.0,"longitude":-87.597644,"id":"a66c3xyxy8th","address":"","state":""},"type":"Feature","geometry":{"type":"Point","coordinates":[-87.597644,41.59805]}},{"properties":{"name":"6-Apr","city":"","latitude":43.51958,"zipcode":83401.0,"longitude":-111.944269,"id":"a66c3ybjzoze","address":"","state":""},"type":"Feature","geometry":{"type":"Point","coordinates":[-111.944269,43.51958]}},{"properties":{"name":"6-Apr","city":"","latitude":32.86429,"zipcode":76137.0,"longitude":-97.289427,"id":"a66c3yb2ghc9","address":"","state":""},"type":"Feature","geometry":{"type":"Point","coordinates":[-97.289427,32.86429]}},{"properties":{"name":"6-Apr","city":"","latitude":30.272181,"zipcode":78701.0,"longitude":-97.741252,"id":"a66c3y0e5avy","address":"","state":""},"type":"Feature","geometry":{"type":"Point","coordinates":[-97.741252,30.272181]}},{"properties":{"name":"6-Apr","city":"","latitude":32.660631,"zipcode":76017.0,"longitude":-97.161991,"id":"a66c3y3azyw6","address":"","state":""},"type":"Feature","geometry":{"type":"Point","coordinates":[-97.161991,32.660631]}},{"properties":{"name":"6-May","city":"","latitude":33.1515,"zipcode":76210.0,"longitude":-97.092349,"id":"a66c3y4fewn5","address":"","state":""},"type":"Feature","geometry":{"type":"Point","coordinates":[-97.092349,33.1515]}},{"properties":{"name":"6-May","city":"","latitude":33.804179,"zipcode":30039.0,"longitude":-84.038869,"id":"a66c3y6j41fi","address":"","state":""},"type":"Feature","geometry":{"type":"Point","coordinates":[-84.038869,33.804179]}},{"properties":{"name":"6-May","city":"","latitude":28.589743,"zipcode":32817.0,"longitude":-81.248029,"id":"a66c3yclqbhq","address":"","state":""},"type":"Feature","geometry":{"type":"Point","coordinates":[-81.248029,28.589743]}},{"properties":{"name":"6-May","city":"","latitude":42.425205,"zipcode":48219.0,"longitude":-83.252069,"id":"a66c3ycjuiv4","address":"","state":""},"type":"Feature","geometry":{"type":"Point","coordinates":[-83.252069,42.425205]}},{"properties":{"name":"6-May","city":"","latitude":32.725021,"zipcode":92133.0,"longitude":-117.219482,"id":"a66c3y7s5leo","address":"","state":""},"type":"Feature","geometry":{"type":"Point","coordinates":[-117.219482,32.725021]}},{"properties":{"name":"6-May","city":"","latitude":33.51041,"zipcode":79424.0,"longitude":-101.935754,"id":"a66c3y8uvico","address":"","state":""},"type":"Feature","geometry":{"type":"Point","coordinates":[-101.935754,33.51041]}},{"properties":{"name":"6-May","city":"","latitude":32.776351,"zipcode":76006.0,"longitude":-97.081281,"id":"a66c3xx1k2wn","address":"","state":""},"type":"Feature","geometry":{"type":"Point","coordinates":[-97.081281,32.776351]}},{"properties":{"name":"6-May","city":"","latitude":29.73981,"zipcode":77042.0,"longitude":-95.560559,"id":"a66c3y4tyvg5","address":"","state":""},"type":"Feature","geometry":{"type":"Point","coordinates":[-95.560559,29.73981]}},{"properties":{"name":"7-Apr","city":"","latitude":25.921319,"zipcode":78521.0,"longitude":-97.451382,"id":"a66c3y8w7j0t","address":"","state":""},"type":"Feature","geometry":{"type":"Point","coordinates":[-97.451382,25.921319]}},{"properties":{"name":"7-Apr","city":"","latitude":29.935342,"zipcode":77060.0,"longitude":-95.398617,"id":"a66c3y883vhe","address":"","state":""},"type":"Feature","geometry":{"type":"Point","coordinates":[-95.398617,29.935342]}},{"properties":{"name":"7-Apr","city":"","latitude":42.2928,"zipcode":49006.0,"longitude":-85.626424,"id":"a66c3y11njvw","address":"","state":""},"type":"Feature","geometry":{"type":"Point","coordinates":[-85.626424,42.2928]}},{"properties":{"name":"7-Apr","city":"","latitude":40.009085,"zipcode":43211.0,"longitude":-82.975479,"id":"a66c3y5ehlju","address":"","state":""},"type":"Feature","geometry":{"type":"Point","coordinates":[-82.975479,40.009085]}},{"properties":{"name":"7-Apr","city":"","latitude":26.97369,"zipcode":34223.0,"longitude":-82.363749,"id":"a66c3y99abga","address":"","state":""},"type":"Feature","geometry":{"type":"Point","coordinates":[-82.363749,26.97369]}},{"properties":{"name":"7-Apr","city":"","latitude":31.51858,"zipcode":76706.0,"longitude":-97.123619,"id":"a66c3xy19ojw","address":"","state":""},"type":"Feature","geometry":{"type":"Point","coordinates":[-97.123619,31.51858]}},{"properties":{"name":"7-Apr","city":"","latitude":33.215695,"zipcode":76201.0,"longitude":-97.145579,"id":"a66c3y0gruhr","address":"","state":""},"type":"Feature","geometry":{"type":"Point","coordinates":[-97.145579,33.215695]}},{"properties":{"name":"7-Apr","city":"","latitude":32.872509,"zipcode":76179.0,"longitude":-97.413529,"id":"a66c3y4edwva","address":"","state":""},"type":"Feature","geometry":{"type":"Point","coordinates":[-97.413529,32.872509]}},{"properties":{"name":"7-Apr","city":"","latitude":32.86429,"zipcode":76137.0,"longitude":-97.289427,"id":"a66c3y0y0ihf","address":"","state":""},"type":"Feature","geometry":{"type":"Point","coordinates":[-97.289427,32.86429]}},{"properties":{"name":"7-Apr","city":"","latitude":32.778049,"zipcode":75367.0,"longitude":-96.795601,"id":"a66c3y95s5s9","address":"","state":""},"type":"Feature","geometry":{"type":"Point","coordinates":[-96.795601,32.778049]}},{"properties":{"name":"7-May","city":"","latitude":34.16737,"zipcode":93033.0,"longitude":-119.166828,"id":"a66c3y40ovts","address":"","state":""},"type":"Feature","geometry":{"type":"Point","coordinates":[-119.166828,34.16737]}},{"properties":{"name":"7-May","city":"","latitude":39.748922,"zipcode":17340.0,"longitude":-77.096693,"id":"a66c3y4y5gj7","address":"","state":""},"type":"Feature","geometry":{"type":"Point","coordinates":[-77.096693,39.748922]}},{"properties":{"name":"7-May","city":"","latitude":42.425205,"zipcode":48219.0,"longitude":-83.252069,"id":"a66c3ya30dyp","address":"","state":""},"type":"Feature","geometry":{"type":"Point","coordinates":[-83.252069,42.425205]}},{"properties":{"name":"7-May","city":"","latitude":31.142533,"zipcode":76522.0,"longitude":-97.925561,"id":"a66c3xws4zrh","address":"","state":""},"type":"Feature","geometry":{"type":"Point","coordinates":[-97.925561,31.142533]}},{"properties":{"name":"7-May","city":"","latitude":29.62783,"zipcode":77477.0,"longitude":-95.569583,"id":"a66c3yc1drv4","address":"","state":""},"type":"Feature","geometry":{"type":"Point","coordinates":[-95.569583,29.62783]}},{"properties":{"name":"7-May","city":"","latitude":30.335102,"zipcode":77304.0,"longitude":-95.503673,"id":"a66c3y9h3ngy","address":"","state":""},"type":"Feature","geometry":{"type":"Point","coordinates":[-95.503673,30.335102]}},{"properties":{"name":"8-Apr","city":"","latitude":61.09349,"zipcode":99516.0,"longitude":-149.789217,"id":"a66c3xzrzrvo","address":"","state":""},"type":"Feature","geometry":{"type":"Point","coordinates":[-149.789217,61.09349]}},{"properties":{"name":"8-Apr","city":"","latitude":31.777698,"zipcode":79902.0,"longitude":-106.495812,"id":"a66c3xwrndct","address":"","state":""},"type":"Feature","geometry":{"type":"Point","coordinates":[-106.495812,31.777698]}},{"properties":{"name":"8-Apr","city":"","latitude":30.01895,"zipcode":78957.0,"longitude":-97.160579,"id":"a66c3y2h5ut9","address":"","state":""},"type":"Feature","geometry":{"type":"Point","coordinates":[-97.160579,30.01895]}},{"properties":{"name":"8-Apr","city":"","latitude":29.33046,"zipcode":78224.0,"longitude":-98.541239,"id":"a66c3y9322g2","address":"","state":""},"type":"Feature","geometry":{"type":"Point","coordinates":[-98.541239,29.33046]}},{"properties":{"name":"8-Apr","city":"","latitude":29.775573,"zipcode":77079.0,"longitude":-95.600888,"id":"a66c3yadikbf","address":"","state":""},"type":"Feature","geometry":{"type":"Point","coordinates":[-95.600888,29.775573]}},{"properties":{"name":"8-Apr","city":"","latitude":32.888301,"zipcode":76034.0,"longitude":-97.146542,"id":"a66c3y13g3qb","address":"","state":""},"type":"Feature","geometry":{"type":"Point","coordinates":[-97.146542,32.888301]}},{"properties":{"name":"8-Apr","city":"","latitude":32.538529,"zipcode":76028.0,"longitude":-97.311993,"id":"a66c3xx3wmoc","address":"","state":""},"type":"Feature","geometry":{"type":"Point","coordinates":[-97.311993,32.538529]}},{"properties":{"name":"8-Apr","city":"","latitude":32.977513,"zipcode":75048.0,"longitude":-96.584932,"id":"a66c3y0w1tnn","address":"","state":""},"type":"Feature","geometry":{"type":"Point","coordinates":[-96.584932,32.977513]}},{"properties":{"name":"8-Apr","city":"","latitude":41.50075,"zipcode":44118.0,"longitude":-81.556034,"id":"a66c3ybnrebp","address":"","state":""},"type":"Feature","geometry":{"type":"Point","coordinates":[-81.556034,41.50075]}},{"properties":{"name":"8-Apr","city":"","latitude":41.44983,"zipcode":44105.0,"longitude":-81.621379,"id":"a66c3xxkuz06","address":"","state":""},"type":"Feature","geometry":{"type":"Point","coordinates":[-81.621379,41.44983]}},{"properties":{"name":"8-Apr","city":"","latitude":28.304272,"zipcode":34744.0,"longitude":-81.358439,"id":"a66c3xy1pxou","address":"","state":""},"type":"Feature","geometry":{"type":"Point","coordinates":[-81.358439,28.304272]}},{"properties":{"name":"8-Apr","city":"","latitude":27.94037,"zipcode":33509.0,"longitude":-82.325979,"id":"a66c3yc836nf","address":"","state":""},"type":"Feature","geometry":{"type":"Point","coordinates":[-82.325979,27.94037]}},{"properties":{"name":"8-Apr","city":"","latitude":31.86612,"zipcode":79932.0,"longitude":-106.598729,"id":"a66c3xyizhvc","address":"","state":""},"type":"Feature","geometry":{"type":"Point","coordinates":[-106.598729,31.86612]}},{"properties":{"name":"8-Apr","city":"","latitude":32.556641,"zipcode":75605.0,"longitude":-94.738768,"id":"a66c3ya2ok9z","address":"","state":""},"type":"Feature","geometry":{"type":"Point","coordinates":[-94.738768,32.556641]}},{"properties":{"name":"8-May","city":"","latitude":33.216599,"zipcode":76204.0,"longitude":-97.130966,"id":"a66c3yadkpoz","address":"","state":""},"type":"Feature","geometry":{"type":"Point","coordinates":[-97.130966,33.216599]}},{"properties":{"name":"9-Apr","city":"","latitude":38.859237,"zipcode":22031.0,"longitude":-77.263781,"id":"a66c3y47mv0w","address":"","state":""},"type":"Feature","geometry":{"type":"Point","coordinates":[-77.263781,38.859237]}},{"properties":{"name":"9-Apr","city":"","latitude":32.74043,"zipcode":76107.0,"longitude":-97.382484,"id":"a66c3yc3n7yo","address":"","state":""},"type":"Feature","geometry":{"type":"Point","coordinates":[-97.382484,32.74043]}},{"properties":{"name":"9-Apr","city":"","latitude":32.736095,"zipcode":75211.0,"longitude":-96.890719,"id":"a66c3ybyiayx","address":"","state":""},"type":"Feature","geometry":{"type":"Point","coordinates":[-96.890719,32.736095]}},{"properties":{"name":"9-Apr","city":"","latitude":33.063916,"zipcode":75135.0,"longitude":-96.226873,"id":"a66c3y1g2f7a","address":"","state":""},"type":"Feature","geometry":{"type":"Point","coordinates":[-96.226873,33.063916]}},{"properties":{"name":"9-Apr","city":"","latitude":41.452846,"zipcode":44145.0,"longitude":-81.925649,"id":"a66c3ycdpyyw","address":"","state":""},"type":"Feature","geometry":{"type":"Point","coordinates":[-81.925649,41.452846]}},{"properties":{"name":"9-Apr","city":"","latitude":41.537273,"zipcode":44108.0,"longitude":-81.610071,"id":"a66c3xznslpp","address":"","state":""},"type":"Feature","geometry":{"type":"Point","coordinates":[-81.610071,41.537273]}},{"properties":{"name":"9-Apr","city":"","latitude":41.47411,"zipcode":44102.0,"longitude":-81.736969,"id":"a66c3y6c6q0s","address":"","state":""},"type":"Feature","geometry":{"type":"Point","coordinates":[-81.736969,41.47411]}},{"properties":{"name":"9-Apr","city":"","latitude":30.613768,"zipcode":77840.0,"longitude":-96.325519,"id":"a66c3y8eu14p","address":"","state":""},"type":"Feature","geometry":{"type":"Point","coordinates":[-96.325519,30.613768]}},{"properties":{"name":"9-Apr","city":"","latitude":41.577992,"zipcode":6704.0,"longitude":-73.032218,"id":"a66c3y0i9t9a","address":"","state":""},"type":"Feature","geometry":{"type":"Point","coordinates":[-73.032218,41.577992]}},{"properties":{"name":"9-Apr","city":"","latitude":41.577992,"zipcode":6704.0,"longitude":-73.032218,"id":"a66c3y7q91xj","address":"","state":""},"type":"Feature","geometry":{"type":"Point","coordinates":[-73.032218,41.577992]}},{"properties":{"name":"9-Apr","city":"","latitude":30.613768,"zipcode":77840.0,"longitude":-96.325519,"id":"a66c3xztjr87","address":"","state":""},"type":"Feature","geometry":{"type":"Point","coordinates":[-96.325519,30.613768]}},{"properties":{"name":"9-Apr","city":"","latitude":30.613768,"zipcode":77840.0,"longitude":-96.325519,"id":"a66c3yagnke2","address":"","state":""},"type":"Feature","geometry":{"type":"Point","coordinates":[-96.325519,30.613768]}},{"properties":{"name":"9-Apr","city":"","latitude":27.662659,"zipcode":78414.0,"longitude":-97.37131,"id":"a66c3xxu8x95","address":"","state":""},"type":"Feature","geometry":{"type":"Point","coordinates":[-97.37131,27.662659]}},{"properties":{"name":"9-Apr","city":"","latitude":30.265561,"zipcode":78702.0,"longitude":-97.71778,"id":"a66c3xx81kc7","address":"","state":""},"type":"Feature","geometry":{"type":"Point","coordinates":[-97.71778,30.265561]}},{"properties":{"name":"9-Apr","city":"","latitude":30.265561,"zipcode":78702.0,"longitude":-97.71778,"id":"a66c3y2xkjz4","address":"","state":""},"type":"Feature","geometry":{"type":"Point","coordinates":[-97.71778,30.265561]}}],"is_temporal":false,"author":{"url":"http://www.tgslc.org","metadata":"","contact_name":"Robert Westrick","contact_address":"","source":"TG","contact_phone":""},"source":"http://www.tgslc.org","pagination":{"sort":null,"start":0,"total":252,"limit":1000000},"state":"complete","tags":"education","published":"2009-05-27T12:00:00Z","id":12915}