{"type":"FeatureCollection","data_type":"Dataset","url_type":null,"permissions":[{"permissions":{"download":true,"view":true},"group_id":"everyone"}],"classification":null,"title":"GP cumulative data","count":54,"stream_id":13064,"contributor":{"url":"http://geocommons.com/users/6870","name":"andypoole"},"data_attributes":null,"calculation_params":null,"icon_link":null,"link":"http://geocommons.com/overlays/13064.json","extent":[-3.18256,53.3223,-2.97185,53.4333],"geometry_types":["point"],"unique_name":null,"name":"GP cumulative data","feature_count":54,"description":"","next_feature":null,"is_raster":false,"short_classification":"Y","stats":{"latitude":{"max":53.43328,"mean":53.3873355,"variance":0.000862222871726422,"stdev":0.0293636317870665,"min":53.322301,"median":53.38904},"c weighted rate":{"max":699.0,"mean":271.685185185185,"variance":10470.8990216632,"stdev":102.32741090081,"min":0.0,"median":254.0},"longitude":{"max":-2.971848,"mean":-3.06160211111111,"variance":0.00205406958077988,"stdev":0.0453218444106137,"min":-3.182558,"median":-3.04986}},"features":[{"properties":{"name":"(Heswall and) Pensby Surgery","latitude":53.345499,"c weighted rate":0.0,"postcode":"CH61 9NL","longitude":-3.094663,"id":"a6pdoxvonp1p"},"type":"Feature","geometry":{"type":"Point","coordinates":[-3.094663,53.345499]}},{"properties":{"name":"Blackheath Medical Centre","latitude":53.41221,"c weighted rate":224.0,"postcode":"CH46 1SG","longitude":-3.10471,"id":"a6pdoxo0ilmh"},"type":"Feature","geometry":{"type":"Point","coordinates":[-3.10471,53.41221]}},{"properties":{"name":"Cavendish Medical Centre","latitude":53.39796,"c weighted rate":259.0,"postcode":"CH41 8BU","longitude":-3.04412,"id":"a6pdoxm8dcrv"},"type":"Feature","geometry":{"type":"Point","coordinates":[-3.04412,53.39796]}},{"properties":{"name":"Central Park Medical Centre","latitude":53.41761,"c weighted rate":230.0,"postcode":"CH44 0AF","longitude":-3.03806,"id":"a6pdoxrgwow8"},"type":"Feature","geometry":{"type":"Point","coordinates":[-3.03806,53.41761]}},{"properties":{"name":"Church Road Medical Centre","latitude":53.346233,"c weighted rate":251.0,"postcode":"CH63 3EB","longitude":-3.004072,"id":"a6pdoxpgctnf"},"type":"Feature","geometry":{"type":"Point","coordinates":[-3.004072,53.346233]}},{"properties":{"name":"Civic Medical Centre","latitude":53.350333,"c weighted rate":234.0,"postcode":"CH63 7RX","longitude":-3.004965,"id":"a6pdoxqw6vub"},"type":"Feature","geometry":{"type":"Point","coordinates":[-3.004965,53.350333]}},{"properties":{"name":"Claughton Medical Centre","latitude":53.39678,"c weighted rate":260.0,"postcode":"CH41 0DD","longitude":-3.05157,"id":"a6pdoxlw6zy4"},"type":"Feature","geometry":{"type":"Point","coordinates":[-3.05157,53.39678]}},{"properties":{"name":"Commonfield Road Surgery","latitude":53.3702,"c weighted rate":321.0,"postcode":"CH49 7LP","longitude":-3.08637,"id":"a6pdoxlob6xc"},"type":"Feature","geometry":{"type":"Point","coordinates":[-3.08637,53.3702]}},{"properties":{"name":"Devaney Medical Centre","latitude":53.3852,"c weighted rate":252.0,"postcode":"CH43 5RE","longitude":-3.03756,"id":"a6pdoxtdtu46"},"type":"Feature","geometry":{"type":"Point","coordinates":[-3.03756,53.3852]}},{"properties":{"name":"Earlston Road Surgery","latitude":53.42861,"c weighted rate":155.0,"postcode":"CH45 5DX","longitude":-3.04331,"id":"a6pdoxq6bgp4"},"type":"Feature","geometry":{"type":"Point","coordinates":[-3.04331,53.42861]}},{"properties":{"name":"Eastham Group Practice","latitude":53.322301,"c weighted rate":478.0,"postcode":"CH62 6EE","longitude":-2.971848,"id":"a6pdoxskdk8h"},"type":"Feature","geometry":{"type":"Point","coordinates":[-2.971848,53.322301]}},{"properties":{"name":"Egremont Medical Centre","latitude":53.41901,"c weighted rate":205.0,"postcode":"CH44 8AT","longitude":-3.02763,"id":"a6pdoxl0crgw"},"type":"Feature","geometry":{"type":"Point","coordinates":[-3.02763,53.41901]}},{"properties":{"name":"Fender Way Health Centre","latitude":53.38904,"c weighted rate":323.0,"postcode":"CH43 9QS","longitude":-3.08225,"id":"a6pdoxkel5ja"},"type":"Feature","geometry":{"type":"Point","coordinates":[-3.08225,53.38904]}},{"properties":{"name":"Field Road Health Centre","latitude":53.43328,"c weighted rate":219.0,"postcode":"CH45 5BG","longitude":-3.04497,"id":"a6pdoxuiplkl"},"type":"Feature","geometry":{"type":"Point","coordinates":[-3.04497,53.43328]}},{"properties":{"name":"Gladstone Medical Centre","latitude":53.37564,"c weighted rate":308.0,"postcode":"CH42 3TD","longitude":-3.0149,"id":"a6pdoxkxnbpd"},"type":"Feature","geometry":{"type":"Point","coordinates":[-3.0149,53.37564]}},{"properties":{"name":"Greasby Group Practice","latitude":53.377612,"c weighted rate":274.0,"postcode":"CH49 3AT","longitude":-3.121343,"id":"a6pdoxvtchr6"},"type":"Feature","geometry":{"type":"Point","coordinates":[-3.121343,53.377612]}},{"properties":{"name":"Greenway Road Surgery","latitude":53.37606,"c weighted rate":272.0,"postcode":"CH42 7LX","longitude":-3.0264,"id":"a6pdoxgwnxwi"},"type":"Feature","geometry":{"type":"Point","coordinates":[-3.0264,53.37606]}},{"properties":{"name":"Grove Medical Centre","latitude":53.42908,"c weighted rate":166.0,"postcode":"CH45 3HE","longitude":-3.06636,"id":"a6pdoxtjveyp"},"type":"Feature","geometry":{"type":"Point","coordinates":[-3.06636,53.42908]}},{"properties":{"name":"Hamilton Medical Centre","latitude":53.39258,"c weighted rate":326.0,"postcode":"CH41 6AJ","longitude":-3.01735,"id":"a6pdoxnp8ajd"},"type":"Feature","geometry":{"type":"Point","coordinates":[-3.01735,53.39258]}},{"properties":{"name":"Heatherlands Medical Centre","latitude":53.38147,"c weighted rate":442.0,"postcode":"CH49 9DA","longitude":-3.0896,"id":"a6pdoxsii9mw"},"type":"Feature","geometry":{"type":"Point","coordinates":[-3.0896,53.38147]}},{"properties":{"name":"Heswall (and Pensby) Medical Centre","latitude":53.32914,"c weighted rate":279.0,"postcode":"CH60 7SG","longitude":-3.099859,"id":"a6pdoxqmtq5q"},"type":"Feature","geometry":{"type":"Point","coordinates":[-3.099859,53.32914]}},{"properties":{"name":"Holmlands Medical Centre","latitude":53.37241,"c weighted rate":326.0,"postcode":"CH43 0TX","longitude":-3.06032,"id":"a6pdoxq3zvcx"},"type":"Feature","geometry":{"type":"Point","coordinates":[-3.06032,53.37241]}},{"properties":{"name":"Hoylake &amp; Meols Medical Centre","latitude":53.399938,"c weighted rate":338.0,"postcode":"CH47 8XA","longitude":-3.155576,"id":"a6pdoxvy8av4"},"type":"Feature","geometry":{"type":"Point","coordinates":[-3.155576,53.399938]}},{"properties":{"name":"Hoylake Road Medical Centre","latitude":53.39933,"c weighted rate":254.0,"postcode":"CH46 6DE","longitude":-3.11662,"id":"a6pdoxprnj6a"},"type":"Feature","geometry":{"type":"Point","coordinates":[-3.11662,53.39933]}},{"properties":{"name":"Kings Lane Medical Centre","latitude":53.36175,"c weighted rate":216.0,"postcode":"CH63 5LY","longitude":-3.025986,"id":"a6pdoxixmvru"},"type":"Feature","geometry":{"type":"Point","coordinates":[-3.025986,53.36175]}},{"properties":{"name":"Leasowe Primary Care Centre","latitude":53.41662,"c weighted rate":377.0,"postcode":"CH46 2QQ","longitude":-3.09444,"id":"a6pdoxl59gbd"},"type":"Feature","geometry":{"type":"Point","coordinates":[-3.09444,53.41662]}},{"properties":{"name":"Leasowe Surgery","latitude":53.41413,"c weighted rate":266.0,"postcode":"CH46 1PF","longitude":-3.09561,"id":"a6pdoxiar05v"},"type":"Feature","geometry":{"type":"Point","coordinates":[-3.09561,53.41413]}},{"properties":{"name":"Liscard Group Practice","latitude":53.41795,"c weighted rate":197.0,"postcode":"CH44 5UL","longitude":-3.04231,"id":"a6pdoxrzg24f"},"type":"Feature","geometry":{"type":"Point","coordinates":[-3.04231,53.41795]}},{"properties":{"name":"Manor Health Centre","latitude":53.42113,"c weighted rate":184.0,"postcode":"CH45 4JG","longitude":-3.04451,"id":"a6pdoxizy06h"},"type":"Feature","geometry":{"type":"Point","coordinates":[-3.04451,53.42113]}},{"properties":{"name":"Miriam Medical Centre","latitude":53.40136,"c weighted rate":338.0,"postcode":"CH41 8FG","longitude":-3.05604,"id":"a6pdoxthdq7o"},"type":"Feature","geometry":{"type":"Point","coordinates":[-3.05604,53.40136]}},{"properties":{"name":"Moreton Cross Group Practice","latitude":53.40322,"c weighted rate":266.0,"postcode":"CH46 8SA","longitude":-3.11204,"id":"a6pdoxwlgh1d"},"type":"Feature","geometry":{"type":"Point","coordinates":[-3.11204,53.40322]}},{"properties":{"name":"Moreton Health Clinic","latitude":53.40049,"c weighted rate":271.0,"postcode":"CH46 7XA","longitude":-3.11268,"id":"a6pdoxhyli8u"},"type":"Feature","geometry":{"type":"Point","coordinates":[-3.11268,53.40049]}},{"properties":{"name":"Moreton Medical Centre","latitude":53.39888,"c weighted rate":301.0,"postcode":"CH46 0PE","longitude":-3.10996,"id":"a6pdoxh3smzm"},"type":"Feature","geometry":{"type":"Point","coordinates":[-3.10996,53.39888]}},{"properties":{"name":"Park Medical Centre","latitude":53.370594,"c weighted rate":231.0,"postcode":"CH48 4DW","longitude":-3.182558,"id":"a6pdoxnwjmuv"},"type":"Feature","geometry":{"type":"Point","coordinates":[-3.182558,53.370594]}},{"properties":{"name":"Parkfield Medical Centre (C)","latitude":53.36312,"c weighted rate":450.0,"postcode":"CH62 5HS","longitude":-3.00017,"id":"a6pdoxjlyhno"},"type":"Feature","geometry":{"type":"Point","coordinates":[-3.00017,53.36312]}},{"properties":{"name":"Prenton Medical Centre","latitude":53.37105,"c weighted rate":219.0,"postcode":"CH43 0TS","longitude":-3.06102,"id":"a6pdoxuxaa44"},"type":"Feature","geometry":{"type":"Point","coordinates":[-3.06102,53.37105]}},{"properties":{"name":"Riverside Surgery","latitude":53.372,"c weighted rate":263.0,"postcode":"CH42 2AG","longitude":-3.00618,"id":"a6pdoxocblw2"},"type":"Feature","geometry":{"type":"Point","coordinates":[-3.00618,53.372]}},{"properties":{"name":"Seabank Medical Centre","latitude":53.43172,"c weighted rate":235.0,"postcode":"CH45 1HE","longitude":-3.0401,"id":"a6pdoxxb7o3e"},"type":"Feature","geometry":{"type":"Point","coordinates":[-3.0401,53.43172]}},{"properties":{"name":"Silverdale Medical Centre","latitude":53.326567,"c weighted rate":254.0,"postcode":"CH60 4RH","longitude":-3.099644,"id":"a6pdoxt6wba9"},"type":"Feature","geometry":{"type":"Point","coordinates":[-3.099644,53.326567]}},{"properties":{"name":"Somerville Medical Centre","latitude":53.41005,"c weighted rate":229.0,"postcode":"CH44 4AA","longitude":-3.04194,"id":"a6pdoxlure55"},"type":"Feature","geometry":{"type":"Point","coordinates":[-3.04194,53.41005]}},{"properties":{"name":"Spital Surgery","latitude":53.340961,"c weighted rate":211.0,"postcode":"CH63 9JP","longitude":-3.003528,"id":"a6pdoxkxep8n"},"type":"Feature","geometry":{"type":"Point","coordinates":[-3.003528,53.340961]}},{"properties":{"name":"St. George's Medical Centre","latitude":53.43122,"c weighted rate":222.0,"postcode":"CH45 5JN","longitude":-3.04986,"id":"a6pdoxm8abcl"},"type":"Feature","geometry":{"type":"Point","coordinates":[-3.04986,53.43122]}},{"properties":{"name":"St. Hilary Brow Group Practice","latitude":53.41957,"c weighted rate":175.0,"postcode":"CH44 2AG","longitude":-3.05621,"id":"a6pdoxilmlzl"},"type":"Feature","geometry":{"type":"Point","coordinates":[-3.05621,53.41957]}},{"properties":{"name":"Teehey Lane Medical Centre","latitude":53.34973,"c weighted rate":232.0,"postcode":"CH63 2JW","longitude":-3.020965,"id":"a6pdoxpsemqb"},"type":"Feature","geometry":{"type":"Point","coordinates":[-3.020965,53.34973]}},{"properties":{"name":"The Surgery - Martins Lane","latitude":53.41817,"c weighted rate":196.0,"postcode":"CH44 1BA","longitude":-3.03902,"id":"a6pdoxuhe5hp"},"type":"Feature","geometry":{"type":"Point","coordinates":[-3.03902,53.41817]}},{"properties":{"name":"Upton Group Practice","latitude":53.3852,"c weighted rate":225.0,"postcode":"CH49 0TF","longitude":-3.08958,"id":"a6pdoxhjsbue"},"type":"Feature","geometry":{"type":"Point","coordinates":[-3.08958,53.3852]}},{"properties":{"name":"Victoria Park Health Centre","latitude":53.37197,"c weighted rate":271.0,"postcode":"CH42 4QJ","longitude":-3.02007,"id":"a6pdoxtj1naz"},"type":"Feature","geometry":{"type":"Point","coordinates":[-3.02007,53.37197]}},{"properties":{"name":"Villa Medical Centre","latitude":53.36422,"c weighted rate":253.0,"postcode":"CH43 3DB","longitude":-3.05216,"id":"a6pdoxjq6rys"},"type":"Feature","geometry":{"type":"Point","coordinates":[-3.05216,53.36422]}},{"properties":{"name":"Vittoria Medical Centre (E)","latitude":53.39637,"c weighted rate":532.0,"postcode":"CH41 3RH","longitude":-3.03022,"id":"a6pdoxlgvfrq"},"type":"Feature","geometry":{"type":"Point","coordinates":[-3.03022,53.39637]}},{"properties":{"name":"Wallasey Village Group Practice","latitude":53.42245,"c weighted rate":210.0,"postcode":"CH45 3NL","longitude":-3.06358,"id":"a6pdoxtxf4hc"},"type":"Feature","geometry":{"type":"Point","coordinates":[-3.06358,53.42245]}},{"properties":{"name":"West Kirby Health Centre","latitude":53.373579,"c weighted rate":699.0,"postcode":"CH48 4HZ","longitude":-3.182415,"id":"a6pdoxkl3qym"},"type":"Feature","geometry":{"type":"Point","coordinates":[-3.182415,53.373579]}},{"properties":{"name":"West Wirral Group Practice","latitude":53.35279,"c weighted rate":244.0,"postcode":"CH61 3UF","longitude":-3.117852,"id":"a6pdoxoxndtu"},"type":"Feature","geometry":{"type":"Point","coordinates":[-3.117852,53.35279]}},{"properties":{"name":"Whetstone Medical Centre","latitude":53.38723,"c weighted rate":270.0,"postcode":"CH41 2TF","longitude":-3.02973,"id":"a6pdoxi2w578"},"type":"Feature","geometry":{"type":"Point","coordinates":[-3.02973,53.38723]}},{"properties":{"name":"Woodchurch Road Surgery (The)","latitude":53.3745,"c weighted rate":238.0,"postcode":"CH43 5UU","longitude":-3.04171,"id":"a6pdoxpg49hl"},"type":"Feature","geometry":{"type":"Point","coordinates":[-3.04171,53.3745]}}],"is_temporal":false,"author":{"url":"","metadata":"","contact_name":"","contact_address":"","source":"","contact_phone":""},"source":"","pagination":{"sort":null,"start":0,"total":54,"limit":1000000},"state":"complete","tags":"","published":"2009-06-01T15:46:05Z","id":13064}