{"type":"FeatureCollection","data_type":"Dataset","url_type":null,"permissions":[{"permissions":{"download":true,"view":true},"group_id":"everyone"}],"classification":null,"title":"Dentists count","count":1019,"stream_id":13556,"contributor":{"url":"http://geocommons.com/users/7144","name":"jesseg"},"data_attributes":null,"calculation_params":null,"icon_link":null,"link":"http://geocommons.com/overlays/13556.json","extent":[-157.967,21.31,-70.2853,63.9218],"geometry_types":["point"],"unique_name":null,"name":"Dentists count","feature_count":1019,"description":"","next_feature":null,"is_raster":false,"short_classification":"Y","stats":{"zip":{"max":99801.0,"mean":59273.4259077527,"variance":705628480.62196,"stdev":26563.6684330677,"min":1901.0,"median":64012.0},"latitude":{"max":63.9218,"mean":36.3680588125613,"variance":33.793450250301,"stdev":5.81321341860946,"min":21.31,"median":35.58423},"longitude":{"max":-70.28532,"mean":-95.5964254465162,"variance":248.40760691905,"stdev":15.7609519674114,"min":-157.96706,"median":-92.28484},"dentists":{"max":24.0,"mean":2.31403336604514,"variance":4.25099147629231,"stdev":2.06179326710811,"min":1.0,"median":2.0}},"features":[{"properties":{"zip":1901.0,"latitude":42.46298,"longitude":-70.9444,"id":"a62ky3l40fpo","dentists":3.0},"type":"Feature","geometry":{"type":"Point","coordinates":[-70.9444,42.46298]}},{"properties":{"zip":1966.0,"latitude":42.65758,"longitude":-70.61713,"id":"a62ky3mgc08r","dentists":1.0},"type":"Feature","geometry":{"type":"Point","coordinates":[-70.61713,42.65758]}},{"properties":{"zip":2093.0,"latitude":42.05258,"longitude":-71.33849,"id":"a62ky3u2wv31","dentists":2.0},"type":"Feature","geometry":{"type":"Point","coordinates":[-71.33849,42.05258]}},{"properties":{"zip":2132.0,"latitude":42.27775,"longitude":-71.1565,"id":"a62ky3vjoi0y","dentists":1.0},"type":"Feature","geometry":{"type":"Point","coordinates":[-71.1565,42.27775]}},{"properties":{"zip":2169.0,"latitude":42.24935,"longitude":-71.00019,"id":"a62ky3s1epl8","dentists":3.0},"type":"Feature","geometry":{"type":"Point","coordinates":[-71.00019,42.24935]}},{"properties":{"zip":2301.0,"latitude":42.08188,"longitude":-71.03307,"id":"a62ky3o0vsuy","dentists":3.0},"type":"Feature","geometry":{"type":"Point","coordinates":[-71.03307,42.08188]}},{"properties":{"zip":2452.0,"latitude":42.39136,"longitude":-71.22194,"id":"a62ky3fovlkv","dentists":2.0},"type":"Feature","geometry":{"type":"Point","coordinates":[-71.22194,42.39136]}},{"properties":{"zip":2476.0,"latitude":42.41609,"longitude":-71.17688,"id":"a62ky3n1mctq","dentists":2.0},"type":"Feature","geometry":{"type":"Point","coordinates":[-71.17688,42.41609]}},{"properties":{"zip":2780.0,"latitude":41.91356,"longitude":-71.104,"id":"a62ky3rryje9","dentists":1.0},"type":"Feature","geometry":{"type":"Point","coordinates":[-71.104,41.91356]}},{"properties":{"zip":2840.0,"latitude":41.48832,"longitude":-71.31147,"id":"a62ky3hhchhj","dentists":1.0},"type":"Feature","geometry":{"type":"Point","coordinates":[-71.31147,41.48832]}},{"properties":{"zip":2863.0,"latitude":41.88918,"longitude":-71.39575,"id":"a62ky3tfrtc8","dentists":1.0},"type":"Feature","geometry":{"type":"Point","coordinates":[-71.39575,41.88918]}},{"properties":{"zip":2886.0,"latitude":41.70466,"longitude":-71.46246,"id":"a62ky3tp1tfi","dentists":1.0},"type":"Feature","geometry":{"type":"Point","coordinates":[-71.46246,41.70466]}},{"properties":{"zip":2907.0,"latitude":41.79858,"longitude":-71.42117,"id":"a62ky3fizpnn","dentists":2.0},"type":"Feature","geometry":{"type":"Point","coordinates":[-71.42117,41.79858]}},{"properties":{"zip":4103.0,"latitude":43.69507,"longitude":-70.28532,"id":"a62ky3mhueud","dentists":1.0},"type":"Feature","geometry":{"type":"Point","coordinates":[-70.28532,43.69507]}},{"properties":{"zip":5001.0,"latitude":43.66582,"longitude":-72.36608,"id":"a62ky3rs5dii","dentists":1.0},"type":"Feature","geometry":{"type":"Point","coordinates":[-72.36608,43.66582]}},{"properties":{"zip":5089.0,"latitude":43.45687,"longitude":-72.42142,"id":"a62ky3iwztop","dentists":2.0},"type":"Feature","geometry":{"type":"Point","coordinates":[-72.42142,43.45687]}},{"properties":{"zip":5663.0,"latitude":44.14007,"longitude":-72.66126,"id":"a62ky3un6ejz","dentists":2.0},"type":"Feature","geometry":{"type":"Point","coordinates":[-72.66126,44.14007]}},{"properties":{"zip":6002.0,"latitude":41.83177,"longitude":-72.72945,"id":"a62ky3v6x1eu","dentists":3.0},"type":"Feature","geometry":{"type":"Point","coordinates":[-72.72945,41.83177]}},{"properties":{"zip":6018.0,"latitude":42.02665,"longitude":-73.29272,"id":"a62ky3kj58gy","dentists":1.0},"type":"Feature","geometry":{"type":"Point","coordinates":[-73.29272,42.02665]}},{"properties":{"zip":6053.0,"latitude":41.6908,"longitude":-72.78988,"id":"a62ky3pqav9j","dentists":2.0},"type":"Feature","geometry":{"type":"Point","coordinates":[-72.78988,41.6908]}},{"properties":{"zip":6424.0,"latitude":41.56479,"longitude":-72.50127,"id":"a62ky3oasu36","dentists":3.0},"type":"Feature","geometry":{"type":"Point","coordinates":[-72.50127,41.56479]}},{"properties":{"zip":6854.0,"latitude":41.09442,"longitude":-73.42807,"id":"a62ky3o8tvu4","dentists":2.0},"type":"Feature","geometry":{"type":"Point","coordinates":[-73.42807,41.09442]}},{"properties":{"zip":7058.0,"latitude":40.86545,"longitude":-74.33972,"id":"a62ky3tcm9yp","dentists":2.0},"type":"Feature","geometry":{"type":"Point","coordinates":[-74.33972,40.86545]}},{"properties":{"zip":7065.0,"latitude":40.60806,"longitude":-74.28462,"id":"a62ky3m25qxu","dentists":2.0},"type":"Feature","geometry":{"type":"Point","coordinates":[-74.28462,40.60806]}},{"properties":{"zip":7302.0,"latitude":40.72065,"longitude":-74.04658,"id":"a62ky3m7uk7v","dentists":3.0},"type":"Feature","geometry":{"type":"Point","coordinates":[-74.04658,40.72065]}},{"properties":{"zip":7405.0,"latitude":40.99709,"longitude":-74.37117,"id":"a62ky3mmgrca","dentists":1.0},"type":"Feature","geometry":{"type":"Point","coordinates":[-74.37117,40.99709]}},{"properties":{"zip":7601.0,"latitude":40.88732,"longitude":-74.04823,"id":"a62ky3vbr56p","dentists":1.0},"type":"Feature","geometry":{"type":"Point","coordinates":[-74.04823,40.88732]}},{"properties":{"zip":7657.0,"latitude":40.83225,"longitude":-74.00286,"id":"a62ky3mdboie","dentists":2.0},"type":"Feature","geometry":{"type":"Point","coordinates":[-74.00286,40.83225]}},{"properties":{"zip":7663.0,"latitude":40.90406,"longitude":-74.09474,"id":"a62ky3luf9np","dentists":1.0},"type":"Feature","geometry":{"type":"Point","coordinates":[-74.09474,40.90406]}},{"properties":{"zip":7677.0,"latitude":41.02654,"longitude":-74.05642,"id":"a62ky3ol1uz2","dentists":1.0},"type":"Feature","geometry":{"type":"Point","coordinates":[-74.05642,41.02654]}},{"properties":{"zip":8055.0,"latitude":39.8639,"longitude":-74.81484,"id":"a62ky3sw371l","dentists":1.0},"type":"Feature","geometry":{"type":"Point","coordinates":[-74.81484,39.8639]}},{"properties":{"zip":8085.0,"latitude":39.74889,"longitude":-75.33275,"id":"a62ky3mdz6sv","dentists":1.0},"type":"Feature","geometry":{"type":"Point","coordinates":[-75.33275,39.74889]}},{"properties":{"zip":8833.0,"latitude":40.64741,"longitude":-74.81973,"id":"a62ky3n8j1qz","dentists":2.0},"type":"Feature","geometry":{"type":"Point","coordinates":[-74.81973,40.64741]}},{"properties":{"zip":8873.0,"latitude":40.50039,"longitude":-74.51974,"id":"a62ky3tu0pk2","dentists":1.0},"type":"Feature","geometry":{"type":"Point","coordinates":[-74.51974,40.50039]}},{"properties":{"zip":8902.0,"latitude":40.45371,"longitude":-74.47801,"id":"a62ky3psh231","dentists":1.0},"type":"Feature","geometry":{"type":"Point","coordinates":[-74.47801,40.45371]}},{"properties":{"zip":10001.0,"latitude":40.74907,"longitude":-73.99387,"id":"a62ky3ieinnz","dentists":3.0},"type":"Feature","geometry":{"type":"Point","coordinates":[-73.99387,40.74907]}},{"properties":{"zip":10003.0,"latitude":40.73141,"longitude":-73.98686,"id":"a62ky3rcamkc","dentists":1.0},"type":"Feature","geometry":{"type":"Point","coordinates":[-73.98686,40.73141]}},{"properties":{"zip":10009.0,"latitude":40.72492,"longitude":-73.98085,"id":"a62ky3mk0uem","dentists":2.0},"type":"Feature","geometry":{"type":"Point","coordinates":[-73.98085,40.72492]}},{"properties":{"zip":10010.0,"latitude":40.74022,"longitude":-73.98645,"id":"a62ky3uc4yvw","dentists":2.0},"type":"Feature","geometry":{"type":"Point","coordinates":[-73.98645,40.74022]}},{"properties":{"zip":10016.0,"latitude":40.74602,"longitude":-73.97881,"id":"a62ky3n6hjq7","dentists":2.0},"type":"Feature","geometry":{"type":"Point","coordinates":[-73.97881,40.74602]}},{"properties":{"zip":10022.0,"latitude":40.75921,"longitude":-73.96908,"id":"a62ky3fenkzr","dentists":4.0},"type":"Feature","geometry":{"type":"Point","coordinates":[-73.96908,40.75921]}},{"properties":{"zip":10024.0,"latitude":40.78605,"longitude":-73.97522,"id":"a62ky3sgkgh6","dentists":1.0},"type":"Feature","geometry":{"type":"Point","coordinates":[-73.97522,40.78605]}},{"properties":{"zip":10025.0,"latitude":40.7992,"longitude":-73.96682,"id":"a62ky3ln1rvn","dentists":4.0},"type":"Feature","geometry":{"type":"Point","coordinates":[-73.96682,40.7992]}},{"properties":{"zip":10032.0,"latitude":40.83749,"longitude":-73.93944,"id":"a62ky3ukz4ys","dentists":1.0},"type":"Feature","geometry":{"type":"Point","coordinates":[-73.93944,40.83749]}},{"properties":{"zip":10040.0,"latitude":40.8586,"longitude":-73.93165,"id":"a62ky3uw52n3","dentists":1.0},"type":"Feature","geometry":{"type":"Point","coordinates":[-73.93165,40.8586]}},{"properties":{"zip":10305.0,"latitude":40.60151,"longitude":-74.07535,"id":"a62ky3lbid3h","dentists":1.0},"type":"Feature","geometry":{"type":"Point","coordinates":[-74.07535,40.60151]}},{"properties":{"zip":10457.0,"latitude":40.84996,"longitude":-73.89821,"id":"a62ky3f73423","dentists":2.0},"type":"Feature","geometry":{"type":"Point","coordinates":[-73.89821,40.84996]}},{"properties":{"zip":10473.0,"latitude":40.81807,"longitude":-73.86123,"id":"a62ky3rynw7a","dentists":2.0},"type":"Feature","geometry":{"type":"Point","coordinates":[-73.86123,40.81807]}},{"properties":{"zip":10583.0,"latitude":40.98697,"longitude":-73.80188,"id":"a62ky3qvdjjx","dentists":2.0},"type":"Feature","geometry":{"type":"Point","coordinates":[-73.80188,40.98697]}},{"properties":{"zip":10601.0,"latitude":41.03117,"longitude":-73.76729,"id":"a62ky3f4sp5a","dentists":1.0},"type":"Feature","geometry":{"type":"Point","coordinates":[-73.76729,41.03117]}},{"properties":{"zip":11210.0,"latitude":40.62906,"longitude":-73.94534,"id":"a62ky3i9jrkm","dentists":1.0},"type":"Feature","geometry":{"type":"Point","coordinates":[-73.94534,40.62906]}},{"properties":{"zip":11220.0,"latitude":40.64269,"longitude":-74.01538,"id":"a62ky3ggg7ms","dentists":1.0},"type":"Feature","geometry":{"type":"Point","coordinates":[-74.01538,40.64269]}},{"properties":{"zip":11223.0,"latitude":40.59658,"longitude":-73.97402,"id":"a62ky3tzuxr2","dentists":1.0},"type":"Feature","geometry":{"type":"Point","coordinates":[-73.97402,40.59658]}},{"properties":{"zip":11237.0,"latitude":40.70221,"longitude":-73.92004,"id":"a62ky3tntpry","dentists":1.0},"type":"Feature","geometry":{"type":"Point","coordinates":[-73.92004,40.70221]}},{"properties":{"zip":11432.0,"latitude":40.71105,"longitude":-73.7919,"id":"a62ky3ngceqi","dentists":1.0},"type":"Feature","geometry":{"type":"Point","coordinates":[-73.7919,40.71105]}},{"properties":{"zip":11735.0,"latitude":40.72858,"longitude":-73.44248,"id":"a62ky3ifr0jj","dentists":2.0},"type":"Feature","geometry":{"type":"Point","coordinates":[-73.44248,40.72858]}},{"properties":{"zip":11747.0,"latitude":40.78608,"longitude":-73.41303,"id":"a62ky3lf91lh","dentists":2.0},"type":"Feature","geometry":{"type":"Point","coordinates":[-73.41303,40.78608]}},{"properties":{"zip":11758.0,"latitude":40.68324,"longitude":-73.46343,"id":"a62ky3v2xfol","dentists":1.0},"type":"Feature","geometry":{"type":"Point","coordinates":[-73.46343,40.68324]}},{"properties":{"zip":14221.0,"latitude":42.98069,"longitude":-78.72729,"id":"a62ky3tpxyp0","dentists":1.0},"type":"Feature","geometry":{"type":"Point","coordinates":[-78.72729,42.98069]}},{"properties":{"zip":14222.0,"latitude":42.91546,"longitude":-78.87883,"id":"a62ky3pbafv3","dentists":1.0},"type":"Feature","geometry":{"type":"Point","coordinates":[-78.87883,42.91546]}},{"properties":{"zip":14301.0,"latitude":43.09338,"longitude":-79.04343,"id":"a62ky3p37tai","dentists":2.0},"type":"Feature","geometry":{"type":"Point","coordinates":[-79.04343,43.09338]}},{"properties":{"zip":14727.0,"latitude":42.21823,"longitude":-78.28467,"id":"a62ky3ln99ig","dentists":2.0},"type":"Feature","geometry":{"type":"Point","coordinates":[-78.28467,42.21823]}},{"properties":{"zip":15090.0,"latitude":40.62048,"longitude":-80.07416,"id":"a62ky3jyznre","dentists":2.0},"type":"Feature","geometry":{"type":"Point","coordinates":[-80.07416,40.62048]}},{"properties":{"zip":16057.0,"latitude":41.06064,"longitude":-80.05279,"id":"a62ky3ivr44s","dentists":2.0},"type":"Feature","geometry":{"type":"Point","coordinates":[-80.05279,41.06064]}},{"properties":{"zip":16121.0,"latitude":41.21109,"longitude":-80.49072,"id":"a62ky3us00cw","dentists":2.0},"type":"Feature","geometry":{"type":"Point","coordinates":[-80.49072,41.21109]}},{"properties":{"zip":16214.0,"latitude":41.20661,"longitude":-79.37364,"id":"a62ky3pxbylj","dentists":2.0},"type":"Feature","geometry":{"type":"Point","coordinates":[-79.37364,41.20661]}},{"properties":{"zip":16365.0,"latitude":41.85067,"longitude":-79.14885,"id":"a62ky3grgba3","dentists":2.0},"type":"Feature","geometry":{"type":"Point","coordinates":[-79.14885,41.85067]}},{"properties":{"zip":16801.0,"latitude":40.79362,"longitude":-77.84804,"id":"a62ky3thzf0w","dentists":2.0},"type":"Feature","geometry":{"type":"Point","coordinates":[-77.84804,40.79362]}},{"properties":{"zip":17701.0,"latitude":41.25414,"longitude":-77.02001,"id":"a62ky3j867lt","dentists":1.0},"type":"Feature","geometry":{"type":"Point","coordinates":[-77.02001,41.25414]}},{"properties":{"zip":18015.0,"latitude":40.59556,"longitude":-75.38059,"id":"a62ky3r7kil1","dentists":2.0},"type":"Feature","geometry":{"type":"Point","coordinates":[-75.38059,40.59556]}},{"properties":{"zip":18224.0,"latitude":41.02196,"longitude":-75.89339,"id":"a62ky3gj9thi","dentists":1.0},"type":"Feature","geometry":{"type":"Point","coordinates":[-75.89339,41.02196]}},{"properties":{"zip":18915.0,"latitude":40.27312,"longitude":-75.25816,"id":"a62ky3n415ng","dentists":3.0},"type":"Feature","geometry":{"type":"Point","coordinates":[-75.25816,40.27312]}},{"properties":{"zip":19055.0,"latitude":40.14902,"longitude":-74.83829,"id":"a62ky3hx06lh","dentists":2.0},"type":"Feature","geometry":{"type":"Point","coordinates":[-74.83829,40.14902]}},{"properties":{"zip":19144.0,"latitude":40.03181,"longitude":-75.17292,"id":"a62ky3mfq54e","dentists":1.0},"type":"Feature","geometry":{"type":"Point","coordinates":[-75.17292,40.03181]}},{"properties":{"zip":19380.0,"latitude":39.97757,"longitude":-75.60034,"id":"a62ky3vdmy8q","dentists":2.0},"type":"Feature","geometry":{"type":"Point","coordinates":[-75.60034,39.97757]}},{"properties":{"zip":20001.0,"latitude":38.9086,"longitude":-77.0194,"id":"a62ky3vgb08a","dentists":2.0},"type":"Feature","geometry":{"type":"Point","coordinates":[-77.0194,38.9086]}},{"properties":{"zip":20004.0,"latitude":38.89609,"longitude":-77.02504,"id":"a62ky3fpiiqi","dentists":1.0},"type":"Feature","geometry":{"type":"Point","coordinates":[-77.02504,38.89609]}},{"properties":{"zip":20036.0,"latitude":38.90747,"longitude":-77.04228,"id":"a62ky3ti07g1","dentists":2.0},"type":"Feature","geometry":{"type":"Point","coordinates":[-77.04228,38.90747]}},{"properties":{"zip":20037.0,"latitude":38.90304,"longitude":-77.05003,"id":"a62ky3mqmrz8","dentists":2.0},"type":"Feature","geometry":{"type":"Point","coordinates":[-77.05003,38.90304]}},{"properties":{"zip":20151.0,"latitude":38.88726,"longitude":-77.43727,"id":"a62ky3khdr5j","dentists":1.0},"type":"Feature","geometry":{"type":"Point","coordinates":[-77.43727,38.88726]}},{"properties":{"zip":20770.0,"latitude":38.9987,"longitude":-76.88477,"id":"a62ky3hhf0s3","dentists":2.0},"type":"Feature","geometry":{"type":"Point","coordinates":[-76.88477,38.9987]}},{"properties":{"zip":20782.0,"latitude":38.96166,"longitude":-76.96203,"id":"a62ky3mzy6kw","dentists":1.0},"type":"Feature","geometry":{"type":"Point","coordinates":[-76.96203,38.96166]}},{"properties":{"zip":20852.0,"latitude":39.0488,"longitude":-77.12081,"id":"a62ky3icjywe","dentists":3.0},"type":"Feature","geometry":{"type":"Point","coordinates":[-77.12081,39.0488]}},{"properties":{"zip":21201.0,"latitude":39.29436,"longitude":-76.62257,"id":"a62ky3ioh3de","dentists":1.0},"type":"Feature","geometry":{"type":"Point","coordinates":[-76.62257,39.29436]}},{"properties":{"zip":21286.0,"latitude":39.40232,"longitude":-76.58155,"id":"a62ky3lkrzmj","dentists":3.0},"type":"Feature","geometry":{"type":"Point","coordinates":[-76.58155,39.40232]}},{"properties":{"zip":22033.0,"latitude":38.87424,"longitude":-77.38619,"id":"a62ky3tfz3h5","dentists":2.0},"type":"Feature","geometry":{"type":"Point","coordinates":[-77.38619,38.87424]}},{"properties":{"zip":22044.0,"latitude":38.86358,"longitude":-77.14908,"id":"a62ky3k6nke8","dentists":3.0},"type":"Feature","geometry":{"type":"Point","coordinates":[-77.14908,38.86358]}},{"properties":{"zip":22102.0,"latitude":38.93632,"longitude":-77.22152,"id":"a62ky3kcotaz","dentists":2.0},"type":"Feature","geometry":{"type":"Point","coordinates":[-77.22152,38.93632]}},{"properties":{"zip":22182.0,"latitude":38.92345,"longitude":-77.25695,"id":"a62ky3sgglen","dentists":2.0},"type":"Feature","geometry":{"type":"Point","coordinates":[-77.25695,38.92345]}},{"properties":{"zip":22191.0,"latitude":38.63257,"longitude":-77.26926,"id":"a62ky3lle7wq","dentists":1.0},"type":"Feature","geometry":{"type":"Point","coordinates":[-77.26926,38.63257]}},{"properties":{"zip":22201.0,"latitude":38.88564,"longitude":-77.0948,"id":"a62ky3mij8yf","dentists":2.0},"type":"Feature","geometry":{"type":"Point","coordinates":[-77.0948,38.88564]}},{"properties":{"zip":24572.0,"latitude":37.46476,"longitude":-79.10407,"id":"a62ky3tfyu5q","dentists":1.0},"type":"Feature","geometry":{"type":"Point","coordinates":[-79.10407,37.46476]}},{"properties":{"zip":25635.0,"latitude":37.74214,"longitude":-81.87502,"id":"a62ky3vjwh0u","dentists":1.0},"type":"Feature","geometry":{"type":"Point","coordinates":[-81.87502,37.74214]}},{"properties":{"zip":27106.0,"latitude":36.14657,"longitude":-80.31472,"id":"a62ky3mgh22f","dentists":1.0},"type":"Feature","geometry":{"type":"Point","coordinates":[-80.31472,36.14657]}},{"properties":{"zip":27215.0,"latitude":36.06468,"longitude":-79.47196,"id":"a62ky3f84izi","dentists":2.0},"type":"Feature","geometry":{"type":"Point","coordinates":[-79.47196,36.06468]}},{"properties":{"zip":27408.0,"latitude":36.10308,"longitude":-79.81191,"id":"a62ky3v5aq78","dentists":2.0},"type":"Feature","geometry":{"type":"Point","coordinates":[-79.81191,36.10308]}},{"properties":{"zip":27502.0,"latitude":35.73068,"longitude":-78.87639,"id":"a62ky3pptsn8","dentists":2.0},"type":"Feature","geometry":{"type":"Point","coordinates":[-78.87639,35.73068]}},{"properties":{"zip":27577.0,"latitude":35.50031,"longitude":-78.35171,"id":"a62ky3s8rvhe","dentists":2.0},"type":"Feature","geometry":{"type":"Point","coordinates":[-78.35171,35.50031]}},{"properties":{"zip":27937.0,"latitude":36.49499,"longitude":-76.72759,"id":"a62ky3spey74","dentists":2.0},"type":"Feature","geometry":{"type":"Point","coordinates":[-76.72759,36.49499]}},{"properties":{"zip":28207.0,"latitude":35.1968,"longitude":-80.8247,"id":"a62ky3j8z7h4","dentists":1.0},"type":"Feature","geometry":{"type":"Point","coordinates":[-80.8247,35.1968]}},{"properties":{"zip":28273.0,"latitude":35.12399,"longitude":-80.9516,"id":"a62ky3tqqimy","dentists":3.0},"type":"Feature","geometry":{"type":"Point","coordinates":[-80.9516,35.12399]}},{"properties":{"zip":28358.0,"latitude":34.61098,"longitude":-78.98981,"id":"a62ky3jp4ri1","dentists":3.0},"type":"Feature","geometry":{"type":"Point","coordinates":[-78.98981,34.61098]}},{"properties":{"zip":28466.0,"latitude":34.74836,"longitude":-77.95784,"id":"a62ky3h1rf7z","dentists":2.0},"type":"Feature","geometry":{"type":"Point","coordinates":[-77.95784,34.74836]}},{"properties":{"zip":28560.0,"latitude":35.09047,"longitude":-77.03536,"id":"a62ky3lhhof7","dentists":1.0},"type":"Feature","geometry":{"type":"Point","coordinates":[-77.03536,35.09047]}},{"properties":{"zip":29150.0,"latitude":33.90417,"longitude":-80.35764,"id":"a62ky3qcqfis","dentists":2.0},"type":"Feature","geometry":{"type":"Point","coordinates":[-80.35764,33.90417]}},{"properties":{"zip":29201.0,"latitude":34.00068,"longitude":-81.03532,"id":"a62ky3n4g2ic","dentists":1.0},"type":"Feature","geometry":{"type":"Point","coordinates":[-81.03532,34.00068]}},{"properties":{"zip":29204.0,"latitude":34.02541,"longitude":-81.00381,"id":"a62ky3v1os0q","dentists":2.0},"type":"Feature","geometry":{"type":"Point","coordinates":[-81.00381,34.02541]}},{"properties":{"zip":29303.0,"latitude":34.98844,"longitude":-81.97567,"id":"a62ky3v4v9is","dentists":2.0},"type":"Feature","geometry":{"type":"Point","coordinates":[-81.97567,34.98844]}},{"properties":{"zip":29406.0,"latitude":32.93317,"longitude":-80.03753,"id":"a62ky3fsy77y","dentists":2.0},"type":"Feature","geometry":{"type":"Point","coordinates":[-80.03753,32.93317]}},{"properties":{"zip":29445.0,"latitude":33.00532,"longitude":-80.02944,"id":"a62ky3pn8up9","dentists":1.0},"type":"Feature","geometry":{"type":"Point","coordinates":[-80.02944,33.00532]}},{"properties":{"zip":29501.0,"latitude":34.20268,"longitude":-79.8223,"id":"a62ky3irjg1p","dentists":2.0},"type":"Feature","geometry":{"type":"Point","coordinates":[-79.8223,34.20268]}},{"properties":{"zip":29572.0,"latitude":33.75862,"longitude":-78.79414,"id":"a62ky3kjgu5r","dentists":2.0},"type":"Feature","geometry":{"type":"Point","coordinates":[-78.79414,33.75862]}},{"properties":{"zip":29577.0,"latitude":33.69789,"longitude":-78.89903,"id":"a62ky3rvo59s","dentists":5.0},"type":"Feature","geometry":{"type":"Point","coordinates":[-78.89903,33.69789]}},{"properties":{"zip":29605.0,"latitude":34.78941,"longitude":-82.38704,"id":"a62ky3tocer3","dentists":2.0},"type":"Feature","geometry":{"type":"Point","coordinates":[-82.38704,34.78941]}},{"properties":{"zip":29607.0,"latitude":34.8208,"longitude":-82.33441,"id":"a62ky3vm6nfn","dentists":3.0},"type":"Feature","geometry":{"type":"Point","coordinates":[-82.33441,34.8208]}},{"properties":{"zip":29621.0,"latitude":34.52171,"longitude":-82.63274,"id":"a62ky3ieah95","dentists":2.0},"type":"Feature","geometry":{"type":"Point","coordinates":[-82.63274,34.52171]}},{"properties":{"zip":30004.0,"latitude":34.14076,"longitude":-84.28392,"id":"a62ky3k6327d","dentists":3.0},"type":"Feature","geometry":{"type":"Point","coordinates":[-84.28392,34.14076]}},{"properties":{"zip":30012.0,"latitude":33.69021,"longitude":-84.01161,"id":"a62ky3rioms5","dentists":1.0},"type":"Feature","geometry":{"type":"Point","coordinates":[-84.01161,33.69021]}},{"properties":{"zip":30022.0,"latitude":34.02594,"longitude":-84.23875,"id":"a62ky3pmd3rm","dentists":1.0},"type":"Feature","geometry":{"type":"Point","coordinates":[-84.23875,34.02594]}},{"properties":{"zip":30044.0,"latitude":33.9299,"longitude":-84.06914,"id":"a62ky3ha12ww","dentists":1.0},"type":"Feature","geometry":{"type":"Point","coordinates":[-84.06914,33.9299]}},{"properties":{"zip":30060.0,"latitude":33.93176,"longitude":-84.54351,"id":"a62ky3f57cwi","dentists":2.0},"type":"Feature","geometry":{"type":"Point","coordinates":[-84.54351,33.93176]}},{"properties":{"zip":30066.0,"latitude":34.02759,"longitude":-84.50897,"id":"a62ky3ja0b2o","dentists":4.0},"type":"Feature","geometry":{"type":"Point","coordinates":[-84.50897,34.02759]}},{"properties":{"zip":30075.0,"latitude":34.05161,"longitude":-84.38181,"id":"a62ky3t8ts8c","dentists":1.0},"type":"Feature","geometry":{"type":"Point","coordinates":[-84.38181,34.05161]}},{"properties":{"zip":30080.0,"latitude":33.87376,"longitude":-84.5005,"id":"a62ky3m31aba","dentists":3.0},"type":"Feature","geometry":{"type":"Point","coordinates":[-84.5005,33.87376]}},{"properties":{"zip":30084.0,"latitude":33.85689,"longitude":-84.20941,"id":"a62ky3kayb56","dentists":2.0},"type":"Feature","geometry":{"type":"Point","coordinates":[-84.20941,33.85689]}},{"properties":{"zip":30093.0,"latitude":33.90831,"longitude":-84.18254,"id":"a62ky3hjki8b","dentists":2.0},"type":"Feature","geometry":{"type":"Point","coordinates":[-84.18254,33.90831]}},{"properties":{"zip":30127.0,"latitude":33.87248,"longitude":-84.69455,"id":"a62ky3r0u3j2","dentists":1.0},"type":"Feature","geometry":{"type":"Point","coordinates":[-84.69455,33.87248]}},{"properties":{"zip":30240.0,"latitude":33.04085,"longitude":-85.08545,"id":"a62ky3smg2bz","dentists":2.0},"type":"Feature","geometry":{"type":"Point","coordinates":[-85.08545,33.04085]}},{"properties":{"zip":30274.0,"latitude":33.55608,"longitude":-84.40471,"id":"a62ky3u0hshz","dentists":1.0},"type":"Feature","geometry":{"type":"Point","coordinates":[-84.40471,33.55608]}},{"properties":{"zip":30296.0,"latitude":33.55903,"longitude":-84.43413,"id":"a62ky3tedi1k","dentists":1.0},"type":"Feature","geometry":{"type":"Point","coordinates":[-84.43413,33.55903]}},{"properties":{"zip":30303.0,"latitude":33.7567,"longitude":-84.39001,"id":"a62ky3ubdzmy","dentists":1.0},"type":"Feature","geometry":{"type":"Point","coordinates":[-84.39001,33.7567]}},{"properties":{"zip":30305.0,"latitude":33.83657,"longitude":-84.38516,"id":"a62ky3lqvyuc","dentists":1.0},"type":"Feature","geometry":{"type":"Point","coordinates":[-84.38516,33.83657]}},{"properties":{"zip":30311.0,"latitude":33.72986,"longitude":-84.46072,"id":"a62ky3opn0ux","dentists":1.0},"type":"Feature","geometry":{"type":"Point","coordinates":[-84.46072,33.72986]}},{"properties":{"zip":30318.0,"latitude":33.79325,"longitude":-84.44657,"id":"a62ky3rg23e9","dentists":3.0},"type":"Feature","geometry":{"type":"Point","coordinates":[-84.44657,33.79325]}},{"properties":{"zip":30324.0,"latitude":33.81862,"longitude":-84.35733,"id":"a62ky3jaa4vk","dentists":1.0},"type":"Feature","geometry":{"type":"Point","coordinates":[-84.35733,33.81862]}},{"properties":{"zip":30328.0,"latitude":33.93061,"longitude":-84.37956,"id":"a62ky3r4oxul","dentists":1.0},"type":"Feature","geometry":{"type":"Point","coordinates":[-84.37956,33.93061]}},{"properties":{"zip":30331.0,"latitude":33.71881,"longitude":-84.53119,"id":"a62ky3mqcp7n","dentists":2.0},"type":"Feature","geometry":{"type":"Point","coordinates":[-84.53119,33.71881]}},{"properties":{"zip":30341.0,"latitude":33.88559,"longitude":-84.29412,"id":"a62ky3uvlayt","dentists":3.0},"type":"Feature","geometry":{"type":"Point","coordinates":[-84.29412,33.88559]}},{"properties":{"zip":30349.0,"latitude":33.59845,"longitude":-84.50472,"id":"a62ky3hbozrp","dentists":1.0},"type":"Feature","geometry":{"type":"Point","coordinates":[-84.50472,33.59845]}},{"properties":{"zip":30501.0,"latitude":34.30717,"longitude":-83.82639,"id":"a62ky3hzfy1y","dentists":2.0},"type":"Feature","geometry":{"type":"Point","coordinates":[-83.82639,34.30717]}},{"properties":{"zip":30680.0,"latitude":33.99772,"longitude":-83.71152,"id":"a62ky3jsdb7x","dentists":2.0},"type":"Feature","geometry":{"type":"Point","coordinates":[-83.71152,33.99772]}},{"properties":{"zip":30907.0,"latitude":33.5137,"longitude":-82.09328,"id":"a62ky3kqytlp","dentists":2.0},"type":"Feature","geometry":{"type":"Point","coordinates":[-82.09328,33.5137]}},{"properties":{"zip":30909.0,"latitude":33.4769,"longitude":-82.0705,"id":"a62ky3iojy0y","dentists":5.0},"type":"Feature","geometry":{"type":"Point","coordinates":[-82.0705,33.4769]}},{"properties":{"zip":31030.0,"latitude":32.57028,"longitude":-83.89055,"id":"a62ky3v0ovja","dentists":1.0},"type":"Feature","geometry":{"type":"Point","coordinates":[-83.89055,32.57028]}},{"properties":{"zip":31401.0,"latitude":32.06585,"longitude":-81.0944,"id":"a62ky3o9zabr","dentists":2.0},"type":"Feature","geometry":{"type":"Point","coordinates":[-81.0944,32.06585]}},{"properties":{"zip":31408.0,"latitude":32.1147,"longitude":-81.16464,"id":"a62ky3o0yn9r","dentists":2.0},"type":"Feature","geometry":{"type":"Point","coordinates":[-81.16464,32.1147]}},{"properties":{"zip":31602.0,"latitude":30.87339,"longitude":-83.29519,"id":"a62ky3urpql1","dentists":2.0},"type":"Feature","geometry":{"type":"Point","coordinates":[-83.29519,30.87339]}},{"properties":{"zip":31901.0,"latitude":32.47151,"longitude":-84.97972,"id":"a62ky3roshu2","dentists":1.0},"type":"Feature","geometry":{"type":"Point","coordinates":[-84.97972,32.47151]}},{"properties":{"zip":32025.0,"latitude":30.17797,"longitude":-82.63249,"id":"a62ky3qy1lvw","dentists":1.0},"type":"Feature","geometry":{"type":"Point","coordinates":[-82.63249,30.17797]}},{"properties":{"zip":32034.0,"latitude":30.62653,"longitude":-81.46389,"id":"a62ky3ovta4o","dentists":2.0},"type":"Feature","geometry":{"type":"Point","coordinates":[-81.46389,30.62653]}},{"properties":{"zip":32043.0,"latitude":30.00268,"longitude":-81.71488,"id":"a62ky3nkj60n","dentists":1.0},"type":"Feature","geometry":{"type":"Point","coordinates":[-81.71488,30.00268]}},{"properties":{"zip":32112.0,"latitude":29.41878,"longitude":-81.55136,"id":"a62ky3sroxrt","dentists":4.0},"type":"Feature","geometry":{"type":"Point","coordinates":[-81.55136,29.41878]}},{"properties":{"zip":32119.0,"latitude":29.16666,"longitude":-81.02567,"id":"a62ky3qhwfr7","dentists":1.0},"type":"Feature","geometry":{"type":"Point","coordinates":[-81.02567,29.16666]}},{"properties":{"zip":32148.0,"latitude":29.62952,"longitude":-81.83559,"id":"a62ky3j1lde8","dentists":3.0},"type":"Feature","geometry":{"type":"Point","coordinates":[-81.83559,29.62952]}},{"properties":{"zip":32177.0,"latitude":29.64992,"longitude":-81.65743,"id":"a62ky3gxtcgf","dentists":2.0},"type":"Feature","geometry":{"type":"Point","coordinates":[-81.65743,29.64992]}},{"properties":{"zip":32180.0,"latitude":29.20943,"longitude":-81.44916,"id":"a62ky3uthjvw","dentists":1.0},"type":"Feature","geometry":{"type":"Point","coordinates":[-81.44916,29.20943]}},{"properties":{"zip":32193.0,"latitude":29.48082,"longitude":-81.67257,"id":"a62ky3ghuwry","dentists":2.0},"type":"Feature","geometry":{"type":"Point","coordinates":[-81.67257,29.48082]}},{"properties":{"zip":32210.0,"latitude":30.2645,"longitude":-81.74942,"id":"a62ky3uvovfv","dentists":1.0},"type":"Feature","geometry":{"type":"Point","coordinates":[-81.74942,30.2645]}},{"properties":{"zip":32217.0,"latitude":30.2435,"longitude":-81.61975,"id":"a62ky3h1kqds","dentists":1.0},"type":"Feature","geometry":{"type":"Point","coordinates":[-81.61975,30.2435]}},{"properties":{"zip":32256.0,"latitude":30.20993,"longitude":-81.54833,"id":"a62ky3unn5by","dentists":2.0},"type":"Feature","geometry":{"type":"Point","coordinates":[-81.54833,30.20993]}},{"properties":{"zip":32308.0,"latitude":30.47304,"longitude":-84.23312,"id":"a62ky3k9dixk","dentists":2.0},"type":"Feature","geometry":{"type":"Point","coordinates":[-84.23312,30.47304]}},{"properties":{"zip":32404.0,"latitude":30.15796,"longitude":-85.57,"id":"a62ky3is7hz4","dentists":2.0},"type":"Feature","geometry":{"type":"Point","coordinates":[-85.57,30.15796]}},{"properties":{"zip":32446.0,"latitude":30.79836,"longitude":-85.22968,"id":"a62ky3l0g579","dentists":2.0},"type":"Feature","geometry":{"type":"Point","coordinates":[-85.22968,30.79836]}},{"properties":{"zip":32605.0,"latitude":29.67777,"longitude":-82.37021,"id":"a62ky3nrpiz8","dentists":2.0},"type":"Feature","geometry":{"type":"Point","coordinates":[-82.37021,29.67777]}},{"properties":{"zip":32606.0,"latitude":29.68041,"longitude":-82.43033,"id":"a62ky3gvot03","dentists":2.0},"type":"Feature","geometry":{"type":"Point","coordinates":[-82.43033,29.68041]}},{"properties":{"zip":32703.0,"latitude":28.66063,"longitude":-81.49281,"id":"a62ky3ib0imc","dentists":1.0},"type":"Feature","geometry":{"type":"Point","coordinates":[-81.49281,28.66063]}},{"properties":{"zip":32724.0,"latitude":29.04176,"longitude":-81.28093,"id":"a62ky3jpqfbt","dentists":2.0},"type":"Feature","geometry":{"type":"Point","coordinates":[-81.28093,29.04176]}},{"properties":{"zip":32763.0,"latitude":28.94163,"longitude":-81.30719,"id":"a62ky3q0v40a","dentists":2.0},"type":"Feature","geometry":{"type":"Point","coordinates":[-81.30719,28.94163]}},{"properties":{"zip":32765.0,"latitude":28.65566,"longitude":-81.20945,"id":"a62ky3m28ccc","dentists":2.0},"type":"Feature","geometry":{"type":"Point","coordinates":[-81.20945,28.65566]}},{"properties":{"zip":32771.0,"latitude":28.81572,"longitude":-81.29233,"id":"a62ky3gsgwjx","dentists":2.0},"type":"Feature","geometry":{"type":"Point","coordinates":[-81.29233,28.81572]}},{"properties":{"zip":32801.0,"latitude":28.54043,"longitude":-81.37362,"id":"a62ky3im2ibx","dentists":1.0},"type":"Feature","geometry":{"type":"Point","coordinates":[-81.37362,28.54043]}},{"properties":{"zip":32835.0,"latitude":28.5189,"longitude":-81.47889,"id":"a62ky3glcd8w","dentists":2.0},"type":"Feature","geometry":{"type":"Point","coordinates":[-81.47889,28.5189]}},{"properties":{"zip":32837.0,"latitude":28.37864,"longitude":-81.41458,"id":"a62ky3i93qe7","dentists":2.0},"type":"Feature","geometry":{"type":"Point","coordinates":[-81.41458,28.37864]}},{"properties":{"zip":32940.0,"latitude":28.21805,"longitude":-80.69645,"id":"a62ky3hbz6p8","dentists":2.0},"type":"Feature","geometry":{"type":"Point","coordinates":[-80.69645,28.21805]}},{"properties":{"zip":33012.0,"latitude":25.86761,"longitude":-80.30291,"id":"a62ky3rtye4s","dentists":1.0},"type":"Feature","geometry":{"type":"Point","coordinates":[-80.30291,25.86761]}},{"properties":{"zip":33016.0,"latitude":25.88783,"longitude":-80.33183,"id":"a62ky3pprjik","dentists":2.0},"type":"Feature","geometry":{"type":"Point","coordinates":[-80.33183,25.88783]}},{"properties":{"zip":33026.0,"latitude":26.02462,"longitude":-80.30021,"id":"a62ky3rft67z","dentists":2.0},"type":"Feature","geometry":{"type":"Point","coordinates":[-80.30021,26.02462]}},{"properties":{"zip":33028.0,"latitude":26.01996,"longitude":-80.35284,"id":"a62ky3m9sijn","dentists":2.0},"type":"Feature","geometry":{"type":"Point","coordinates":[-80.35284,26.01996]}},{"properties":{"zip":33029.0,"latitude":25.99996,"longitude":-80.40003,"id":"a62ky3ms04zi","dentists":2.0},"type":"Feature","geometry":{"type":"Point","coordinates":[-80.40003,25.99996]}},{"properties":{"zip":33033.0,"latitude":25.48835,"longitude":-80.43332,"id":"a62ky3ftwbmq","dentists":1.0},"type":"Feature","geometry":{"type":"Point","coordinates":[-80.43332,25.48835]}},{"properties":{"zip":33054.0,"latitude":25.90757,"longitude":-80.25309,"id":"a62ky3j9qbt1","dentists":1.0},"type":"Feature","geometry":{"type":"Point","coordinates":[-80.25309,25.90757]}},{"properties":{"zip":33055.0,"latitude":25.94703,"longitude":-80.27577,"id":"a62ky3qz3iqy","dentists":1.0},"type":"Feature","geometry":{"type":"Point","coordinates":[-80.27577,25.94703]}},{"properties":{"zip":33062.0,"latitude":26.24168,"longitude":-80.08963,"id":"a62ky3l1i38j","dentists":1.0},"type":"Feature","geometry":{"type":"Point","coordinates":[-80.08963,26.24168]}},{"properties":{"zip":33063.0,"latitude":26.24855,"longitude":-80.20838,"id":"a62ky3on10ha","dentists":2.0},"type":"Feature","geometry":{"type":"Point","coordinates":[-80.20838,26.24855]}},{"properties":{"zip":33064.0,"latitude":26.27884,"longitude":-80.11692,"id":"a62ky3fm0sl7","dentists":1.0},"type":"Feature","geometry":{"type":"Point","coordinates":[-80.11692,26.27884]}},{"properties":{"zip":33067.0,"latitude":26.30115,"longitude":-80.21527,"id":"a62ky3sp6kb1","dentists":1.0},"type":"Feature","geometry":{"type":"Point","coordinates":[-80.21527,26.30115]}},{"properties":{"zip":33125.0,"latitude":25.78136,"longitude":-80.23381,"id":"a62ky3puhoev","dentists":1.0},"type":"Feature","geometry":{"type":"Point","coordinates":[-80.23381,25.78136]}},{"properties":{"zip":33126.0,"latitude":25.78313,"longitude":-80.29509,"id":"a62ky3rlhcx0","dentists":1.0},"type":"Feature","geometry":{"type":"Point","coordinates":[-80.29509,25.78313]}},{"properties":{"zip":33130.0,"latitude":25.76903,"longitude":-80.20253,"id":"a62ky3h2uauc","dentists":1.0},"type":"Feature","geometry":{"type":"Point","coordinates":[-80.20253,25.76903]}},{"properties":{"zip":33134.0,"latitude":25.75461,"longitude":-80.26701,"id":"a62ky3t0mntm","dentists":2.0},"type":"Feature","geometry":{"type":"Point","coordinates":[-80.26701,25.75461]}},{"properties":{"zip":33139.0,"latitude":25.78326,"longitude":-80.14221,"id":"a62ky3v3urye","dentists":1.0},"type":"Feature","geometry":{"type":"Point","coordinates":[-80.14221,25.78326]}},{"properties":{"zip":33141.0,"latitude":25.8551,"longitude":-80.13283,"id":"a62ky3frmq9m","dentists":2.0},"type":"Feature","geometry":{"type":"Point","coordinates":[-80.13283,25.8551]}},{"properties":{"zip":33144.0,"latitude":25.76524,"longitude":-80.30656,"id":"a62ky3lgspe9","dentists":7.0},"type":"Feature","geometry":{"type":"Point","coordinates":[-80.30656,25.76524]}},{"properties":{"zip":33155.0,"latitude":25.7366,"longitude":-80.30458,"id":"a62ky3gpjav5","dentists":1.0},"type":"Feature","geometry":{"type":"Point","coordinates":[-80.30458,25.7366]}},{"properties":{"zip":33157.0,"latitude":25.60395,"longitude":-80.34437,"id":"a62ky3kt54v0","dentists":1.0},"type":"Feature","geometry":{"type":"Point","coordinates":[-80.34437,25.60395]}},{"properties":{"zip":33162.0,"latitude":25.92902,"longitude":-80.17823,"id":"a62ky3moohf4","dentists":5.0},"type":"Feature","geometry":{"type":"Point","coordinates":[-80.17823,25.92902]}},{"properties":{"zip":33165.0,"latitude":25.73625,"longitude":-80.35572,"id":"a62ky3nam5zu","dentists":1.0},"type":"Feature","geometry":{"type":"Point","coordinates":[-80.35572,25.73625]}},{"properties":{"zip":33166.0,"latitude":25.8262,"longitude":-80.30192,"id":"a62ky3ld05kx","dentists":1.0},"type":"Feature","geometry":{"type":"Point","coordinates":[-80.30192,25.8262]}},{"properties":{"zip":33172.0,"latitude":25.78268,"longitude":-80.36414,"id":"a62ky3ihczjw","dentists":2.0},"type":"Feature","geometry":{"type":"Point","coordinates":[-80.36414,25.78268]}},{"properties":{"zip":33183.0,"latitude":25.70001,"longitude":-80.40879,"id":"a62ky3fsjkca","dentists":3.0},"type":"Feature","geometry":{"type":"Point","coordinates":[-80.40879,25.70001]}},{"properties":{"zip":33186.0,"latitude":25.65838,"longitude":-80.40387,"id":"a62ky3rmrwnk","dentists":1.0},"type":"Feature","geometry":{"type":"Point","coordinates":[-80.40387,25.65838]}},{"properties":{"zip":33196.0,"latitude":25.66364,"longitude":-80.45077,"id":"a62ky3t0avpn","dentists":2.0},"type":"Feature","geometry":{"type":"Point","coordinates":[-80.45077,25.66364]}},{"properties":{"zip":33306.0,"latitude":26.1674,"longitude":-80.11113,"id":"a62ky3sduyld","dentists":1.0},"type":"Feature","geometry":{"type":"Point","coordinates":[-80.11113,26.1674]}},{"properties":{"zip":33311.0,"latitude":26.14187,"longitude":-80.16859,"id":"a62ky3ojnc7z","dentists":1.0},"type":"Feature","geometry":{"type":"Point","coordinates":[-80.16859,26.14187]}},{"properties":{"zip":33313.0,"latitude":26.15217,"longitude":-80.22341,"id":"a62ky3ss30kq","dentists":1.0},"type":"Feature","geometry":{"type":"Point","coordinates":[-80.22341,26.15217]}},{"properties":{"zip":33326.0,"latitude":26.1098,"longitude":-80.372,"id":"a62ky3o9ez4b","dentists":1.0},"type":"Feature","geometry":{"type":"Point","coordinates":[-80.372,26.1098]}},{"properties":{"zip":33328.0,"latitude":26.07183,"longitude":-80.27057,"id":"a62ky3uft6pf","dentists":1.0},"type":"Feature","geometry":{"type":"Point","coordinates":[-80.27057,26.07183]}},{"properties":{"zip":33331.0,"latitude":26.05325,"longitude":-80.36588,"id":"a62ky3py8881","dentists":1.0},"type":"Feature","geometry":{"type":"Point","coordinates":[-80.36588,26.05325]}},{"properties":{"zip":33405.0,"latitude":26.67025,"longitude":-80.05632,"id":"a62ky3vbopa6","dentists":2.0},"type":"Feature","geometry":{"type":"Point","coordinates":[-80.05632,26.67025]}},{"properties":{"zip":33408.0,"latitude":26.83982,"longitude":-80.06194,"id":"a62ky3i3kks5","dentists":2.0},"type":"Feature","geometry":{"type":"Point","coordinates":[-80.06194,26.83982]}},{"properties":{"zip":33428.0,"latitude":26.34632,"longitude":-80.21361,"id":"a62ky3sy6zrz","dentists":1.0},"type":"Feature","geometry":{"type":"Point","coordinates":[-80.21361,26.34632]}},{"properties":{"zip":33431.0,"latitude":26.38268,"longitude":-80.09792,"id":"a62ky3hpkdnu","dentists":1.0},"type":"Feature","geometry":{"type":"Point","coordinates":[-80.09792,26.38268]}},{"properties":{"zip":33436.0,"latitude":26.52986,"longitude":-80.10416,"id":"a62ky3hp6x4j","dentists":1.0},"type":"Feature","geometry":{"type":"Point","coordinates":[-80.10416,26.52986]}},{"properties":{"zip":33437.0,"latitude":26.51556,"longitude":-80.14164,"id":"a62ky3m89o2g","dentists":1.0},"type":"Feature","geometry":{"type":"Point","coordinates":[-80.14164,26.51556]}},{"properties":{"zip":33446.0,"latitude":26.45595,"longitude":-80.15929,"id":"a62ky3s8a7z5","dentists":2.0},"type":"Feature","geometry":{"type":"Point","coordinates":[-80.15929,26.45595]}},{"properties":{"zip":33467.0,"latitude":26.59613,"longitude":-80.1697,"id":"a62ky3gxkr7m","dentists":1.0},"type":"Feature","geometry":{"type":"Point","coordinates":[-80.1697,26.59613]}},{"properties":{"zip":33477.0,"latitude":26.92474,"longitude":-80.07278,"id":"a62ky3mhc1db","dentists":2.0},"type":"Feature","geometry":{"type":"Point","coordinates":[-80.07278,26.92474]}},{"properties":{"zip":33540.0,"latitude":28.23732,"longitude":-82.1428,"id":"a62ky3ue44ux","dentists":2.0},"type":"Feature","geometry":{"type":"Point","coordinates":[-82.1428,28.23732]}},{"properties":{"zip":33579.0,"latitude":27.79499,"longitude":-82.30516,"id":"a62ky3h81m2k","dentists":1.0},"type":"Feature","geometry":{"type":"Point","coordinates":[-82.30516,27.79499]}},{"properties":{"zip":33609.0,"latitude":27.94293,"longitude":-82.50634,"id":"a62ky3msvjjs","dentists":2.0},"type":"Feature","geometry":{"type":"Point","coordinates":[-82.50634,27.94293]}},{"properties":{"zip":33624.0,"latitude":28.07491,"longitude":-82.52457,"id":"a62ky3l1s7py","dentists":2.0},"type":"Feature","geometry":{"type":"Point","coordinates":[-82.52457,28.07491]}},{"properties":{"zip":33707.0,"latitude":27.75214,"longitude":-82.71754,"id":"a62ky3vjv9gh","dentists":1.0},"type":"Feature","geometry":{"type":"Point","coordinates":[-82.71754,27.75214]}},{"properties":{"zip":33712.0,"latitude":27.73509,"longitude":-82.67101,"id":"a62ky3pvos5e","dentists":1.0},"type":"Feature","geometry":{"type":"Point","coordinates":[-82.67101,27.73509]}},{"properties":{"zip":33764.0,"latitude":27.93785,"longitude":-82.7381,"id":"a62ky3johu88","dentists":2.0},"type":"Feature","geometry":{"type":"Point","coordinates":[-82.7381,27.93785]}},{"properties":{"zip":33774.0,"latitude":27.88202,"longitude":-82.82717,"id":"a62ky3sx62nu","dentists":2.0},"type":"Feature","geometry":{"type":"Point","coordinates":[-82.82717,27.88202]}},{"properties":{"zip":33781.0,"latitude":27.84101,"longitude":-82.71159,"id":"a62ky3tp1mos","dentists":2.0},"type":"Feature","geometry":{"type":"Point","coordinates":[-82.71159,27.84101]}},{"properties":{"zip":34103.0,"latitude":26.19573,"longitude":-81.80404,"id":"a62ky3j5uekj","dentists":1.0},"type":"Feature","geometry":{"type":"Point","coordinates":[-81.80404,26.19573]}},{"properties":{"zip":34109.0,"latitude":26.24369,"longitude":-81.77064,"id":"a62ky3m10jk9","dentists":2.0},"type":"Feature","geometry":{"type":"Point","coordinates":[-81.77064,26.24369]}},{"properties":{"zip":34209.0,"latitude":27.48899,"longitude":-82.62971,"id":"a62ky3po22h7","dentists":2.0},"type":"Feature","geometry":{"type":"Point","coordinates":[-82.62971,27.48899]}},{"properties":{"zip":34210.0,"latitude":27.45525,"longitude":-82.62473,"id":"a62ky3rt9xe1","dentists":2.0},"type":"Feature","geometry":{"type":"Point","coordinates":[-82.62473,27.45525]}},{"properties":{"zip":34234.0,"latitude":27.36153,"longitude":-82.53663,"id":"a62ky3qz64fw","dentists":1.0},"type":"Feature","geometry":{"type":"Point","coordinates":[-82.53663,27.36153]}},{"properties":{"zip":34237.0,"latitude":27.33933,"longitude":-82.51396,"id":"a62ky3l0xfig","dentists":1.0},"type":"Feature","geometry":{"type":"Point","coordinates":[-82.51396,27.33933]}},{"properties":{"zip":34239.0,"latitude":27.31055,"longitude":-82.52261,"id":"a62ky3fifyhu","dentists":2.0},"type":"Feature","geometry":{"type":"Point","coordinates":[-82.52261,27.31055]}},{"properties":{"zip":34285.0,"latitude":27.09983,"longitude":-82.44142,"id":"a62ky3p3owr0","dentists":1.0},"type":"Feature","geometry":{"type":"Point","coordinates":[-82.44142,27.09983]}},{"properties":{"zip":34474.0,"latitude":29.16546,"longitude":-82.20099,"id":"a62ky3l8d43j","dentists":1.0},"type":"Feature","geometry":{"type":"Point","coordinates":[-82.20099,29.16546]}},{"properties":{"zip":34482.0,"latitude":29.24432,"longitude":-82.23515,"id":"a62ky3l7v1wu","dentists":1.0},"type":"Feature","geometry":{"type":"Point","coordinates":[-82.23515,29.24432]}},{"properties":{"zip":34601.0,"latitude":28.56384,"longitude":-82.37029,"id":"a62ky3ifpj0d","dentists":2.0},"type":"Feature","geometry":{"type":"Point","coordinates":[-82.37029,28.56384]}},{"properties":{"zip":34667.0,"latitude":28.37181,"longitude":-82.66252,"id":"a62ky3kyu9lo","dentists":2.0},"type":"Feature","geometry":{"type":"Point","coordinates":[-82.66252,28.37181]}},{"properties":{"zip":34741.0,"latitude":28.30987,"longitude":-81.42527,"id":"a62ky3u6kbew","dentists":2.0},"type":"Feature","geometry":{"type":"Point","coordinates":[-81.42527,28.30987]}},{"properties":{"zip":34786.0,"latitude":28.48035,"longitude":-81.5359,"id":"a62ky3ruwhtb","dentists":2.0},"type":"Feature","geometry":{"type":"Point","coordinates":[-81.5359,28.48035]}},{"properties":{"zip":34951.0,"latitude":27.5368,"longitude":-80.39848,"id":"a62ky3kwpxgt","dentists":2.0},"type":"Feature","geometry":{"type":"Point","coordinates":[-80.39848,27.5368]}},{"properties":{"zip":34994.0,"latitude":27.19391,"longitude":-80.25112,"id":"a62ky3h42i5w","dentists":1.0},"type":"Feature","geometry":{"type":"Point","coordinates":[-80.25112,27.19391]}},{"properties":{"zip":35007.0,"latitude":33.23614,"longitude":-86.82776,"id":"a62ky3rqe6o9","dentists":2.0},"type":"Feature","geometry":{"type":"Point","coordinates":[-86.82776,33.23614]}},{"properties":{"zip":35080.0,"latitude":33.28221,"longitude":-86.87319,"id":"a62ky3rvijmg","dentists":2.0},"type":"Feature","geometry":{"type":"Point","coordinates":[-86.87319,33.28221]}},{"properties":{"zip":35121.0,"latitude":33.95308,"longitude":-86.46243,"id":"a62ky3ghbh71","dentists":2.0},"type":"Feature","geometry":{"type":"Point","coordinates":[-86.46243,33.95308]}},{"properties":{"zip":35209.0,"latitude":33.46883,"longitude":-86.81167,"id":"a62ky3gqwvja","dentists":2.0},"type":"Feature","geometry":{"type":"Point","coordinates":[-86.81167,33.46883]}},{"properties":{"zip":35233.0,"latitude":33.50905,"longitude":-86.80577,"id":"a62ky3htdk1e","dentists":1.0},"type":"Feature","geometry":{"type":"Point","coordinates":[-86.80577,33.50905]}},{"properties":{"zip":35234.0,"latitude":33.53534,"longitude":-86.80837,"id":"a62ky3g0767n","dentists":2.0},"type":"Feature","geometry":{"type":"Point","coordinates":[-86.80837,33.53534]}},{"properties":{"zip":35406.0,"latitude":33.26724,"longitude":-87.5156,"id":"a62ky3ohm0qd","dentists":2.0},"type":"Feature","geometry":{"type":"Point","coordinates":[-87.5156,33.26724]}},{"properties":{"zip":35504.0,"latitude":33.89746,"longitude":-87.20998,"id":"a62ky3knpq45","dentists":2.0},"type":"Feature","geometry":{"type":"Point","coordinates":[-87.20998,33.89746]}},{"properties":{"zip":35630.0,"latitude":34.82454,"longitude":-87.66099,"id":"a62ky3t60b8n","dentists":4.0},"type":"Feature","geometry":{"type":"Point","coordinates":[-87.66099,34.82454]}},{"properties":{"zip":35645.0,"latitude":34.88489,"longitude":-87.52337,"id":"a62ky3iclrez","dentists":2.0},"type":"Feature","geometry":{"type":"Point","coordinates":[-87.52337,34.88489]}},{"properties":{"zip":35661.0,"latitude":34.76263,"longitude":-87.61736,"id":"a62ky3hlem60","dentists":2.0},"type":"Feature","geometry":{"type":"Point","coordinates":[-87.61736,34.76263]}},{"properties":{"zip":35765.0,"latitude":34.66779,"longitude":-85.79336,"id":"a62ky3j48xh9","dentists":2.0},"type":"Feature","geometry":{"type":"Point","coordinates":[-85.79336,34.66779]}},{"properties":{"zip":36104.0,"latitude":32.37211,"longitude":-86.3104,"id":"a62ky3guomcs","dentists":1.0},"type":"Feature","geometry":{"type":"Point","coordinates":[-86.3104,32.37211]}},{"properties":{"zip":36116.0,"latitude":32.30684,"longitude":-86.23009,"id":"a62ky3ihtbnr","dentists":2.0},"type":"Feature","geometry":{"type":"Point","coordinates":[-86.23009,32.30684]}},{"properties":{"zip":36426.0,"latitude":31.12532,"longitude":-87.06869,"id":"a62ky3gb1oy6","dentists":1.0},"type":"Feature","geometry":{"type":"Point","coordinates":[-87.06869,31.12532]}},{"properties":{"zip":36606.0,"latitude":30.67238,"longitude":-88.10695,"id":"a62ky3lsy69i","dentists":2.0},"type":"Feature","geometry":{"type":"Point","coordinates":[-88.10695,30.67238]}},{"properties":{"zip":36744.0,"latitude":32.70276,"longitude":-87.58506,"id":"a62ky3t3y3bk","dentists":1.0},"type":"Feature","geometry":{"type":"Point","coordinates":[-87.58506,32.70276]}},{"properties":{"zip":36830.0,"latitude":32.58509,"longitude":-85.47154,"id":"a62ky3tdo521","dentists":8.0},"type":"Feature","geometry":{"type":"Point","coordinates":[-85.47154,32.58509]}},{"properties":{"zip":37027.0,"latitude":36.00963,"longitude":-86.78389,"id":"a62ky3ijxipn","dentists":1.0},"type":"Feature","geometry":{"type":"Point","coordinates":[-86.78389,36.00963]}},{"properties":{"zip":37040.0,"latitude":36.52567,"longitude":-87.33407,"id":"a62ky3l1wvia","dentists":2.0},"type":"Feature","geometry":{"type":"Point","coordinates":[-87.33407,36.52567]}},{"properties":{"zip":37042.0,"latitude":36.57557,"longitude":-87.39701,"id":"a62ky3je3g49","dentists":2.0},"type":"Feature","geometry":{"type":"Point","coordinates":[-87.39701,36.57557]}},{"properties":{"zip":37043.0,"latitude":36.5017,"longitude":-87.25818,"id":"a62ky3l1squu","dentists":6.0},"type":"Feature","geometry":{"type":"Point","coordinates":[-87.25818,36.5017]}},{"properties":{"zip":37055.0,"latitude":36.07496,"longitude":-87.38839,"id":"a62ky3id2xqe","dentists":4.0},"type":"Feature","geometry":{"type":"Point","coordinates":[-87.38839,36.07496]}},{"properties":{"zip":37067.0,"latitude":35.93264,"longitude":-86.80811,"id":"a62ky3j38ukw","dentists":4.0},"type":"Feature","geometry":{"type":"Point","coordinates":[-86.80811,35.93264]}},{"properties":{"zip":37072.0,"latitude":36.35181,"longitude":-86.71279,"id":"a62ky3lc0v28","dentists":2.0},"type":"Feature","geometry":{"type":"Point","coordinates":[-86.71279,36.35181]}},{"properties":{"zip":37167.0,"latitude":35.96804,"longitude":-86.52951,"id":"a62ky3rg16dy","dentists":3.0},"type":"Feature","geometry":{"type":"Point","coordinates":[-86.52951,35.96804]}},{"properties":{"zip":37203.0,"latitude":36.14962,"longitude":-86.79802,"id":"a62ky3kck0t0","dentists":2.0},"type":"Feature","geometry":{"type":"Point","coordinates":[-86.79802,36.14962]}},{"properties":{"zip":37204.0,"latitude":36.11401,"longitude":-86.78369,"id":"a62ky3hs6fog","dentists":2.0},"type":"Feature","geometry":{"type":"Point","coordinates":[-86.78369,36.11401]}},{"properties":{"zip":37205.0,"latitude":36.11319,"longitude":-86.86449,"id":"a62ky3mpytx0","dentists":2.0},"type":"Feature","geometry":{"type":"Point","coordinates":[-86.86449,36.11319]}},{"properties":{"zip":37209.0,"latitude":36.14518,"longitude":-86.87182,"id":"a62ky3fohu9j","dentists":2.0},"type":"Feature","geometry":{"type":"Point","coordinates":[-86.87182,36.14518]}},{"properties":{"zip":37211.0,"latitude":36.06679,"longitude":-86.72551,"id":"a62ky3itzg6o","dentists":6.0},"type":"Feature","geometry":{"type":"Point","coordinates":[-86.72551,36.06679]}},{"properties":{"zip":37217.0,"latitude":36.10448,"longitude":-86.67424,"id":"a62ky3nd98l6","dentists":2.0},"type":"Feature","geometry":{"type":"Point","coordinates":[-86.67424,36.10448]}},{"properties":{"zip":37303.0,"latitude":35.43758,"longitude":-84.61539,"id":"a62ky3lhr3hj","dentists":2.0},"type":"Feature","geometry":{"type":"Point","coordinates":[-84.61539,35.43758]}},{"properties":{"zip":37742.0,"latitude":35.69395,"longitude":-84.15466,"id":"a62ky3sixcz6","dentists":1.0},"type":"Feature","geometry":{"type":"Point","coordinates":[-84.15466,35.69395]}},{"properties":{"zip":37763.0,"latitude":35.85205,"longitude":-84.49079,"id":"a62ky3joq6tc","dentists":2.0},"type":"Feature","geometry":{"type":"Point","coordinates":[-84.49079,35.85205]}},{"properties":{"zip":37918.0,"latitude":36.05352,"longitude":-83.9236,"id":"a62ky3l99w8q","dentists":2.0},"type":"Feature","geometry":{"type":"Point","coordinates":[-83.9236,36.05352]}},{"properties":{"zip":37919.0,"latitude":35.92418,"longitude":-84.00724,"id":"a62ky3ftutg0","dentists":4.0},"type":"Feature","geometry":{"type":"Point","coordinates":[-84.00724,35.92418]}},{"properties":{"zip":37922.0,"latitude":35.8715,"longitude":-84.10386,"id":"a62ky3u5psfw","dentists":2.0},"type":"Feature","geometry":{"type":"Point","coordinates":[-84.10386,35.8715]}},{"properties":{"zip":37923.0,"latitude":35.92547,"longitude":-84.08361,"id":"a62ky3gah1tk","dentists":2.0},"type":"Feature","geometry":{"type":"Point","coordinates":[-84.08361,35.92547]}},{"properties":{"zip":37931.0,"latitude":35.96781,"longitude":-84.11551,"id":"a62ky3qg4vk8","dentists":3.0},"type":"Feature","geometry":{"type":"Point","coordinates":[-84.11551,35.96781]}},{"properties":{"zip":38002.0,"latitude":35.2618,"longitude":-89.72464,"id":"a62ky3towra0","dentists":1.0},"type":"Feature","geometry":{"type":"Point","coordinates":[-89.72464,35.2618]}},{"properties":{"zip":38008.0,"latitude":35.24173,"longitude":-88.99565,"id":"a62ky3q403s9","dentists":2.0},"type":"Feature","geometry":{"type":"Point","coordinates":[-88.99565,35.24173]}},{"properties":{"zip":38017.0,"latitude":35.05765,"longitude":-89.67698,"id":"a62ky3syk74v","dentists":4.0},"type":"Feature","geometry":{"type":"Point","coordinates":[-89.67698,35.05765]}},{"properties":{"zip":38018.0,"latitude":35.13706,"longitude":-89.77729,"id":"a62ky3kps0ro","dentists":2.0},"type":"Feature","geometry":{"type":"Point","coordinates":[-89.77729,35.13706]}},{"properties":{"zip":38068.0,"latitude":35.24748,"longitude":-89.35,"id":"a62ky3rg7bxr","dentists":2.0},"type":"Feature","geometry":{"type":"Point","coordinates":[-89.35,35.24748]}},{"properties":{"zip":38104.0,"latitude":35.13354,"longitude":-90.00414,"id":"a62ky3g4wmmi","dentists":2.0},"type":"Feature","geometry":{"type":"Point","coordinates":[-90.00414,35.13354]}},{"properties":{"zip":38107.0,"latitude":35.16825,"longitude":-90.01935,"id":"a62ky3jzroso","dentists":2.0},"type":"Feature","geometry":{"type":"Point","coordinates":[-90.01935,35.16825]}},{"properties":{"zip":38108.0,"latitude":35.17952,"longitude":-89.959,"id":"a62ky3lz0nv8","dentists":2.0},"type":"Feature","geometry":{"type":"Point","coordinates":[-89.959,35.17952]}},{"properties":{"zip":38109.0,"latitude":35.04279,"longitude":-90.07952,"id":"a62ky3m359a1","dentists":1.0},"type":"Feature","geometry":{"type":"Point","coordinates":[-90.07952,35.04279]}},{"properties":{"zip":38116.0,"latitude":35.0352,"longitude":-90.01732,"id":"a62ky3peq8yb","dentists":1.0},"type":"Feature","geometry":{"type":"Point","coordinates":[-90.01732,35.0352]}},{"properties":{"zip":38120.0,"latitude":35.1124,"longitude":-89.86191,"id":"a62ky3tmdp2m","dentists":2.0},"type":"Feature","geometry":{"type":"Point","coordinates":[-89.86191,35.1124]}},{"properties":{"zip":38127.0,"latitude":35.2271,"longitude":-90.00304,"id":"a62ky3t6hnk4","dentists":2.0},"type":"Feature","geometry":{"type":"Point","coordinates":[-90.00304,35.2271]}},{"properties":{"zip":38128.0,"latitude":35.21753,"longitude":-89.92065,"id":"a62ky3tljlhl","dentists":2.0},"type":"Feature","geometry":{"type":"Point","coordinates":[-89.92065,35.21753]}},{"properties":{"zip":38138.0,"latitude":35.08996,"longitude":-89.80314,"id":"a62ky3kn1y7h","dentists":2.0},"type":"Feature","geometry":{"type":"Point","coordinates":[-89.80314,35.08996]}},{"properties":{"zip":38363.0,"latitude":35.66029,"longitude":-88.12643,"id":"a62ky3r2d725","dentists":1.0},"type":"Feature","geometry":{"type":"Point","coordinates":[-88.12643,35.66029]}},{"properties":{"zip":38462.0,"latitude":35.51243,"longitude":-87.54427,"id":"a62ky3ied3jw","dentists":3.0},"type":"Feature","geometry":{"type":"Point","coordinates":[-87.54427,35.51243]}},{"properties":{"zip":38555.0,"latitude":35.94255,"longitude":-85.01027,"id":"a62ky3kria20","dentists":2.0},"type":"Feature","geometry":{"type":"Point","coordinates":[-85.01027,35.94255]}},{"properties":{"zip":38587.0,"latitude":35.86743,"longitude":-85.61815,"id":"a62ky3f88h68","dentists":2.0},"type":"Feature","geometry":{"type":"Point","coordinates":[-85.61815,35.86743]}},{"properties":{"zip":38611.0,"latitude":34.83602,"longitude":-89.67597,"id":"a62ky3h19ca7","dentists":2.0},"type":"Feature","geometry":{"type":"Point","coordinates":[-89.67597,34.83602]}},{"properties":{"zip":38632.0,"latitude":34.82358,"longitude":-89.99086,"id":"a62ky3re7n54","dentists":2.0},"type":"Feature","geometry":{"type":"Point","coordinates":[-89.99086,34.82358]}},{"properties":{"zip":38655.0,"latitude":34.35479,"longitude":-89.52123,"id":"a62ky3quotez","dentists":6.0},"type":"Feature","geometry":{"type":"Point","coordinates":[-89.52123,34.35479]}},{"properties":{"zip":38663.0,"latitude":34.75537,"longitude":-88.94149,"id":"a62ky3i65nfg","dentists":2.0},"type":"Feature","geometry":{"type":"Point","coordinates":[-88.94149,34.75537]}},{"properties":{"zip":38668.0,"latitude":34.62671,"longitude":-89.92448,"id":"a62ky3ln660g","dentists":2.0},"type":"Feature","geometry":{"type":"Point","coordinates":[-89.92448,34.62671]}},{"properties":{"zip":38732.0,"latitude":33.74286,"longitude":-90.72865,"id":"a62ky3nowdia","dentists":2.0},"type":"Feature","geometry":{"type":"Point","coordinates":[-90.72865,33.74286]}},{"properties":{"zip":38751.0,"latitude":33.45235,"longitude":-90.66367,"id":"a62ky3p1zamz","dentists":2.0},"type":"Feature","geometry":{"type":"Point","coordinates":[-90.66367,33.45235]}},{"properties":{"zip":38801.0,"latitude":34.22834,"longitude":-88.76175,"id":"a62ky3h4xpf8","dentists":4.0},"type":"Feature","geometry":{"type":"Point","coordinates":[-88.76175,34.22834]}},{"properties":{"zip":38804.0,"latitude":34.25035,"longitude":-88.6858,"id":"a62ky3okhv61","dentists":8.0},"type":"Feature","geometry":{"type":"Point","coordinates":[-88.6858,34.25035]}},{"properties":{"zip":38824.0,"latitude":34.51247,"longitude":-88.63206,"id":"a62ky3j60hre","dentists":2.0},"type":"Feature","geometry":{"type":"Point","coordinates":[-88.63206,34.51247]}},{"properties":{"zip":38829.0,"latitude":34.65641,"longitude":-88.54788,"id":"a62ky3hk342c","dentists":1.0},"type":"Feature","geometry":{"type":"Point","coordinates":[-88.54788,34.65641]}},{"properties":{"zip":38843.0,"latitude":34.26527,"longitude":-88.39664,"id":"a62ky3g9brnv","dentists":2.0},"type":"Feature","geometry":{"type":"Point","coordinates":[-88.39664,34.26527]}},{"properties":{"zip":38858.0,"latitude":34.08462,"longitude":-88.59179,"id":"a62ky3oesmy0","dentists":2.0},"type":"Feature","geometry":{"type":"Point","coordinates":[-88.59179,34.08462]}},{"properties":{"zip":38863.0,"latitude":34.25106,"longitude":-89.01231,"id":"a62ky3ukkzvm","dentists":2.0},"type":"Feature","geometry":{"type":"Point","coordinates":[-89.01231,34.25106]}},{"properties":{"zip":38870.0,"latitude":34.04382,"longitude":-88.40297,"id":"a62ky3hcg21h","dentists":2.0},"type":"Feature","geometry":{"type":"Point","coordinates":[-88.40297,34.04382]}},{"properties":{"zip":38901.0,"latitude":33.77865,"longitude":-89.80025,"id":"a62ky3r4c1g2","dentists":1.0},"type":"Feature","geometry":{"type":"Point","coordinates":[-89.80025,33.77865]}},{"properties":{"zip":39042.0,"latitude":32.26972,"longitude":-89.96284,"id":"a62ky3nc8e7c","dentists":16.0},"type":"Feature","geometry":{"type":"Point","coordinates":[-89.96284,32.26972]}},{"properties":{"zip":39046.0,"latitude":32.62073,"longitude":-90.01984,"id":"a62ky3lw3pxu","dentists":2.0},"type":"Feature","geometry":{"type":"Point","coordinates":[-90.01984,32.62073]}},{"properties":{"zip":39056.0,"latitude":32.34119,"longitude":-90.33263,"id":"a62ky3jmm107","dentists":2.0},"type":"Feature","geometry":{"type":"Point","coordinates":[-90.33263,32.34119]}},{"properties":{"zip":39063.0,"latitude":33.07583,"longitude":-89.85001,"id":"a62ky3ieqptt","dentists":1.0},"type":"Feature","geometry":{"type":"Point","coordinates":[-89.85001,33.07583]}},{"properties":{"zip":39073.0,"latitude":32.10119,"longitude":-90.12809,"id":"a62ky3lav3cw","dentists":2.0},"type":"Feature","geometry":{"type":"Point","coordinates":[-90.12809,32.10119]}},{"properties":{"zip":39074.0,"latitude":32.42964,"longitude":-89.44482,"id":"a62ky3o7firr","dentists":4.0},"type":"Feature","geometry":{"type":"Point","coordinates":[-89.44482,32.42964]}},{"properties":{"zip":39110.0,"latitude":32.47938,"longitude":-90.12745,"id":"a62ky3pj57bp","dentists":2.0},"type":"Feature","geometry":{"type":"Point","coordinates":[-90.12745,32.47938]}},{"properties":{"zip":39111.0,"latitude":31.87235,"longitude":-89.7337,"id":"a62ky3qxmax7","dentists":5.0},"type":"Feature","geometry":{"type":"Point","coordinates":[-89.7337,31.87235]}},{"properties":{"zip":39117.0,"latitude":32.34476,"longitude":-89.65034,"id":"a62ky3tcfxn3","dentists":4.0},"type":"Feature","geometry":{"type":"Point","coordinates":[-89.65034,32.34476]}},{"properties":{"zip":39154.0,"latitude":32.24795,"longitude":-90.41821,"id":"a62ky3hm2fzd","dentists":2.0},"type":"Feature","geometry":{"type":"Point","coordinates":[-90.41821,32.24795]}},{"properties":{"zip":39157.0,"latitude":32.42087,"longitude":-90.13397,"id":"a62ky3lsy2tz","dentists":2.0},"type":"Feature","geometry":{"type":"Point","coordinates":[-90.13397,32.42087]}},{"properties":{"zip":39168.0,"latitude":31.81357,"longitude":-89.38287,"id":"a62ky3ott8cw","dentists":2.0},"type":"Feature","geometry":{"type":"Point","coordinates":[-89.38287,31.81357]}},{"properties":{"zip":39180.0,"latitude":32.30193,"longitude":-90.87341,"id":"a62ky3tewq7v","dentists":3.0},"type":"Feature","geometry":{"type":"Point","coordinates":[-90.87341,32.30193]}},{"properties":{"zip":39202.0,"latitude":32.31483,"longitude":-90.17829,"id":"a62ky3mkp0qh","dentists":2.0},"type":"Feature","geometry":{"type":"Point","coordinates":[-90.17829,32.31483]}},{"properties":{"zip":39204.0,"latitude":32.27514,"longitude":-90.23448,"id":"a62ky3g94umg","dentists":2.0},"type":"Feature","geometry":{"type":"Point","coordinates":[-90.23448,32.27514]}},{"properties":{"zip":39206.0,"latitude":32.36502,"longitude":-90.16626,"id":"a62ky3ogggin","dentists":2.0},"type":"Feature","geometry":{"type":"Point","coordinates":[-90.16626,32.36502]}},{"properties":{"zip":39208.0,"latitude":32.27558,"longitude":-90.11179,"id":"a62ky3uy2jpm","dentists":2.0},"type":"Feature","geometry":{"type":"Point","coordinates":[-90.11179,32.27558]}},{"properties":{"zip":39209.0,"latitude":32.33765,"longitude":-90.26166,"id":"a62ky3p11hbo","dentists":4.0},"type":"Feature","geometry":{"type":"Point","coordinates":[-90.26166,32.33765]}},{"properties":{"zip":39212.0,"latitude":32.25395,"longitude":-90.25145,"id":"a62ky3u231qb","dentists":3.0},"type":"Feature","geometry":{"type":"Point","coordinates":[-90.25145,32.25395]}},{"properties":{"zip":39216.0,"latitude":32.33367,"longitude":-90.16679,"id":"a62ky3o5bcjw","dentists":6.0},"type":"Feature","geometry":{"type":"Point","coordinates":[-90.16679,32.33367]}},{"properties":{"zip":39232.0,"latitude":32.32353,"longitude":-90.10394,"id":"a62ky3rt9iro","dentists":8.0},"type":"Feature","geometry":{"type":"Point","coordinates":[-90.10394,32.32353]}},{"properties":{"zip":39272.0,"latitude":32.19922,"longitude":-90.27299,"id":"a62ky3if2jy0","dentists":2.0},"type":"Feature","geometry":{"type":"Point","coordinates":[-90.27299,32.19922]}},{"properties":{"zip":39301.0,"latitude":32.3249,"longitude":-88.67927,"id":"a62ky3fj7lfj","dentists":2.0},"type":"Feature","geometry":{"type":"Point","coordinates":[-88.67927,32.3249]}},{"properties":{"zip":39305.0,"latitude":32.42147,"longitude":-88.69868,"id":"a62ky3l5ev2b","dentists":6.0},"type":"Feature","geometry":{"type":"Point","coordinates":[-88.69868,32.42147]}},{"properties":{"zip":39345.0,"latitude":32.32311,"longitude":-89.16119,"id":"a62ky3n0pusz","dentists":6.0},"type":"Feature","geometry":{"type":"Point","coordinates":[-89.16119,32.32311]}},{"properties":{"zip":39359.0,"latitude":32.56777,"longitude":-89.33321,"id":"a62ky3mcv4xp","dentists":3.0},"type":"Feature","geometry":{"type":"Point","coordinates":[-89.33321,32.56777]}},{"properties":{"zip":39367.0,"latitude":31.68116,"longitude":-88.64619,"id":"a62ky3jd6lj1","dentists":2.0},"type":"Feature","geometry":{"type":"Point","coordinates":[-88.64619,31.68116]}},{"properties":{"zip":39401.0,"latitude":31.29695,"longitude":-89.2879,"id":"a62ky3usuyx4","dentists":8.0},"type":"Feature","geometry":{"type":"Point","coordinates":[-89.2879,31.29695]}},{"properties":{"zip":39402.0,"latitude":31.30938,"longitude":-89.3952,"id":"a62ky3incn1b","dentists":14.0},"type":"Feature","geometry":{"type":"Point","coordinates":[-89.3952,31.30938]}},{"properties":{"zip":39440.0,"latitude":31.6986,"longitude":-89.13401,"id":"a62ky3qjkta3","dentists":4.0},"type":"Feature","geometry":{"type":"Point","coordinates":[-89.13401,31.6986]}},{"properties":{"zip":39465.0,"latitude":31.36509,"longitude":-89.20495,"id":"a62ky3h51a1d","dentists":3.0},"type":"Feature","geometry":{"type":"Point","coordinates":[-89.20495,31.36509]}},{"properties":{"zip":39466.0,"latitude":30.54624,"longitude":-89.65605,"id":"a62ky3tua70v","dentists":2.0},"type":"Feature","geometry":{"type":"Point","coordinates":[-89.65605,30.54624]}},{"properties":{"zip":39501.0,"latitude":30.38203,"longitude":-89.10183,"id":"a62ky3pns5k4","dentists":1.0},"type":"Feature","geometry":{"type":"Point","coordinates":[-89.10183,30.38203]}},{"properties":{"zip":39507.0,"latitude":30.39444,"longitude":-89.0356,"id":"a62ky3jefke3","dentists":2.0},"type":"Feature","geometry":{"type":"Point","coordinates":[-89.0356,30.39444]}},{"properties":{"zip":39525.0,"latitude":30.38446,"longitude":-89.37173,"id":"a62ky3ic8hg9","dentists":2.0},"type":"Feature","geometry":{"type":"Point","coordinates":[-89.37173,30.38446]}},{"properties":{"zip":39531.0,"latitude":30.40346,"longitude":-88.96346,"id":"a62ky3gra35j","dentists":2.0},"type":"Feature","geometry":{"type":"Point","coordinates":[-88.96346,30.40346]}},{"properties":{"zip":39556.0,"latitude":30.44795,"longitude":-89.39416,"id":"a62ky3szgsci","dentists":2.0},"type":"Feature","geometry":{"type":"Point","coordinates":[-89.39416,30.44795]}},{"properties":{"zip":39564.0,"latitude":30.39913,"longitude":-88.76797,"id":"a62ky3v8xn7w","dentists":6.0},"type":"Feature","geometry":{"type":"Point","coordinates":[-88.76797,30.39913]}},{"properties":{"zip":39601.0,"latitude":31.57851,"longitude":-90.44846,"id":"a62ky3sab88t","dentists":1.0},"type":"Feature","geometry":{"type":"Point","coordinates":[-90.44846,31.57851]}},{"properties":{"zip":39638.0,"latitude":31.18358,"longitude":-91.06093,"id":"a62ky3l4s73s","dentists":2.0},"type":"Feature","geometry":{"type":"Point","coordinates":[-91.06093,31.18358]}},{"properties":{"zip":39645.0,"latitude":31.20828,"longitude":-90.71169,"id":"a62ky3tqsag0","dentists":2.0},"type":"Feature","geometry":{"type":"Point","coordinates":[-90.71169,31.20828]}},{"properties":{"zip":39701.0,"latitude":33.48453,"longitude":-88.42225,"id":"a62ky3um2uml","dentists":2.0},"type":"Feature","geometry":{"type":"Point","coordinates":[-88.42225,33.48453]}},{"properties":{"zip":39735.0,"latitude":33.31851,"longitude":-89.17726,"id":"a62ky3qlchb0","dentists":2.0},"type":"Feature","geometry":{"type":"Point","coordinates":[-89.17726,33.31851]}},{"properties":{"zip":40243.0,"latitude":38.24016,"longitude":-85.54062,"id":"a62ky3mdqq14","dentists":2.0},"type":"Feature","geometry":{"type":"Point","coordinates":[-85.54062,38.24016]}},{"properties":{"zip":40324.0,"latitude":38.21675,"longitude":-84.55929,"id":"a62ky3o9c8xn","dentists":2.0},"type":"Feature","geometry":{"type":"Point","coordinates":[-84.55929,38.21675]}},{"properties":{"zip":40447.0,"latitude":37.42979,"longitude":-84.00481,"id":"a62ky3k9yum4","dentists":3.0},"type":"Feature","geometry":{"type":"Point","coordinates":[-84.00481,37.42979]}},{"properties":{"zip":40502.0,"latitude":38.01485,"longitude":-84.48424,"id":"a62ky3luvgx3","dentists":1.0},"type":"Feature","geometry":{"type":"Point","coordinates":[-84.48424,38.01485]}},{"properties":{"zip":40828.0,"latitude":36.86063,"longitude":-83.17146,"id":"a62ky3m00sjq","dentists":5.0},"type":"Feature","geometry":{"type":"Point","coordinates":[-83.17146,36.86063]}},{"properties":{"zip":40831.0,"latitude":36.80775,"longitude":-83.30971,"id":"a62ky3me96lh","dentists":3.0},"type":"Feature","geometry":{"type":"Point","coordinates":[-83.30971,36.80775]}},{"properties":{"zip":42038.0,"latitude":37.08807,"longitude":-88.04963,"id":"a62ky3vfc8cy","dentists":2.0},"type":"Feature","geometry":{"type":"Point","coordinates":[-88.04963,37.08807]}},{"properties":{"zip":42129.0,"latitude":37.01204,"longitude":-85.58776,"id":"a62ky3i63i3y","dentists":2.0},"type":"Feature","geometry":{"type":"Point","coordinates":[-85.58776,37.01204]}},{"properties":{"zip":42301.0,"latitude":37.74985,"longitude":-87.17551,"id":"a62ky3q5fold","dentists":1.0},"type":"Feature","geometry":{"type":"Point","coordinates":[-87.17551,37.74985]}},{"properties":{"zip":43081.0,"latitude":40.11019,"longitude":-82.91217,"id":"a62ky3iw84wc","dentists":3.0},"type":"Feature","geometry":{"type":"Point","coordinates":[-82.91217,40.11019]}},{"properties":{"zip":43123.0,"latitude":39.87697,"longitude":-83.08786,"id":"a62ky3fukmmf","dentists":2.0},"type":"Feature","geometry":{"type":"Point","coordinates":[-83.08786,39.87697]}},{"properties":{"zip":43140.0,"latitude":39.89668,"longitude":-83.41874,"id":"a62ky3kp8nzx","dentists":3.0},"type":"Feature","geometry":{"type":"Point","coordinates":[-83.41874,39.89668]}},{"properties":{"zip":43212.0,"latitude":39.98926,"longitude":-83.04443,"id":"a62ky3tx1mdg","dentists":1.0},"type":"Feature","geometry":{"type":"Point","coordinates":[-83.04443,39.98926]}},{"properties":{"zip":43230.0,"latitude":40.03564,"longitude":-82.87349,"id":"a62ky3rbqrv8","dentists":1.0},"type":"Feature","geometry":{"type":"Point","coordinates":[-82.87349,40.03564]}},{"properties":{"zip":43240.0,"latitude":40.14178,"longitude":-82.98591,"id":"a62ky3qziegy","dentists":2.0},"type":"Feature","geometry":{"type":"Point","coordinates":[-82.98591,40.14178]}},{"properties":{"zip":44510.0,"latitude":41.11819,"longitude":-80.66849,"id":"a62ky3of5s65","dentists":1.0},"type":"Feature","geometry":{"type":"Point","coordinates":[-80.66849,41.11819]}},{"properties":{"zip":44511.0,"latitude":41.06976,"longitude":-80.6969,"id":"a62ky3maxa1n","dentists":2.0},"type":"Feature","geometry":{"type":"Point","coordinates":[-80.6969,41.06976]}},{"properties":{"zip":45140.0,"latitude":39.25677,"longitude":-84.26446,"id":"a62ky3u1rfa1","dentists":2.0},"type":"Feature","geometry":{"type":"Point","coordinates":[-84.26446,39.25677]}},{"properties":{"zip":45424.0,"latitude":39.84587,"longitude":-84.12204,"id":"a62ky3nni7tx","dentists":3.0},"type":"Feature","geometry":{"type":"Point","coordinates":[-84.12204,39.84587]}},{"properties":{"zip":45612.0,"latitude":39.22772,"longitude":-83.26971,"id":"a62ky3sizfqo","dentists":1.0},"type":"Feature","geometry":{"type":"Point","coordinates":[-83.26971,39.22772]}},{"properties":{"zip":45661.0,"latitude":39.04481,"longitude":-83.14463,"id":"a62ky3hykfup","dentists":1.0},"type":"Feature","geometry":{"type":"Point","coordinates":[-83.14463,39.04481]}},{"properties":{"zip":45804.0,"latitude":40.72169,"longitude":-84.09281,"id":"a62ky3oppogv","dentists":2.0},"type":"Feature","geometry":{"type":"Point","coordinates":[-84.09281,40.72169]}},{"properties":{"zip":46204.0,"latitude":39.77042,"longitude":-86.15611,"id":"a62ky3pviyx7","dentists":1.0},"type":"Feature","geometry":{"type":"Point","coordinates":[-86.15611,39.77042]}},{"properties":{"zip":46240.0,"latitude":39.9124,"longitude":-86.12335,"id":"a62ky3hj77qs","dentists":1.0},"type":"Feature","geometry":{"type":"Point","coordinates":[-86.12335,39.9124]}},{"properties":{"zip":46259.0,"latitude":39.65422,"longitude":-86.00506,"id":"a62ky3i9rhvf","dentists":1.0},"type":"Feature","geometry":{"type":"Point","coordinates":[-86.00506,39.65422]}},{"properties":{"zip":46260.0,"latitude":39.90444,"longitude":-86.18391,"id":"a62ky3m9n2kn","dentists":2.0},"type":"Feature","geometry":{"type":"Point","coordinates":[-86.18391,39.90444]}},{"properties":{"zip":46534.0,"latitude":41.27906,"longitude":-86.60144,"id":"a62ky3v6my03","dentists":2.0},"type":"Feature","geometry":{"type":"Point","coordinates":[-86.60144,41.27906]}},{"properties":{"zip":46805.0,"latitude":41.09961,"longitude":-85.11705,"id":"a62ky3fdyhf2","dentists":4.0},"type":"Feature","geometry":{"type":"Point","coordinates":[-85.11705,41.09961]}},{"properties":{"zip":47541.0,"latitude":38.24712,"longitude":-87.05394,"id":"a62ky3vh9bzu","dentists":2.0},"type":"Feature","geometry":{"type":"Point","coordinates":[-87.05394,38.24712]}},{"properties":{"zip":48026.0,"latitude":42.54043,"longitude":-82.94978,"id":"a62ky3shsuxh","dentists":2.0},"type":"Feature","geometry":{"type":"Point","coordinates":[-82.94978,42.54043]}},{"properties":{"zip":48060.0,"latitude":42.97544,"longitude":-82.45285,"id":"a62ky3njo6jr","dentists":1.0},"type":"Feature","geometry":{"type":"Point","coordinates":[-82.45285,42.97544]}},{"properties":{"zip":48085.0,"latitude":42.60348,"longitude":-83.12184,"id":"a62ky3p5tj14","dentists":2.0},"type":"Feature","geometry":{"type":"Point","coordinates":[-83.12184,42.60348]}},{"properties":{"zip":48228.0,"latitude":42.35637,"longitude":-83.21884,"id":"a62ky3rsycvz","dentists":1.0},"type":"Feature","geometry":{"type":"Point","coordinates":[-83.21884,42.35637]}},{"properties":{"zip":48342.0,"latitude":42.64842,"longitude":-83.27949,"id":"a62ky3hawhr4","dentists":1.0},"type":"Feature","geometry":{"type":"Point","coordinates":[-83.27949,42.64842]}},{"properties":{"zip":48438.0,"latitude":42.91045,"longitude":-83.50143,"id":"a62ky3ny97g4","dentists":2.0},"type":"Feature","geometry":{"type":"Point","coordinates":[-83.50143,42.91045]}},{"properties":{"zip":48601.0,"latitude":43.40747,"longitude":-83.91437,"id":"a62ky3fm9ikr","dentists":2.0},"type":"Feature","geometry":{"type":"Point","coordinates":[-83.91437,43.40747]}},{"properties":{"zip":48653.0,"latitude":44.48617,"longitude":-84.64351,"id":"a62ky3vbk6sk","dentists":3.0},"type":"Feature","geometry":{"type":"Point","coordinates":[-84.64351,44.48617]}},{"properties":{"zip":48765.0,"latitude":44.14258,"longitude":-83.70661,"id":"a62ky3fwgn26","dentists":1.0},"type":"Feature","geometry":{"type":"Point","coordinates":[-83.70661,44.14258]}},{"properties":{"zip":48875.0,"latitude":42.8612,"longitude":-84.91116,"id":"a62ky3n6h7fs","dentists":1.0},"type":"Feature","geometry":{"type":"Point","coordinates":[-84.91116,42.8612]}},{"properties":{"zip":48910.0,"latitude":42.7028,"longitude":-84.54307,"id":"a62ky3flk3gq","dentists":1.0},"type":"Feature","geometry":{"type":"Point","coordinates":[-84.54307,42.7028]}},{"properties":{"zip":48911.0,"latitude":42.67443,"longitude":-84.56959,"id":"a62ky3o38xn7","dentists":1.0},"type":"Feature","geometry":{"type":"Point","coordinates":[-84.56959,42.67443]}},{"properties":{"zip":49001.0,"latitude":42.26682,"longitude":-85.56713,"id":"a62ky3rrazrn","dentists":3.0},"type":"Feature","geometry":{"type":"Point","coordinates":[-85.56713,42.26682]}},{"properties":{"zip":49009.0,"latitude":42.28742,"longitude":-85.67503,"id":"a62ky3j30gnu","dentists":2.0},"type":"Feature","geometry":{"type":"Point","coordinates":[-85.67503,42.28742]}},{"properties":{"zip":49015.0,"latitude":42.28506,"longitude":-85.2032,"id":"a62ky3koo7qu","dentists":2.0},"type":"Feature","geometry":{"type":"Point","coordinates":[-85.2032,42.28506]}},{"properties":{"zip":49022.0,"latitude":42.11599,"longitude":-86.41029,"id":"a62ky3il6pk0","dentists":1.0},"type":"Feature","geometry":{"type":"Point","coordinates":[-86.41029,42.11599]}},{"properties":{"zip":49444.0,"latitude":43.19322,"longitude":-86.22323,"id":"a62ky3ilxl99","dentists":1.0},"type":"Feature","geometry":{"type":"Point","coordinates":[-86.22323,43.19322]}},{"properties":{"zip":49504.0,"latitude":42.97864,"longitude":-85.70884,"id":"a62ky3oamkji","dentists":1.0},"type":"Feature","geometry":{"type":"Point","coordinates":[-85.70884,42.97864]}},{"properties":{"zip":49686.0,"latitude":44.74697,"longitude":-85.54853,"id":"a62ky3ihn8jg","dentists":2.0},"type":"Feature","geometry":{"type":"Point","coordinates":[-85.54853,44.74697]}},{"properties":{"zip":49726.0,"latitude":46.0165,"longitude":-83.73837,"id":"a62ky3lywmz8","dentists":1.0},"type":"Feature","geometry":{"type":"Point","coordinates":[-83.73837,46.0165]}},{"properties":{"zip":49802.0,"latitude":45.79695,"longitude":-88.08119,"id":"a62ky3s9xil7","dentists":4.0},"type":"Feature","geometry":{"type":"Point","coordinates":[-88.08119,45.79695]}},{"properties":{"zip":49931.0,"latitude":47.11641,"longitude":-88.56246,"id":"a62ky3h9ye1r","dentists":2.0},"type":"Feature","geometry":{"type":"Point","coordinates":[-88.56246,47.11641]}},{"properties":{"zip":49938.0,"latitude":46.46421,"longitude":-90.16418,"id":"a62ky3k8a8s0","dentists":2.0},"type":"Feature","geometry":{"type":"Point","coordinates":[-90.16418,46.46421]}},{"properties":{"zip":52353.0,"latitude":41.29752,"longitude":-91.6998,"id":"a62ky3t0phc7","dentists":2.0},"type":"Feature","geometry":{"type":"Point","coordinates":[-91.6998,41.29752]}},{"properties":{"zip":53029.0,"latitude":43.12287,"longitude":-88.35567,"id":"a62ky3oyefnv","dentists":1.0},"type":"Feature","geometry":{"type":"Point","coordinates":[-88.35567,43.12287]}},{"properties":{"zip":53038.0,"latitude":43.0637,"longitude":-88.78462,"id":"a62ky3skdzkr","dentists":1.0},"type":"Feature","geometry":{"type":"Point","coordinates":[-88.78462,43.0637]}},{"properties":{"zip":53158.0,"latitude":42.52736,"longitude":-87.87359,"id":"a62ky3gymbo1","dentists":1.0},"type":"Feature","geometry":{"type":"Point","coordinates":[-87.87359,42.52736]}},{"properties":{"zip":53201.0,"latitude":43.03459,"longitude":-87.91533,"id":"a62ky3fiok4l","dentists":1.0},"type":"Feature","geometry":{"type":"Point","coordinates":[-87.91533,43.03459]}},{"properties":{"zip":53220.0,"latitude":42.96661,"longitude":-87.99188,"id":"a62ky3rqcmkl","dentists":1.0},"type":"Feature","geometry":{"type":"Point","coordinates":[-87.99188,42.96661]}},{"properties":{"zip":53511.0,"latitude":42.52527,"longitude":-89.04723,"id":"a62ky3oyciak","dentists":2.0},"type":"Feature","geometry":{"type":"Point","coordinates":[-89.04723,42.52527]}},{"properties":{"zip":53563.0,"latitude":42.77226,"longitude":-88.94926,"id":"a62ky3sk0t1q","dentists":2.0},"type":"Feature","geometry":{"type":"Point","coordinates":[-88.94926,42.77226]}},{"properties":{"zip":53578.0,"latitude":43.29305,"longitude":-89.74388,"id":"a62ky3h24oni","dentists":2.0},"type":"Feature","geometry":{"type":"Point","coordinates":[-89.74388,43.29305]}},{"properties":{"zip":54016.0,"latitude":44.97064,"longitude":-92.72115,"id":"a62ky3fw864r","dentists":2.0},"type":"Feature","geometry":{"type":"Point","coordinates":[-92.72115,44.97064]}},{"properties":{"zip":54169.0,"latitude":44.17742,"longitude":-88.27253,"id":"a62ky3usyzyd","dentists":2.0},"type":"Feature","geometry":{"type":"Point","coordinates":[-88.27253,44.17742]}},{"properties":{"zip":54220.0,"latitude":44.10467,"longitude":-87.68868,"id":"a62ky3ndrq16","dentists":4.0},"type":"Feature","geometry":{"type":"Point","coordinates":[-87.68868,44.10467]}},{"properties":{"zip":54409.0,"latitude":45.13237,"longitude":-89.14176,"id":"a62ky3vets3p","dentists":2.0},"type":"Feature","geometry":{"type":"Point","coordinates":[-89.14176,45.13237]}},{"properties":{"zip":54494.0,"latitude":44.35753,"longitude":-89.77144,"id":"a62ky3g9hnvr","dentists":2.0},"type":"Feature","geometry":{"type":"Point","coordinates":[-89.77144,44.35753]}},{"properties":{"zip":54639.0,"latitude":43.59095,"longitude":-90.69601,"id":"a62ky3tx55n4","dentists":3.0},"type":"Feature","geometry":{"type":"Point","coordinates":[-90.69601,43.59095]}},{"properties":{"zip":54872.0,"latitude":45.79344,"longitude":-92.37005,"id":"a62ky3iox5ef","dentists":2.0},"type":"Feature","geometry":{"type":"Point","coordinates":[-92.37005,45.79344]}},{"properties":{"zip":54904.0,"latitude":44.0275,"longitude":-88.60738,"id":"a62ky3hxjzj3","dentists":2.0},"type":"Feature","geometry":{"type":"Point","coordinates":[-88.60738,44.0275]}},{"properties":{"zip":54923.0,"latitude":43.97582,"longitude":-88.946,"id":"a62ky3ole22g","dentists":2.0},"type":"Feature","geometry":{"type":"Point","coordinates":[-88.946,43.97582]}},{"properties":{"zip":54935.0,"latitude":43.77134,"longitude":-88.439,"id":"a62ky3kxycg2","dentists":2.0},"type":"Feature","geometry":{"type":"Point","coordinates":[-88.439,43.77134]}},{"properties":{"zip":54937.0,"latitude":43.7773,"longitude":-88.48921,"id":"a62ky3tlzxy0","dentists":2.0},"type":"Feature","geometry":{"type":"Point","coordinates":[-88.48921,43.7773]}},{"properties":{"zip":54942.0,"latitude":44.29975,"longitude":-88.55406,"id":"a62ky3iu8wv8","dentists":2.0},"type":"Feature","geometry":{"type":"Point","coordinates":[-88.55406,44.29975]}},{"properties":{"zip":55073.0,"latitude":45.26099,"longitude":-92.82447,"id":"a62ky3spntc1","dentists":2.0},"type":"Feature","geometry":{"type":"Point","coordinates":[-92.82447,45.26099]}},{"properties":{"zip":55077.0,"latitude":44.8384,"longitude":-93.08528,"id":"a62ky3japjp0","dentists":2.0},"type":"Feature","geometry":{"type":"Point","coordinates":[-93.08528,44.8384]}},{"properties":{"zip":55092.0,"latitude":45.3529,"longitude":-93.07673,"id":"a62ky3k63p87","dentists":2.0},"type":"Feature","geometry":{"type":"Point","coordinates":[-93.07673,45.3529]}},{"properties":{"zip":55117.0,"latitude":44.99372,"longitude":-93.098,"id":"a62ky3f7e8kx","dentists":2.0},"type":"Feature","geometry":{"type":"Point","coordinates":[-93.098,44.99372]}},{"properties":{"zip":55125.0,"latitude":44.92244,"longitude":-92.94747,"id":"a62ky3mmwoat","dentists":2.0},"type":"Feature","geometry":{"type":"Point","coordinates":[-92.94747,44.92244]}},{"properties":{"zip":55318.0,"latitude":44.81281,"longitude":-93.60219,"id":"a62ky3gk4o3e","dentists":2.0},"type":"Feature","geometry":{"type":"Point","coordinates":[-93.60219,44.81281]}},{"properties":{"zip":55344.0,"latitude":44.85684,"longitude":-93.42928,"id":"a62ky3i5xmvg","dentists":2.0},"type":"Feature","geometry":{"type":"Point","coordinates":[-93.42928,44.85684]}},{"properties":{"zip":55347.0,"latitude":44.84216,"longitude":-93.46002,"id":"a62ky3pmd0ux","dentists":2.0},"type":"Feature","geometry":{"type":"Point","coordinates":[-93.46002,44.84216]}},{"properties":{"zip":55357.0,"latitude":45.07388,"longitude":-93.65235,"id":"a62ky3v9w561","dentists":1.0},"type":"Feature","geometry":{"type":"Point","coordinates":[-93.65235,45.07388]}},{"properties":{"zip":55369.0,"latitude":45.11571,"longitude":-93.43743,"id":"a62ky3ispbz2","dentists":2.0},"type":"Feature","geometry":{"type":"Point","coordinates":[-93.43743,45.11571]}},{"properties":{"zip":55372.0,"latitude":44.70492,"longitude":-93.4119,"id":"a62ky3iyr2y5","dentists":2.0},"type":"Feature","geometry":{"type":"Point","coordinates":[-93.4119,44.70492]}},{"properties":{"zip":55387.0,"latitude":44.84748,"longitude":-93.78459,"id":"a62ky3laart7","dentists":4.0},"type":"Feature","geometry":{"type":"Point","coordinates":[-93.78459,44.84748]}},{"properties":{"zip":55407.0,"latitude":44.93955,"longitude":-93.25686,"id":"a62ky3lqj1l9","dentists":2.0},"type":"Feature","geometry":{"type":"Point","coordinates":[-93.25686,44.93955]}},{"properties":{"zip":55422.0,"latitude":45.00823,"longitude":-93.34356,"id":"a62ky3rqk34t","dentists":2.0},"type":"Feature","geometry":{"type":"Point","coordinates":[-93.34356,45.00823]}},{"properties":{"zip":55441.0,"latitude":45.00729,"longitude":-93.43476,"id":"a62ky3fd0owo","dentists":2.0},"type":"Feature","geometry":{"type":"Point","coordinates":[-93.43476,45.00729]}},{"properties":{"zip":55905.0,"latitude":44.03841,"longitude":-92.4942,"id":"a62ky3g644v9","dentists":1.0},"type":"Feature","geometry":{"type":"Point","coordinates":[-92.4942,44.03841]}},{"properties":{"zip":55912.0,"latitude":43.67979,"longitude":-92.97971,"id":"a62ky3nzf4yx","dentists":2.0},"type":"Feature","geometry":{"type":"Point","coordinates":[-92.97971,43.67979]}},{"properties":{"zip":56058.0,"latitude":44.4561,"longitude":-93.90599,"id":"a62ky3ixs1ve","dentists":1.0},"type":"Feature","geometry":{"type":"Point","coordinates":[-93.90599,44.4561]}},{"properties":{"zip":56178.0,"latitude":44.27539,"longitude":-96.13114,"id":"a62ky3n06kv2","dentists":2.0},"type":"Feature","geometry":{"type":"Point","coordinates":[-96.13114,44.27539]}},{"properties":{"zip":56345.0,"latitude":45.97769,"longitude":-94.37903,"id":"a62ky3us7mnd","dentists":2.0},"type":"Feature","geometry":{"type":"Point","coordinates":[-94.37903,45.97769]}},{"properties":{"zip":56360.0,"latitude":45.91076,"longitude":-95.20003,"id":"a62ky3i566za","dentists":3.0},"type":"Feature","geometry":{"type":"Point","coordinates":[-95.20003,45.91076]}},{"properties":{"zip":56382.0,"latitude":45.91466,"longitude":-94.5866,"id":"a62ky3t1okdq","dentists":1.0},"type":"Feature","geometry":{"type":"Point","coordinates":[-94.5866,45.91466]}},{"properties":{"zip":56560.0,"latitude":46.8585,"longitude":-96.7515,"id":"a62ky3s1i2x1","dentists":2.0},"type":"Feature","geometry":{"type":"Point","coordinates":[-96.7515,46.8585]}},{"properties":{"zip":58324.0,"latitude":48.44315,"longitude":-99.23213,"id":"a62ky3fn3mdz","dentists":5.0},"type":"Feature","geometry":{"type":"Point","coordinates":[-99.23213,48.44315]}},{"properties":{"zip":58329.0,"latitude":48.87043,"longitude":-100.18274,"id":"a62ky3mbqsvg","dentists":1.0},"type":"Feature","geometry":{"type":"Point","coordinates":[-100.18274,48.87043]}},{"properties":{"zip":59901.0,"latitude":48.2062,"longitude":-114.3119,"id":"a62ky3jhqpnt","dentists":1.0},"type":"Feature","geometry":{"type":"Point","coordinates":[-114.3119,48.2062]}},{"properties":{"zip":60033.0,"latitude":42.4228,"longitude":-88.60862,"id":"a62ky3laot9d","dentists":2.0},"type":"Feature","geometry":{"type":"Point","coordinates":[-88.60862,42.4228]}},{"properties":{"zip":60035.0,"latitude":42.18358,"longitude":-87.8052,"id":"a62ky3nh381q","dentists":1.0},"type":"Feature","geometry":{"type":"Point","coordinates":[-87.8052,42.18358]}},{"properties":{"zip":60043.0,"latitude":42.08797,"longitude":-87.71654,"id":"a62ky3udk6wt","dentists":1.0},"type":"Feature","geometry":{"type":"Point","coordinates":[-87.71654,42.08797]}},{"properties":{"zip":60070.0,"latitude":42.09519,"longitude":-87.92523,"id":"a62ky3ng7idl","dentists":1.0},"type":"Feature","geometry":{"type":"Point","coordinates":[-87.92523,42.09519]}},{"properties":{"zip":60084.0,"latitude":42.27314,"longitude":-88.13168,"id":"a62ky3oicc9r","dentists":2.0},"type":"Feature","geometry":{"type":"Point","coordinates":[-88.13168,42.27314]}},{"properties":{"zip":60120.0,"latitude":42.03782,"longitude":-88.25011,"id":"a62ky3uy2k57","dentists":1.0},"type":"Feature","geometry":{"type":"Point","coordinates":[-88.25011,42.03782]}},{"properties":{"zip":60181.0,"latitude":41.87999,"longitude":-87.97887,"id":"a62ky3kqqbaw","dentists":1.0},"type":"Feature","geometry":{"type":"Point","coordinates":[-87.97887,41.87999]}},{"properties":{"zip":60187.0,"latitude":41.87108,"longitude":-88.11236,"id":"a62ky3qqpoln","dentists":2.0},"type":"Feature","geometry":{"type":"Point","coordinates":[-88.11236,41.87108]}},{"properties":{"zip":60302.0,"latitude":41.88832,"longitude":-87.78547,"id":"a62ky3j37pk1","dentists":2.0},"type":"Feature","geometry":{"type":"Point","coordinates":[-87.78547,41.88832]}},{"properties":{"zip":60402.0,"latitude":41.84448,"longitude":-87.79311,"id":"a62ky3is33gy","dentists":1.0},"type":"Feature","geometry":{"type":"Point","coordinates":[-87.79311,41.84448]}},{"properties":{"zip":60411.0,"latitude":41.50719,"longitude":-87.59695,"id":"a62ky3ly1hay","dentists":2.0},"type":"Feature","geometry":{"type":"Point","coordinates":[-87.59695,41.50719]}},{"properties":{"zip":60505.0,"latitude":41.76256,"longitude":-88.30016,"id":"a62ky3vdywdx","dentists":1.0},"type":"Feature","geometry":{"type":"Point","coordinates":[-88.30016,41.76256]}},{"properties":{"zip":60515.0,"latitude":41.80749,"longitude":-88.01474,"id":"a62ky3i08pez","dentists":1.0},"type":"Feature","geometry":{"type":"Point","coordinates":[-88.01474,41.80749]}},{"properties":{"zip":60609.0,"latitude":41.8168,"longitude":-87.65866,"id":"a62ky3hn1ow6","dentists":2.0},"type":"Feature","geometry":{"type":"Point","coordinates":[-87.65866,41.8168]}},{"properties":{"zip":60610.0,"latitude":41.90474,"longitude":-87.63286,"id":"a62ky3lgorn5","dentists":2.0},"type":"Feature","geometry":{"type":"Point","coordinates":[-87.63286,41.90474]}},{"properties":{"zip":60611.0,"latitude":41.89496,"longitude":-87.62206,"id":"a62ky3ug40gc","dentists":3.0},"type":"Feature","geometry":{"type":"Point","coordinates":[-87.62206,41.89496]}},{"properties":{"zip":60623.0,"latitude":41.85411,"longitude":-87.71873,"id":"a62ky3r5u5m6","dentists":2.0},"type":"Feature","geometry":{"type":"Point","coordinates":[-87.71873,41.85411]}},{"properties":{"zip":60626.0,"latitude":42.00894,"longitude":-87.66777,"id":"a62ky3vmicxl","dentists":1.0},"type":"Feature","geometry":{"type":"Point","coordinates":[-87.66777,42.00894]}},{"properties":{"zip":60629.0,"latitude":41.77834,"longitude":-87.7079,"id":"a62ky3vhen0j","dentists":2.0},"type":"Feature","geometry":{"type":"Point","coordinates":[-87.7079,41.77834]}},{"properties":{"zip":60631.0,"latitude":41.99346,"longitude":-87.81423,"id":"a62ky3pfqvli","dentists":1.0},"type":"Feature","geometry":{"type":"Point","coordinates":[-87.81423,41.99346]}},{"properties":{"zip":60647.0,"latitude":41.9215,"longitude":-87.70219,"id":"a62ky3sbm6os","dentists":6.0},"type":"Feature","geometry":{"type":"Point","coordinates":[-87.70219,41.9215]}},{"properties":{"zip":60652.0,"latitude":41.74402,"longitude":-87.71688,"id":"a62ky3iuksna","dentists":2.0},"type":"Feature","geometry":{"type":"Point","coordinates":[-87.71688,41.74402]}},{"properties":{"zip":60659.0,"latitude":41.99037,"longitude":-87.69756,"id":"a62ky3ki0z4y","dentists":3.0},"type":"Feature","geometry":{"type":"Point","coordinates":[-87.69756,41.99037]}},{"properties":{"zip":61021.0,"latitude":41.84153,"longitude":-89.4868,"id":"a62ky3oukb2k","dentists":4.0},"type":"Feature","geometry":{"type":"Point","coordinates":[-89.4868,41.84153]}},{"properties":{"zip":61032.0,"latitude":42.30181,"longitude":-89.63407,"id":"a62ky3oorq1x","dentists":3.0},"type":"Feature","geometry":{"type":"Point","coordinates":[-89.63407,42.30181]}},{"properties":{"zip":62033.0,"latitude":39.12964,"longitude":-89.82215,"id":"a62ky3ivt1nt","dentists":2.0},"type":"Feature","geometry":{"type":"Point","coordinates":[-89.82215,39.12964]}},{"properties":{"zip":62401.0,"latitude":39.12395,"longitude":-88.55385,"id":"a62ky3ii2zum","dentists":2.0},"type":"Feature","geometry":{"type":"Point","coordinates":[-88.55385,39.12395]}},{"properties":{"zip":62526.0,"latitude":39.88437,"longitude":-88.95866,"id":"a62ky3ti8g3y","dentists":1.0},"type":"Feature","geometry":{"type":"Point","coordinates":[-88.95866,39.88437]}},{"properties":{"zip":62568.0,"latitude":39.54737,"longitude":-89.29485,"id":"a62ky3kwkcuh","dentists":2.0},"type":"Feature","geometry":{"type":"Point","coordinates":[-89.29485,39.54737]}},{"properties":{"zip":62914.0,"latitude":37.00609,"longitude":-89.18021,"id":"a62ky3nhszbw","dentists":3.0},"type":"Feature","geometry":{"type":"Point","coordinates":[-89.18021,37.00609]}},{"properties":{"zip":62982.0,"latitude":37.426,"longitude":-88.36264,"id":"a62ky3hhjgeh","dentists":3.0},"type":"Feature","geometry":{"type":"Point","coordinates":[-88.36264,37.426]}},{"properties":{"zip":63010.0,"latitude":38.43415,"longitude":-90.38862,"id":"a62ky3sdo6uk","dentists":2.0},"type":"Feature","geometry":{"type":"Point","coordinates":[-90.38862,38.43415]}},{"properties":{"zip":63017.0,"latitude":38.64631,"longitude":-90.53712,"id":"a62ky3vf4d9x","dentists":3.0},"type":"Feature","geometry":{"type":"Point","coordinates":[-90.53712,38.64631]}},{"properties":{"zip":63068.0,"latitude":38.5462,"longitude":-91.25902,"id":"a62ky3ojjfnq","dentists":1.0},"type":"Feature","geometry":{"type":"Point","coordinates":[-91.25902,38.5462]}},{"properties":{"zip":63069.0,"latitude":38.48608,"longitude":-90.7397,"id":"a62ky3rgvzad","dentists":2.0},"type":"Feature","geometry":{"type":"Point","coordinates":[-90.7397,38.48608]}},{"properties":{"zip":63104.0,"latitude":38.61369,"longitude":-90.21661,"id":"a62ky3qggq35","dentists":1.0},"type":"Feature","geometry":{"type":"Point","coordinates":[-90.21661,38.61369]}},{"properties":{"zip":63116.0,"latitude":38.58199,"longitude":-90.26267,"id":"a62ky3niv6jx","dentists":2.0},"type":"Feature","geometry":{"type":"Point","coordinates":[-90.26267,38.58199]}},{"properties":{"zip":63119.0,"latitude":38.58957,"longitude":-90.35101,"id":"a62ky3n1k0uc","dentists":1.0},"type":"Feature","geometry":{"type":"Point","coordinates":[-90.35101,38.58957]}},{"properties":{"zip":63127.0,"latitude":38.53718,"longitude":-90.40283,"id":"a62ky3ltjlm2","dentists":2.0},"type":"Feature","geometry":{"type":"Point","coordinates":[-90.40283,38.53718]}},{"properties":{"zip":63129.0,"latitude":38.46358,"longitude":-90.32811,"id":"a62ky3nucrpg","dentists":2.0},"type":"Feature","geometry":{"type":"Point","coordinates":[-90.32811,38.46358]}},{"properties":{"zip":63135.0,"latitude":38.74979,"longitude":-90.29969,"id":"a62ky3j8nu9n","dentists":2.0},"type":"Feature","geometry":{"type":"Point","coordinates":[-90.29969,38.74979]}},{"properties":{"zip":63304.0,"latitude":38.73035,"longitude":-90.62645,"id":"a62ky3gf6jzx","dentists":3.0},"type":"Feature","geometry":{"type":"Point","coordinates":[-90.62645,38.73035]}},{"properties":{"zip":63368.0,"latitude":38.75433,"longitude":-90.72287,"id":"a62ky3i52z0r","dentists":2.0},"type":"Feature","geometry":{"type":"Point","coordinates":[-90.72287,38.75433]}},{"properties":{"zip":63401.0,"latitude":39.70552,"longitude":-91.39745,"id":"a62ky3u6i3es","dentists":2.0},"type":"Feature","geometry":{"type":"Point","coordinates":[-91.39745,39.70552]}},{"properties":{"zip":63501.0,"latitude":40.18789,"longitude":-92.58938,"id":"a62ky3rvvdhe","dentists":7.0},"type":"Feature","geometry":{"type":"Point","coordinates":[-92.58938,40.18789]}},{"properties":{"zip":63601.0,"latitude":37.84303,"longitude":-90.52801,"id":"a62ky3kpm8mg","dentists":2.0},"type":"Feature","geometry":{"type":"Point","coordinates":[-90.52801,37.84303]}},{"properties":{"zip":63638.0,"latitude":37.24258,"longitude":-90.9687,"id":"a62ky3kt4mn1","dentists":4.0},"type":"Feature","geometry":{"type":"Point","coordinates":[-90.9687,37.24258]}},{"properties":{"zip":63801.0,"latitude":36.89199,"longitude":-89.58613,"id":"a62ky3md6tqn","dentists":2.0},"type":"Feature","geometry":{"type":"Point","coordinates":[-89.58613,36.89199]}},{"properties":{"zip":63873.0,"latitude":36.42959,"longitude":-89.69799,"id":"a62ky3hhrcp0","dentists":2.0},"type":"Feature","geometry":{"type":"Point","coordinates":[-89.69799,36.42959]}},{"properties":{"zip":63935.0,"latitude":36.62387,"longitude":-90.82062,"id":"a62ky3qh3azn","dentists":1.0},"type":"Feature","geometry":{"type":"Point","coordinates":[-90.82062,36.62387]}},{"properties":{"zip":63956.0,"latitude":37.2113,"longitude":-90.57192,"id":"a62ky3s9tgqa","dentists":1.0},"type":"Feature","geometry":{"type":"Point","coordinates":[-90.57192,37.2113]}},{"properties":{"zip":64012.0,"latitude":38.8047,"longitude":-94.53205,"id":"a62ky3o45eva","dentists":4.0},"type":"Feature","geometry":{"type":"Point","coordinates":[-94.53205,38.8047]}},{"properties":{"zip":64015.0,"latitude":39.0174,"longitude":-94.29393,"id":"a62ky3kdrl4b","dentists":11.0},"type":"Feature","geometry":{"type":"Point","coordinates":[-94.29393,39.0174]}},{"properties":{"zip":64055.0,"latitude":39.05178,"longitude":-94.40564,"id":"a62ky3oqscxm","dentists":3.0},"type":"Feature","geometry":{"type":"Point","coordinates":[-94.40564,39.05178]}},{"properties":{"zip":64063.0,"latitude":38.91338,"longitude":-94.35838,"id":"a62ky3gjev2m","dentists":2.0},"type":"Feature","geometry":{"type":"Point","coordinates":[-94.35838,38.91338]}},{"properties":{"zip":64083.0,"latitude":38.80244,"longitude":-94.4474,"id":"a62ky3pu1lai","dentists":2.0},"type":"Feature","geometry":{"type":"Point","coordinates":[-94.4474,38.80244]}},{"properties":{"zip":64112.0,"latitude":39.03941,"longitude":-94.58996,"id":"a62ky3v48pyd","dentists":2.0},"type":"Feature","geometry":{"type":"Point","coordinates":[-94.58996,39.03941]}},{"properties":{"zip":64138.0,"latitude":38.97017,"longitude":-94.48277,"id":"a62ky3rjqlvl","dentists":2.0},"type":"Feature","geometry":{"type":"Point","coordinates":[-94.48277,38.97017]}},{"properties":{"zip":64145.0,"latitude":38.89101,"longitude":-94.59101,"id":"a62ky3gxfzgy","dentists":2.0},"type":"Feature","geometry":{"type":"Point","coordinates":[-94.59101,38.89101]}},{"properties":{"zip":64152.0,"latitude":39.21778,"longitude":-94.69942,"id":"a62ky3gtxidc","dentists":3.0},"type":"Feature","geometry":{"type":"Point","coordinates":[-94.69942,39.21778]}},{"properties":{"zip":64157.0,"latitude":39.28109,"longitude":-94.464,"id":"a62ky3ps66zx","dentists":2.0},"type":"Feature","geometry":{"type":"Point","coordinates":[-94.464,39.28109]}},{"properties":{"zip":64503.0,"latitude":39.73528,"longitude":-94.81521,"id":"a62ky3ph4q6j","dentists":3.0},"type":"Feature","geometry":{"type":"Point","coordinates":[-94.81521,39.73528]}},{"properties":{"zip":64506.0,"latitude":39.78853,"longitude":-94.80484,"id":"a62ky3nbfroq","dentists":2.0},"type":"Feature","geometry":{"type":"Point","coordinates":[-94.80484,39.78853]}},{"properties":{"zip":64776.0,"latitude":38.02015,"longitude":-93.69833,"id":"a62ky3if98er","dentists":2.0},"type":"Feature","geometry":{"type":"Point","coordinates":[-93.69833,38.02015]}},{"properties":{"zip":64804.0,"latitude":37.03417,"longitude":-94.52114,"id":"a62ky3v4sw6j","dentists":5.0},"type":"Feature","geometry":{"type":"Point","coordinates":[-94.52114,37.03417]}},{"properties":{"zip":64836.0,"latitude":37.16944,"longitude":-94.30272,"id":"a62ky3g3rh7g","dentists":2.0},"type":"Feature","geometry":{"type":"Point","coordinates":[-94.30272,37.16944]}},{"properties":{"zip":65037.0,"latitude":38.26572,"longitude":-92.85365,"id":"a62ky3r83r4w","dentists":2.0},"type":"Feature","geometry":{"type":"Point","coordinates":[-92.85365,38.26572]}},{"properties":{"zip":65251.0,"latitude":38.85157,"longitude":-91.95403,"id":"a62ky3jfepbq","dentists":2.0},"type":"Feature","geometry":{"type":"Point","coordinates":[-91.95403,38.85157]}},{"properties":{"zip":65340.0,"latitude":39.10416,"longitude":-93.20426,"id":"a62ky3vaozhg","dentists":2.0},"type":"Feature","geometry":{"type":"Point","coordinates":[-93.20426,39.10416]}},{"properties":{"zip":65584.0,"latitude":37.8325,"longitude":-92.12593,"id":"a62ky3onx7u9","dentists":2.0},"type":"Feature","geometry":{"type":"Point","coordinates":[-92.12593,37.8325]}},{"properties":{"zip":65605.0,"latitude":36.97962,"longitude":-93.71873,"id":"a62ky3kyhdny","dentists":1.0},"type":"Feature","geometry":{"type":"Point","coordinates":[-93.71873,36.97962]}},{"properties":{"zip":65616.0,"latitude":36.64353,"longitude":-93.2468,"id":"a62ky3gto0bd","dentists":2.0},"type":"Feature","geometry":{"type":"Point","coordinates":[-93.2468,36.64353]}},{"properties":{"zip":65706.0,"latitude":37.33813,"longitude":-92.90603,"id":"a62ky3p2qabl","dentists":2.0},"type":"Feature","geometry":{"type":"Point","coordinates":[-92.90603,37.33813]}},{"properties":{"zip":65714.0,"latitude":37.03998,"longitude":-93.30156,"id":"a62ky3uiokpy","dentists":2.0},"type":"Feature","geometry":{"type":"Point","coordinates":[-93.30156,37.03998]}},{"properties":{"zip":65738.0,"latitude":37.12225,"longitude":-93.48443,"id":"a62ky3mg0qvo","dentists":2.0},"type":"Feature","geometry":{"type":"Point","coordinates":[-93.48443,37.12225]}},{"properties":{"zip":65775.0,"latitude":36.71896,"longitude":-91.85981,"id":"a62ky3mp31ki","dentists":1.0},"type":"Feature","geometry":{"type":"Point","coordinates":[-91.85981,36.71896]}},{"properties":{"zip":65803.0,"latitude":37.27636,"longitude":-93.28931,"id":"a62ky3rpek7g","dentists":5.0},"type":"Feature","geometry":{"type":"Point","coordinates":[-93.28931,37.27636]}},{"properties":{"zip":65804.0,"latitude":37.15849,"longitude":-93.25538,"id":"a62ky3u3cowi","dentists":14.0},"type":"Feature","geometry":{"type":"Point","coordinates":[-93.25538,37.15849]}},{"properties":{"zip":65807.0,"latitude":37.15879,"longitude":-93.32411,"id":"a62ky3vjk2nk","dentists":2.0},"type":"Feature","geometry":{"type":"Point","coordinates":[-93.32411,37.15879]}},{"properties":{"zip":65810.0,"latitude":37.11642,"longitude":-93.3104,"id":"a62ky3ro52m0","dentists":2.0},"type":"Feature","geometry":{"type":"Point","coordinates":[-93.3104,37.11642]}},{"properties":{"zip":66044.0,"latitude":38.98422,"longitude":-95.22491,"id":"a62ky3qcmp39","dentists":1.0},"type":"Feature","geometry":{"type":"Point","coordinates":[-95.22491,38.98422]}},{"properties":{"zip":66053.0,"latitude":38.61641,"longitude":-94.66348,"id":"a62ky3i3u372","dentists":2.0},"type":"Feature","geometry":{"type":"Point","coordinates":[-94.66348,38.61641]}},{"properties":{"zip":66061.0,"latitude":38.89711,"longitude":-94.85408,"id":"a62ky3lkpkq8","dentists":2.0},"type":"Feature","geometry":{"type":"Point","coordinates":[-94.85408,38.89711]}},{"properties":{"zip":66062.0,"latitude":38.85841,"longitude":-94.77447,"id":"a62ky3t82mgc","dentists":9.0},"type":"Feature","geometry":{"type":"Point","coordinates":[-94.77447,38.85841]}},{"properties":{"zip":66102.0,"latitude":39.11159,"longitude":-94.67369,"id":"a62ky3l4ksep","dentists":5.0},"type":"Feature","geometry":{"type":"Point","coordinates":[-94.67369,39.11159]}},{"properties":{"zip":66103.0,"latitude":39.05678,"longitude":-94.62672,"id":"a62ky3jchk4k","dentists":2.0},"type":"Feature","geometry":{"type":"Point","coordinates":[-94.62672,39.05678]}},{"properties":{"zip":66206.0,"latitude":38.9588,"longitude":-94.62052,"id":"a62ky3vhvr3m","dentists":2.0},"type":"Feature","geometry":{"type":"Point","coordinates":[-94.62052,38.9588]}},{"properties":{"zip":66208.0,"latitude":38.99673,"longitude":-94.63525,"id":"a62ky3t4nemf","dentists":9.0},"type":"Feature","geometry":{"type":"Point","coordinates":[-94.63525,38.99673]}},{"properties":{"zip":66210.0,"latitude":38.92287,"longitude":-94.69251,"id":"a62ky3t78qel","dentists":1.0},"type":"Feature","geometry":{"type":"Point","coordinates":[-94.69251,38.92287]}},{"properties":{"zip":66211.0,"latitude":38.9258,"longitude":-94.64436,"id":"a62ky3nh8vqx","dentists":2.0},"type":"Feature","geometry":{"type":"Point","coordinates":[-94.64436,38.9258]}},{"properties":{"zip":66216.0,"latitude":39.01471,"longitude":-94.73318,"id":"a62ky3rl4y18","dentists":2.0},"type":"Feature","geometry":{"type":"Point","coordinates":[-94.73318,39.01471]}},{"properties":{"zip":66219.0,"latitude":38.95207,"longitude":-94.76592,"id":"a62ky3gqh6h5","dentists":1.0},"type":"Feature","geometry":{"type":"Point","coordinates":[-94.76592,38.95207]}},{"properties":{"zip":66224.0,"latitude":38.86248,"longitude":-94.62755,"id":"a62ky3t8iumb","dentists":1.0},"type":"Feature","geometry":{"type":"Point","coordinates":[-94.62755,38.86248]}},{"properties":{"zip":66508.0,"latitude":39.84717,"longitude":-96.64287,"id":"a62ky3vfe4ro","dentists":2.0},"type":"Feature","geometry":{"type":"Point","coordinates":[-96.64287,39.84717]}},{"properties":{"zip":66604.0,"latitude":39.044,"longitude":-95.72143,"id":"a62ky3r2qujs","dentists":1.0},"type":"Feature","geometry":{"type":"Point","coordinates":[-95.72143,39.044]}},{"properties":{"zip":66605.0,"latitude":39.0075,"longitude":-95.6417,"id":"a62ky3owrys9","dentists":2.0},"type":"Feature","geometry":{"type":"Point","coordinates":[-95.6417,39.0075]}},{"properties":{"zip":66611.0,"latitude":39.0107,"longitude":-95.69873,"id":"a62ky3fci40b","dentists":3.0},"type":"Feature","geometry":{"type":"Point","coordinates":[-95.69873,39.0107]}},{"properties":{"zip":67010.0,"latitude":37.68026,"longitude":-96.97532,"id":"a62ky3ujr2gw","dentists":3.0},"type":"Feature","geometry":{"type":"Point","coordinates":[-96.97532,37.68026]}},{"properties":{"zip":67203.0,"latitude":37.70034,"longitude":-97.35917,"id":"a62ky3kwnoje","dentists":3.0},"type":"Feature","geometry":{"type":"Point","coordinates":[-97.35917,37.70034]}},{"properties":{"zip":67208.0,"latitude":37.702,"longitude":-97.28173,"id":"a62ky3jbme3o","dentists":7.0},"type":"Feature","geometry":{"type":"Point","coordinates":[-97.28173,37.702]}},{"properties":{"zip":67214.0,"latitude":37.70286,"longitude":-97.31936,"id":"a62ky3oah8sb","dentists":2.0},"type":"Feature","geometry":{"type":"Point","coordinates":[-97.31936,37.70286]}},{"properties":{"zip":67226.0,"latitude":37.75084,"longitude":-97.23694,"id":"a62ky3k67u54","dentists":3.0},"type":"Feature","geometry":{"type":"Point","coordinates":[-97.23694,37.75084]}},{"properties":{"zip":67357.0,"latitude":37.33851,"longitude":-95.27065,"id":"a62ky3k9m53v","dentists":2.0},"type":"Feature","geometry":{"type":"Point","coordinates":[-95.27065,37.33851]}},{"properties":{"zip":67432.0,"latitude":39.37654,"longitude":-97.14101,"id":"a62ky3mw59d9","dentists":2.0},"type":"Feature","geometry":{"type":"Point","coordinates":[-97.14101,39.37654]}},{"properties":{"zip":67460.0,"latitude":38.37613,"longitude":-97.67092,"id":"a62ky3sfekfl","dentists":2.0},"type":"Feature","geometry":{"type":"Point","coordinates":[-97.67092,38.37613]}},{"properties":{"zip":67502.0,"latitude":38.11103,"longitude":-97.92232,"id":"a62ky3qx8r1q","dentists":4.0},"type":"Feature","geometry":{"type":"Point","coordinates":[-97.92232,38.11103]}},{"properties":{"zip":67530.0,"latitude":38.37324,"longitude":-98.7882,"id":"a62ky3olbg3c","dentists":1.0},"type":"Feature","geometry":{"type":"Point","coordinates":[-98.7882,38.37324]}},{"properties":{"zip":67550.0,"latitude":38.17798,"longitude":-99.09973,"id":"a62ky3if2ybf","dentists":1.0},"type":"Feature","geometry":{"type":"Point","coordinates":[-99.09973,38.17798]}},{"properties":{"zip":67601.0,"latitude":38.87086,"longitude":-99.33332,"id":"a62ky3rktxkk","dentists":5.0},"type":"Feature","geometry":{"type":"Point","coordinates":[-99.33332,38.87086]}},{"properties":{"zip":68066.0,"latitude":41.20626,"longitude":-96.6275,"id":"a62ky3rpr7my","dentists":2.0},"type":"Feature","geometry":{"type":"Point","coordinates":[-96.6275,41.20626]}},{"properties":{"zip":68310.0,"latitude":40.26277,"longitude":-96.73249,"id":"a62ky3qo0ypn","dentists":4.0},"type":"Feature","geometry":{"type":"Point","coordinates":[-96.73249,40.26277]}},{"properties":{"zip":68355.0,"latitude":40.06387,"longitude":-95.5958,"id":"a62ky3r3348a","dentists":2.0},"type":"Feature","geometry":{"type":"Point","coordinates":[-95.5958,40.06387]}},{"properties":{"zip":68505.0,"latitude":40.82431,"longitude":-96.62029,"id":"a62ky3m07lyx","dentists":2.0},"type":"Feature","geometry":{"type":"Point","coordinates":[-96.62029,40.82431]}},{"properties":{"zip":68526.0,"latitude":40.74911,"longitude":-96.59419,"id":"a62ky3h7hesk","dentists":5.0},"type":"Feature","geometry":{"type":"Point","coordinates":[-96.59419,40.74911]}},{"properties":{"zip":68845.0,"latitude":40.70913,"longitude":-99.10926,"id":"a62ky3uexk2o","dentists":2.0},"type":"Feature","geometry":{"type":"Point","coordinates":[-99.10926,40.70913]}},{"properties":{"zip":68847.0,"latitude":40.70904,"longitude":-99.05654,"id":"a62ky3uo97ve","dentists":2.0},"type":"Feature","geometry":{"type":"Point","coordinates":[-99.05654,40.70904]}},{"properties":{"zip":70401.0,"latitude":30.52909,"longitude":-90.47428,"id":"a62ky3fuv8qs","dentists":1.0},"type":"Feature","geometry":{"type":"Point","coordinates":[-90.47428,30.52909]}},{"properties":{"zip":70458.0,"latitude":30.26723,"longitude":-89.77781,"id":"a62ky3ii4p3t","dentists":2.0},"type":"Feature","geometry":{"type":"Point","coordinates":[-89.77781,30.26723]}},{"properties":{"zip":70634.0,"latitude":30.83223,"longitude":-93.27179,"id":"a62ky3txyde2","dentists":4.0},"type":"Feature","geometry":{"type":"Point","coordinates":[-93.27179,30.83223]}},{"properties":{"zip":70737.0,"latitude":30.23342,"longitude":-90.91626,"id":"a62ky3pbukeu","dentists":2.0},"type":"Feature","geometry":{"type":"Point","coordinates":[-90.91626,30.23342]}},{"properties":{"zip":70806.0,"latitude":30.44783,"longitude":-91.12783,"id":"a62ky3iw31vr","dentists":2.0},"type":"Feature","geometry":{"type":"Point","coordinates":[-91.12783,30.44783]}},{"properties":{"zip":71105.0,"latitude":32.45474,"longitude":-93.71463,"id":"a62ky3nn24tw","dentists":1.0},"type":"Feature","geometry":{"type":"Point","coordinates":[-93.71463,32.45474]}},{"properties":{"zip":71129.0,"latitude":32.42324,"longitude":-93.88481,"id":"a62ky3twy308","dentists":4.0},"type":"Feature","geometry":{"type":"Point","coordinates":[-93.88481,32.42324]}},{"properties":{"zip":71201.0,"latitude":32.52691,"longitude":-92.10411,"id":"a62ky3ospsdv","dentists":1.0},"type":"Feature","geometry":{"type":"Point","coordinates":[-92.10411,32.52691]}},{"properties":{"zip":71232.0,"latitude":32.46909,"longitude":-91.56171,"id":"a62ky3nk31c9","dentists":2.0},"type":"Feature","geometry":{"type":"Point","coordinates":[-91.56171,32.46909]}},{"properties":{"zip":71261.0,"latitude":32.78051,"longitude":-91.69366,"id":"a62ky3kaqz75","dentists":2.0},"type":"Feature","geometry":{"type":"Point","coordinates":[-91.69366,32.78051]}},{"properties":{"zip":71446.0,"latitude":31.13215,"longitude":-93.2393,"id":"a62ky3iwhh0b","dentists":4.0},"type":"Feature","geometry":{"type":"Point","coordinates":[-93.2393,31.13215]}},{"properties":{"zip":71602.0,"latitude":34.28041,"longitude":-92.09207,"id":"a62ky3spe8nv","dentists":2.0},"type":"Feature","geometry":{"type":"Point","coordinates":[-92.09207,34.28041]}},{"properties":{"zip":71603.0,"latitude":34.17613,"longitude":-92.06131,"id":"a62ky3hwq16w","dentists":2.0},"type":"Feature","geometry":{"type":"Point","coordinates":[-92.06131,34.17613]}},{"properties":{"zip":71638.0,"latitude":33.52736,"longitude":-91.43602,"id":"a62ky3ljj7zb","dentists":1.0},"type":"Feature","geometry":{"type":"Point","coordinates":[-91.43602,33.52736]}},{"properties":{"zip":71730.0,"latitude":33.20219,"longitude":-92.65217,"id":"a62ky3tlp2g5","dentists":2.0},"type":"Feature","geometry":{"type":"Point","coordinates":[-92.65217,33.20219]}},{"properties":{"zip":71753.0,"latitude":33.25983,"longitude":-93.23343,"id":"a62ky3ng33mq","dentists":2.0},"type":"Feature","geometry":{"type":"Point","coordinates":[-93.23343,33.25983]}},{"properties":{"zip":71822.0,"latitude":33.67136,"longitude":-94.12794,"id":"a62ky3u9s91k","dentists":2.0},"type":"Feature","geometry":{"type":"Point","coordinates":[-94.12794,33.67136]}},{"properties":{"zip":71901.0,"latitude":34.51147,"longitude":-93.02739,"id":"a62ky3otyvqs","dentists":4.0},"type":"Feature","geometry":{"type":"Point","coordinates":[-93.02739,34.51147]}},{"properties":{"zip":71909.0,"latitude":34.65015,"longitude":-92.98855,"id":"a62ky3iyz7rb","dentists":3.0},"type":"Feature","geometry":{"type":"Point","coordinates":[-92.98855,34.65015]}},{"properties":{"zip":71913.0,"latitude":34.4707,"longitude":-93.07828,"id":"a62ky3ngsrr5","dentists":8.0},"type":"Feature","geometry":{"type":"Point","coordinates":[-93.07828,34.4707]}},{"properties":{"zip":71953.0,"latitude":34.58303,"longitude":-94.22598,"id":"a62ky3i00xfd","dentists":4.0},"type":"Feature","geometry":{"type":"Point","coordinates":[-94.22598,34.58303]}},{"properties":{"zip":72006.0,"latitude":35.27544,"longitude":-91.36471,"id":"a62ky3l9p213","dentists":3.0},"type":"Feature","geometry":{"type":"Point","coordinates":[-91.36471,35.27544]}},{"properties":{"zip":72012.0,"latitude":35.10618,"longitude":-91.90624,"id":"a62ky3u2bric","dentists":2.0},"type":"Feature","geometry":{"type":"Point","coordinates":[-91.90624,35.10618]}},{"properties":{"zip":72022.0,"latitude":34.60957,"longitude":-92.50363,"id":"a62ky3j8act8","dentists":8.0},"type":"Feature","geometry":{"type":"Point","coordinates":[-92.50363,34.60957]}},{"properties":{"zip":72023.0,"latitude":34.95204,"longitude":-92.03723,"id":"a62ky3scaz4d","dentists":5.0},"type":"Feature","geometry":{"type":"Point","coordinates":[-92.03723,34.95204]}},{"properties":{"zip":72032.0,"latitude":35.08166,"longitude":-92.39279,"id":"a62ky3m3ttp4","dentists":6.0},"type":"Feature","geometry":{"type":"Point","coordinates":[-92.39279,35.08166]}},{"properties":{"zip":72034.0,"latitude":35.07433,"longitude":-92.47792,"id":"a62ky3n4fj1u","dentists":18.0},"type":"Feature","geometry":{"type":"Point","coordinates":[-92.47792,35.07433]}},{"properties":{"zip":72104.0,"latitude":34.35447,"longitude":-92.81178,"id":"a62ky3phxqll","dentists":2.0},"type":"Feature","geometry":{"type":"Point","coordinates":[-92.81178,34.35447]}},{"properties":{"zip":72110.0,"latitude":35.15966,"longitude":-92.75045,"id":"a62ky3knxrem","dentists":2.0},"type":"Feature","geometry":{"type":"Point","coordinates":[-92.75045,35.15966]}},{"properties":{"zip":72113.0,"latitude":34.86275,"longitude":-92.39669,"id":"a62ky3gymcae","dentists":2.0},"type":"Feature","geometry":{"type":"Point","coordinates":[-92.39669,34.86275]}},{"properties":{"zip":72114.0,"latitude":34.76813,"longitude":-92.25616,"id":"a62ky3rzfg8y","dentists":2.0},"type":"Feature","geometry":{"type":"Point","coordinates":[-92.25616,34.76813]}},{"properties":{"zip":72116.0,"latitude":34.80032,"longitude":-92.24824,"id":"a62ky3k5lx0b","dentists":7.0},"type":"Feature","geometry":{"type":"Point","coordinates":[-92.24824,34.80032]}},{"properties":{"zip":72120.0,"latitude":34.8483,"longitude":-92.20743,"id":"a62ky3lt58b8","dentists":2.0},"type":"Feature","geometry":{"type":"Point","coordinates":[-92.20743,34.8483]}},{"properties":{"zip":72143.0,"latitude":35.2442,"longitude":-91.74615,"id":"a62ky3pgq4kq","dentists":6.0},"type":"Feature","geometry":{"type":"Point","coordinates":[-91.74615,35.2442]}},{"properties":{"zip":72201.0,"latitude":34.74748,"longitude":-92.28056,"id":"a62ky3pvm8pd","dentists":2.0},"type":"Feature","geometry":{"type":"Point","coordinates":[-92.28056,34.74748]}},{"properties":{"zip":72205.0,"latitude":34.75074,"longitude":-92.34126,"id":"a62ky3q2t8sc","dentists":12.0},"type":"Feature","geometry":{"type":"Point","coordinates":[-92.34126,34.75074]}},{"properties":{"zip":72206.0,"latitude":34.65053,"longitude":-92.28484,"id":"a62ky3fmnumx","dentists":4.0},"type":"Feature","geometry":{"type":"Point","coordinates":[-92.28484,34.65053]}},{"properties":{"zip":72207.0,"latitude":34.76991,"longitude":-92.34419,"id":"a62ky3qqvtsp","dentists":4.0},"type":"Feature","geometry":{"type":"Point","coordinates":[-92.34419,34.76991]}},{"properties":{"zip":72211.0,"latitude":34.75111,"longitude":-92.40875,"id":"a62ky3k32s6r","dentists":2.0},"type":"Feature","geometry":{"type":"Point","coordinates":[-92.40875,34.75111]}},{"properties":{"zip":72212.0,"latitude":34.78325,"longitude":-92.41528,"id":"a62ky3u3bsf2","dentists":2.0},"type":"Feature","geometry":{"type":"Point","coordinates":[-92.41528,34.78325]}},{"properties":{"zip":72223.0,"latitude":34.78618,"longitude":-92.4765,"id":"a62ky3p2w8sv","dentists":14.0},"type":"Feature","geometry":{"type":"Point","coordinates":[-92.4765,34.78618]}},{"properties":{"zip":72227.0,"latitude":34.77138,"longitude":-92.37584,"id":"a62ky3iz3mx3","dentists":2.0},"type":"Feature","geometry":{"type":"Point","coordinates":[-92.37584,34.77138]}},{"properties":{"zip":72301.0,"latitude":35.14655,"longitude":-90.17882,"id":"a62ky3mtjg29","dentists":2.0},"type":"Feature","geometry":{"type":"Point","coordinates":[-90.17882,35.14655]}},{"properties":{"zip":72315.0,"latitude":35.92845,"longitude":-89.91175,"id":"a62ky3ihdfom","dentists":7.0},"type":"Feature","geometry":{"type":"Point","coordinates":[-89.91175,35.92845]}},{"properties":{"zip":72335.0,"latitude":35.01643,"longitude":-90.77592,"id":"a62ky3tgt6ji","dentists":2.0},"type":"Feature","geometry":{"type":"Point","coordinates":[-90.77592,35.01643]}},{"properties":{"zip":72342.0,"latitude":34.52437,"longitude":-90.64786,"id":"a62ky3rnf55m","dentists":1.0},"type":"Feature","geometry":{"type":"Point","coordinates":[-90.64786,34.52437]}},{"properties":{"zip":72396.0,"latitude":35.22719,"longitude":-90.79925,"id":"a62ky3m04pg5","dentists":2.0},"type":"Feature","geometry":{"type":"Point","coordinates":[-90.79925,35.22719]}},{"properties":{"zip":72401.0,"latitude":35.84761,"longitude":-90.68514,"id":"a62ky3pia8go","dentists":24.0},"type":"Feature","geometry":{"type":"Point","coordinates":[-90.68514,35.84761]}},{"properties":{"zip":72432.0,"latitude":35.5628,"longitude":-90.72125,"id":"a62ky3gp1cxy","dentists":2.0},"type":"Feature","geometry":{"type":"Point","coordinates":[-90.72125,35.5628]}},{"properties":{"zip":72501.0,"latitude":35.77687,"longitude":-91.63294,"id":"a62ky3tiiy1s","dentists":6.0},"type":"Feature","geometry":{"type":"Point","coordinates":[-91.63294,35.77687]}},{"properties":{"zip":72616.0,"latitude":36.36573,"longitude":-93.55804,"id":"a62ky3p6w0er","dentists":3.0},"type":"Feature","geometry":{"type":"Point","coordinates":[-93.55804,36.36573]}},{"properties":{"zip":72653.0,"latitude":36.33773,"longitude":-92.38064,"id":"a62ky3tuxs3g","dentists":2.0},"type":"Feature","geometry":{"type":"Point","coordinates":[-92.38064,36.33773]}},{"properties":{"zip":72703.0,"latitude":36.09989,"longitude":-94.1213,"id":"a62ky3melhyp","dentists":16.0},"type":"Feature","geometry":{"type":"Point","coordinates":[-94.1213,36.09989]}},{"properties":{"zip":72712.0,"latitude":36.36429,"longitude":-94.21831,"id":"a62ky3nvmafu","dentists":6.0},"type":"Feature","geometry":{"type":"Point","coordinates":[-94.21831,36.36429]}},{"properties":{"zip":72715.0,"latitude":36.46628,"longitude":-94.3067,"id":"a62ky3giy9fu","dentists":2.0},"type":"Feature","geometry":{"type":"Point","coordinates":[-94.3067,36.46628]}},{"properties":{"zip":72744.0,"latitude":35.94082,"longitude":-94.42604,"id":"a62ky3lqi5vm","dentists":2.0},"type":"Feature","geometry":{"type":"Point","coordinates":[-94.42604,35.94082]}},{"properties":{"zip":72745.0,"latitude":36.25385,"longitude":-94.12681,"id":"a62ky3nzkcl4","dentists":2.0},"type":"Feature","geometry":{"type":"Point","coordinates":[-94.12681,36.25385]}},{"properties":{"zip":72756.0,"latitude":36.34579,"longitude":-94.0677,"id":"a62ky3o9469g","dentists":12.0},"type":"Feature","geometry":{"type":"Point","coordinates":[-94.0677,36.34579]}},{"properties":{"zip":72758.0,"latitude":36.30797,"longitude":-94.13536,"id":"a62ky3rkgvmb","dentists":12.0},"type":"Feature","geometry":{"type":"Point","coordinates":[-94.13536,36.30797]}},{"properties":{"zip":72761.0,"latitude":36.17385,"longitude":-94.51332,"id":"a62ky3uuqpwa","dentists":2.0},"type":"Feature","geometry":{"type":"Point","coordinates":[-94.51332,36.17385]}},{"properties":{"zip":72764.0,"latitude":36.17814,"longitude":-94.0805,"id":"a62ky3kclmza","dentists":3.0},"type":"Feature","geometry":{"type":"Point","coordinates":[-94.0805,36.17814]}},{"properties":{"zip":72837.0,"latitude":35.43831,"longitude":-93.1524,"id":"a62ky3fd2ydi","dentists":2.0},"type":"Feature","geometry":{"type":"Point","coordinates":[-93.1524,35.43831]}},{"properties":{"zip":72901.0,"latitude":35.36718,"longitude":-94.41721,"id":"a62ky3ksek88","dentists":6.0},"type":"Feature","geometry":{"type":"Point","coordinates":[-94.41721,35.36718]}},{"properties":{"zip":72903.0,"latitude":35.35794,"longitude":-94.36586,"id":"a62ky3qcoji0","dentists":15.0},"type":"Feature","geometry":{"type":"Point","coordinates":[-94.36586,35.35794]}},{"properties":{"zip":72908.0,"latitude":35.30123,"longitude":-94.40371,"id":"a62ky3mjqzmm","dentists":5.0},"type":"Feature","geometry":{"type":"Point","coordinates":[-94.40371,35.30123]}},{"properties":{"zip":72923.0,"latitude":35.33073,"longitude":-94.31046,"id":"a62ky3q28wv3","dentists":2.0},"type":"Feature","geometry":{"type":"Point","coordinates":[-94.31046,35.33073]}},{"properties":{"zip":72956.0,"latitude":35.47611,"longitude":-94.33717,"id":"a62ky3mdm52z","dentists":7.0},"type":"Feature","geometry":{"type":"Point","coordinates":[-94.33717,35.47611]}},{"properties":{"zip":73003.0,"latitude":35.66361,"longitude":-97.48939,"id":"a62ky3jd7boa","dentists":2.0},"type":"Feature","geometry":{"type":"Point","coordinates":[-97.48939,35.66361]}},{"properties":{"zip":73013.0,"latitude":35.62355,"longitude":-97.48783,"id":"a62ky3umocum","dentists":13.0},"type":"Feature","geometry":{"type":"Point","coordinates":[-97.48783,35.62355]}},{"properties":{"zip":73034.0,"latitude":35.69071,"longitude":-97.45283,"id":"a62ky3m5dfiz","dentists":14.0},"type":"Feature","geometry":{"type":"Point","coordinates":[-97.45283,35.69071]}},{"properties":{"zip":73069.0,"latitude":35.22795,"longitude":-97.45672,"id":"a62ky3lpsbgf","dentists":2.0},"type":"Feature","geometry":{"type":"Point","coordinates":[-97.45672,35.22795]}},{"properties":{"zip":73071.0,"latitude":35.22208,"longitude":-97.41347,"id":"a62ky3in3o5i","dentists":5.0},"type":"Feature","geometry":{"type":"Point","coordinates":[-97.41347,35.22208]}},{"properties":{"zip":73072.0,"latitude":35.21104,"longitude":-97.48393,"id":"a62ky3osx6zu","dentists":2.0},"type":"Feature","geometry":{"type":"Point","coordinates":[-97.48393,35.21104]}},{"properties":{"zip":73086.0,"latitude":34.51092,"longitude":-96.98134,"id":"a62ky3lo5hxx","dentists":2.0},"type":"Feature","geometry":{"type":"Point","coordinates":[-96.98134,34.51092]}},{"properties":{"zip":73105.0,"latitude":35.50974,"longitude":-97.50332,"id":"a62ky3fcn6cw","dentists":2.0},"type":"Feature","geometry":{"type":"Point","coordinates":[-97.50332,35.50974]}},{"properties":{"zip":73107.0,"latitude":35.48284,"longitude":-97.57228,"id":"a62ky3t2wdwh","dentists":6.0},"type":"Feature","geometry":{"type":"Point","coordinates":[-97.57228,35.48284]}},{"properties":{"zip":73109.0,"latitude":35.43226,"longitude":-97.52699,"id":"a62ky3fvl08a","dentists":2.0},"type":"Feature","geometry":{"type":"Point","coordinates":[-97.52699,35.43226]}},{"properties":{"zip":73110.0,"latitude":35.46401,"longitude":-97.39984,"id":"a62ky3gu4mlr","dentists":10.0},"type":"Feature","geometry":{"type":"Point","coordinates":[-97.39984,35.46401]}},{"properties":{"zip":73112.0,"latitude":35.52214,"longitude":-97.57239,"id":"a62ky3v71bz8","dentists":1.0},"type":"Feature","geometry":{"type":"Point","coordinates":[-97.57239,35.52214]}},{"properties":{"zip":73115.0,"latitude":35.44126,"longitude":-97.44669,"id":"a62ky3pboboc","dentists":5.0},"type":"Feature","geometry":{"type":"Point","coordinates":[-97.44669,35.44126]}},{"properties":{"zip":73116.0,"latitude":35.54844,"longitude":-97.55555,"id":"a62ky3h9rqcg","dentists":6.0},"type":"Feature","geometry":{"type":"Point","coordinates":[-97.55555,35.54844]}},{"properties":{"zip":73118.0,"latitude":35.5185,"longitude":-97.52979,"id":"a62ky3infe1n","dentists":7.0},"type":"Feature","geometry":{"type":"Point","coordinates":[-97.52979,35.5185]}},{"properties":{"zip":73120.0,"latitude":35.58423,"longitude":-97.56834,"id":"a62ky3mk86zt","dentists":4.0},"type":"Feature","geometry":{"type":"Point","coordinates":[-97.56834,35.58423]}},{"properties":{"zip":73130.0,"latitude":35.46101,"longitude":-97.34608,"id":"a62ky3krz2gm","dentists":4.0},"type":"Feature","geometry":{"type":"Point","coordinates":[-97.34608,35.46101]}},{"properties":{"zip":73132.0,"latitude":35.55555,"longitude":-97.64385,"id":"a62ky3gdtexm","dentists":3.0},"type":"Feature","geometry":{"type":"Point","coordinates":[-97.64385,35.55555]}},{"properties":{"zip":73139.0,"latitude":35.38294,"longitude":-97.52743,"id":"a62ky3m0d1tj","dentists":12.0},"type":"Feature","geometry":{"type":"Point","coordinates":[-97.52743,35.38294]}},{"properties":{"zip":73141.0,"latitude":35.49314,"longitude":-97.39218,"id":"a62ky3frp49h","dentists":2.0},"type":"Feature","geometry":{"type":"Point","coordinates":[-97.39218,35.49314]}},{"properties":{"zip":73159.0,"latitude":35.38392,"longitude":-97.55497,"id":"a62ky3gpcnfs","dentists":2.0},"type":"Feature","geometry":{"type":"Point","coordinates":[-97.55497,35.38392]}},{"properties":{"zip":73160.0,"latitude":35.33664,"longitude":-97.47327,"id":"a62ky3hs0nh5","dentists":6.0},"type":"Feature","geometry":{"type":"Point","coordinates":[-97.47327,35.33664]}},{"properties":{"zip":73401.0,"latitude":34.17186,"longitude":-97.1317,"id":"a62ky3r184nq","dentists":2.0},"type":"Feature","geometry":{"type":"Point","coordinates":[-97.1317,34.17186]}},{"properties":{"zip":73439.0,"latitude":33.93238,"longitude":-96.68588,"id":"a62ky3r0br9s","dentists":2.0},"type":"Feature","geometry":{"type":"Point","coordinates":[-96.68588,33.93238]}},{"properties":{"zip":73460.0,"latitude":34.23174,"longitude":-96.67663,"id":"a62ky3il9kfr","dentists":2.0},"type":"Feature","geometry":{"type":"Point","coordinates":[-96.67663,34.23174]}},{"properties":{"zip":73507.0,"latitude":34.63434,"longitude":-98.40468,"id":"a62ky3vavvd7","dentists":2.0},"type":"Feature","geometry":{"type":"Point","coordinates":[-98.40468,34.63434]}},{"properties":{"zip":73703.0,"latitude":36.39894,"longitude":-97.9276,"id":"a62ky3hy0vcc","dentists":4.0},"type":"Feature","geometry":{"type":"Point","coordinates":[-97.9276,36.39894]}},{"properties":{"zip":74063.0,"latitude":36.12858,"longitude":-96.14712,"id":"a62ky3lulw4e","dentists":4.0},"type":"Feature","geometry":{"type":"Point","coordinates":[-96.14712,36.12858]}},{"properties":{"zip":74074.0,"latitude":36.08997,"longitude":-97.06478,"id":"a62ky3k1gcig","dentists":7.0},"type":"Feature","geometry":{"type":"Point","coordinates":[-97.06478,36.08997]}},{"properties":{"zip":74105.0,"latitude":36.09428,"longitude":-95.9618,"id":"a62ky3v35xyq","dentists":1.0},"type":"Feature","geometry":{"type":"Point","coordinates":[-95.9618,36.09428]}},{"properties":{"zip":74115.0,"latitude":36.17511,"longitude":-95.91441,"id":"a62ky3si295f","dentists":2.0},"type":"Feature","geometry":{"type":"Point","coordinates":[-95.91441,36.17511]}},{"properties":{"zip":74135.0,"latitude":36.10094,"longitude":-95.92106,"id":"a62ky3nsf6e0","dentists":2.0},"type":"Feature","geometry":{"type":"Point","coordinates":[-95.92106,36.10094]}},{"properties":{"zip":74145.0,"latitude":36.09284,"longitude":-95.8928,"id":"a62ky3up74ji","dentists":1.0},"type":"Feature","geometry":{"type":"Point","coordinates":[-95.8928,36.09284]}},{"properties":{"zip":74344.0,"latitude":36.58286,"longitude":-94.76458,"id":"a62ky3ouhzm1","dentists":2.0},"type":"Feature","geometry":{"type":"Point","coordinates":[-94.76458,36.58286]}},{"properties":{"zip":74401.0,"latitude":35.74046,"longitude":-95.40524,"id":"a62ky3p8tpiz","dentists":4.0},"type":"Feature","geometry":{"type":"Point","coordinates":[-95.40524,35.74046]}},{"properties":{"zip":74403.0,"latitude":35.7258,"longitude":-95.32275,"id":"a62ky3t8yok9","dentists":5.0},"type":"Feature","geometry":{"type":"Point","coordinates":[-95.32275,35.7258]}},{"properties":{"zip":74464.0,"latitude":35.91531,"longitude":-94.98505,"id":"a62ky3mvh05h","dentists":5.0},"type":"Feature","geometry":{"type":"Point","coordinates":[-94.98505,35.91531]}},{"properties":{"zip":74523.0,"latitude":34.23729,"longitude":-95.6042,"id":"a62ky3fkg1yu","dentists":4.0},"type":"Feature","geometry":{"type":"Point","coordinates":[-95.6042,34.23729]}},{"properties":{"zip":74571.0,"latitude":34.72432,"longitude":-94.99373,"id":"a62ky3hf3o7x","dentists":3.0},"type":"Feature","geometry":{"type":"Point","coordinates":[-94.99373,34.72432]}},{"properties":{"zip":74701.0,"latitude":34.01324,"longitude":-96.38169,"id":"a62ky3t1x0z3","dentists":4.0},"type":"Feature","geometry":{"type":"Point","coordinates":[-96.38169,34.01324]}},{"properties":{"zip":74745.0,"latitude":33.89378,"longitude":-94.81777,"id":"a62ky3jwhr3e","dentists":1.0},"type":"Feature","geometry":{"type":"Point","coordinates":[-94.81777,33.89378]}},{"properties":{"zip":74820.0,"latitude":34.77497,"longitude":-96.67702,"id":"a62ky3ux7fvu","dentists":2.0},"type":"Feature","geometry":{"type":"Point","coordinates":[-96.67702,34.77497]}},{"properties":{"zip":74868.0,"latitude":35.23206,"longitude":-96.66856,"id":"a62ky3h9b7r4","dentists":2.0},"type":"Feature","geometry":{"type":"Point","coordinates":[-96.66856,35.23206]}},{"properties":{"zip":74955.0,"latitude":35.45532,"longitude":-94.79581,"id":"a62ky3n2voll","dentists":2.0},"type":"Feature","geometry":{"type":"Point","coordinates":[-94.79581,35.45532]}},{"properties":{"zip":75007.0,"latitude":33.00487,"longitude":-96.89429,"id":"a62ky3hzp1xb","dentists":2.0},"type":"Feature","geometry":{"type":"Point","coordinates":[-96.89429,33.00487]}},{"properties":{"zip":75019.0,"latitude":32.96431,"longitude":-96.9826,"id":"a62ky3s93nsa","dentists":1.0},"type":"Feature","geometry":{"type":"Point","coordinates":[-96.9826,32.96431]}},{"properties":{"zip":75074.0,"latitude":33.02838,"longitude":-96.67723,"id":"a62ky3pqgjva","dentists":1.0},"type":"Feature","geometry":{"type":"Point","coordinates":[-96.67723,33.02838]}},{"properties":{"zip":75080.0,"latitude":32.97245,"longitude":-96.74334,"id":"a62ky3u42kfz","dentists":1.0},"type":"Feature","geometry":{"type":"Point","coordinates":[-96.74334,32.97245]}},{"properties":{"zip":75082.0,"latitude":32.99225,"longitude":-96.66727,"id":"a62ky3k9y97m","dentists":2.0},"type":"Feature","geometry":{"type":"Point","coordinates":[-96.66727,32.99225]}},{"properties":{"zip":75115.0,"latitude":32.60058,"longitude":-96.86556,"id":"a62ky3jjbrkb","dentists":1.0},"type":"Feature","geometry":{"type":"Point","coordinates":[-96.86556,32.60058]}},{"properties":{"zip":75150.0,"latitude":32.81659,"longitude":-96.62463,"id":"a62ky3oj8nl2","dentists":2.0},"type":"Feature","geometry":{"type":"Point","coordinates":[-96.62463,32.81659]}},{"properties":{"zip":75209.0,"latitude":32.84409,"longitude":-96.82898,"id":"a62ky3hllbcw","dentists":1.0},"type":"Feature","geometry":{"type":"Point","coordinates":[-96.82898,32.84409]}},{"properties":{"zip":75226.0,"latitude":32.78244,"longitude":-96.77274,"id":"a62ky3s3yxe1","dentists":2.0},"type":"Feature","geometry":{"type":"Point","coordinates":[-96.77274,32.78244]}},{"properties":{"zip":75228.0,"latitude":32.82405,"longitude":-96.68188,"id":"a62ky3u6oxpk","dentists":2.0},"type":"Feature","geometry":{"type":"Point","coordinates":[-96.68188,32.82405]}},{"properties":{"zip":75702.0,"latitude":32.3652,"longitude":-95.31022,"id":"a62ky3roo1eb","dentists":1.0},"type":"Feature","geometry":{"type":"Point","coordinates":[-95.31022,32.3652]}},{"properties":{"zip":76011.0,"latitude":32.75549,"longitude":-97.08862,"id":"a62ky3h5hu3r","dentists":1.0},"type":"Feature","geometry":{"type":"Point","coordinates":[-97.08862,32.75549]}},{"properties":{"zip":76013.0,"latitude":32.71939,"longitude":-97.14148,"id":"a62ky3q520kh","dentists":1.0},"type":"Feature","geometry":{"type":"Point","coordinates":[-97.14148,32.71939]}},{"properties":{"zip":76033.0,"latitude":32.34303,"longitude":-97.42076,"id":"a62ky3uy2g6c","dentists":1.0},"type":"Feature","geometry":{"type":"Point","coordinates":[-97.42076,32.34303]}},{"properties":{"zip":76049.0,"latitude":32.44426,"longitude":-97.70762,"id":"a62ky3tow1zx","dentists":1.0},"type":"Feature","geometry":{"type":"Point","coordinates":[-97.70762,32.44426]}},{"properties":{"zip":76092.0,"latitude":32.95168,"longitude":-97.14836,"id":"a62ky3r423yo","dentists":2.0},"type":"Feature","geometry":{"type":"Point","coordinates":[-97.14836,32.95168]}},{"properties":{"zip":76103.0,"latitude":32.74357,"longitude":-97.26688,"id":"a62ky3rolmyj","dentists":2.0},"type":"Feature","geometry":{"type":"Point","coordinates":[-97.26688,32.74357]}},{"properties":{"zip":76104.0,"latitude":32.73518,"longitude":-97.32087,"id":"a62ky3ps36yk","dentists":1.0},"type":"Feature","geometry":{"type":"Point","coordinates":[-97.32087,32.73518]}},{"properties":{"zip":76106.0,"latitude":32.80831,"longitude":-97.35617,"id":"a62ky3fklv02","dentists":1.0},"type":"Feature","geometry":{"type":"Point","coordinates":[-97.35617,32.80831]}},{"properties":{"zip":76109.0,"latitude":32.70214,"longitude":-97.38704,"id":"a62ky3r96yf1","dentists":2.0},"type":"Feature","geometry":{"type":"Point","coordinates":[-97.38704,32.70214]}},{"properties":{"zip":76110.0,"latitude":32.70602,"longitude":-97.34282,"id":"a62ky3hr0r6k","dentists":1.0},"type":"Feature","geometry":{"type":"Point","coordinates":[-97.34282,32.70602]}},{"properties":{"zip":76133.0,"latitude":32.65058,"longitude":-97.37436,"id":"a62ky3ng9gjd","dentists":2.0},"type":"Feature","geometry":{"type":"Point","coordinates":[-97.37436,32.65058]}},{"properties":{"zip":76401.0,"latitude":32.2139,"longitude":-98.21867,"id":"a62ky3p37391","dentists":2.0},"type":"Feature","geometry":{"type":"Point","coordinates":[-98.21867,32.2139]}},{"properties":{"zip":76502.0,"latitude":31.08435,"longitude":-97.39999,"id":"a62ky3sn6zea","dentists":2.0},"type":"Feature","geometry":{"type":"Point","coordinates":[-97.39999,31.08435]}},{"properties":{"zip":76574.0,"latitude":30.57334,"longitude":-97.41178,"id":"a62ky3hwwa9q","dentists":2.0},"type":"Feature","geometry":{"type":"Point","coordinates":[-97.41178,30.57334]}},{"properties":{"zip":76707.0,"latitude":31.55224,"longitude":-97.15714,"id":"a62ky3uvre4i","dentists":2.0},"type":"Feature","geometry":{"type":"Point","coordinates":[-97.15714,31.55224]}},{"properties":{"zip":77002.0,"latitude":29.75525,"longitude":-95.36758,"id":"a62ky3j454nl","dentists":1.0},"type":"Feature","geometry":{"type":"Point","coordinates":[-95.36758,29.75525]}},{"properties":{"zip":77004.0,"latitude":29.72697,"longitude":-95.3664,"id":"a62ky3fie7g2","dentists":1.0},"type":"Feature","geometry":{"type":"Point","coordinates":[-95.3664,29.72697]}},{"properties":{"zip":77006.0,"latitude":29.74048,"longitude":-95.39067,"id":"a62ky3k2ma8a","dentists":2.0},"type":"Feature","geometry":{"type":"Point","coordinates":[-95.39067,29.74048]}},{"properties":{"zip":77008.0,"latitude":29.79614,"longitude":-95.41787,"id":"a62ky3pat0b0","dentists":2.0},"type":"Feature","geometry":{"type":"Point","coordinates":[-95.41787,29.79614]}},{"properties":{"zip":77015.0,"latitude":29.77485,"longitude":-95.1854,"id":"a62ky3qdokoa","dentists":2.0},"type":"Feature","geometry":{"type":"Point","coordinates":[-95.1854,29.77485]}},{"properties":{"zip":77024.0,"latitude":29.76908,"longitude":-95.51059,"id":"a62ky3m3b0q7","dentists":1.0},"type":"Feature","geometry":{"type":"Point","coordinates":[-95.51059,29.76908]}},{"properties":{"zip":77036.0,"latitude":29.69811,"longitude":-95.5336,"id":"a62ky3ohx7i0","dentists":2.0},"type":"Feature","geometry":{"type":"Point","coordinates":[-95.5336,29.69811]}},{"properties":{"zip":77042.0,"latitude":29.74132,"longitude":-95.5584,"id":"a62ky3g0a2rx","dentists":1.0},"type":"Feature","geometry":{"type":"Point","coordinates":[-95.5584,29.74132]}},{"properties":{"zip":77045.0,"latitude":29.62922,"longitude":-95.44268,"id":"a62ky3kel10s","dentists":2.0},"type":"Feature","geometry":{"type":"Point","coordinates":[-95.44268,29.62922]}},{"properties":{"zip":77055.0,"latitude":29.79676,"longitude":-95.49705,"id":"a62ky3iu20eh","dentists":3.0},"type":"Feature","geometry":{"type":"Point","coordinates":[-95.49705,29.79676]}},{"properties":{"zip":77063.0,"latitude":29.73731,"longitude":-95.51862,"id":"a62ky3m4muh5","dentists":1.0},"type":"Feature","geometry":{"type":"Point","coordinates":[-95.51862,29.73731]}},{"properties":{"zip":77068.0,"latitude":30.00683,"longitude":-95.48463,"id":"a62ky3u33imv","dentists":2.0},"type":"Feature","geometry":{"type":"Point","coordinates":[-95.48463,30.00683]}},{"properties":{"zip":77071.0,"latitude":29.65552,"longitude":-95.5195,"id":"a62ky3svxyb9","dentists":1.0},"type":"Feature","geometry":{"type":"Point","coordinates":[-95.5195,29.65552]}},{"properties":{"zip":77076.0,"latitude":29.8607,"longitude":-95.38294,"id":"a62ky3tyint4","dentists":2.0},"type":"Feature","geometry":{"type":"Point","coordinates":[-95.38294,29.8607]}},{"properties":{"zip":77081.0,"latitude":29.71286,"longitude":-95.48468,"id":"a62ky3juhgds","dentists":2.0},"type":"Feature","geometry":{"type":"Point","coordinates":[-95.48468,29.71286]}},{"properties":{"zip":77082.0,"latitude":29.72326,"longitude":-95.62344,"id":"a62ky3lz2bo7","dentists":3.0},"type":"Feature","geometry":{"type":"Point","coordinates":[-95.62344,29.72326]}},{"properties":{"zip":77083.0,"latitude":29.692,"longitude":-95.6541,"id":"a62ky3ps3kqq","dentists":3.0},"type":"Feature","geometry":{"type":"Point","coordinates":[-95.6541,29.692]}},{"properties":{"zip":77095.0,"latitude":29.90455,"longitude":-95.64752,"id":"a62ky3nzekrx","dentists":2.0},"type":"Feature","geometry":{"type":"Point","coordinates":[-95.64752,29.90455]}},{"properties":{"zip":77099.0,"latitude":29.67317,"longitude":-95.58741,"id":"a62ky3n2e81u","dentists":2.0},"type":"Feature","geometry":{"type":"Point","coordinates":[-95.58741,29.67317]}},{"properties":{"zip":77304.0,"latitude":30.33019,"longitude":-95.4916,"id":"a62ky3hccssf","dentists":2.0},"type":"Feature","geometry":{"type":"Point","coordinates":[-95.4916,30.33019]}},{"properties":{"zip":77340.0,"latitude":30.67226,"longitude":-95.52485,"id":"a62ky3qmo4i8","dentists":2.0},"type":"Feature","geometry":{"type":"Point","coordinates":[-95.52485,30.67226]}},{"properties":{"zip":77379.0,"latitude":30.03216,"longitude":-95.5257,"id":"a62ky3nb9faw","dentists":1.0},"type":"Feature","geometry":{"type":"Point","coordinates":[-95.5257,30.03216]}},{"properties":{"zip":77388.0,"latitude":30.05916,"longitude":-95.4711,"id":"a62ky3ly6j39","dentists":1.0},"type":"Feature","geometry":{"type":"Point","coordinates":[-95.4711,30.05916]}},{"properties":{"zip":77433.0,"latitude":29.95003,"longitude":-95.70965,"id":"a62ky3qau7yy","dentists":2.0},"type":"Feature","geometry":{"type":"Point","coordinates":[-95.70965,29.95003]}},{"properties":{"zip":77494.0,"latitude":29.74222,"longitude":-95.78789,"id":"a62ky3mkhd3n","dentists":2.0},"type":"Feature","geometry":{"type":"Point","coordinates":[-95.78789,29.74222]}},{"properties":{"zip":77502.0,"latitude":29.67687,"longitude":-95.19958,"id":"a62ky3ol7v9l","dentists":1.0},"type":"Feature","geometry":{"type":"Point","coordinates":[-95.19958,29.67687]}},{"properties":{"zip":77504.0,"latitude":29.65097,"longitude":-95.185,"id":"a62ky3upuj4f","dentists":2.0},"type":"Feature","geometry":{"type":"Point","coordinates":[-95.185,29.65097]}},{"properties":{"zip":77511.0,"latitude":29.41507,"longitude":-95.24469,"id":"a62ky3nhb1jh","dentists":2.0},"type":"Feature","geometry":{"type":"Point","coordinates":[-95.24469,29.41507]}},{"properties":{"zip":77515.0,"latitude":29.17114,"longitude":-95.4333,"id":"a62ky3i9bf87","dentists":4.0},"type":"Feature","geometry":{"type":"Point","coordinates":[-95.4333,29.17114]}},{"properties":{"zip":77565.0,"latitude":29.54073,"longitude":-95.03209,"id":"a62ky3nl7id9","dentists":1.0},"type":"Feature","geometry":{"type":"Point","coordinates":[-95.03209,29.54073]}},{"properties":{"zip":77581.0,"latitude":29.56009,"longitude":-95.27737,"id":"a62ky3oih4sl","dentists":4.0},"type":"Feature","geometry":{"type":"Point","coordinates":[-95.27737,29.56009]}},{"properties":{"zip":77587.0,"latitude":29.65627,"longitude":-95.22606,"id":"a62ky3oj6gki","dentists":1.0},"type":"Feature","geometry":{"type":"Point","coordinates":[-95.22606,29.65627]}},{"properties":{"zip":77706.0,"latitude":30.09591,"longitude":-94.16619,"id":"a62ky3hc2bej","dentists":2.0},"type":"Feature","geometry":{"type":"Point","coordinates":[-94.16619,30.09591]}},{"properties":{"zip":77802.0,"latitude":30.65176,"longitude":-96.33005,"id":"a62ky3tqot84","dentists":1.0},"type":"Feature","geometry":{"type":"Point","coordinates":[-96.33005,30.65176]}},{"properties":{"zip":78064.0,"latitude":28.97646,"longitude":-98.48049,"id":"a62ky3rgv53o","dentists":2.0},"type":"Feature","geometry":{"type":"Point","coordinates":[-98.48049,28.97646]}},{"properties":{"zip":78205.0,"latitude":29.42585,"longitude":-98.48794,"id":"a62ky3i1nnww","dentists":3.0},"type":"Feature","geometry":{"type":"Point","coordinates":[-98.48794,29.42585]}},{"properties":{"zip":78211.0,"latitude":29.36063,"longitude":-98.55784,"id":"a62ky3o3mzwf","dentists":1.0},"type":"Feature","geometry":{"type":"Point","coordinates":[-98.55784,29.36063]}},{"properties":{"zip":78214.0,"latitude":29.36239,"longitude":-98.48772,"id":"a62ky3oqjcpu","dentists":2.0},"type":"Feature","geometry":{"type":"Point","coordinates":[-98.48772,29.36239]}},{"properties":{"zip":78227.0,"latitude":29.40564,"longitude":-98.63505,"id":"a62ky3gaeaxx","dentists":3.0},"type":"Feature","geometry":{"type":"Point","coordinates":[-98.63505,29.40564]}},{"properties":{"zip":78230.0,"latitude":29.54404,"longitude":-98.55613,"id":"a62ky3u8emms","dentists":3.0},"type":"Feature","geometry":{"type":"Point","coordinates":[-98.55613,29.54404]}},{"properties":{"zip":78232.0,"latitude":29.5853,"longitude":-98.47005,"id":"a62ky3o7pqhi","dentists":1.0},"type":"Feature","geometry":{"type":"Point","coordinates":[-98.47005,29.5853]}},{"properties":{"zip":78233.0,"latitude":29.55045,"longitude":-98.36404,"id":"a62ky3ie8q0e","dentists":2.0},"type":"Feature","geometry":{"type":"Point","coordinates":[-98.36404,29.55045]}},{"properties":{"zip":78237.0,"latitude":29.41912,"longitude":-98.56215,"id":"a62ky3t3u3tk","dentists":1.0},"type":"Feature","geometry":{"type":"Point","coordinates":[-98.56215,29.41912]}},{"properties":{"zip":78239.0,"latitude":29.51444,"longitude":-98.36392,"id":"a62ky3s39v0d","dentists":2.0},"type":"Feature","geometry":{"type":"Point","coordinates":[-98.36392,29.51444]}},{"properties":{"zip":78251.0,"latitude":29.46047,"longitude":-98.66835,"id":"a62ky3nbktm6","dentists":2.0},"type":"Feature","geometry":{"type":"Point","coordinates":[-98.66835,29.46047]}},{"properties":{"zip":78412.0,"latitude":27.70735,"longitude":-97.34965,"id":"a62ky3phe0t5","dentists":2.0},"type":"Feature","geometry":{"type":"Point","coordinates":[-97.34965,27.70735]}},{"properties":{"zip":78501.0,"latitude":26.21438,"longitude":-98.2383,"id":"a62ky3u470o6","dentists":2.0},"type":"Feature","geometry":{"type":"Point","coordinates":[-98.2383,26.21438]}},{"properties":{"zip":78503.0,"latitude":26.17552,"longitude":-98.24454,"id":"a62ky3lpov5t","dentists":2.0},"type":"Feature","geometry":{"type":"Point","coordinates":[-98.24454,26.17552]}},{"properties":{"zip":78550.0,"latitude":26.20385,"longitude":-97.68793,"id":"a62ky3ms9jbd","dentists":2.0},"type":"Feature","geometry":{"type":"Point","coordinates":[-97.68793,26.20385]}},{"properties":{"zip":78576.0,"latitude":26.22863,"longitude":-98.44387,"id":"a62ky3tbzdnn","dentists":1.0},"type":"Feature","geometry":{"type":"Point","coordinates":[-98.44387,26.22863]}},{"properties":{"zip":78621.0,"latitude":30.34102,"longitude":-97.38045,"id":"a62ky3fmps0a","dentists":3.0},"type":"Feature","geometry":{"type":"Point","coordinates":[-97.38045,30.34102]}},{"properties":{"zip":78648.0,"latitude":29.68077,"longitude":-97.65006,"id":"a62ky3g22aj5","dentists":2.0},"type":"Feature","geometry":{"type":"Point","coordinates":[-97.65006,29.68077]}},{"properties":{"zip":78702.0,"latitude":30.26459,"longitude":-97.7198,"id":"a62ky3m13kmr","dentists":1.0},"type":"Feature","geometry":{"type":"Point","coordinates":[-97.7198,30.26459]}},{"properties":{"zip":78703.0,"latitude":30.29008,"longitude":-97.76847,"id":"a62ky3g5gv5t","dentists":2.0},"type":"Feature","geometry":{"type":"Point","coordinates":[-97.76847,30.29008]}},{"properties":{"zip":78704.0,"latitude":30.24602,"longitude":-97.76258,"id":"a62ky3uuaja3","dentists":2.0},"type":"Feature","geometry":{"type":"Point","coordinates":[-97.76258,30.24602]}},{"properties":{"zip":78727.0,"latitude":30.42931,"longitude":-97.71116,"id":"a62ky3f9nxxs","dentists":2.0},"type":"Feature","geometry":{"type":"Point","coordinates":[-97.71116,30.42931]}},{"properties":{"zip":78731.0,"latitude":30.34581,"longitude":-97.76075,"id":"a62ky3tkto2i","dentists":1.0},"type":"Feature","geometry":{"type":"Point","coordinates":[-97.76075,30.34581]}},{"properties":{"zip":78745.0,"latitude":30.20383,"longitude":-97.79312,"id":"a62ky3n89c4p","dentists":2.0},"type":"Feature","geometry":{"type":"Point","coordinates":[-97.79312,30.20383]}},{"properties":{"zip":78746.0,"latitude":30.2972,"longitude":-97.8102,"id":"a62ky3j74w6d","dentists":2.0},"type":"Feature","geometry":{"type":"Point","coordinates":[-97.8102,30.2972]}},{"properties":{"zip":79124.0,"latitude":35.22729,"longitude":-101.91239,"id":"a62ky3n2iv5l","dentists":3.0},"type":"Feature","geometry":{"type":"Point","coordinates":[-101.91239,35.22729]}},{"properties":{"zip":79336.0,"latitude":33.58417,"longitude":-102.37123,"id":"a62ky3rzzubh","dentists":1.0},"type":"Feature","geometry":{"type":"Point","coordinates":[-102.37123,33.58417]}},{"properties":{"zip":79403.0,"latitude":33.60058,"longitude":-101.80977,"id":"a62ky3m5x7dc","dentists":3.0},"type":"Feature","geometry":{"type":"Point","coordinates":[-101.80977,33.60058]}},{"properties":{"zip":79415.0,"latitude":33.60909,"longitude":-101.88926,"id":"a62ky3nfdzi3","dentists":3.0},"type":"Feature","geometry":{"type":"Point","coordinates":[-101.88926,33.60909]}},{"properties":{"zip":79705.0,"latitude":32.04023,"longitude":-102.08617,"id":"a62ky3tqr99a","dentists":2.0},"type":"Feature","geometry":{"type":"Point","coordinates":[-102.08617,32.04023]}},{"properties":{"zip":79762.0,"latitude":31.89748,"longitude":-102.34801,"id":"a62ky3hyryoe","dentists":2.0},"type":"Feature","geometry":{"type":"Point","coordinates":[-102.34801,31.89748]}},{"properties":{"zip":79763.0,"latitude":31.84412,"longitude":-102.4219,"id":"a62ky3vizi3v","dentists":3.0},"type":"Feature","geometry":{"type":"Point","coordinates":[-102.4219,31.84412]}},{"properties":{"zip":79764.0,"latitude":31.8586,"longitude":-102.45871,"id":"a62ky3mqq3ny","dentists":1.0},"type":"Feature","geometry":{"type":"Point","coordinates":[-102.45871,31.8586]}},{"properties":{"zip":79936.0,"latitude":31.7613,"longitude":-106.29667,"id":"a62ky3mbe99i","dentists":2.0},"type":"Feature","geometry":{"type":"Point","coordinates":[-106.29667,31.7613]}},{"properties":{"zip":80010.0,"latitude":39.73648,"longitude":-104.86431,"id":"a62ky3sk51ql","dentists":1.0},"type":"Feature","geometry":{"type":"Point","coordinates":[-104.86431,39.73648]}},{"properties":{"zip":80011.0,"latitude":39.73739,"longitude":-104.80775,"id":"a62ky3qj0i9e","dentists":2.0},"type":"Feature","geometry":{"type":"Point","coordinates":[-104.80775,39.73739]}},{"properties":{"zip":80214.0,"latitude":39.74172,"longitude":-105.07476,"id":"a62ky3rjnwjf","dentists":2.0},"type":"Feature","geometry":{"type":"Point","coordinates":[-105.07476,39.74172]}},{"properties":{"zip":80231.0,"latitude":39.67219,"longitude":-104.89466,"id":"a62ky3f4nlmx","dentists":2.0},"type":"Feature","geometry":{"type":"Point","coordinates":[-104.89466,39.67219]}},{"properties":{"zip":80538.0,"latitude":40.44405,"longitude":-105.09917,"id":"a62ky3h8uzp0","dentists":1.0},"type":"Feature","geometry":{"type":"Point","coordinates":[-105.09917,40.44405]}},{"properties":{"zip":80634.0,"latitude":40.40056,"longitude":-104.76,"id":"a62ky3t8c3et","dentists":2.0},"type":"Feature","geometry":{"type":"Point","coordinates":[-104.76,40.40056]}},{"properties":{"zip":81501.0,"latitude":39.07744,"longitude":-108.55229,"id":"a62ky3fytk2y","dentists":2.0},"type":"Feature","geometry":{"type":"Point","coordinates":[-108.55229,39.07744]}},{"properties":{"zip":81631.0,"latitude":39.66145,"longitude":-106.82246,"id":"a62ky3mijb9u","dentists":2.0},"type":"Feature","geometry":{"type":"Point","coordinates":[-106.82246,39.66145]}},{"properties":{"zip":82513.0,"latitude":43.62918,"longitude":-109.86404,"id":"a62ky3nwdzxx","dentists":2.0},"type":"Feature","geometry":{"type":"Point","coordinates":[-109.86404,43.62918]}},{"properties":{"zip":82834.0,"latitude":44.34591,"longitude":-106.72048,"id":"a62ky3fbfoy3","dentists":2.0},"type":"Feature","geometry":{"type":"Point","coordinates":[-106.72048,44.34591]}},{"properties":{"zip":83221.0,"latitude":43.22254,"longitude":-112.37243,"id":"a62ky3ms0sn8","dentists":3.0},"type":"Feature","geometry":{"type":"Point","coordinates":[-112.37243,43.22254]}},{"properties":{"zip":83333.0,"latitude":43.56837,"longitude":-114.27663,"id":"a62ky3tucrd8","dentists":1.0},"type":"Feature","geometry":{"type":"Point","coordinates":[-114.27663,43.56837]}},{"properties":{"zip":84003.0,"latitude":40.39284,"longitude":-111.79687,"id":"a62ky3snzrfd","dentists":1.0},"type":"Feature","geometry":{"type":"Point","coordinates":[-111.79687,40.39284]}},{"properties":{"zip":84092.0,"latitude":40.55787,"longitude":-111.82548,"id":"a62ky3s96qnk","dentists":1.0},"type":"Feature","geometry":{"type":"Point","coordinates":[-111.82548,40.55787]}},{"properties":{"zip":84317.0,"latitude":41.2553,"longitude":-111.76228,"id":"a62ky3g9gvy5","dentists":1.0},"type":"Feature","geometry":{"type":"Point","coordinates":[-111.76228,41.2553]}},{"properties":{"zip":84513.0,"latitude":39.2117,"longitude":-111.01498,"id":"a62ky3nesoe8","dentists":2.0},"type":"Feature","geometry":{"type":"Point","coordinates":[-111.01498,39.2117]}},{"properties":{"zip":84601.0,"latitude":40.23368,"longitude":-111.67827,"id":"a62ky3mdhivw","dentists":3.0},"type":"Feature","geometry":{"type":"Point","coordinates":[-111.67827,40.23368]}},{"properties":{"zip":84725.0,"latitude":37.57364,"longitude":-113.71903,"id":"a62ky3r7x7zh","dentists":1.0},"type":"Feature","geometry":{"type":"Point","coordinates":[-113.71903,37.57364]}},{"properties":{"zip":85203.0,"latitude":33.44251,"longitude":-111.80079,"id":"a62ky3sg6k12","dentists":1.0},"type":"Feature","geometry":{"type":"Point","coordinates":[-111.80079,33.44251]}},{"properties":{"zip":85210.0,"latitude":33.39179,"longitude":-111.84005,"id":"a62ky3kvaq4g","dentists":2.0},"type":"Feature","geometry":{"type":"Point","coordinates":[-111.84005,33.39179]}},{"properties":{"zip":85251.0,"latitude":33.49429,"longitude":-111.92605,"id":"a62ky3t5vwez","dentists":1.0},"type":"Feature","geometry":{"type":"Point","coordinates":[-111.92605,33.49429]}},{"properties":{"zip":85260.0,"latitude":33.60814,"longitude":-111.88222,"id":"a62ky3jwl4gc","dentists":1.0},"type":"Feature","geometry":{"type":"Point","coordinates":[-111.88222,33.60814]}},{"properties":{"zip":85658.0,"latitude":32.46685,"longitude":-111.09997,"id":"a62ky3ux2l6i","dentists":1.0},"type":"Feature","geometry":{"type":"Point","coordinates":[-111.09997,32.46685]}},{"properties":{"zip":85719.0,"latitude":32.24783,"longitude":-110.95049,"id":"a62ky3in40es","dentists":1.0},"type":"Feature","geometry":{"type":"Point","coordinates":[-110.95049,32.24783]}},{"properties":{"zip":86034.0,"latitude":35.79525,"longitude":-110.20278,"id":"a62ky3ipmikw","dentists":1.0},"type":"Feature","geometry":{"type":"Point","coordinates":[-110.20278,35.79525]}},{"properties":{"zip":86401.0,"latitude":35.21379,"longitude":-113.99429,"id":"a62ky3obg425","dentists":2.0},"type":"Feature","geometry":{"type":"Point","coordinates":[-113.99429,35.21379]}},{"properties":{"zip":87024.0,"latitude":35.6778,"longitude":-106.73844,"id":"a62ky3p1xnmi","dentists":1.0},"type":"Feature","geometry":{"type":"Point","coordinates":[-106.73844,35.6778]}},{"properties":{"zip":87124.0,"latitude":35.24944,"longitude":-106.69162,"id":"a62ky3lfcwsb","dentists":3.0},"type":"Feature","geometry":{"type":"Point","coordinates":[-106.69162,35.24944]}},{"properties":{"zip":87508.0,"latitude":35.54993,"longitude":-105.95847,"id":"a62ky3qb3079","dentists":2.0},"type":"Feature","geometry":{"type":"Point","coordinates":[-105.95847,35.54993]}},{"properties":{"zip":87532.0,"latitude":35.98683,"longitude":-106.05793,"id":"a62ky3g8rn0i","dentists":4.0},"type":"Feature","geometry":{"type":"Point","coordinates":[-106.05793,35.98683]}},{"properties":{"zip":87544.0,"latitude":35.8793,"longitude":-106.29189,"id":"a62ky3q9mzdc","dentists":2.0},"type":"Feature","geometry":{"type":"Point","coordinates":[-106.29189,35.8793]}},{"properties":{"zip":87575.0,"latitude":36.66162,"longitude":-106.54758,"id":"a62ky3r6ctld","dentists":2.0},"type":"Feature","geometry":{"type":"Point","coordinates":[-106.54758,36.66162]}},{"properties":{"zip":88063.0,"latitude":31.80464,"longitude":-106.57085,"id":"a62ky3pc0esp","dentists":2.0},"type":"Feature","geometry":{"type":"Point","coordinates":[-106.57085,31.80464]}},{"properties":{"zip":89128.0,"latitude":36.19657,"longitude":-115.26533,"id":"a62ky3mlx64o","dentists":2.0},"type":"Feature","geometry":{"type":"Point","coordinates":[-115.26533,36.19657]}},{"properties":{"zip":89147.0,"latitude":36.11484,"longitude":-115.27899,"id":"a62ky3k3kf2c","dentists":1.0},"type":"Feature","geometry":{"type":"Point","coordinates":[-115.27899,36.11484]}},{"properties":{"zip":89503.0,"latitude":39.53824,"longitude":-119.83736,"id":"a62ky3lzkh6i","dentists":2.0},"type":"Feature","geometry":{"type":"Point","coordinates":[-119.83736,39.53824]}},{"properties":{"zip":89801.0,"latitude":40.83791,"longitude":-115.76422,"id":"a62ky3jnexy1","dentists":2.0},"type":"Feature","geometry":{"type":"Point","coordinates":[-115.76422,40.83791]}},{"properties":{"zip":90005.0,"latitude":34.05968,"longitude":-118.30614,"id":"a62ky3o5h9vq","dentists":1.0},"type":"Feature","geometry":{"type":"Point","coordinates":[-118.30614,34.05968]}},{"properties":{"zip":90006.0,"latitude":34.04909,"longitude":-118.29474,"id":"a62ky3tfofmb","dentists":1.0},"type":"Feature","geometry":{"type":"Point","coordinates":[-118.29474,34.04909]}},{"properties":{"zip":90007.0,"latitude":34.02852,"longitude":-118.28395,"id":"a62ky3osj6qh","dentists":1.0},"type":"Feature","geometry":{"type":"Point","coordinates":[-118.28395,34.02852]}},{"properties":{"zip":90011.0,"latitude":34.00874,"longitude":-118.25895,"id":"a62ky3gqkif9","dentists":1.0},"type":"Feature","geometry":{"type":"Point","coordinates":[-118.25895,34.00874]}},{"properties":{"zip":90012.0,"latitude":34.06115,"longitude":-118.24242,"id":"a62ky3irqnys","dentists":1.0},"type":"Feature","geometry":{"type":"Point","coordinates":[-118.24242,34.06115]}},{"properties":{"zip":90013.0,"latitude":34.04601,"longitude":-118.24349,"id":"a62ky3hz3ys8","dentists":1.0},"type":"Feature","geometry":{"type":"Point","coordinates":[-118.24349,34.04601]}},{"properties":{"zip":90022.0,"latitude":34.02607,"longitude":-118.15235,"id":"a62ky3nhm820","dentists":2.0},"type":"Feature","geometry":{"type":"Point","coordinates":[-118.15235,34.02607]}},{"properties":{"zip":90023.0,"latitude":34.01801,"longitude":-118.20313,"id":"a62ky3g0z178","dentists":2.0},"type":"Feature","geometry":{"type":"Point","coordinates":[-118.20313,34.01801]}},{"properties":{"zip":90025.0,"latitude":34.04453,"longitude":-118.4488,"id":"a62ky3nen74v","dentists":2.0},"type":"Feature","geometry":{"type":"Point","coordinates":[-118.4488,34.04453]}},{"properties":{"zip":90028.0,"latitude":34.09979,"longitude":-118.32529,"id":"a62ky3sn6jzx","dentists":2.0},"type":"Feature","geometry":{"type":"Point","coordinates":[-118.32529,34.09979]}},{"properties":{"zip":90035.0,"latitude":34.05199,"longitude":-118.3829,"id":"a62ky3rvjwmr","dentists":1.0},"type":"Feature","geometry":{"type":"Point","coordinates":[-118.3829,34.05199]}},{"properties":{"zip":90037.0,"latitude":34.00273,"longitude":-118.28648,"id":"a62ky3sr6e4w","dentists":1.0},"type":"Feature","geometry":{"type":"Point","coordinates":[-118.28648,34.00273]}},{"properties":{"zip":90041.0,"latitude":34.13411,"longitude":-118.2099,"id":"a62ky3p6nrgy","dentists":2.0},"type":"Feature","geometry":{"type":"Point","coordinates":[-118.2099,34.13411]}},{"properties":{"zip":90042.0,"latitude":34.11191,"longitude":-118.19412,"id":"a62ky3mg9gof","dentists":2.0},"type":"Feature","geometry":{"type":"Point","coordinates":[-118.19412,34.11191]}},{"properties":{"zip":90046.0,"latitude":34.10129,"longitude":-118.36244,"id":"a62ky3hmoj4g","dentists":1.0},"type":"Feature","geometry":{"type":"Point","coordinates":[-118.36244,34.10129]}},{"properties":{"zip":90047.0,"latitude":33.95633,"longitude":-118.30902,"id":"a62ky3nt3nda","dentists":1.0},"type":"Feature","geometry":{"type":"Point","coordinates":[-118.30902,33.95633]}},{"properties":{"zip":90057.0,"latitude":34.06282,"longitude":-118.27531,"id":"a62ky3qarkcv","dentists":1.0},"type":"Feature","geometry":{"type":"Point","coordinates":[-118.27531,34.06282]}},{"properties":{"zip":90220.0,"latitude":33.88071,"longitude":-118.23654,"id":"a62ky3qqc18t","dentists":2.0},"type":"Feature","geometry":{"type":"Point","coordinates":[-118.23654,33.88071]}},{"properties":{"zip":90221.0,"latitude":33.89236,"longitude":-118.2077,"id":"a62ky3qdybiw","dentists":1.0},"type":"Feature","geometry":{"type":"Point","coordinates":[-118.2077,33.89236]}},{"properties":{"zip":90250.0,"latitude":33.91424,"longitude":-118.34595,"id":"a62ky3j6qhwk","dentists":2.0},"type":"Feature","geometry":{"type":"Point","coordinates":[-118.34595,33.91424]}},{"properties":{"zip":90254.0,"latitude":33.86456,"longitude":-118.39584,"id":"a62ky3ri47el","dentists":1.0},"type":"Feature","geometry":{"type":"Point","coordinates":[-118.39584,33.86456]}},{"properties":{"zip":90505.0,"latitude":33.80682,"longitude":-118.35082,"id":"a62ky3li96h2","dentists":1.0},"type":"Feature","geometry":{"type":"Point","coordinates":[-118.35082,33.80682]}},{"properties":{"zip":90631.0,"latitude":33.93186,"longitude":-117.95364,"id":"a62ky3rty5n2","dentists":4.0},"type":"Feature","geometry":{"type":"Point","coordinates":[-117.95364,33.93186]}},{"properties":{"zip":90640.0,"latitude":34.01414,"longitude":-118.11198,"id":"a62ky3g38aj6","dentists":2.0},"type":"Feature","geometry":{"type":"Point","coordinates":[-118.11198,34.01414]}},{"properties":{"zip":91104.0,"latitude":34.16678,"longitude":-118.12827,"id":"a62ky3g6v19m","dentists":1.0},"type":"Feature","geometry":{"type":"Point","coordinates":[-118.12827,34.16678]}},{"properties":{"zip":91107.0,"latitude":34.15441,"longitude":-118.09229,"id":"a62ky3r2j8uo","dentists":1.0},"type":"Feature","geometry":{"type":"Point","coordinates":[-118.09229,34.15441]}},{"properties":{"zip":91205.0,"latitude":34.13947,"longitude":-118.24616,"id":"a62ky3f87k07","dentists":2.0},"type":"Feature","geometry":{"type":"Point","coordinates":[-118.24616,34.13947]}},{"properties":{"zip":91355.0,"latitude":34.41565,"longitude":-118.5712,"id":"a62ky3tb49ha","dentists":1.0},"type":"Feature","geometry":{"type":"Point","coordinates":[-118.5712,34.41565]}},{"properties":{"zip":91356.0,"latitude":34.16808,"longitude":-118.54398,"id":"a62ky3pabvnk","dentists":1.0},"type":"Feature","geometry":{"type":"Point","coordinates":[-118.54398,34.16808]}},{"properties":{"zip":91402.0,"latitude":34.22489,"longitude":-118.45029,"id":"a62ky3nyeo9y","dentists":2.0},"type":"Feature","geometry":{"type":"Point","coordinates":[-118.45029,34.22489]}},{"properties":{"zip":91606.0,"latitude":34.19031,"longitude":-118.38938,"id":"a62ky3kgcbaq","dentists":2.0},"type":"Feature","geometry":{"type":"Point","coordinates":[-118.38938,34.19031]}},{"properties":{"zip":91710.0,"latitude":34.01556,"longitude":-117.68484,"id":"a62ky3r1zn1o","dentists":1.0},"type":"Feature","geometry":{"type":"Point","coordinates":[-117.68484,34.01556]}},{"properties":{"zip":91733.0,"latitude":34.04897,"longitude":-118.04884,"id":"a62ky3gvw5sf","dentists":2.0},"type":"Feature","geometry":{"type":"Point","coordinates":[-118.04884,34.04897]}},{"properties":{"zip":91739.0,"latitude":34.13064,"longitude":-117.53004,"id":"a62ky3rhduw0","dentists":2.0},"type":"Feature","geometry":{"type":"Point","coordinates":[-117.53004,34.13064]}},{"properties":{"zip":91748.0,"latitude":33.98515,"longitude":-117.89874,"id":"a62ky3s0wwtz","dentists":2.0},"type":"Feature","geometry":{"type":"Point","coordinates":[-117.89874,33.98515]}},{"properties":{"zip":91752.0,"latitude":33.99523,"longitude":-117.53699,"id":"a62ky3i9ws1q","dentists":1.0},"type":"Feature","geometry":{"type":"Point","coordinates":[-117.53699,33.99523]}},{"properties":{"zip":91776.0,"latitude":34.0886,"longitude":-118.09327,"id":"a62ky3jwbrrm","dentists":1.0},"type":"Feature","geometry":{"type":"Point","coordinates":[-118.09327,34.0886]}},{"properties":{"zip":91910.0,"latitude":32.63446,"longitude":-117.06365,"id":"a62ky3tksyrz","dentists":2.0},"type":"Feature","geometry":{"type":"Point","coordinates":[-117.06365,32.63446]}},{"properties":{"zip":91977.0,"latitude":32.73262,"longitude":-116.99838,"id":"a62ky3nb8i41","dentists":1.0},"type":"Feature","geometry":{"type":"Point","coordinates":[-116.99838,32.73262]}},{"properties":{"zip":92019.0,"latitude":32.7807,"longitude":-116.91164,"id":"a62ky3txcihm","dentists":1.0},"type":"Feature","geometry":{"type":"Point","coordinates":[-116.91164,32.7807]}},{"properties":{"zip":92036.0,"latitude":33.01321,"longitude":-116.56137,"id":"a62ky3ku2tce","dentists":2.0},"type":"Feature","geometry":{"type":"Point","coordinates":[-116.56137,33.01321]}},{"properties":{"zip":92056.0,"latitude":33.19962,"longitude":-117.28268,"id":"a62ky3l2rhyc","dentists":2.0},"type":"Feature","geometry":{"type":"Point","coordinates":[-117.28268,33.19962]}},{"properties":{"zip":92058.0,"latitude":33.23314,"longitude":-117.3497,"id":"a62ky3m36m03","dentists":3.0},"type":"Feature","geometry":{"type":"Point","coordinates":[-117.3497,33.23314]}},{"properties":{"zip":92064.0,"latitude":32.97632,"longitude":-117.04273,"id":"a62ky3gmwg63","dentists":3.0},"type":"Feature","geometry":{"type":"Point","coordinates":[-117.04273,32.97632]}},{"properties":{"zip":92070.0,"latitude":33.20211,"longitude":-116.75515,"id":"a62ky3pwmh8z","dentists":1.0},"type":"Feature","geometry":{"type":"Point","coordinates":[-116.75515,33.20211]}},{"properties":{"zip":92071.0,"latitude":32.84909,"longitude":-116.98933,"id":"a62ky3r1smb5","dentists":2.0},"type":"Feature","geometry":{"type":"Point","coordinates":[-116.98933,32.84909]}},{"properties":{"zip":92075.0,"latitude":32.98932,"longitude":-117.26059,"id":"a62ky3hk7yfn","dentists":1.0},"type":"Feature","geometry":{"type":"Point","coordinates":[-117.26059,32.98932]}},{"properties":{"zip":92101.0,"latitude":32.71852,"longitude":-117.16473,"id":"a62ky3jsjqrr","dentists":1.0},"type":"Feature","geometry":{"type":"Point","coordinates":[-117.16473,32.71852]}},{"properties":{"zip":92102.0,"latitude":32.71788,"longitude":-117.12102,"id":"a62ky3j3yakf","dentists":3.0},"type":"Feature","geometry":{"type":"Point","coordinates":[-117.12102,32.71788]}},{"properties":{"zip":92104.0,"latitude":32.7463,"longitude":-117.13048,"id":"a62ky3rzx695","dentists":2.0},"type":"Feature","geometry":{"type":"Point","coordinates":[-117.13048,32.7463]}},{"properties":{"zip":92106.0,"latitude":32.72738,"longitude":-117.22987,"id":"a62ky3u162rk","dentists":2.0},"type":"Feature","geometry":{"type":"Point","coordinates":[-117.22987,32.72738]}},{"properties":{"zip":92111.0,"latitude":32.79815,"longitude":-117.17058,"id":"a62ky3mg1kpl","dentists":1.0},"type":"Feature","geometry":{"type":"Point","coordinates":[-117.17058,32.79815]}},{"properties":{"zip":92115.0,"latitude":32.76188,"longitude":-117.07255,"id":"a62ky3fv5x4f","dentists":4.0},"type":"Feature","geometry":{"type":"Point","coordinates":[-117.07255,32.76188]}},{"properties":{"zip":92126.0,"latitude":32.9109,"longitude":-117.14418,"id":"a62ky3s9i85y","dentists":2.0},"type":"Feature","geometry":{"type":"Point","coordinates":[-117.14418,32.9109]}},{"properties":{"zip":92236.0,"latitude":33.67644,"longitude":-116.18557,"id":"a62ky3lluvm6","dentists":1.0},"type":"Feature","geometry":{"type":"Point","coordinates":[-116.18557,33.67644]}},{"properties":{"zip":92308.0,"latitude":34.45866,"longitude":-117.1902,"id":"a62ky3ma1thq","dentists":5.0},"type":"Feature","geometry":{"type":"Point","coordinates":[-117.1902,34.45866]}},{"properties":{"zip":92346.0,"latitude":34.12252,"longitude":-117.1979,"id":"a62ky3lew39c","dentists":2.0},"type":"Feature","geometry":{"type":"Point","coordinates":[-117.1979,34.12252]}},{"properties":{"zip":92374.0,"latitude":34.06824,"longitude":-117.17028,"id":"a62ky3g0qo61","dentists":3.0},"type":"Feature","geometry":{"type":"Point","coordinates":[-117.17028,34.06824]}},{"properties":{"zip":92376.0,"latitude":34.10861,"longitude":-117.37477,"id":"a62ky3rwgh3t","dentists":4.0},"type":"Feature","geometry":{"type":"Point","coordinates":[-117.37477,34.10861]}},{"properties":{"zip":92504.0,"latitude":33.92032,"longitude":-117.40625,"id":"a62ky3or93t9","dentists":2.0},"type":"Feature","geometry":{"type":"Point","coordinates":[-117.40625,33.92032]}},{"properties":{"zip":92506.0,"latitude":33.9464,"longitude":-117.37137,"id":"a62ky3iwaah0","dentists":2.0},"type":"Feature","geometry":{"type":"Point","coordinates":[-117.37137,33.9464]}},{"properties":{"zip":92553.0,"latitude":33.92089,"longitude":-117.24477,"id":"a62ky3n636q2","dentists":8.0},"type":"Feature","geometry":{"type":"Point","coordinates":[-117.24477,33.92089]}},{"properties":{"zip":92567.0,"latitude":33.80104,"longitude":-117.12862,"id":"a62ky3qhhp9b","dentists":2.0},"type":"Feature","geometry":{"type":"Point","coordinates":[-117.12862,33.80104]}},{"properties":{"zip":92627.0,"latitude":33.6435,"longitude":-117.91809,"id":"a62ky3uzalqc","dentists":2.0},"type":"Feature","geometry":{"type":"Point","coordinates":[-117.91809,33.6435]}},{"properties":{"zip":92660.0,"latitude":33.63102,"longitude":-117.87831,"id":"a62ky3vga4ub","dentists":1.0},"type":"Feature","geometry":{"type":"Point","coordinates":[-117.87831,33.63102]}},{"properties":{"zip":92663.0,"latitude":33.61839,"longitude":-117.93023,"id":"a62ky3io0lgm","dentists":3.0},"type":"Feature","geometry":{"type":"Point","coordinates":[-117.93023,33.61839]}},{"properties":{"zip":92672.0,"latitude":33.42506,"longitude":-117.61495,"id":"a62ky3p3ohod","dentists":2.0},"type":"Feature","geometry":{"type":"Point","coordinates":[-117.61495,33.42506]}},{"properties":{"zip":92673.0,"latitude":33.46001,"longitude":-117.61588,"id":"a62ky3qf3sf8","dentists":2.0},"type":"Feature","geometry":{"type":"Point","coordinates":[-117.61588,33.46001]}},{"properties":{"zip":92705.0,"latitude":33.7535,"longitude":-117.83146,"id":"a62ky3j11vcl","dentists":1.0},"type":"Feature","geometry":{"type":"Point","coordinates":[-117.83146,33.7535]}},{"properties":{"zip":92706.0,"latitude":33.76391,"longitude":-117.88156,"id":"a62ky3f8sl6e","dentists":1.0},"type":"Feature","geometry":{"type":"Point","coordinates":[-117.88156,33.76391]}},{"properties":{"zip":92707.0,"latitude":33.70618,"longitude":-117.86804,"id":"a62ky3qv9vg9","dentists":2.0},"type":"Feature","geometry":{"type":"Point","coordinates":[-117.86804,33.70618]}},{"properties":{"zip":92780.0,"latitude":33.73836,"longitude":-117.81556,"id":"a62ky3pe74w6","dentists":2.0},"type":"Feature","geometry":{"type":"Point","coordinates":[-117.81556,33.73836]}},{"properties":{"zip":92801.0,"latitude":33.84298,"longitude":-117.95312,"id":"a62ky3gse0i6","dentists":1.0},"type":"Feature","geometry":{"type":"Point","coordinates":[-117.95312,33.84298]}},{"properties":{"zip":92802.0,"latitude":33.80322,"longitude":-117.9239,"id":"a62ky3fogyah","dentists":2.0},"type":"Feature","geometry":{"type":"Point","coordinates":[-117.9239,33.80322]}},{"properties":{"zip":92804.0,"latitude":33.81642,"longitude":-117.97758,"id":"a62ky3grq6j3","dentists":3.0},"type":"Feature","geometry":{"type":"Point","coordinates":[-117.97758,33.81642]}},{"properties":{"zip":92805.0,"latitude":33.83575,"longitude":-117.90758,"id":"a62ky3lp3ser","dentists":1.0},"type":"Feature","geometry":{"type":"Point","coordinates":[-117.90758,33.83575]}},{"properties":{"zip":92806.0,"latitude":33.83685,"longitude":-117.87167,"id":"a62ky3pfqs6s","dentists":1.0},"type":"Feature","geometry":{"type":"Point","coordinates":[-117.87167,33.83685]}},{"properties":{"zip":92880.0,"latitude":33.93354,"longitude":-117.59933,"id":"a62ky3qh63f7","dentists":1.0},"type":"Feature","geometry":{"type":"Point","coordinates":[-117.59933,33.93354]}},{"properties":{"zip":92881.0,"latitude":33.84244,"longitude":-117.54179,"id":"a62ky3g26a8h","dentists":2.0},"type":"Feature","geometry":{"type":"Point","coordinates":[-117.54179,33.84244]}},{"properties":{"zip":92886.0,"latitude":33.89305,"longitude":-117.80367,"id":"a62ky3t917md","dentists":2.0},"type":"Feature","geometry":{"type":"Point","coordinates":[-117.80367,33.89305]}},{"properties":{"zip":93033.0,"latitude":34.16789,"longitude":-119.15742,"id":"a62ky3kajz09","dentists":1.0},"type":"Feature","geometry":{"type":"Point","coordinates":[-119.15742,34.16789]}},{"properties":{"zip":93215.0,"latitude":35.77496,"longitude":-119.23323,"id":"a62ky3mwwo3j","dentists":5.0},"type":"Feature","geometry":{"type":"Point","coordinates":[-119.23323,35.77496]}},{"properties":{"zip":93230.0,"latitude":36.33122,"longitude":-119.64488,"id":"a62ky3p7a6kn","dentists":3.0},"type":"Feature","geometry":{"type":"Point","coordinates":[-119.64488,36.33122]}},{"properties":{"zip":93257.0,"latitude":36.06452,"longitude":-119.03277,"id":"a62ky3sja8mm","dentists":2.0},"type":"Feature","geometry":{"type":"Point","coordinates":[-119.03277,36.06452]}},{"properties":{"zip":93280.0,"latitude":35.59902,"longitude":-119.35461,"id":"a62ky3hk5lz4","dentists":3.0},"type":"Feature","geometry":{"type":"Point","coordinates":[-119.35461,35.59902]}},{"properties":{"zip":93291.0,"latitude":36.34512,"longitude":-119.34304,"id":"a62ky3l2whpc","dentists":3.0},"type":"Feature","geometry":{"type":"Point","coordinates":[-119.34304,36.34512]}},{"properties":{"zip":93305.0,"latitude":35.39017,"longitude":-118.9821,"id":"a62ky3q3rpws","dentists":2.0},"type":"Feature","geometry":{"type":"Point","coordinates":[-118.9821,35.39017]}},{"properties":{"zip":93312.0,"latitude":35.39282,"longitude":-119.12201,"id":"a62ky3hea28d","dentists":1.0},"type":"Feature","geometry":{"type":"Point","coordinates":[-119.12201,35.39282]}},{"properties":{"zip":93401.0,"latitude":35.25752,"longitude":-120.64757,"id":"a62ky3rfed72","dentists":4.0},"type":"Feature","geometry":{"type":"Point","coordinates":[-120.64757,35.25752]}},{"properties":{"zip":93446.0,"latitude":35.63925,"longitude":-120.69059,"id":"a62ky3l1atoz","dentists":3.0},"type":"Feature","geometry":{"type":"Point","coordinates":[-120.69059,35.63925]}},{"properties":{"zip":93612.0,"latitude":36.81212,"longitude":-119.7109,"id":"a62ky3ja2bv7","dentists":1.0},"type":"Feature","geometry":{"type":"Point","coordinates":[-119.7109,36.81212]}},{"properties":{"zip":93644.0,"latitude":37.33439,"longitude":-119.63391,"id":"a62ky3pu6zoy","dentists":2.0},"type":"Feature","geometry":{"type":"Point","coordinates":[-119.63391,37.33439]}},{"properties":{"zip":93648.0,"latitude":36.60824,"longitude":-119.52982,"id":"a62ky3h54dsq","dentists":2.0},"type":"Feature","geometry":{"type":"Point","coordinates":[-119.52982,36.60824]}},{"properties":{"zip":93720.0,"latitude":36.85651,"longitude":-119.76135,"id":"a62ky3rbtdae","dentists":3.0},"type":"Feature","geometry":{"type":"Point","coordinates":[-119.76135,36.85651]}},{"properties":{"zip":93726.0,"latitude":36.79421,"longitude":-119.76329,"id":"a62ky3hh7t8h","dentists":3.0},"type":"Feature","geometry":{"type":"Point","coordinates":[-119.76329,36.79421]}},{"properties":{"zip":94010.0,"latitude":37.56991,"longitude":-122.36188,"id":"a62ky3srg49d","dentists":1.0},"type":"Feature","geometry":{"type":"Point","coordinates":[-122.36188,37.56991]}},{"properties":{"zip":94043.0,"latitude":37.40707,"longitude":-122.07548,"id":"a62ky3n38rhl","dentists":2.0},"type":"Feature","geometry":{"type":"Point","coordinates":[-122.07548,37.40707]}},{"properties":{"zip":94061.0,"latitude":37.46268,"longitude":-122.23225,"id":"a62ky3ki48qn","dentists":2.0},"type":"Feature","geometry":{"type":"Point","coordinates":[-122.23225,37.46268]}},{"properties":{"zip":94063.0,"latitude":37.48186,"longitude":-122.20992,"id":"a62ky3kikjdi","dentists":2.0},"type":"Feature","geometry":{"type":"Point","coordinates":[-122.20992,37.48186]}},{"properties":{"zip":94070.0,"latitude":37.50142,"longitude":-122.26762,"id":"a62ky3s0ortu","dentists":2.0},"type":"Feature","geometry":{"type":"Point","coordinates":[-122.26762,37.50142]}},{"properties":{"zip":94104.0,"latitude":37.79107,"longitude":-122.4016,"id":"a62ky3qdw3ir","dentists":1.0},"type":"Feature","geometry":{"type":"Point","coordinates":[-122.4016,37.79107]}},{"properties":{"zip":94109.0,"latitude":37.79173,"longitude":-122.41901,"id":"a62ky3op9mgb","dentists":2.0},"type":"Feature","geometry":{"type":"Point","coordinates":[-122.41901,37.79173]}},{"properties":{"zip":94115.0,"latitude":37.78577,"longitude":-122.43581,"id":"a62ky3nysmy0","dentists":4.0},"type":"Feature","geometry":{"type":"Point","coordinates":[-122.43581,37.78577]}},{"properties":{"zip":94403.0,"latitude":37.53655,"longitude":-122.30308,"id":"a62ky3nr6khw","dentists":1.0},"type":"Feature","geometry":{"type":"Point","coordinates":[-122.30308,37.53655]}},{"properties":{"zip":94404.0,"latitude":37.55596,"longitude":-122.26618,"id":"a62ky3nqu14h","dentists":3.0},"type":"Feature","geometry":{"type":"Point","coordinates":[-122.26618,37.55596]}},{"properties":{"zip":94513.0,"latitude":37.93485,"longitude":-121.70458,"id":"a62ky3nbm6p6","dentists":1.0},"type":"Feature","geometry":{"type":"Point","coordinates":[-121.70458,37.93485]}},{"properties":{"zip":94531.0,"latitude":37.97333,"longitude":-121.77493,"id":"a62ky3gql41f","dentists":1.0},"type":"Feature","geometry":{"type":"Point","coordinates":[-121.77493,37.97333]}},{"properties":{"zip":94550.0,"latitude":37.67347,"longitude":-121.72535,"id":"a62ky3m6ijya","dentists":2.0},"type":"Feature","geometry":{"type":"Point","coordinates":[-121.72535,37.67347]}},{"properties":{"zip":94558.0,"latitude":38.34654,"longitude":-122.30144,"id":"a62ky3juxpfp","dentists":3.0},"type":"Feature","geometry":{"type":"Point","coordinates":[-122.30144,38.34654]}},{"properties":{"zip":94565.0,"latitude":38.01399,"longitude":-121.91959,"id":"a62ky3jpvesd","dentists":2.0},"type":"Feature","geometry":{"type":"Point","coordinates":[-121.91959,38.01399]}},{"properties":{"zip":94566.0,"latitude":37.65984,"longitude":-121.86541,"id":"a62ky3ggqn8f","dentists":2.0},"type":"Feature","geometry":{"type":"Point","coordinates":[-121.86541,37.65984]}},{"properties":{"zip":94568.0,"latitude":37.71182,"longitude":-121.91441,"id":"a62ky3fgdfek","dentists":1.0},"type":"Feature","geometry":{"type":"Point","coordinates":[-121.91441,37.71182]}},{"properties":{"zip":94582.0,"latitude":37.77298,"longitude":-121.91419,"id":"a62ky3or72py","dentists":2.0},"type":"Feature","geometry":{"type":"Point","coordinates":[-121.91419,37.77298]}},{"properties":{"zip":94587.0,"latitude":37.59348,"longitude":-122.04378,"id":"a62ky3lffclx","dentists":2.0},"type":"Feature","geometry":{"type":"Point","coordinates":[-122.04378,37.59348]}},{"properties":{"zip":94590.0,"latitude":38.10449,"longitude":-122.25156,"id":"a62ky3obgr2q","dentists":1.0},"type":"Feature","geometry":{"type":"Point","coordinates":[-122.25156,38.10449]}},{"properties":{"zip":94703.0,"latitude":37.86424,"longitude":-122.27684,"id":"a62ky3ha5vxr","dentists":2.0},"type":"Feature","geometry":{"type":"Point","coordinates":[-122.27684,37.86424]}},{"properties":{"zip":94806.0,"latitude":37.97625,"longitude":-122.33739,"id":"a62ky3qrrsjd","dentists":2.0},"type":"Feature","geometry":{"type":"Point","coordinates":[-122.33739,37.97625]}},{"properties":{"zip":94920.0,"latitude":37.89296,"longitude":-122.47429,"id":"a62ky3n86cdx","dentists":1.0},"type":"Feature","geometry":{"type":"Point","coordinates":[-122.47429,37.89296]}},{"properties":{"zip":94931.0,"latitude":38.326,"longitude":-122.70629,"id":"a62ky3gyu6c8","dentists":1.0},"type":"Feature","geometry":{"type":"Point","coordinates":[-122.70629,38.326]}},{"properties":{"zip":95014.0,"latitude":37.31595,"longitude":-122.04141,"id":"a62ky3hsmsol","dentists":1.0},"type":"Feature","geometry":{"type":"Point","coordinates":[-122.04141,37.31595]}},{"properties":{"zip":95020.0,"latitude":37.02021,"longitude":-121.5775,"id":"a62ky3jllkzh","dentists":2.0},"type":"Feature","geometry":{"type":"Point","coordinates":[-121.5775,37.02021]}},{"properties":{"zip":95032.0,"latitude":37.23857,"longitude":-121.95631,"id":"a62ky3j7akqw","dentists":2.0},"type":"Feature","geometry":{"type":"Point","coordinates":[-121.95631,37.23857]}},{"properties":{"zip":95035.0,"latitude":37.43627,"longitude":-121.88672,"id":"a62ky3o79avi","dentists":3.0},"type":"Feature","geometry":{"type":"Point","coordinates":[-121.88672,37.43627]}},{"properties":{"zip":95051.0,"latitude":37.34653,"longitude":-121.98341,"id":"a62ky3mx4254","dentists":2.0},"type":"Feature","geometry":{"type":"Point","coordinates":[-121.98341,37.34653]}},{"properties":{"zip":95060.0,"latitude":36.99227,"longitude":-122.03417,"id":"a62ky3gxk2ae","dentists":1.0},"type":"Feature","geometry":{"type":"Point","coordinates":[-122.03417,36.99227]}},{"properties":{"zip":95121.0,"latitude":37.30679,"longitude":-121.8059,"id":"a62ky3fdklj6","dentists":2.0},"type":"Feature","geometry":{"type":"Point","coordinates":[-121.8059,37.30679]}},{"properties":{"zip":95122.0,"latitude":37.32745,"longitude":-121.83581,"id":"a62ky3iohowq","dentists":2.0},"type":"Feature","geometry":{"type":"Point","coordinates":[-121.83581,37.32745]}},{"properties":{"zip":95127.0,"latitude":37.37081,"longitude":-121.81986,"id":"a62ky3ray6v1","dentists":2.0},"type":"Feature","geometry":{"type":"Point","coordinates":[-121.81986,37.37081]}},{"properties":{"zip":95132.0,"latitude":37.40464,"longitude":-121.85902,"id":"a62ky3iscg9k","dentists":3.0},"type":"Feature","geometry":{"type":"Point","coordinates":[-121.85902,37.40464]}},{"properties":{"zip":95207.0,"latitude":37.9995,"longitude":-121.32119,"id":"a62ky3v82rhs","dentists":2.0},"type":"Feature","geometry":{"type":"Point","coordinates":[-121.32119,37.9995]}},{"properties":{"zip":95348.0,"latitude":37.33661,"longitude":-120.49328,"id":"a62ky3lkmup1","dentists":6.0},"type":"Feature","geometry":{"type":"Point","coordinates":[-120.49328,37.33661]}},{"properties":{"zip":95370.0,"latitude":37.99935,"longitude":-120.32956,"id":"a62ky3ohxey5","dentists":2.0},"type":"Feature","geometry":{"type":"Point","coordinates":[-120.32956,37.99935]}},{"properties":{"zip":95380.0,"latitude":37.48243,"longitude":-120.86053,"id":"a62ky3lifg1y","dentists":1.0},"type":"Feature","geometry":{"type":"Point","coordinates":[-120.86053,37.48243]}},{"properties":{"zip":95404.0,"latitude":38.45525,"longitude":-122.69548,"id":"a62ky3gsld4h","dentists":1.0},"type":"Feature","geometry":{"type":"Point","coordinates":[-122.69548,38.45525]}},{"properties":{"zip":95407.0,"latitude":38.40747,"longitude":-122.73827,"id":"a62ky3hyolko","dentists":1.0},"type":"Feature","geometry":{"type":"Point","coordinates":[-122.73827,38.40747]}},{"properties":{"zip":95454.0,"latitude":39.68527,"longitude":-123.48363,"id":"a62ky3mw6g5l","dentists":2.0},"type":"Feature","geometry":{"type":"Point","coordinates":[-123.48363,39.68527]}},{"properties":{"zip":95465.0,"latitude":38.4054,"longitude":-122.99109,"id":"a62ky3p5v4w2","dentists":18.0},"type":"Feature","geometry":{"type":"Point","coordinates":[-122.99109,38.4054]}},{"properties":{"zip":95501.0,"latitude":40.79147,"longitude":-124.1571,"id":"a62ky3oi9ml0","dentists":2.0},"type":"Feature","geometry":{"type":"Point","coordinates":[-124.1571,40.79147]}},{"properties":{"zip":95560.0,"latitude":40.12193,"longitude":-123.88169,"id":"a62ky3p7ds6p","dentists":1.0},"type":"Feature","geometry":{"type":"Point","coordinates":[-123.88169,40.12193]}},{"properties":{"zip":95567.0,"latitude":41.93904,"longitude":-124.16549,"id":"a62ky3vlb2fh","dentists":1.0},"type":"Feature","geometry":{"type":"Point","coordinates":[-124.16549,41.93904]}},{"properties":{"zip":95616.0,"latitude":38.55622,"longitude":-121.76239,"id":"a62ky3j28z53","dentists":5.0},"type":"Feature","geometry":{"type":"Point","coordinates":[-121.76239,38.55622]}},{"properties":{"zip":95627.0,"latitude":38.74406,"longitude":-122.03573,"id":"a62ky3ouf175","dentists":1.0},"type":"Feature","geometry":{"type":"Point","coordinates":[-122.03573,38.74406]}},{"properties":{"zip":95630.0,"latitude":38.67221,"longitude":-121.14187,"id":"a62ky3ga7jmj","dentists":2.0},"type":"Feature","geometry":{"type":"Point","coordinates":[-121.14187,38.67221]}},{"properties":{"zip":95687.0,"latitude":38.34918,"longitude":-121.95382,"id":"a62ky3q2bqg9","dentists":2.0},"type":"Feature","geometry":{"type":"Point","coordinates":[-121.95382,38.34918]}},{"properties":{"zip":95762.0,"latitude":38.68171,"longitude":-121.06802,"id":"a62ky3gv0hcv","dentists":2.0},"type":"Feature","geometry":{"type":"Point","coordinates":[-121.06802,38.68171]}},{"properties":{"zip":95826.0,"latitude":38.5494,"longitude":-121.36771,"id":"a62ky3m7te5y","dentists":1.0},"type":"Feature","geometry":{"type":"Point","coordinates":[-121.36771,38.5494]}},{"properties":{"zip":95947.0,"latitude":40.16241,"longitude":-120.91957,"id":"a62ky3jx3i05","dentists":1.0},"type":"Feature","geometry":{"type":"Point","coordinates":[-120.91957,40.16241]}},{"properties":{"zip":95961.0,"latitude":39.06596,"longitude":-121.56136,"id":"a62ky3puqrsm","dentists":2.0},"type":"Feature","geometry":{"type":"Point","coordinates":[-121.56136,39.06596]}},{"properties":{"zip":95965.0,"latitude":39.60521,"longitude":-121.53962,"id":"a62ky3p9wykz","dentists":2.0},"type":"Feature","geometry":{"type":"Point","coordinates":[-121.53962,39.60521]}},{"properties":{"zip":95966.0,"latitude":39.47211,"longitude":-121.48819,"id":"a62ky3g9om3r","dentists":2.0},"type":"Feature","geometry":{"type":"Point","coordinates":[-121.48819,39.47211]}},{"properties":{"zip":96001.0,"latitude":40.56342,"longitude":-122.41057,"id":"a62ky3m42tfi","dentists":3.0},"type":"Feature","geometry":{"type":"Point","coordinates":[-122.41057,40.56342]}},{"properties":{"zip":96104.0,"latitude":41.52688,"longitude":-120.17189,"id":"a62ky3onxlm4","dentists":2.0},"type":"Feature","geometry":{"type":"Point","coordinates":[-120.17189,41.52688]}},{"properties":{"zip":96134.0,"latitude":41.87998,"longitude":-121.40044,"id":"a62ky3ortl29","dentists":1.0},"type":"Feature","geometry":{"type":"Point","coordinates":[-121.40044,41.87998]}},{"properties":{"zip":96782.0,"latitude":21.40139,"longitude":-157.96706,"id":"a62ky3ot368w","dentists":1.0},"type":"Feature","geometry":{"type":"Point","coordinates":[-157.96706,21.40139]}},{"properties":{"zip":96813.0,"latitude":21.31,"longitude":-157.85645,"id":"a62ky3fej8c2","dentists":2.0},"type":"Feature","geometry":{"type":"Point","coordinates":[-157.85645,21.31]}},{"properties":{"zip":97006.0,"latitude":45.51865,"longitude":-122.86236,"id":"a62ky3s1ntgo","dentists":2.0},"type":"Feature","geometry":{"type":"Point","coordinates":[-122.86236,45.51865]}},{"properties":{"zip":97015.0,"latitude":45.41431,"longitude":-122.54239,"id":"a62ky3gq55lg","dentists":1.0},"type":"Feature","geometry":{"type":"Point","coordinates":[-122.54239,45.41431]}},{"properties":{"zip":97016.0,"latitude":46.08264,"longitude":-123.22124,"id":"a62ky3lq9wci","dentists":2.0},"type":"Feature","geometry":{"type":"Point","coordinates":[-123.22124,46.08264]}},{"properties":{"zip":97035.0,"latitude":45.41077,"longitude":-122.71899,"id":"a62ky3sck3lz","dentists":1.0},"type":"Feature","geometry":{"type":"Point","coordinates":[-122.71899,45.41077]}},{"properties":{"zip":97055.0,"latitude":45.39804,"longitude":-122.23914,"id":"a62ky3hbqrwd","dentists":4.0},"type":"Feature","geometry":{"type":"Point","coordinates":[-122.23914,45.39804]}},{"properties":{"zip":97062.0,"latitude":45.37533,"longitude":-122.76276,"id":"a62ky3h5af7l","dentists":2.0},"type":"Feature","geometry":{"type":"Point","coordinates":[-122.76276,45.37533]}},{"properties":{"zip":97071.0,"latitude":45.14137,"longitude":-122.84785,"id":"a62ky3ksu7fj","dentists":2.0},"type":"Feature","geometry":{"type":"Point","coordinates":[-122.84785,45.14137]}},{"properties":{"zip":97113.0,"latitude":45.51849,"longitude":-123.0448,"id":"a62ky3mwemk2","dentists":1.0},"type":"Feature","geometry":{"type":"Point","coordinates":[-123.0448,45.51849]}},{"properties":{"zip":97217.0,"latitude":45.57622,"longitude":-122.68831,"id":"a62ky3v77jl9","dentists":1.0},"type":"Feature","geometry":{"type":"Point","coordinates":[-122.68831,45.57622]}},{"properties":{"zip":97220.0,"latitude":45.5468,"longitude":-122.55468,"id":"a62ky3qmos3x","dentists":1.0},"type":"Feature","geometry":{"type":"Point","coordinates":[-122.55468,45.5468]}},{"properties":{"zip":97222.0,"latitude":45.44188,"longitude":-122.61556,"id":"a62ky3nlcrzw","dentists":1.0},"type":"Feature","geometry":{"type":"Point","coordinates":[-122.61556,45.44188]}},{"properties":{"zip":97223.0,"latitude":45.44179,"longitude":-122.77922,"id":"a62ky3l7kf6n","dentists":1.0},"type":"Feature","geometry":{"type":"Point","coordinates":[-122.77922,45.44179]}},{"properties":{"zip":97230.0,"latitude":45.53904,"longitude":-122.50497,"id":"a62ky3lj8xz3","dentists":1.0},"type":"Feature","geometry":{"type":"Point","coordinates":[-122.50497,45.53904]}},{"properties":{"zip":97524.0,"latitude":42.48136,"longitude":-122.79818,"id":"a62ky3hn24d3","dentists":1.0},"type":"Feature","geometry":{"type":"Point","coordinates":[-122.79818,42.48136]}},{"properties":{"zip":97701.0,"latitude":44.08354,"longitude":-121.2795,"id":"a62ky3t2ak3b","dentists":3.0},"type":"Feature","geometry":{"type":"Point","coordinates":[-121.2795,44.08354]}},{"properties":{"zip":97702.0,"latitude":44.02422,"longitude":-121.30211,"id":"a62ky3h2lows","dentists":2.0},"type":"Feature","geometry":{"type":"Point","coordinates":[-121.30211,44.02422]}},{"properties":{"zip":97801.0,"latitude":45.66482,"longitude":-118.79469,"id":"a62ky3hd9qfh","dentists":1.0},"type":"Feature","geometry":{"type":"Point","coordinates":[-118.79469,45.66482]}},{"properties":{"zip":97914.0,"latitude":44.04086,"longitude":-116.97224,"id":"a62ky3fiomih","dentists":3.0},"type":"Feature","geometry":{"type":"Point","coordinates":[-116.97224,44.04086]}},{"properties":{"zip":98004.0,"latitude":47.61736,"longitude":-122.19896,"id":"a62ky3ihg9mq","dentists":1.0},"type":"Feature","geometry":{"type":"Point","coordinates":[-122.19896,47.61736]}},{"properties":{"zip":98020.0,"latitude":47.79985,"longitude":-122.37221,"id":"a62ky3nfuvzg","dentists":2.0},"type":"Feature","geometry":{"type":"Point","coordinates":[-122.37221,47.79985]}},{"properties":{"zip":98052.0,"latitude":47.6749,"longitude":-122.1232,"id":"a62ky3fwxdzm","dentists":1.0},"type":"Feature","geometry":{"type":"Point","coordinates":[-122.1232,47.6749]}},{"properties":{"zip":98087.0,"latitude":47.86292,"longitude":-122.26492,"id":"a62ky3v1rk31","dentists":1.0},"type":"Feature","geometry":{"type":"Point","coordinates":[-122.26492,47.86292]}},{"properties":{"zip":98133.0,"latitude":47.74148,"longitude":-122.34639,"id":"a62ky3v34poa","dentists":1.0},"type":"Feature","geometry":{"type":"Point","coordinates":[-122.34639,47.74148]}},{"properties":{"zip":98201.0,"latitude":47.98842,"longitude":-122.20026,"id":"a62ky3k7fo20","dentists":2.0},"type":"Feature","geometry":{"type":"Point","coordinates":[-122.20026,47.98842]}},{"properties":{"zip":98208.0,"latitude":47.89078,"longitude":-122.19512,"id":"a62ky3f9grut","dentists":1.0},"type":"Feature","geometry":{"type":"Point","coordinates":[-122.19512,47.89078]}},{"properties":{"zip":98335.0,"latitude":47.30072,"longitude":-122.60254,"id":"a62ky3kbagf1","dentists":1.0},"type":"Feature","geometry":{"type":"Point","coordinates":[-122.60254,47.30072]}},{"properties":{"zip":98405.0,"latitude":47.24482,"longitude":-122.46741,"id":"a62ky3n3dw1y","dentists":2.0},"type":"Feature","geometry":{"type":"Point","coordinates":[-122.46741,47.24482]}},{"properties":{"zip":98499.0,"latitude":47.16659,"longitude":-122.49945,"id":"a62ky3tcjgmt","dentists":5.0},"type":"Feature","geometry":{"type":"Point","coordinates":[-122.49945,47.16659]}},{"properties":{"zip":98541.0,"latitude":47.01624,"longitude":-123.40687,"id":"a62ky3pd55wt","dentists":1.0},"type":"Feature","geometry":{"type":"Point","coordinates":[-123.40687,47.01624]}},{"properties":{"zip":98597.0,"latitude":46.90632,"longitude":-122.55903,"id":"a62ky3s4869s","dentists":4.0},"type":"Feature","geometry":{"type":"Point","coordinates":[-122.55903,46.90632]}},{"properties":{"zip":98664.0,"latitude":45.62033,"longitude":-122.57349,"id":"a62ky3r9qbps","dentists":2.0},"type":"Feature","geometry":{"type":"Point","coordinates":[-122.57349,45.62033]}},{"properties":{"zip":98926.0,"latitude":47.01037,"longitude":-120.53644,"id":"a62ky3hkilcm","dentists":2.0},"type":"Feature","geometry":{"type":"Point","coordinates":[-120.53644,47.01037]}},{"properties":{"zip":99156.0,"latitude":48.13634,"longitude":-117.18615,"id":"a62ky3hb616y","dentists":2.0},"type":"Feature","geometry":{"type":"Point","coordinates":[-117.18615,48.13634]}},{"properties":{"zip":99205.0,"latitude":47.69723,"longitude":-117.44131,"id":"a62ky3pz81i9","dentists":1.0},"type":"Feature","geometry":{"type":"Point","coordinates":[-117.44131,47.69723]}},{"properties":{"zip":99336.0,"latitude":46.21062,"longitude":-119.1764,"id":"a62ky3js8x65","dentists":2.0},"type":"Feature","geometry":{"type":"Point","coordinates":[-119.1764,46.21062]}},{"properties":{"zip":99502.0,"latitude":61.15063,"longitude":-149.95826,"id":"a62ky3u33k3u","dentists":2.0},"type":"Feature","geometry":{"type":"Point","coordinates":[-149.95826,61.15063]}},{"properties":{"zip":99503.0,"latitude":61.1895,"longitude":-149.88659,"id":"a62ky3ff1ucg","dentists":4.0},"type":"Feature","geometry":{"type":"Point","coordinates":[-149.88659,61.1895]}},{"properties":{"zip":99504.0,"latitude":61.20298,"longitude":-149.74525,"id":"a62ky3fxdttw","dentists":3.0},"type":"Feature","geometry":{"type":"Point","coordinates":[-149.74525,61.20298]}},{"properties":{"zip":99507.0,"latitude":61.14423,"longitude":-149.80262,"id":"a62ky3lvw9aq","dentists":2.0},"type":"Feature","geometry":{"type":"Point","coordinates":[-149.80262,61.14423]}},{"properties":{"zip":99515.0,"latitude":61.11351,"longitude":-149.88895,"id":"a62ky3u5lsb9","dentists":2.0},"type":"Feature","geometry":{"type":"Point","coordinates":[-149.88895,61.11351]}},{"properties":{"zip":99577.0,"latitude":61.31454,"longitude":-149.50963,"id":"a62ky3k8i7f8","dentists":3.0},"type":"Feature","geometry":{"type":"Point","coordinates":[-149.50963,61.31454]}},{"properties":{"zip":99588.0,"latitude":62.04886,"longitude":-146.36421,"id":"a62ky3ogygwl","dentists":2.0},"type":"Feature","geometry":{"type":"Point","coordinates":[-146.36421,62.04886]}},{"properties":{"zip":99603.0,"latitude":59.65522,"longitude":-151.48334,"id":"a62ky3lwa6my","dentists":3.0},"type":"Feature","geometry":{"type":"Point","coordinates":[-151.48334,59.65522]}},{"properties":{"zip":99611.0,"latitude":60.56242,"longitude":-151.20115,"id":"a62ky3mj0n6v","dentists":2.0},"type":"Feature","geometry":{"type":"Point","coordinates":[-151.20115,60.56242]}},{"properties":{"zip":99654.0,"latitude":61.58507,"longitude":-149.46006,"id":"a62ky3s8qh41","dentists":6.0},"type":"Feature","geometry":{"type":"Point","coordinates":[-149.46006,61.58507]}},{"properties":{"zip":99669.0,"latitude":60.48502,"longitude":-151.07957,"id":"a62ky3jormo3","dentists":4.0},"type":"Feature","geometry":{"type":"Point","coordinates":[-151.07957,60.48502]}},{"properties":{"zip":99780.0,"latitude":63.9218,"longitude":-142.24461,"id":"a62ky3v8arbe","dentists":1.0},"type":"Feature","geometry":{"type":"Point","coordinates":[-142.24461,63.9218]}},{"properties":{"zip":99801.0,"latitude":58.35911,"longitude":-134.54827,"id":"a62ky3hl25bj","dentists":3.0},"type":"Feature","geometry":{"type":"Point","coordinates":[-134.54827,58.35911]}}],"is_temporal":false,"author":{"url":"","metadata":"","contact_name":"","contact_address":"","source":"","contact_phone":""},"source":"","pagination":{"sort":null,"start":0,"total":1019,"limit":1000000},"state":"complete","tags":"","published":"2009-06-16T12:00:00Z","id":13556}