{"type":"FeatureCollection","data_type":"Dataset","url_type":null,"permissions":[{"permissions":{"download":true,"view":true},"group_id":"everyone"}],"classification":null,"title":"christy James","count":32,"stream_id":13794,"contributor":{"url":"http://geocommons.com/users/7253","name":"christyruth"},"data_attributes":null,"calculation_params":null,"icon_link":null,"link":"http://geocommons.com/overlays/13794.json","extent":[73.3431,32.7253,122.695,40.6311],"geometry_types":["point"],"unique_name":null,"name":"christy James","feature_count":32,"description":"","next_feature":null,"is_raster":false,"short_classification":"Y","stats":{"zip":{"max":94954.0,"mean":90519.53125,"variance":208390637.86996,"stdev":14435.7416806328,"min":11702.0,"median":92131.0},"latitude":{"max":40.6311,"mean":35.413378125,"variance":6.61739563337702,"stdev":2.57242990835067,"min":32.7253,"median":34.2276},"number":{"max":32.0,"mean":16.5,"variance":88.0,"stdev":9.38083151964686,"min":1.0,"median":17.0},"longitude":{"max":122.6948,"mean":118.148078125,"variance":73.3829965662802,"stdev":8.56638760308452,"min":73.3431,"median":118.4254}},"features":[{"properties":{"zip":94123.0,"latitude":37.801,"number":1.0,"longitude":122.4365,"id":"a7hl7m1ozs1m"},"type":"Feature","geometry":{"type":"Point","coordinates":[122.4365,37.801]}},{"properties":{"zip":94123.0,"latitude":37.801,"number":2.0,"longitude":122.4365,"id":"a7hl7m5smzb0"},"type":"Feature","geometry":{"type":"Point","coordinates":[122.4365,37.801]}},{"properties":{"zip":92064.0,"latitude":32.9789,"number":3.0,"longitude":117.0196,"id":"a7hl7lv87fht"},"type":"Feature","geometry":{"type":"Point","coordinates":[117.0196,32.9789]}},{"properties":{"zip":94123.0,"latitude":37.801,"number":4.0,"longitude":122.4365,"id":"a7hl7luxrbn1"},"type":"Feature","geometry":{"type":"Point","coordinates":[122.4365,37.801]}},{"properties":{"zip":92101.0,"latitude":32.7253,"number":5.0,"longitude":117.1721,"id":"a7hl7lxrv4jh"},"type":"Feature","geometry":{"type":"Point","coordinates":[117.1721,32.7253]}},{"properties":{"zip":92064.0,"latitude":32.9789,"number":6.0,"longitude":117.0196,"id":"a7hl7m7j4f3b"},"type":"Feature","geometry":{"type":"Point","coordinates":[117.0196,32.9789]}},{"properties":{"zip":92131.0,"latitude":32.9147,"number":7.0,"longitude":117.0905,"id":"a7hl7lzdggk1"},"type":"Feature","geometry":{"type":"Point","coordinates":[117.0905,32.9147]}},{"properties":{"zip":94109.0,"latitude":37.7933,"number":8.0,"longitude":122.4212,"id":"a7hl7luhxa1b"},"type":"Feature","geometry":{"type":"Point","coordinates":[122.4212,37.7933]}},{"properties":{"zip":94506.0,"latitude":37.8002,"number":9.0,"longitude":121.9037,"id":"a7hl7lxctvzh"},"type":"Feature","geometry":{"type":"Point","coordinates":[121.9037,37.8002]}},{"properties":{"zip":92084.0,"latitude":33.2235,"number":10.0,"longitude":117.2044,"id":"a7hl7ltaa4mf"},"type":"Feature","geometry":{"type":"Point","coordinates":[117.2044,33.2235]}},{"properties":{"zip":94123.0,"latitude":37.801,"number":11.0,"longitude":122.4365,"id":"a7hl7m6aukmz"},"type":"Feature","geometry":{"type":"Point","coordinates":[122.4365,37.801]}},{"properties":{"zip":90064.0,"latitude":34.0365,"number":12.0,"longitude":118.4254,"id":"a7hl7lwbnrst"},"type":"Feature","geometry":{"type":"Point","coordinates":[118.4254,34.0365]}},{"properties":{"zip":94105.0,"latitude":37.7888,"number":13.0,"longitude":122.3948,"id":"a7hl7m43gf6x"},"type":"Feature","geometry":{"type":"Point","coordinates":[122.3948,37.7888]}},{"properties":{"zip":93010.0,"latitude":34.2276,"number":14.0,"longitude":119.0699,"id":"a7hl7lzovnfd"},"type":"Feature","geometry":{"type":"Point","coordinates":[119.0699,34.2276]}},{"properties":{"zip":94705.0,"latitude":37.865,"number":15.0,"longitude":122.2386,"id":"a7hl7lzolaru"},"type":"Feature","geometry":{"type":"Point","coordinates":[122.2386,37.865]}},{"properties":{"zip":94536.0,"latitude":37.571,"number":16.0,"longitude":121.9858,"id":"a7hl7m3klk7d"},"type":"Feature","geometry":{"type":"Point","coordinates":[121.9858,37.571]}},{"properties":{"zip":92037.0,"latitude":32.8548,"number":17.0,"longitude":117.2497,"id":"a7hl7m4uqeyl"},"type":"Feature","geometry":{"type":"Point","coordinates":[117.2497,32.8548]}},{"properties":{"zip":94123.0,"latitude":37.801,"number":18.0,"longitude":122.4365,"id":"a7hl7lrpp3tx"},"type":"Feature","geometry":{"type":"Point","coordinates":[122.4365,37.801]}},{"properties":{"zip":92084.0,"latitude":33.2235,"number":19.0,"longitude":117.2044,"id":"a7hl7lzjxyl9"},"type":"Feature","geometry":{"type":"Point","coordinates":[117.2044,33.2235]}},{"properties":{"zip":92064.0,"latitude":32.9789,"number":20.0,"longitude":117.0196,"id":"a7hl7lyue27v"},"type":"Feature","geometry":{"type":"Point","coordinates":[117.0196,32.9789]}},{"properties":{"zip":92024.0,"latitude":33.0541,"number":21.0,"longitude":117.2509,"id":"a7hl7ludkbdr"},"type":"Feature","geometry":{"type":"Point","coordinates":[117.2509,33.0541]}},{"properties":{"zip":94928.0,"latitude":38.349,"number":22.0,"longitude":122.6948,"id":"a7hl7lvdrdy4"},"type":"Feature","geometry":{"type":"Point","coordinates":[122.6948,38.349]}},{"properties":{"zip":92131.0,"latitude":32.9147,"number":23.0,"longitude":117.0905,"id":"a7hl7m6kwa1x"},"type":"Feature","geometry":{"type":"Point","coordinates":[117.0905,32.9147]}},{"properties":{"zip":92065.0,"latitude":33.0538,"number":24.0,"longitude":116.8517,"id":"a7hl7ltyu4op"},"type":"Feature","geometry":{"type":"Point","coordinates":[116.8517,33.0538]}},{"properties":{"zip":92064.0,"latitude":32.9789,"number":25.0,"longitude":117.0196,"id":"a7hl7m3yrff6"},"type":"Feature","geometry":{"type":"Point","coordinates":[117.0196,32.9789]}},{"properties":{"zip":92101.0,"latitude":32.7253,"number":26.0,"longitude":117.1721,"id":"a7hl7m52luk1"},"type":"Feature","geometry":{"type":"Point","coordinates":[117.1721,32.7253]}},{"properties":{"zip":94107.0,"latitude":37.7757,"number":27.0,"longitude":122.3952,"id":"a7hl7m408x4d"},"type":"Feature","geometry":{"type":"Point","coordinates":[122.3952,37.7757]}},{"properties":{"zip":94954.0,"latitude":38.2306,"number":28.0,"longitude":122.5591,"id":"a7hl7m14a6ha"},"type":"Feature","geometry":{"type":"Point","coordinates":[122.5591,38.2306]}},{"properties":{"zip":92131.0,"latitude":32.9147,"number":29.0,"longitude":117.0905,"id":"a7hl7m7imo36"},"type":"Feature","geometry":{"type":"Point","coordinates":[117.0905,32.9147]}},{"properties":{"zip":11702.0,"latitude":40.6311,"number":30.0,"longitude":73.3431,"id":"a7hl7m26t5df"},"type":"Feature","geometry":{"type":"Point","coordinates":[73.3431,40.6311]}},{"properties":{"zip":92037.0,"latitude":32.8548,"number":31.0,"longitude":117.2497,"id":"a7hl7lyldz2x"},"type":"Feature","geometry":{"type":"Point","coordinates":[117.2497,32.8548]}},{"properties":{"zip":94102.0,"latitude":37.7795,"number":32.0,"longitude":122.4195,"id":"a7hl7lwmkhhf"},"type":"Feature","geometry":{"type":"Point","coordinates":[122.4195,37.7795]}}],"is_temporal":false,"author":{"url":"","metadata":"","contact_name":"","contact_address":"","source":"","contact_phone":""},"source":"","pagination":{"sort":null,"start":0,"total":32,"limit":1000000},"state":"complete","tags":"","published":"2014-08-10T17:38:01-04:00","id":13794}