{"type":"FeatureCollection","data_type":"Dataset","url_type":null,"permissions":[{"permissions":{"download":true,"view":true},"group_id":"everyone"}],"classification":null,"title":"Junior Students","count":607,"stream_id":14237,"contributor":{"url":"http://geocommons.com/users/7442","name":"trg9"},"data_attributes":null,"calculation_params":null,"icon_link":null,"link":"http://geocommons.com/overlays/14237.json","extent":[-149.829,-28.4863,152.93,61.2037],"geometry_types":["point"],"unique_name":null,"name":"Junior Students","feature_count":607,"description":"","next_feature":null,"is_raster":false,"short_classification":"Y","stats":{"zip":{"max":99516.0,"mean":37833.6210873147,"variance":523657290.912293,"stdev":22883.5594021624,"min":1106.0,"median":44023.0},"latitude":{"max":61.203696,"mean":40.2077946853378,"variance":19.6227444355629,"stdev":4.42975670162176,"min":-28.48634,"median":40.838652},"jr":{"max":12.0,"mean":1.50411861614498,"variance":2.01607211792016,"stdev":1.41988454386973,"min":1.0,"median":1.0},"longitude":{"max":152.929535,"mean":-82.8108782224053,"variance":288.752313912441,"stdev":16.9927135535335,"min":-149.828912,"median":-81.684845}},"features":[{"properties":{"zip":1106.0,"latitude":42.050658,"jr":1.0,"longitude":-72.5676,"id":"a64zexlysts8"},"type":"Feature","geometry":{"type":"Point","coordinates":[-72.5676,42.050658]}},{"properties":{"zip":1360.0,"latitude":42.688705,"jr":1.0,"longitude":-72.450995,"id":"a64zex6sn4rr"},"type":"Feature","geometry":{"type":"Point","coordinates":[-72.450995,42.688705]}},{"properties":{"zip":1450.0,"latitude":42.612351,"jr":2.0,"longitude":-71.558371,"id":"a64zexgiw00o"},"type":"Feature","geometry":{"type":"Point","coordinates":[-71.558371,42.612351]}},{"properties":{"zip":1701.0,"latitude":42.300665,"jr":1.0,"longitude":-71.425486,"id":"a64zexisnio2"},"type":"Feature","geometry":{"type":"Point","coordinates":[-71.425486,42.300665]}},{"properties":{"zip":1719.0,"latitude":42.486876,"jr":1.0,"longitude":-71.518229,"id":"a64zexjey7p3"},"type":"Feature","geometry":{"type":"Point","coordinates":[-71.518229,42.486876]}},{"properties":{"zip":1720.0,"latitude":42.475076,"jr":1.0,"longitude":-71.448255,"id":"a64zex6zor3r"},"type":"Feature","geometry":{"type":"Point","coordinates":[-71.448255,42.475076]}},{"properties":{"zip":1741.0,"latitude":42.528562,"jr":2.0,"longitude":-71.351892,"id":"a64zexkg9gjd"},"type":"Feature","geometry":{"type":"Point","coordinates":[-71.351892,42.528562]}},{"properties":{"zip":1760.0,"latitude":42.287476,"jr":1.0,"longitude":-71.35741,"id":"a64zex77pno6"},"type":"Feature","geometry":{"type":"Point","coordinates":[-71.35741,42.287476]}},{"properties":{"zip":1778.0,"latitude":42.348629,"jr":1.0,"longitude":-71.358781,"id":"a64zexcukhss"},"type":"Feature","geometry":{"type":"Point","coordinates":[-71.358781,42.348629]}},{"properties":{"zip":1821.0,"latitude":42.551874,"jr":1.0,"longitude":-71.251754,"id":"a64zexi8meek"},"type":"Feature","geometry":{"type":"Point","coordinates":[-71.251754,42.551874]}},{"properties":{"zip":1824.0,"latitude":42.59356,"jr":1.0,"longitude":-71.357521,"id":"a64zex8r497t"},"type":"Feature","geometry":{"type":"Point","coordinates":[-71.357521,42.59356]}},{"properties":{"zip":1879.0,"latitude":42.672383,"jr":1.0,"longitude":-71.415766,"id":"a64zexjhnzlj"},"type":"Feature","geometry":{"type":"Point","coordinates":[-71.415766,42.672383]}},{"properties":{"zip":1880.0,"latitude":42.500886,"jr":1.0,"longitude":-71.068471,"id":"a64zex775xqj"},"type":"Feature","geometry":{"type":"Point","coordinates":[-71.068471,42.500886]}},{"properties":{"zip":1886.0,"latitude":42.589959,"jr":1.0,"longitude":-71.438143,"id":"a64zexa5pm0y"},"type":"Feature","geometry":{"type":"Point","coordinates":[-71.438143,42.589959]}},{"properties":{"zip":2030.0,"latitude":42.236233,"jr":1.0,"longitude":-71.285363,"id":"a64zex8pr1on"},"type":"Feature","geometry":{"type":"Point","coordinates":[-71.285363,42.236233]}},{"properties":{"zip":2145.0,"latitude":42.390678,"jr":1.0,"longitude":-71.092944,"id":"a64zex6un69l"},"type":"Feature","geometry":{"type":"Point","coordinates":[-71.092944,42.390678]}},{"properties":{"zip":2155.0,"latitude":42.417335,"jr":1.0,"longitude":-71.108686,"id":"a64zexgmjn3c"},"type":"Feature","geometry":{"type":"Point","coordinates":[-71.108686,42.417335]}},{"properties":{"zip":2190.0,"latitude":42.172817,"jr":1.0,"longitude":-70.94869,"id":"a64zexl9dxfl"},"type":"Feature","geometry":{"type":"Point","coordinates":[-70.94869,42.172817]}},{"properties":{"zip":2459.0,"latitude":47.019379,"jr":2.0,"longitude":18.900431,"id":"a64zexi94f5z"},"type":"Feature","geometry":{"type":"Point","coordinates":[18.900431,47.019379]}},{"properties":{"zip":2460.0,"latitude":42.351891,"jr":1.0,"longitude":-71.208233,"id":"a64zex9305oy"},"type":"Feature","geometry":{"type":"Point","coordinates":[-71.208233,42.351891]}},{"properties":{"zip":2466.0,"latitude":42.34568,"jr":1.0,"longitude":-71.246869,"id":"a64zex9l88j1"},"type":"Feature","geometry":{"type":"Point","coordinates":[-71.246869,42.34568]}},{"properties":{"zip":2467.0,"latitude":30.84939,"jr":1.0,"longitude":117.383072,"id":"a64zexi4dwys"},"type":"Feature","geometry":{"type":"Point","coordinates":[117.383072,30.84939]}},{"properties":{"zip":2468.0,"latitude":42.325938,"jr":1.0,"longitude":-71.231907,"id":"a64zexf8qmk0"},"type":"Feature","geometry":{"type":"Point","coordinates":[-71.231907,42.325938]}},{"properties":{"zip":2474.0,"latitude":-28.48634,"jr":2.0,"longitude":152.929535,"id":"a64zex5py33k"},"type":"Feature","geometry":{"type":"Point","coordinates":[152.929535,-28.48634]}},{"properties":{"zip":2540.0,"latitude":41.564754,"jr":1.0,"longitude":-70.621663,"id":"a64zexatpn00"},"type":"Feature","geometry":{"type":"Point","coordinates":[-70.621663,41.564754]}},{"properties":{"zip":2553.0,"latitude":41.719898,"jr":1.0,"longitude":-70.613487,"id":"a64zex6z7a92"},"type":"Feature","geometry":{"type":"Point","coordinates":[-70.613487,41.719898]}},{"properties":{"zip":2659.0,"latitude":41.680126,"jr":1.0,"longitude":-70.024106,"id":"a64zexiyujaf"},"type":"Feature","geometry":{"type":"Point","coordinates":[-70.024106,41.680126]}},{"properties":{"zip":3049.0,"latitude":42.748513,"jr":1.0,"longitude":-71.577206,"id":"a64zex9oiszo"},"type":"Feature","geometry":{"type":"Point","coordinates":[-71.577206,42.748513]}},{"properties":{"zip":4009.0,"latitude":44.052049,"jr":1.0,"longitude":-70.724081,"id":"a64zexe65tjj"},"type":"Feature","geometry":{"type":"Point","coordinates":[-70.724081,44.052049]}},{"properties":{"zip":4349.0,"latitude":44.438259,"jr":1.0,"longitude":-70.074822,"id":"a64zexiz8xk0"},"type":"Feature","geometry":{"type":"Point","coordinates":[-70.074822,44.438259]}},{"properties":{"zip":4938.0,"latitude":44.665339,"jr":1.0,"longitude":-70.132878,"id":"a64zexewe4lx"},"type":"Feature","geometry":{"type":"Point","coordinates":[-70.132878,44.665339]}},{"properties":{"zip":6071.0,"latitude":41.997813,"jr":1.0,"longitude":-72.458266,"id":"a64zex65l5el"},"type":"Feature","geometry":{"type":"Point","coordinates":[-72.458266,41.997813]}},{"properties":{"zip":6074.0,"latitude":41.834081,"jr":1.0,"longitude":-72.557585,"id":"a64zexkimd5a"},"type":"Feature","geometry":{"type":"Point","coordinates":[-72.557585,41.834081]}},{"properties":{"zip":6413.0,"latitude":41.29117,"jr":1.0,"longitude":-72.527973,"id":"a64zexjpyjir"},"type":"Feature","geometry":{"type":"Point","coordinates":[-72.527973,41.29117]}},{"properties":{"zip":6516.0,"latitude":41.270079,"jr":1.0,"longitude":-72.963842,"id":"a64zexcdoek7"},"type":"Feature","geometry":{"type":"Point","coordinates":[-72.963842,41.270079]}},{"properties":{"zip":6798.0,"latitude":41.552061,"jr":1.0,"longitude":-73.208264,"id":"a64zexblklmh"},"type":"Feature","geometry":{"type":"Point","coordinates":[-73.208264,41.552061]}},{"properties":{"zip":6820.0,"latitude":41.076759,"jr":1.0,"longitude":-73.485254,"id":"a64zexcpd4hg"},"type":"Feature","geometry":{"type":"Point","coordinates":[-73.485254,41.076759]}},{"properties":{"zip":6877.0,"latitude":41.297683,"jr":1.0,"longitude":-73.497268,"id":"a64zexkvs9ir"},"type":"Feature","geometry":{"type":"Point","coordinates":[-73.497268,41.297683]}},{"properties":{"zip":6880.0,"latitude":41.143433,"jr":1.0,"longitude":-73.349579,"id":"a64zexba2myy"},"type":"Feature","geometry":{"type":"Point","coordinates":[-73.349579,41.143433]}},{"properties":{"zip":6897.0,"latitude":41.201761,"jr":1.0,"longitude":-73.438323,"id":"a64zex8mshi5"},"type":"Feature","geometry":{"type":"Point","coordinates":[-73.438323,41.201761]}},{"properties":{"zip":6903.0,"latitude":41.135235,"jr":1.0,"longitude":-73.568356,"id":"a64zexi512yd"},"type":"Feature","geometry":{"type":"Point","coordinates":[-73.568356,41.135235]}},{"properties":{"zip":7028.0,"latitude":40.804015,"jr":1.0,"longitude":-74.205477,"id":"a64zexlccry9"},"type":"Feature","geometry":{"type":"Point","coordinates":[-74.205477,40.804015]}},{"properties":{"zip":7040.0,"latitude":40.727906,"jr":1.0,"longitude":-74.265573,"id":"a64zex9t278n"},"type":"Feature","geometry":{"type":"Point","coordinates":[-74.265573,40.727906]}},{"properties":{"zip":7043.0,"latitude":40.843023,"jr":1.0,"longitude":-74.201104,"id":"a64zex9imzdc"},"type":"Feature","geometry":{"type":"Point","coordinates":[-74.201104,40.843023]}},{"properties":{"zip":7050.0,"latitude":40.769223,"jr":1.0,"longitude":-74.2355,"id":"a64zexcyb51j"},"type":"Feature","geometry":{"type":"Point","coordinates":[-74.2355,40.769223]}},{"properties":{"zip":7059.0,"latitude":40.631787,"jr":1.0,"longitude":-74.510456,"id":"a64zex8ptpme"},"type":"Feature","geometry":{"type":"Point","coordinates":[-74.510456,40.631787]}},{"properties":{"zip":7078.0,"latitude":40.73678,"jr":1.0,"longitude":-74.327085,"id":"a64zexhy487n"},"type":"Feature","geometry":{"type":"Point","coordinates":[-74.327085,40.73678]}},{"properties":{"zip":7079.0,"latitude":40.746453,"jr":1.0,"longitude":-74.257532,"id":"a64zexbi04e8"},"type":"Feature","geometry":{"type":"Point","coordinates":[-74.257532,40.746453]}},{"properties":{"zip":7082.0,"latitude":40.927691,"jr":1.0,"longitude":-74.342807,"id":"a64zexjhxity"},"type":"Feature","geometry":{"type":"Point","coordinates":[-74.342807,40.927691]}},{"properties":{"zip":7450.0,"latitude":40.982023,"jr":1.0,"longitude":-74.113134,"id":"a64zexcslfez"},"type":"Feature","geometry":{"type":"Point","coordinates":[-74.113134,40.982023]}},{"properties":{"zip":7470.0,"latitude":40.947112,"jr":1.0,"longitude":-74.246565,"id":"a64zex92t3n1"},"type":"Feature","geometry":{"type":"Point","coordinates":[-74.246565,40.947112]}},{"properties":{"zip":7661.0,"latitude":40.926476,"jr":1.0,"longitude":-74.03924,"id":"a64zexjptq1f"},"type":"Feature","geometry":{"type":"Point","coordinates":[-74.03924,40.926476]}},{"properties":{"zip":7746.0,"latitude":40.31825,"jr":1.0,"longitude":-74.263871,"id":"a64zex6ib2gn"},"type":"Feature","geometry":{"type":"Point","coordinates":[-74.263871,40.31825]}},{"properties":{"zip":7747.0,"latitude":40.410876,"jr":1.0,"longitude":-74.237955,"id":"a64zexcl9qbx"},"type":"Feature","geometry":{"type":"Point","coordinates":[-74.237955,40.410876]}},{"properties":{"zip":7830.0,"latitude":40.716209,"jr":1.0,"longitude":-74.815218,"id":"a64zex9aowty"},"type":"Feature","geometry":{"type":"Point","coordinates":[-74.815218,40.716209]}},{"properties":{"zip":7834.0,"latitude":40.889735,"jr":1.0,"longitude":-74.484379,"id":"a64zexb518ad"},"type":"Feature","geometry":{"type":"Point","coordinates":[-74.484379,40.889735]}},{"properties":{"zip":7869.0,"latitude":40.845557,"jr":1.0,"longitude":-74.572519,"id":"a64zex8od1m6"},"type":"Feature","geometry":{"type":"Point","coordinates":[-74.572519,40.845557]}},{"properties":{"zip":7885.0,"latitude":40.913883,"jr":1.0,"longitude":-74.58634,"id":"a64zexa8wgsr"},"type":"Feature","geometry":{"type":"Point","coordinates":[-74.58634,40.913883]}},{"properties":{"zip":7920.0,"latitude":40.678937,"jr":1.0,"longitude":-74.560463,"id":"a64zexg7kv26"},"type":"Feature","geometry":{"type":"Point","coordinates":[-74.560463,40.678937]}},{"properties":{"zip":8002.0,"latitude":39.930808,"jr":1.0,"longitude":-75.017538,"id":"a64zexdq01nk"},"type":"Feature","geometry":{"type":"Point","coordinates":[-75.017538,39.930808]}},{"properties":{"zip":8003.0,"latitude":39.880453,"jr":1.0,"longitude":-74.970568,"id":"a64zexee79t1"},"type":"Feature","geometry":{"type":"Point","coordinates":[-74.970568,39.880453]}},{"properties":{"zip":8043.0,"latitude":39.850422,"jr":1.0,"longitude":-74.964614,"id":"a64zexjpb5zp"},"type":"Feature","geometry":{"type":"Point","coordinates":[-74.964614,39.850422]}},{"properties":{"zip":8525.0,"latitude":40.390224,"jr":1.0,"longitude":-74.770963,"id":"a64zexhy7mbh"},"type":"Feature","geometry":{"type":"Point","coordinates":[-74.770963,40.390224]}},{"properties":{"zip":8534.0,"latitude":40.333858,"jr":1.0,"longitude":-74.794352,"id":"a64zexcwv8jf"},"type":"Feature","geometry":{"type":"Point","coordinates":[-74.794352,40.333858]}},{"properties":{"zip":8536.0,"latitude":40.332432,"jr":1.0,"longitude":-74.568836,"id":"a64zexa1aimb"},"type":"Feature","geometry":{"type":"Point","coordinates":[-74.568836,40.332432]}},{"properties":{"zip":8540.0,"latitude":40.366633,"jr":1.0,"longitude":-74.640832,"id":"a64zex80wz6b"},"type":"Feature","geometry":{"type":"Point","coordinates":[-74.640832,40.366633]}},{"properties":{"zip":8558.0,"latitude":40.417312,"jr":1.0,"longitude":-74.693828,"id":"a64zexirgudn"},"type":"Feature","geometry":{"type":"Point","coordinates":[-74.693828,40.417312]}},{"properties":{"zip":8840.0,"latitude":40.54493,"jr":1.0,"longitude":-74.351721,"id":"a64zexhh8pvv"},"type":"Feature","geometry":{"type":"Point","coordinates":[-74.351721,40.54493]}},{"properties":{"zip":8844.0,"latitude":40.50435,"jr":1.0,"longitude":-74.647452,"id":"a64zexksp3jg"},"type":"Feature","geometry":{"type":"Point","coordinates":[-74.647452,40.50435]}},{"properties":{"zip":8858.0,"latitude":40.673601,"jr":1.0,"longitude":-74.743069,"id":"a64zexj1ipr9"},"type":"Feature","geometry":{"type":"Point","coordinates":[-74.743069,40.673601]}},{"properties":{"zip":8873.0,"latitude":40.500743,"jr":1.0,"longitude":-74.50126,"id":"a64zex6u5pzy"},"type":"Feature","geometry":{"type":"Point","coordinates":[-74.50126,40.500743]}},{"properties":{"zip":10019.0,"latitude":40.765069,"jr":1.0,"longitude":-73.985834,"id":"a64zex9n81x0"},"type":"Feature","geometry":{"type":"Point","coordinates":[-73.985834,40.765069]}},{"properties":{"zip":10021.0,"latitude":40.768476,"jr":1.0,"longitude":-73.958805,"id":"a64zexb2kr3d"},"type":"Feature","geometry":{"type":"Point","coordinates":[-73.958805,40.768476]}},{"properties":{"zip":10023.0,"latitude":40.77638,"jr":1.0,"longitude":-73.982652,"id":"a64zexb5wpgn"},"type":"Feature","geometry":{"type":"Point","coordinates":[-73.982652,40.77638]}},{"properties":{"zip":10475.0,"latitude":40.872903,"jr":1.0,"longitude":-73.827817,"id":"a64zexf99603"},"type":"Feature","geometry":{"type":"Point","coordinates":[-73.827817,40.872903]}},{"properties":{"zip":11021.0,"latitude":40.786674,"jr":1.0,"longitude":-73.726984,"id":"a64zexl0mn1u"},"type":"Feature","geometry":{"type":"Point","coordinates":[-73.726984,40.786674]}},{"properties":{"zip":11050.0,"latitude":40.834995,"jr":1.0,"longitude":-73.696356,"id":"a64zexhqsqhn"},"type":"Feature","geometry":{"type":"Point","coordinates":[-73.696356,40.834995]}},{"properties":{"zip":11208.0,"latitude":40.676191,"jr":1.0,"longitude":-73.873649,"id":"a64zexdwqz9i"},"type":"Feature","geometry":{"type":"Point","coordinates":[-73.873649,40.676191]}},{"properties":{"zip":11234.0,"latitude":40.620475,"jr":1.0,"longitude":-73.923915,"id":"a64zexh6fp64"},"type":"Feature","geometry":{"type":"Point","coordinates":[-73.923915,40.620475]}},{"properties":{"zip":11374.0,"latitude":40.72775,"jr":1.0,"longitude":-73.860191,"id":"a64zexl9i6vu"},"type":"Feature","geometry":{"type":"Point","coordinates":[-73.860191,40.72775]}},{"properties":{"zip":11378.0,"latitude":40.723865,"jr":1.0,"longitude":-73.899682,"id":"a64zexjjzt01"},"type":"Feature","geometry":{"type":"Point","coordinates":[-73.899682,40.723865]}},{"properties":{"zip":11426.0,"latitude":40.734735,"jr":1.0,"longitude":-73.723018,"id":"a64zexkqgnyi"},"type":"Feature","geometry":{"type":"Point","coordinates":[-73.723018,40.734735]}},{"properties":{"zip":11576.0,"latitude":40.790668,"jr":1.0,"longitude":-73.653362,"id":"a64zexhn0tde"},"type":"Feature","geometry":{"type":"Point","coordinates":[-73.653362,40.790668]}},{"properties":{"zip":11596.0,"latitude":40.759198,"jr":1.0,"longitude":-73.644892,"id":"a64zexl6gyp3"},"type":"Feature","geometry":{"type":"Point","coordinates":[-73.644892,40.759198]}},{"properties":{"zip":11709.0,"latitude":40.907382,"jr":1.0,"longitude":-73.560141,"id":"a64zexb114x9"},"type":"Feature","geometry":{"type":"Point","coordinates":[-73.560141,40.907382]}},{"properties":{"zip":11710.0,"latitude":40.677028,"jr":1.0,"longitude":-73.534517,"id":"a64zexaq9uff"},"type":"Feature","geometry":{"type":"Point","coordinates":[-73.534517,40.677028]}},{"properties":{"zip":11733.0,"latitude":40.930004,"jr":1.0,"longitude":-73.101467,"id":"a64zexkc6k2g"},"type":"Feature","geometry":{"type":"Point","coordinates":[-73.101467,40.930004]}},{"properties":{"zip":11746.0,"latitude":40.821754,"jr":1.0,"longitude":-73.375472,"id":"a64zexkv7okf"},"type":"Feature","geometry":{"type":"Point","coordinates":[-73.375472,40.821754]}},{"properties":{"zip":11767.0,"latitude":40.846206,"jr":1.0,"longitude":-73.1482,"id":"a64zexadcbam"},"type":"Feature","geometry":{"type":"Point","coordinates":[-73.1482,40.846206]}},{"properties":{"zip":11791.0,"latitude":40.81462,"jr":1.0,"longitude":-73.502397,"id":"a64zexk79s0i"},"type":"Feature","geometry":{"type":"Point","coordinates":[-73.502397,40.81462]}},{"properties":{"zip":12538.0,"latitude":41.788724,"jr":1.0,"longitude":-73.906347,"id":"a64zex6kmy04"},"type":"Feature","geometry":{"type":"Point","coordinates":[-73.906347,41.788724]}},{"properties":{"zip":12723.0,"latitude":41.7754,"jr":1.0,"longitude":-75.025688,"id":"a64zex9e4dpq"},"type":"Feature","geometry":{"type":"Point","coordinates":[-75.025688,41.7754]}},{"properties":{"zip":12789.0,"latitude":41.716955,"jr":1.0,"longitude":-74.581518,"id":"a64zexjtsmsy"},"type":"Feature","geometry":{"type":"Point","coordinates":[-74.581518,41.716955]}},{"properties":{"zip":13066.0,"latitude":43.026774,"jr":1.0,"longitude":-76.014503,"id":"a64zexdkfrqf"},"type":"Feature","geometry":{"type":"Point","coordinates":[-76.014503,43.026774]}},{"properties":{"zip":13820.0,"latitude":42.462453,"jr":1.0,"longitude":-75.049072,"id":"a64zexfckv7v"},"type":"Feature","geometry":{"type":"Point","coordinates":[-75.049072,42.462453]}},{"properties":{"zip":13850.0,"latitude":42.077106,"jr":1.0,"longitude":-76.011757,"id":"a64zex712qo6"},"type":"Feature","geometry":{"type":"Point","coordinates":[-76.011757,42.077106]}},{"properties":{"zip":14001.0,"latitude":43.024944,"jr":1.0,"longitude":-78.508365,"id":"a64zexg082y9"},"type":"Feature","geometry":{"type":"Point","coordinates":[-78.508365,43.024944]}},{"properties":{"zip":14072.0,"latitude":43.018266,"jr":1.0,"longitude":-78.959059,"id":"a64zex6r788l"},"type":"Feature","geometry":{"type":"Point","coordinates":[-78.959059,43.018266]}},{"properties":{"zip":14075.0,"latitude":42.733404,"jr":1.0,"longitude":-78.838853,"id":"a64zexdinump"},"type":"Feature","geometry":{"type":"Point","coordinates":[-78.838853,42.733404]}},{"properties":{"zip":14086.0,"latitude":42.901681,"jr":1.0,"longitude":-78.663085,"id":"a64zex6m6kml"},"type":"Feature","geometry":{"type":"Point","coordinates":[-78.663085,42.901681]}},{"properties":{"zip":14094.0,"latitude":43.159987,"jr":1.0,"longitude":-78.692344,"id":"a64zexfoi7ve"},"type":"Feature","geometry":{"type":"Point","coordinates":[-78.692344,43.159987]}},{"properties":{"zip":14127.0,"latitude":42.763891,"jr":2.0,"longitude":-78.751834,"id":"a64zexervmgk"},"type":"Feature","geometry":{"type":"Point","coordinates":[-78.751834,42.763891]}},{"properties":{"zip":14174.0,"latitude":43.246075,"jr":1.0,"longitude":-79.024545,"id":"a64zex7il3ze"},"type":"Feature","geometry":{"type":"Point","coordinates":[-79.024545,43.246075]}},{"properties":{"zip":14217.0,"latitude":42.968618,"jr":1.0,"longitude":-78.872948,"id":"a64zexi8k84s"},"type":"Feature","geometry":{"type":"Point","coordinates":[-78.872948,42.968618]}},{"properties":{"zip":14226.0,"latitude":42.967232,"jr":2.0,"longitude":-78.799849,"id":"a64zexcrv0yk"},"type":"Feature","geometry":{"type":"Point","coordinates":[-78.799849,42.967232]}},{"properties":{"zip":14228.0,"latitude":43.018414,"jr":1.0,"longitude":-78.774604,"id":"a64zexapeix8"},"type":"Feature","geometry":{"type":"Point","coordinates":[-78.774604,43.018414]}},{"properties":{"zip":14450.0,"latitude":43.089198,"jr":1.0,"longitude":-77.435956,"id":"a64zexlh52l9"},"type":"Feature","geometry":{"type":"Point","coordinates":[-77.435956,43.089198]}},{"properties":{"zip":14470.0,"latitude":43.225494,"jr":1.0,"longitude":-78.040392,"id":"a64zex7svfbk"},"type":"Feature","geometry":{"type":"Point","coordinates":[-78.040392,43.225494]}},{"properties":{"zip":14526.0,"latitude":43.139638,"jr":2.0,"longitude":-77.456043,"id":"a64zexcgo1u2"},"type":"Feature","geometry":{"type":"Point","coordinates":[-77.456043,43.139638]}},{"properties":{"zip":14564.0,"latitude":42.986597,"jr":1.0,"longitude":-77.417982,"id":"a64zexj3h7lq"},"type":"Feature","geometry":{"type":"Point","coordinates":[-77.417982,42.986597]}},{"properties":{"zip":14617.0,"latitude":43.220258,"jr":1.0,"longitude":-77.599442,"id":"a64zexi6qvvt"},"type":"Feature","geometry":{"type":"Point","coordinates":[-77.599442,43.220258]}},{"properties":{"zip":14618.0,"latitude":43.115416,"jr":1.0,"longitude":-77.558801,"id":"a64zex6q437y"},"type":"Feature","geometry":{"type":"Point","coordinates":[-77.558801,43.115416]}},{"properties":{"zip":14710.0,"latitude":42.108376,"jr":1.0,"longitude":-79.405624,"id":"a64zex7vae7o"},"type":"Feature","geometry":{"type":"Point","coordinates":[-79.405624,42.108376]}},{"properties":{"zip":14712.0,"latitude":42.151346,"jr":1.0,"longitude":-79.35808,"id":"a64zexcuwh5g"},"type":"Feature","geometry":{"type":"Point","coordinates":[-79.35808,42.151346]}},{"properties":{"zip":14845.0,"latitude":42.180493,"jr":1.0,"longitude":-76.834539,"id":"a64zexb534b4"},"type":"Feature","geometry":{"type":"Point","coordinates":[-76.834539,42.180493]}},{"properties":{"zip":15003.0,"latitude":40.595368,"jr":2.0,"longitude":-80.219778,"id":"a64zexblf8f0"},"type":"Feature","geometry":{"type":"Point","coordinates":[-80.219778,40.595368]}},{"properties":{"zip":15005.0,"latitude":40.641595,"jr":1.0,"longitude":-80.198471,"id":"a64zexgoll6u"},"type":"Feature","geometry":{"type":"Point","coordinates":[-80.198471,40.641595]}},{"properties":{"zip":15010.0,"latitude":40.766234,"jr":2.0,"longitude":-80.33988,"id":"a64zex8wpkab"},"type":"Feature","geometry":{"type":"Point","coordinates":[-80.33988,40.766234]}},{"properties":{"zip":15012.0,"latitude":40.14368,"jr":1.0,"longitude":-79.83454,"id":"a64zexlmv803"},"type":"Feature","geometry":{"type":"Point","coordinates":[-79.83454,40.14368]}},{"properties":{"zip":15024.0,"latitude":40.568117,"jr":2.0,"longitude":-79.841002,"id":"a64zexdsvsxd"},"type":"Feature","geometry":{"type":"Point","coordinates":[-79.841002,40.568117]}},{"properties":{"zip":15043.0,"latitude":40.574275,"jr":1.0,"longitude":-80.490023,"id":"a64zexkvtwus"},"type":"Feature","geometry":{"type":"Point","coordinates":[-80.490023,40.574275]}},{"properties":{"zip":15044.0,"latitude":40.625233,"jr":1.0,"longitude":-79.944307,"id":"a64zexg1nuzn"},"type":"Feature","geometry":{"type":"Point","coordinates":[-79.944307,40.625233]}},{"properties":{"zip":15068.0,"latitude":40.571179,"jr":1.0,"longitude":-79.741547,"id":"a64zexfx62f0"},"type":"Feature","geometry":{"type":"Point","coordinates":[-79.741547,40.571179]}},{"properties":{"zip":15089.0,"latitude":40.207549,"jr":1.0,"longitude":-79.757976,"id":"a64zexkvpzvp"},"type":"Feature","geometry":{"type":"Point","coordinates":[-79.757976,40.207549]}},{"properties":{"zip":15090.0,"latitude":40.612044,"jr":2.0,"longitude":-80.064879,"id":"a64zexh5ouzh"},"type":"Feature","geometry":{"type":"Point","coordinates":[-80.064879,40.612044]}},{"properties":{"zip":15101.0,"latitude":40.569975,"jr":3.0,"longitude":-79.966512,"id":"a64zexanq0nk"},"type":"Feature","geometry":{"type":"Point","coordinates":[-79.966512,40.569975]}},{"properties":{"zip":15102.0,"latitude":40.320984,"jr":1.0,"longitude":-80.039793,"id":"a64zexkge1hm"},"type":"Feature","geometry":{"type":"Point","coordinates":[-80.039793,40.320984]}},{"properties":{"zip":15108.0,"latitude":40.513245,"jr":5.0,"longitude":-80.18969,"id":"a64zexc7l0v8"},"type":"Feature","geometry":{"type":"Point","coordinates":[-80.18969,40.513245]}},{"properties":{"zip":15122.0,"latitude":40.366535,"jr":1.0,"longitude":-79.89429,"id":"a64zexgg1x44"},"type":"Feature","geometry":{"type":"Point","coordinates":[-79.89429,40.366535]}},{"properties":{"zip":15129.0,"latitude":40.292199,"jr":1.0,"longitude":-80.001144,"id":"a64zex7l0zxy"},"type":"Feature","geometry":{"type":"Point","coordinates":[-80.001144,40.292199]}},{"properties":{"zip":15142.0,"latitude":40.384664,"jr":1.0,"longitude":-80.120922,"id":"a64zexiytxra"},"type":"Feature","geometry":{"type":"Point","coordinates":[-80.120922,40.384664]}},{"properties":{"zip":15143.0,"latitude":40.557031,"jr":1.0,"longitude":-80.157848,"id":"a64zex7ut7td"},"type":"Feature","geometry":{"type":"Point","coordinates":[-80.157848,40.557031]}},{"properties":{"zip":15205.0,"latitude":40.438045,"jr":1.0,"longitude":-80.073393,"id":"a64zex7rjjjk"},"type":"Feature","geometry":{"type":"Point","coordinates":[-80.073393,40.438045]}},{"properties":{"zip":15215.0,"latitude":40.499225,"jr":1.0,"longitude":-79.917513,"id":"a64zexl814hv"},"type":"Feature","geometry":{"type":"Point","coordinates":[-79.917513,40.499225]}},{"properties":{"zip":15217.0,"latitude":40.431852,"jr":3.0,"longitude":-79.924973,"id":"a64zex5yvlti"},"type":"Feature","geometry":{"type":"Point","coordinates":[-79.924973,40.431852]}},{"properties":{"zip":15220.0,"latitude":40.417405,"jr":1.0,"longitude":-80.051202,"id":"a64zexegtdgy"},"type":"Feature","geometry":{"type":"Point","coordinates":[-80.051202,40.417405]}},{"properties":{"zip":15226.0,"latitude":40.394628,"jr":1.0,"longitude":-80.015759,"id":"a64zexcxbwzn"},"type":"Feature","geometry":{"type":"Point","coordinates":[-80.015759,40.394628]}},{"properties":{"zip":15228.0,"latitude":40.371326,"jr":1.0,"longitude":-80.043186,"id":"a64zexcpvqth"},"type":"Feature","geometry":{"type":"Point","coordinates":[-80.043186,40.371326]}},{"properties":{"zip":15234.0,"latitude":40.369424,"jr":2.0,"longitude":-80.017907,"id":"a64zexcevpso"},"type":"Feature","geometry":{"type":"Point","coordinates":[-80.017907,40.369424]}},{"properties":{"zip":15237.0,"latitude":40.552238,"jr":1.0,"longitude":-80.034939,"id":"a64zexgufxs0"},"type":"Feature","geometry":{"type":"Point","coordinates":[-80.034939,40.552238]}},{"properties":{"zip":15238.0,"latitude":40.515077,"jr":2.0,"longitude":-79.877423,"id":"a64zexj9ny0r"},"type":"Feature","geometry":{"type":"Point","coordinates":[-79.877423,40.515077]}},{"properties":{"zip":15241.0,"latitude":40.332174,"jr":2.0,"longitude":-80.07921,"id":"a64zexkguuob"},"type":"Feature","geometry":{"type":"Point","coordinates":[-80.07921,40.332174]}},{"properties":{"zip":15243.0,"latitude":40.373797,"jr":1.0,"longitude":-80.072425,"id":"a64zex9no42e"},"type":"Feature","geometry":{"type":"Point","coordinates":[-80.072425,40.373797]}},{"properties":{"zip":15301.0,"latitude":40.171687,"jr":1.0,"longitude":-80.255957,"id":"a64zexgrhdgx"},"type":"Feature","geometry":{"type":"Point","coordinates":[-80.255957,40.171687]}},{"properties":{"zip":15342.0,"latitude":40.242492,"jr":1.0,"longitude":-80.220937,"id":"a64zex90znt6"},"type":"Feature","geometry":{"type":"Point","coordinates":[-80.220937,40.242492]}},{"properties":{"zip":15367.0,"latitude":40.275451,"jr":2.0,"longitude":-80.059849,"id":"a64zexca6kc7"},"type":"Feature","geometry":{"type":"Point","coordinates":[-80.059849,40.275451]}},{"properties":{"zip":15419.0,"latitude":40.062529,"jr":1.0,"longitude":-79.895319,"id":"a64zexfwh5sh"},"type":"Feature","geometry":{"type":"Point","coordinates":[-79.895319,40.062529]}},{"properties":{"zip":15425.0,"latitude":40.025037,"jr":1.0,"longitude":-79.587838,"id":"a64zexby9g0n"},"type":"Feature","geometry":{"type":"Point","coordinates":[-79.587838,40.025037]}},{"properties":{"zip":15479.0,"latitude":40.144267,"jr":1.0,"longitude":-79.731277,"id":"a64zexhnsnc3"},"type":"Feature","geometry":{"type":"Point","coordinates":[-79.731277,40.144267]}},{"properties":{"zip":15501.0,"latitude":40.024813,"jr":1.0,"longitude":-79.080814,"id":"a64zex6z1wj4"},"type":"Feature","geometry":{"type":"Point","coordinates":[-79.080814,40.024813]}},{"properties":{"zip":15601.0,"latitude":40.307359,"jr":1.0,"longitude":-79.542439,"id":"a64zexlidu27"},"type":"Feature","geometry":{"type":"Point","coordinates":[-79.542439,40.307359]}},{"properties":{"zip":15613.0,"latitude":40.556481,"jr":1.0,"longitude":-79.577158,"id":"a64zexebedix"},"type":"Feature","geometry":{"type":"Point","coordinates":[-79.577158,40.556481]}},{"properties":{"zip":15642.0,"latitude":40.319227,"jr":1.0,"longitude":-79.723855,"id":"a64zex7z4s7w"},"type":"Feature","geometry":{"type":"Point","coordinates":[-79.723855,40.319227]}},{"properties":{"zip":15650.0,"latitude":40.292625,"jr":1.0,"longitude":-79.410278,"id":"a64zexjqm67m"},"type":"Feature","geometry":{"type":"Point","coordinates":[-79.410278,40.292625]}},{"properties":{"zip":15668.0,"latitude":40.446674,"jr":1.0,"longitude":-79.684154,"id":"a64zexgj9m66"},"type":"Feature","geometry":{"type":"Point","coordinates":[-79.684154,40.446674]}},{"properties":{"zip":15697.0,"latitude":40.239482,"jr":1.0,"longitude":-79.582291,"id":"a64zexlulnei"},"type":"Feature","geometry":{"type":"Point","coordinates":[-79.582291,40.239482]}},{"properties":{"zip":15846.0,"latitude":41.356271,"jr":1.0,"longitude":-78.60152,"id":"a64zexesp3no"},"type":"Feature","geometry":{"type":"Point","coordinates":[-78.60152,41.356271]}},{"properties":{"zip":15905.0,"latitude":40.307188,"jr":1.0,"longitude":-78.943006,"id":"a64zex76qyyo"},"type":"Feature","geometry":{"type":"Point","coordinates":[-78.943006,40.307188]}},{"properties":{"zip":16002.0,"latitude":40.814238,"jr":1.0,"longitude":-79.863401,"id":"a64zexhyomuj"},"type":"Feature","geometry":{"type":"Point","coordinates":[-79.863401,40.814238]}},{"properties":{"zip":16053.0,"latitude":40.810003,"jr":1.0,"longitude":-79.977004,"id":"a64zex94unrd"},"type":"Feature","geometry":{"type":"Point","coordinates":[-79.977004,40.810003]}},{"properties":{"zip":16148.0,"latitude":41.232601,"jr":1.0,"longitude":-80.45303,"id":"a64zexchoise"},"type":"Feature","geometry":{"type":"Point","coordinates":[-80.45303,41.232601]}},{"properties":{"zip":16154.0,"latitude":41.324401,"jr":1.0,"longitude":-80.419742,"id":"a64zexdmy3e2"},"type":"Feature","geometry":{"type":"Point","coordinates":[-80.419742,41.324401]}},{"properties":{"zip":16201.0,"latitude":40.815516,"jr":1.0,"longitude":-79.510675,"id":"a64zexighwiw"},"type":"Feature","geometry":{"type":"Point","coordinates":[-79.510675,40.815516]}},{"properties":{"zip":16226.0,"latitude":40.738407,"jr":1.0,"longitude":-79.51222,"id":"a64zexcofjuu"},"type":"Feature","geometry":{"type":"Point","coordinates":[-79.51222,40.738407]}},{"properties":{"zip":16301.0,"latitude":41.431936,"jr":1.0,"longitude":-79.691648,"id":"a64zexcdue0t"},"type":"Feature","geometry":{"type":"Point","coordinates":[-79.691648,41.431936]}},{"properties":{"zip":16323.0,"latitude":41.404775,"jr":1.0,"longitude":-79.83089,"id":"a64zex5nlhej"},"type":"Feature","geometry":{"type":"Point","coordinates":[-79.83089,41.404775]}},{"properties":{"zip":16412.0,"latitude":41.875629,"jr":1.0,"longitude":-80.135604,"id":"a64zexfinfsn"},"type":"Feature","geometry":{"type":"Point","coordinates":[-80.135604,41.875629]}},{"properties":{"zip":16505.0,"latitude":42.097526,"jr":2.0,"longitude":-80.161902,"id":"a64zexaumc67"},"type":"Feature","geometry":{"type":"Point","coordinates":[-80.161902,42.097526]}},{"properties":{"zip":16506.0,"latitude":42.073801,"jr":4.0,"longitude":-80.14844,"id":"a64zexbq40sm"},"type":"Feature","geometry":{"type":"Point","coordinates":[-80.14844,42.073801]}},{"properties":{"zip":16508.0,"latitude":42.097577,"jr":1.0,"longitude":-80.093544,"id":"a64zexap1czg"},"type":"Feature","geometry":{"type":"Point","coordinates":[-80.093544,42.097577]}},{"properties":{"zip":16510.0,"latitude":42.123673,"jr":2.0,"longitude":-80.003752,"id":"a64zexguftrj"},"type":"Feature","geometry":{"type":"Point","coordinates":[-80.003752,42.123673]}},{"properties":{"zip":17050.0,"latitude":40.248659,"jr":1.0,"longitude":-76.99995,"id":"a64zex7ly0pt"},"type":"Feature","geometry":{"type":"Point","coordinates":[-76.99995,40.248659]}},{"properties":{"zip":17603.0,"latitude":40.030475,"jr":1.0,"longitude":-76.331583,"id":"a64zexffdz3v"},"type":"Feature","geometry":{"type":"Point","coordinates":[-76.331583,40.030475]}},{"properties":{"zip":18015.0,"latitude":40.600167,"jr":1.0,"longitude":-75.380507,"id":"a64zexhhvby2"},"type":"Feature","geometry":{"type":"Point","coordinates":[-75.380507,40.600167]}},{"properties":{"zip":18020.0,"latitude":40.660581,"jr":1.0,"longitude":-75.32684,"id":"a64zexenepwh"},"type":"Feature","geometry":{"type":"Point","coordinates":[-75.32684,40.660581]}},{"properties":{"zip":18914.0,"latitude":40.289175,"jr":1.0,"longitude":-75.214938,"id":"a64zex8e3b0d"},"type":"Feature","geometry":{"type":"Point","coordinates":[-75.214938,40.289175]}},{"properties":{"zip":18940.0,"latitude":40.245817,"jr":1.0,"longitude":-74.94313,"id":"a64zexeiqg9k"},"type":"Feature","geometry":{"type":"Point","coordinates":[-74.94313,40.245817]}},{"properties":{"zip":18966.0,"latitude":40.190212,"jr":1.0,"longitude":-75.005994,"id":"a64zex99stt3"},"type":"Feature","geometry":{"type":"Point","coordinates":[-75.005994,40.190212]}},{"properties":{"zip":18977.0,"latitude":40.291906,"jr":1.0,"longitude":-74.882859,"id":"a64zexi3hmw1"},"type":"Feature","geometry":{"type":"Point","coordinates":[-74.882859,40.291906]}},{"properties":{"zip":19002.0,"latitude":40.166318,"jr":1.0,"longitude":-75.207234,"id":"a64zexfylx18"},"type":"Feature","geometry":{"type":"Point","coordinates":[-75.207234,40.166318]}},{"properties":{"zip":19038.0,"latitude":40.10959,"jr":1.0,"longitude":-75.154964,"id":"a64zexenb5yf"},"type":"Feature","geometry":{"type":"Point","coordinates":[-75.154964,40.10959]}},{"properties":{"zip":19067.0,"latitude":40.212064,"jr":1.0,"longitude":-74.822153,"id":"a64zex750jba"},"type":"Feature","geometry":{"type":"Point","coordinates":[-74.822153,40.212064]}},{"properties":{"zip":19075.0,"latitude":40.113197,"jr":1.0,"longitude":-75.18685,"id":"a64zexhkat8e"},"type":"Feature","geometry":{"type":"Point","coordinates":[-75.18685,40.113197]}},{"properties":{"zip":19087.0,"latitude":40.059554,"jr":1.0,"longitude":-75.40416,"id":"a64zexfuyvy6"},"type":"Feature","geometry":{"type":"Point","coordinates":[-75.40416,40.059554]}},{"properties":{"zip":19119.0,"latitude":40.054681,"jr":1.0,"longitude":-75.186564,"id":"a64zexbq4gzo"},"type":"Feature","geometry":{"type":"Point","coordinates":[-75.186564,40.054681]}},{"properties":{"zip":19301.0,"latitude":40.04259,"jr":1.0,"longitude":-75.482702,"id":"a64zexfyirnw"},"type":"Feature","geometry":{"type":"Point","coordinates":[-75.482702,40.04259]}},{"properties":{"zip":19335.0,"latitude":40.016078,"jr":1.0,"longitude":-75.718261,"id":"a64zex8xrgpm"},"type":"Feature","geometry":{"type":"Point","coordinates":[-75.718261,40.016078]}},{"properties":{"zip":19341.0,"latitude":40.046817,"jr":1.0,"longitude":-75.643196,"id":"a64zex7grho0"},"type":"Feature","geometry":{"type":"Point","coordinates":[-75.643196,40.046817]}},{"properties":{"zip":19350.0,"latitude":39.769558,"jr":1.0,"longitude":-75.780707,"id":"a64zexc1ilqx"},"type":"Feature","geometry":{"type":"Point","coordinates":[-75.780707,39.769558]}},{"properties":{"zip":19380.0,"latitude":39.984458,"jr":1.0,"longitude":-75.596231,"id":"a64zexe3uw5v"},"type":"Feature","geometry":{"type":"Point","coordinates":[-75.596231,39.984458]}},{"properties":{"zip":19382.0,"latitude":39.944081,"jr":2.0,"longitude":-75.588197,"id":"a64zexgf7dxx"},"type":"Feature","geometry":{"type":"Point","coordinates":[-75.588197,39.944081]}},{"properties":{"zip":19707.0,"latitude":39.77604,"jr":2.0,"longitude":-75.688873,"id":"a64zexjzb4n6"},"type":"Feature","geometry":{"type":"Point","coordinates":[-75.688873,39.77604]}},{"properties":{"zip":20016.0,"latitude":38.938117,"jr":1.0,"longitude":-77.086037,"id":"a64zexcxz3m1"},"type":"Feature","geometry":{"type":"Point","coordinates":[-77.086037,38.938117]}},{"properties":{"zip":20112.0,"latitude":38.68066,"jr":1.0,"longitude":-77.430172,"id":"a64zexiqr3g3"},"type":"Feature","geometry":{"type":"Point","coordinates":[-77.430172,38.68066]}},{"properties":{"zip":20120.0,"latitude":38.848788,"jr":1.0,"longitude":-77.445151,"id":"a64zex5kwse2"},"type":"Feature","geometry":{"type":"Point","coordinates":[-77.445151,38.848788]}},{"properties":{"zip":20121.0,"latitude":38.826568,"jr":1.0,"longitude":-77.439248,"id":"a64zexejlv5r"},"type":"Feature","geometry":{"type":"Point","coordinates":[-77.439248,38.826568]}},{"properties":{"zip":20170.0,"latitude":38.978536,"jr":1.0,"longitude":-77.383597,"id":"a64zex6sl49g"},"type":"Feature","geometry":{"type":"Point","coordinates":[-77.383597,38.978536]}},{"properties":{"zip":20191.0,"latitude":38.936933,"jr":1.0,"longitude":-77.351431,"id":"a64zex8ojbwb"},"type":"Feature","geometry":{"type":"Point","coordinates":[-77.351431,38.936933]}},{"properties":{"zip":20715.0,"latitude":38.979696,"jr":1.0,"longitude":-76.743497,"id":"a64zexfaqfie"},"type":"Feature","geometry":{"type":"Point","coordinates":[-76.743497,38.979696]}},{"properties":{"zip":20815.0,"latitude":38.977955,"jr":1.0,"longitude":-77.081984,"id":"a64zexk47bso"},"type":"Feature","geometry":{"type":"Point","coordinates":[-77.081984,38.977955]}},{"properties":{"zip":20816.0,"latitude":38.958485,"jr":2.0,"longitude":-77.11528,"id":"a64zexjjhee6"},"type":"Feature","geometry":{"type":"Point","coordinates":[-77.11528,38.958485]}},{"properties":{"zip":20850.0,"latitude":39.087037,"jr":3.0,"longitude":-77.167973,"id":"a64zexfi7cu6"},"type":"Feature","geometry":{"type":"Point","coordinates":[-77.167973,39.087037]}},{"properties":{"zip":20852.0,"latitude":39.049628,"jr":1.0,"longitude":-77.120416,"id":"a64zex9nar7g"},"type":"Feature","geometry":{"type":"Point","coordinates":[-77.120416,39.049628]}},{"properties":{"zip":20854.0,"latitude":39.03877,"jr":1.0,"longitude":-77.192151,"id":"a64zexdbkr5r"},"type":"Feature","geometry":{"type":"Point","coordinates":[-77.192151,39.03877]}},{"properties":{"zip":20903.0,"latitude":39.009513,"jr":1.0,"longitude":-76.984648,"id":"a64zexfbrorj"},"type":"Feature","geometry":{"type":"Point","coordinates":[-76.984648,39.009513]}},{"properties":{"zip":20904.0,"latitude":39.06524,"jr":1.0,"longitude":-76.976399,"id":"a64zex6pfxf3"},"type":"Feature","geometry":{"type":"Point","coordinates":[-76.976399,39.06524]}},{"properties":{"zip":21042.0,"latitude":39.272632,"jr":1.0,"longitude":-76.861362,"id":"a64zexerxshv"},"type":"Feature","geometry":{"type":"Point","coordinates":[-76.861362,39.272632]}},{"properties":{"zip":21093.0,"latitude":39.438636,"jr":1.0,"longitude":-76.633791,"id":"a64zexkd5i4x"},"type":"Feature","geometry":{"type":"Point","coordinates":[-76.633791,39.438636]}},{"properties":{"zip":21117.0,"latitude":39.42688,"jr":1.0,"longitude":-76.776934,"id":"a64zex9gm5sy"},"type":"Feature","geometry":{"type":"Point","coordinates":[-76.776934,39.42688]}},{"properties":{"zip":21212.0,"latitude":39.362571,"jr":1.0,"longitude":-76.609989,"id":"a64zexgp3uyj"},"type":"Feature","geometry":{"type":"Point","coordinates":[-76.609989,39.362571]}},{"properties":{"zip":21401.0,"latitude":38.999645,"jr":1.0,"longitude":-76.503139,"id":"a64zex7x0ps3"},"type":"Feature","geometry":{"type":"Point","coordinates":[-76.503139,38.999645]}},{"properties":{"zip":21771.0,"latitude":39.388131,"jr":1.0,"longitude":-77.172347,"id":"a64zexdylbt1"},"type":"Feature","geometry":{"type":"Point","coordinates":[-77.172347,39.388131]}},{"properties":{"zip":22031.0,"latitude":38.860353,"jr":1.0,"longitude":-77.264937,"id":"a64zex9cysvg"},"type":"Feature","geometry":{"type":"Point","coordinates":[-77.264937,38.860353]}},{"properties":{"zip":22124.0,"latitude":38.885187,"jr":1.0,"longitude":-77.323345,"id":"a64zexk8wky5"},"type":"Feature","geometry":{"type":"Point","coordinates":[-77.323345,38.885187]}},{"properties":{"zip":22301.0,"latitude":38.820042,"jr":1.0,"longitude":-77.058901,"id":"a64zex8vr0ya"},"type":"Feature","geometry":{"type":"Point","coordinates":[-77.058901,38.820042]}},{"properties":{"zip":23314.0,"latitude":36.954994,"jr":1.0,"longitude":-76.542963,"id":"a64zexla7r4g"},"type":"Feature","geometry":{"type":"Point","coordinates":[-76.542963,36.954994]}},{"properties":{"zip":24450.0,"latitude":37.788463,"jr":1.0,"longitude":-79.458111,"id":"a64zex7qdg6m"},"type":"Feature","geometry":{"type":"Point","coordinates":[-79.458111,37.788463]}},{"properties":{"zip":25701.0,"latitude":38.409726,"jr":1.0,"longitude":-82.442348,"id":"a64zexd3ccx7"},"type":"Feature","geometry":{"type":"Point","coordinates":[-82.442348,38.409726]}},{"properties":{"zip":27410.0,"latitude":36.103164,"jr":1.0,"longitude":-79.879365,"id":"a64zexl8aaua"},"type":"Feature","geometry":{"type":"Point","coordinates":[-79.879365,36.103164]}},{"properties":{"zip":27613.0,"latitude":35.894932,"jr":1.0,"longitude":-78.705059,"id":"a64zexgkughw"},"type":"Feature","geometry":{"type":"Point","coordinates":[-78.705059,35.894932]}},{"properties":{"zip":28105.0,"latitude":35.121879,"jr":1.0,"longitude":-80.713568,"id":"a64zex9nk5ox"},"type":"Feature","geometry":{"type":"Point","coordinates":[-80.713568,35.121879]}},{"properties":{"zip":29575.0,"latitude":33.625245,"jr":1.0,"longitude":-78.995228,"id":"a64zexc6gy3u"},"type":"Feature","geometry":{"type":"Point","coordinates":[-78.995228,33.625245]}},{"properties":{"zip":30013.0,"latitude":33.628481,"jr":1.0,"longitude":-83.984359,"id":"a64zexhtaipv"},"type":"Feature","geometry":{"type":"Point","coordinates":[-83.984359,33.628481]}},{"properties":{"zip":30071.0,"latitude":33.938145,"jr":1.0,"longitude":-84.197158,"id":"a64zexagrnum"},"type":"Feature","geometry":{"type":"Point","coordinates":[-84.197158,33.938145]}},{"properties":{"zip":30076.0,"latitude":34.021324,"jr":1.0,"longitude":-84.310408,"id":"a64zexg8dgse"},"type":"Feature","geometry":{"type":"Point","coordinates":[-84.310408,34.021324]}},{"properties":{"zip":30152.0,"latitude":33.99895,"jr":1.0,"longitude":-84.644509,"id":"a64zexllki5j"},"type":"Feature","geometry":{"type":"Point","coordinates":[-84.644509,33.99895]}},{"properties":{"zip":30240.0,"latitude":33.034025,"jr":1.0,"longitude":-85.039511,"id":"a64zexlkz55j"},"type":"Feature","geometry":{"type":"Point","coordinates":[-85.039511,33.034025]}},{"properties":{"zip":30501.0,"latitude":34.307269,"jr":1.0,"longitude":-83.825596,"id":"a64zexl5rtfr"},"type":"Feature","geometry":{"type":"Point","coordinates":[-83.825596,34.307269]}},{"properties":{"zip":32223.0,"latitude":30.154817,"jr":1.0,"longitude":-81.629961,"id":"a64zexbmdbwq"},"type":"Feature","geometry":{"type":"Point","coordinates":[-81.629961,30.154817]}},{"properties":{"zip":32541.0,"latitude":30.397198,"jr":1.0,"longitude":-86.484903,"id":"a64zexetcpwu"},"type":"Feature","geometry":{"type":"Point","coordinates":[-86.484903,30.397198]}},{"properties":{"zip":33647.0,"latitude":28.114698,"jr":1.0,"longitude":-82.367751,"id":"a64zexgvutu8"},"type":"Feature","geometry":{"type":"Point","coordinates":[-82.367751,28.114698]}},{"properties":{"zip":33761.0,"latitude":28.028185,"jr":1.0,"longitude":-82.727419,"id":"a64zexajk8wm"},"type":"Feature","geometry":{"type":"Point","coordinates":[-82.727419,28.028185]}},{"properties":{"zip":33907.0,"latitude":26.568057,"jr":1.0,"longitude":-81.873558,"id":"a64zexg89vfe"},"type":"Feature","geometry":{"type":"Point","coordinates":[-81.873558,26.568057]}},{"properties":{"zip":34116.0,"latitude":26.184007,"jr":1.0,"longitude":-81.706449,"id":"a64zexfudtkn"},"type":"Feature","geometry":{"type":"Point","coordinates":[-81.706449,26.184007]}},{"properties":{"zip":35223.0,"latitude":33.488726,"jr":1.0,"longitude":-86.736584,"id":"a64zex6lwxhh"},"type":"Feature","geometry":{"type":"Point","coordinates":[-86.736584,33.488726]}},{"properties":{"zip":35242.0,"latitude":33.401559,"jr":1.0,"longitude":-86.705511,"id":"a64zexip2btz"},"type":"Feature","geometry":{"type":"Point","coordinates":[-86.705511,33.401559]}},{"properties":{"zip":36207.0,"latitude":33.64926,"jr":1.0,"longitude":-85.770631,"id":"a64zexgk0kyh"},"type":"Feature","geometry":{"type":"Point","coordinates":[-85.770631,33.64926]}},{"properties":{"zip":37069.0,"latitude":35.979181,"jr":1.0,"longitude":-86.896199,"id":"a64zexhczxzk"},"type":"Feature","geometry":{"type":"Point","coordinates":[-86.896199,35.979181]}},{"properties":{"zip":37128.0,"latitude":35.81936,"jr":1.0,"longitude":-86.449319,"id":"a64zex78c3q2"},"type":"Feature","geometry":{"type":"Point","coordinates":[-86.449319,35.81936]}},{"properties":{"zip":37205.0,"latitude":36.111432,"jr":1.0,"longitude":-86.868954,"id":"a64zexlukyp3"},"type":"Feature","geometry":{"type":"Point","coordinates":[-86.868954,36.111432]}},{"properties":{"zip":37932.0,"latitude":35.923619,"jr":1.0,"longitude":-84.169591,"id":"a64zexadu0z8"},"type":"Feature","geometry":{"type":"Point","coordinates":[-84.169591,35.923619]}},{"properties":{"zip":38135.0,"latitude":35.232301,"jr":1.0,"longitude":-89.850878,"id":"a64zex6ar9ph"},"type":"Feature","geometry":{"type":"Point","coordinates":[-89.850878,35.232301]}},{"properties":{"zip":40160.0,"latitude":37.826652,"jr":1.0,"longitude":-85.940408,"id":"a64zexh70ytr"},"type":"Feature","geometry":{"type":"Point","coordinates":[-85.940408,37.826652]}},{"properties":{"zip":40223.0,"latitude":38.253688,"jr":1.0,"longitude":-85.561151,"id":"a64zexjwzwsk"},"type":"Feature","geometry":{"type":"Point","coordinates":[-85.561151,38.253688]}},{"properties":{"zip":40241.0,"latitude":38.301509,"jr":1.0,"longitude":-85.582421,"id":"a64zexd0b2cj"},"type":"Feature","geometry":{"type":"Point","coordinates":[-85.582421,38.301509]}},{"properties":{"zip":40291.0,"latitude":38.15205,"jr":1.0,"longitude":-85.594513,"id":"a64zexk3wjf6"},"type":"Feature","geometry":{"type":"Point","coordinates":[-85.594513,38.15205]}},{"properties":{"zip":40361.0,"latitude":38.208293,"jr":1.0,"longitude":-84.244987,"id":"a64zexb8sgwc"},"type":"Feature","geometry":{"type":"Point","coordinates":[-84.244987,38.208293]}},{"properties":{"zip":40370.0,"latitude":38.390816,"jr":1.0,"longitude":-84.538424,"id":"a64zexebvd9r"},"type":"Feature","geometry":{"type":"Point","coordinates":[-84.538424,38.390816]}},{"properties":{"zip":40513.0,"latitude":38.01388,"jr":2.0,"longitude":-84.581522,"id":"a64zexcmpbs2"},"type":"Feature","geometry":{"type":"Point","coordinates":[-84.581522,38.01388]}},{"properties":{"zip":40515.0,"latitude":37.965102,"jr":1.0,"longitude":-84.470751,"id":"a64zexc7x0es"},"type":"Feature","geometry":{"type":"Point","coordinates":[-84.470751,37.965102]}},{"properties":{"zip":41017.0,"latitude":39.032378,"jr":1.0,"longitude":-84.569611,"id":"a64zex6il185"},"type":"Feature","geometry":{"type":"Point","coordinates":[-84.569611,39.032378]}},{"properties":{"zip":42701.0,"latitude":37.706973,"jr":1.0,"longitude":-85.858977,"id":"a64zexf7jczf"},"type":"Feature","geometry":{"type":"Point","coordinates":[-85.858977,37.706973]}},{"properties":{"zip":43015.0,"latitude":40.293186,"jr":1.0,"longitude":-83.072312,"id":"a64zex8buqmb"},"type":"Feature","geometry":{"type":"Point","coordinates":[-83.072312,40.293186]}},{"properties":{"zip":43016.0,"latitude":40.09368,"jr":4.0,"longitude":-83.141452,"id":"a64zexgz3ky3"},"type":"Feature","geometry":{"type":"Point","coordinates":[-83.141452,40.09368]}},{"properties":{"zip":43017.0,"latitude":40.109297,"jr":2.0,"longitude":-83.114633,"id":"a64zexfdhvop"},"type":"Feature","geometry":{"type":"Point","coordinates":[-83.114633,40.109297]}},{"properties":{"zip":43021.0,"latitude":40.191546,"jr":1.0,"longitude":-82.895937,"id":"a64zexavjy59"},"type":"Feature","geometry":{"type":"Point","coordinates":[-82.895937,40.191546]}},{"properties":{"zip":43023.0,"latitude":40.078791,"jr":2.0,"longitude":-82.519399,"id":"a64zexhco3tu"},"type":"Feature","geometry":{"type":"Point","coordinates":[-82.519399,40.078791]}},{"properties":{"zip":43026.0,"latitude":40.032187,"jr":1.0,"longitude":-83.138333,"id":"a64zexg1s87u"},"type":"Feature","geometry":{"type":"Point","coordinates":[-83.138333,40.032187]}},{"properties":{"zip":43035.0,"latitude":40.176279,"jr":1.0,"longitude":-82.997459,"id":"a64zexcjnk2g"},"type":"Feature","geometry":{"type":"Point","coordinates":[-82.997459,40.176279]}},{"properties":{"zip":43040.0,"latitude":40.247723,"jr":1.0,"longitude":-83.362213,"id":"a64zexfglocv"},"type":"Feature","geometry":{"type":"Point","coordinates":[-83.362213,40.247723]}},{"properties":{"zip":43050.0,"latitude":40.384937,"jr":1.0,"longitude":-82.487286,"id":"a64zexfwv0mp"},"type":"Feature","geometry":{"type":"Point","coordinates":[-82.487286,40.384937]}},{"properties":{"zip":43054.0,"latitude":40.084686,"jr":1.0,"longitude":-82.798793,"id":"a64zexbz9ah3"},"type":"Feature","geometry":{"type":"Point","coordinates":[-82.798793,40.084686]}},{"properties":{"zip":43056.0,"latitude":40.019659,"jr":1.0,"longitude":-82.387527,"id":"a64zexccolj3"},"type":"Feature","geometry":{"type":"Point","coordinates":[-82.387527,40.019659]}},{"properties":{"zip":43064.0,"latitude":40.097356,"jr":1.0,"longitude":-83.269049,"id":"a64zexf57ct6"},"type":"Feature","geometry":{"type":"Point","coordinates":[-83.269049,40.097356]}},{"properties":{"zip":43065.0,"latitude":40.152652,"jr":2.0,"longitude":-83.074921,"id":"a64zexf3fl5c"},"type":"Feature","geometry":{"type":"Point","coordinates":[-83.074921,40.152652]}},{"properties":{"zip":43068.0,"latitude":39.955145,"jr":2.0,"longitude":-82.803454,"id":"a64zexlxeg94"},"type":"Feature","geometry":{"type":"Point","coordinates":[-82.803454,39.955145]}},{"properties":{"zip":43078.0,"latitude":40.106639,"jr":1.0,"longitude":-83.767142,"id":"a64zex8wlo0l"},"type":"Feature","geometry":{"type":"Point","coordinates":[-83.767142,40.106639]}},{"properties":{"zip":43081.0,"latitude":40.114569,"jr":1.0,"longitude":-82.910504,"id":"a64zex793n1h"},"type":"Feature","geometry":{"type":"Point","coordinates":[-82.910504,40.114569]}},{"properties":{"zip":43082.0,"latitude":40.154803,"jr":1.0,"longitude":-82.912782,"id":"a64zexa29d6v"},"type":"Feature","geometry":{"type":"Point","coordinates":[-82.912782,40.154803]}},{"properties":{"zip":43085.0,"latitude":40.105155,"jr":3.0,"longitude":-83.010069,"id":"a64zex6udtxp"},"type":"Feature","geometry":{"type":"Point","coordinates":[-83.010069,40.105155]}},{"properties":{"zip":43110.0,"latitude":39.83486,"jr":2.0,"longitude":-82.804369,"id":"a64zexg3uebn"},"type":"Feature","geometry":{"type":"Point","coordinates":[-82.804369,39.83486]}},{"properties":{"zip":43119.0,"latitude":39.936604,"jr":1.0,"longitude":-83.183848,"id":"a64zexcbxhaa"},"type":"Feature","geometry":{"type":"Point","coordinates":[-83.183848,39.936604]}},{"properties":{"zip":43123.0,"latitude":39.881382,"jr":1.0,"longitude":-83.083944,"id":"a64zexcg3wh7"},"type":"Feature","geometry":{"type":"Point","coordinates":[-83.083944,39.881382]}},{"properties":{"zip":43160.0,"latitude":39.534346,"jr":1.0,"longitude":-83.438817,"id":"a64zexesmgtp"},"type":"Feature","geometry":{"type":"Point","coordinates":[-83.438817,39.534346]}},{"properties":{"zip":43201.0,"latitude":39.995157,"jr":1.0,"longitude":-83.004732,"id":"a64zex9ueiif"},"type":"Feature","geometry":{"type":"Point","coordinates":[-83.004732,39.995157]}},{"properties":{"zip":43209.0,"latitude":39.958999,"jr":1.0,"longitude":-82.926595,"id":"a64zex8r0zjy"},"type":"Feature","geometry":{"type":"Point","coordinates":[-82.926595,39.958999]}},{"properties":{"zip":43211.0,"latitude":40.011792,"jr":1.0,"longitude":-82.973196,"id":"a64zexlktl0z"},"type":"Feature","geometry":{"type":"Point","coordinates":[-82.973196,40.011792]}},{"properties":{"zip":43212.0,"latitude":39.987381,"jr":2.0,"longitude":-83.045579,"id":"a64zexloueb5"},"type":"Feature","geometry":{"type":"Point","coordinates":[-83.045579,39.987381]}},{"properties":{"zip":43214.0,"latitude":40.053482,"jr":1.0,"longitude":-83.01875,"id":"a64zex8jlqjp"},"type":"Feature","geometry":{"type":"Point","coordinates":[-83.01875,40.053482]}},{"properties":{"zip":43221.0,"latitude":40.015431,"jr":2.0,"longitude":-83.064592,"id":"a64zex75ojaf"},"type":"Feature","geometry":{"type":"Point","coordinates":[-83.064592,40.015431]}},{"properties":{"zip":43230.0,"latitude":40.038458,"jr":1.0,"longitude":-82.882429,"id":"a64zexa9fed6"},"type":"Feature","geometry":{"type":"Point","coordinates":[-82.882429,40.038458]}},{"properties":{"zip":43231.0,"latitude":40.080984,"jr":1.0,"longitude":-82.938275,"id":"a64zex8xu8gi"},"type":"Feature","geometry":{"type":"Point","coordinates":[-82.938275,40.080984]}},{"properties":{"zip":43232.0,"latitude":39.923024,"jr":2.0,"longitude":-82.866432,"id":"a64zexbmr6e4"},"type":"Feature","geometry":{"type":"Point","coordinates":[-82.866432,39.923024]}},{"properties":{"zip":43235.0,"latitude":40.101271,"jr":2.0,"longitude":-83.059287,"id":"a64zex5rnf6d"},"type":"Feature","geometry":{"type":"Point","coordinates":[-83.059287,40.101271]}},{"properties":{"zip":43506.0,"latitude":41.474839,"jr":1.0,"longitude":-84.56287,"id":"a64zexbt7pt8"},"type":"Feature","geometry":{"type":"Point","coordinates":[-84.56287,41.474839]}},{"properties":{"zip":43527.0,"latitude":41.254859,"jr":1.0,"longitude":-84.144735,"id":"a64zex60cbnw"},"type":"Feature","geometry":{"type":"Point","coordinates":[-84.144735,41.254859]}},{"properties":{"zip":43537.0,"latitude":41.581682,"jr":1.0,"longitude":-83.66283,"id":"a64zex8n99m5"},"type":"Feature","geometry":{"type":"Point","coordinates":[-83.66283,41.581682]}},{"properties":{"zip":43551.0,"latitude":41.542926,"jr":2.0,"longitude":-83.592727,"id":"a64zexklr2u1"},"type":"Feature","geometry":{"type":"Point","coordinates":[-83.592727,41.542926]}},{"properties":{"zip":43560.0,"latitude":41.707985,"jr":2.0,"longitude":-83.706825,"id":"a64zexiuly0r"},"type":"Feature","geometry":{"type":"Point","coordinates":[-83.706825,41.707985]}},{"properties":{"zip":43571.0,"latitude":41.519432,"jr":1.0,"longitude":-83.81151,"id":"a64zexb3qe7d"},"type":"Feature","geometry":{"type":"Point","coordinates":[-83.81151,41.519432]}},{"properties":{"zip":43613.0,"latitude":41.703913,"jr":2.0,"longitude":-83.603397,"id":"a64zex8hjpo8"},"type":"Feature","geometry":{"type":"Point","coordinates":[-83.603397,41.703913]}},{"properties":{"zip":43614.0,"latitude":41.60279,"jr":1.0,"longitude":-83.62917,"id":"a64zexl8o1a3"},"type":"Feature","geometry":{"type":"Point","coordinates":[-83.62917,41.60279]}},{"properties":{"zip":43615.0,"latitude":41.649197,"jr":1.0,"longitude":-83.670583,"id":"a64zexapwyo0"},"type":"Feature","geometry":{"type":"Point","coordinates":[-83.670583,41.649197]}},{"properties":{"zip":43615.0,"latitude":41.649197,"jr":1.0,"longitude":-83.670583,"id":"a64zexhmqa12"},"type":"Feature","geometry":{"type":"Point","coordinates":[-83.670583,41.649197]}},{"properties":{"zip":43617.0,"latitude":41.666765,"jr":2.0,"longitude":-83.716967,"id":"a64zexhsefhc"},"type":"Feature","geometry":{"type":"Point","coordinates":[-83.716967,41.666765]}},{"properties":{"zip":43812.0,"latitude":40.275412,"jr":1.0,"longitude":-81.866033,"id":"a64zex7hq3sz"},"type":"Feature","geometry":{"type":"Point","coordinates":[-81.866033,40.275412]}},{"properties":{"zip":43830.0,"latitude":40.038588,"jr":1.0,"longitude":-82.09976,"id":"a64zexkgrlz0"},"type":"Feature","geometry":{"type":"Point","coordinates":[-82.09976,40.038588]}},{"properties":{"zip":44001.0,"latitude":41.390506,"jr":1.0,"longitude":-82.228165,"id":"a64zex7agzth"},"type":"Feature","geometry":{"type":"Point","coordinates":[-82.228165,41.390506]}},{"properties":{"zip":44004.0,"latitude":41.867877,"jr":1.0,"longitude":-80.794681,"id":"a64zexfwcd9c"},"type":"Feature","geometry":{"type":"Point","coordinates":[-80.794681,41.867877]}},{"properties":{"zip":44011.0,"latitude":41.446713,"jr":4.0,"longitude":-82.020359,"id":"a64zex7tzow2"},"type":"Feature","geometry":{"type":"Point","coordinates":[-82.020359,41.446713]}},{"properties":{"zip":44012.0,"latitude":41.501904,"jr":4.0,"longitude":-82.011094,"id":"a64zexctnc2e"},"type":"Feature","geometry":{"type":"Point","coordinates":[-82.011094,41.501904]}},{"properties":{"zip":44017.0,"latitude":41.367557,"jr":1.0,"longitude":-81.861756,"id":"a64zexgpa0k8"},"type":"Feature","geometry":{"type":"Point","coordinates":[-81.861756,41.367557]}},{"properties":{"zip":44022.0,"latitude":41.418577,"jr":8.0,"longitude":-81.361437,"id":"a64zexg2eoil"},"type":"Feature","geometry":{"type":"Point","coordinates":[-81.361437,41.418577]}},{"properties":{"zip":44023.0,"latitude":41.391439,"jr":1.0,"longitude":-81.317789,"id":"a64zexi8is91"},"type":"Feature","geometry":{"type":"Point","coordinates":[-81.317789,41.391439]}},{"properties":{"zip":44024.0,"latitude":41.571862,"jr":5.0,"longitude":-81.205629,"id":"a64zexhpqa3i"},"type":"Feature","geometry":{"type":"Point","coordinates":[-81.205629,41.571862]}},{"properties":{"zip":44028.0,"latitude":41.318708,"jr":1.0,"longitude":-81.934398,"id":"a64zexidhg5s"},"type":"Feature","geometry":{"type":"Point","coordinates":[-81.934398,41.318708]}},{"properties":{"zip":44035.0,"latitude":41.372353,"jr":5.0,"longitude":-82.105088,"id":"a64zexbsaew1"},"type":"Feature","geometry":{"type":"Point","coordinates":[-82.105088,41.372353]}},{"properties":{"zip":44039.0,"latitude":41.396432,"jr":1.0,"longitude":-82.003323,"id":"a64zexjug6b9"},"type":"Feature","geometry":{"type":"Point","coordinates":[-82.003323,41.396432]}},{"properties":{"zip":44040.0,"latitude":41.532368,"jr":3.0,"longitude":-81.415021,"id":"a64zexgvr6df"},"type":"Feature","geometry":{"type":"Point","coordinates":[-81.415021,41.532368]}},{"properties":{"zip":44044.0,"latitude":41.28537,"jr":1.0,"longitude":-82.043098,"id":"a64zexhld0bu"},"type":"Feature","geometry":{"type":"Point","coordinates":[-82.043098,41.28537]}},{"properties":{"zip":44052.0,"latitude":41.457796,"jr":1.0,"longitude":-82.171039,"id":"a64zexjbnqhe"},"type":"Feature","geometry":{"type":"Point","coordinates":[-82.171039,41.457796]}},{"properties":{"zip":44056.0,"latitude":41.322236,"jr":1.0,"longitude":-81.499578,"id":"a64zexhvyc55"},"type":"Feature","geometry":{"type":"Point","coordinates":[-81.499578,41.322236]}},{"properties":{"zip":44057.0,"latitude":41.805367,"jr":1.0,"longitude":-81.058819,"id":"a64zexjgcvgu"},"type":"Feature","geometry":{"type":"Point","coordinates":[-81.058819,41.805367]}},{"properties":{"zip":44060.0,"latitude":41.689468,"jr":11.0,"longitude":-81.342133,"id":"a64zex6yjrhf"},"type":"Feature","geometry":{"type":"Point","coordinates":[-81.342133,41.689468]}},{"properties":{"zip":44062.0,"latitude":41.445547,"jr":1.0,"longitude":-81.037338,"id":"a64zexkoi1c4"},"type":"Feature","geometry":{"type":"Point","coordinates":[-81.037338,41.445547]}},{"properties":{"zip":44065.0,"latitude":41.475022,"jr":1.0,"longitude":-81.23452,"id":"a64zexanomtm"},"type":"Feature","geometry":{"type":"Point","coordinates":[-81.23452,41.475022]}},{"properties":{"zip":44067.0,"latitude":41.320821,"jr":3.0,"longitude":-81.542943,"id":"a64zexkv0p9o"},"type":"Feature","geometry":{"type":"Point","coordinates":[-81.542943,41.320821]}},{"properties":{"zip":44070.0,"latitude":41.420129,"jr":12.0,"longitude":-81.913056,"id":"a64zexad884i"},"type":"Feature","geometry":{"type":"Point","coordinates":[-81.913056,41.420129]}},{"properties":{"zip":44074.0,"latitude":41.28987,"jr":1.0,"longitude":-82.222863,"id":"a64zexc0whwp"},"type":"Feature","geometry":{"type":"Point","coordinates":[-82.222863,41.28987]}},{"properties":{"zip":44077.0,"latitude":41.714014,"jr":3.0,"longitude":-81.243665,"id":"a64zex7e2ovh"},"type":"Feature","geometry":{"type":"Point","coordinates":[-81.243665,41.714014]}},{"properties":{"zip":44089.0,"latitude":41.409989,"jr":1.0,"longitude":-82.355417,"id":"a64zexaegmtm"},"type":"Feature","geometry":{"type":"Point","coordinates":[-82.355417,41.409989]}},{"properties":{"zip":44092.0,"latitude":41.604565,"jr":2.0,"longitude":-81.469175,"id":"a64zexin3fdc"},"type":"Feature","geometry":{"type":"Point","coordinates":[-81.469175,41.604565]}},{"properties":{"zip":44094.0,"latitude":41.630229,"jr":2.0,"longitude":-81.407619,"id":"a64zexismeag"},"type":"Feature","geometry":{"type":"Point","coordinates":[-81.407619,41.630229]}},{"properties":{"zip":44095.0,"latitude":41.649822,"jr":4.0,"longitude":-81.447887,"id":"a64zex8ayq3j"},"type":"Feature","geometry":{"type":"Point","coordinates":[-81.447887,41.649822]}},{"properties":{"zip":44102.0,"latitude":41.473508,"jr":3.0,"longitude":-81.739791,"id":"a64zexjxo8tg"},"type":"Feature","geometry":{"type":"Point","coordinates":[-81.739791,41.473508]}},{"properties":{"zip":44105.0,"latitude":41.450912,"jr":1.0,"longitude":-81.619002,"id":"a64zex9um67w"},"type":"Feature","geometry":{"type":"Point","coordinates":[-81.619002,41.450912]}},{"properties":{"zip":44106.0,"latitude":41.508359,"jr":10.0,"longitude":-81.60757,"id":"a64zex8qlf9a"},"type":"Feature","geometry":{"type":"Point","coordinates":[-81.60757,41.508359]}},{"properties":{"zip":44107.0,"latitude":41.482654,"jr":8.0,"longitude":-81.797143,"id":"a64zex5ye4h3"},"type":"Feature","geometry":{"type":"Point","coordinates":[-81.797143,41.482654]}},{"properties":{"zip":44108.0,"latitude":41.53492,"jr":2.0,"longitude":-81.608974,"id":"a64zex9l7sg9"},"type":"Feature","geometry":{"type":"Point","coordinates":[-81.608974,41.53492]}},{"properties":{"zip":44109.0,"latitude":41.445768,"jr":3.0,"longitude":-81.703315,"id":"a64zexj00b24"},"type":"Feature","geometry":{"type":"Point","coordinates":[-81.703315,41.445768]}},{"properties":{"zip":44112.0,"latitude":41.535517,"jr":1.0,"longitude":-81.576262,"id":"a64zex90wz66"},"type":"Feature","geometry":{"type":"Point","coordinates":[-81.576262,41.535517]}},{"properties":{"zip":44114.0,"latitude":41.506351,"jr":1.0,"longitude":-81.67425,"id":"a64zexb63kpt"},"type":"Feature","geometry":{"type":"Point","coordinates":[-81.67425,41.506351]}},{"properties":{"zip":44116.0,"latitude":41.469401,"jr":6.0,"longitude":-81.851246,"id":"a64zex72fbdp"},"type":"Feature","geometry":{"type":"Point","coordinates":[-81.851246,41.469401]}},{"properties":{"zip":44118.0,"latitude":41.501213,"jr":10.0,"longitude":-81.553945,"id":"a64zexjb53b2"},"type":"Feature","geometry":{"type":"Point","coordinates":[-81.553945,41.501213]}},{"properties":{"zip":44119.0,"latitude":41.588238,"jr":2.0,"longitude":-81.546759,"id":"a64zexgea3c9"},"type":"Feature","geometry":{"type":"Point","coordinates":[-81.546759,41.588238]}},{"properties":{"zip":44120.0,"latitude":41.471433,"jr":6.0,"longitude":-81.583911,"id":"a64zex8uji8w"},"type":"Feature","geometry":{"type":"Point","coordinates":[-81.583911,41.471433]}},{"properties":{"zip":44121.0,"latitude":41.526019,"jr":2.0,"longitude":-81.533758,"id":"a64zexaim0fk"},"type":"Feature","geometry":{"type":"Point","coordinates":[-81.533758,41.526019]}},{"properties":{"zip":44122.0,"latitude":41.470109,"jr":6.0,"longitude":-81.523172,"id":"a64zexcf441r"},"type":"Feature","geometry":{"type":"Point","coordinates":[-81.523172,41.470109]}},{"properties":{"zip":44123.0,"latitude":41.604416,"jr":1.0,"longitude":-81.524325,"id":"a64zexl4z08t"},"type":"Feature","geometry":{"type":"Point","coordinates":[-81.524325,41.604416]}},{"properties":{"zip":44124.0,"latitude":41.514349,"jr":10.0,"longitude":-81.46801,"id":"a64zexlfzj7j"},"type":"Feature","geometry":{"type":"Point","coordinates":[-81.46801,41.514349]}},{"properties":{"zip":44125.0,"latitude":41.415792,"jr":6.0,"longitude":-81.605385,"id":"a64zexf6quix"},"type":"Feature","geometry":{"type":"Point","coordinates":[-81.605385,41.415792]}},{"properties":{"zip":44126.0,"latitude":41.4433,"jr":1.0,"longitude":-81.856381,"id":"a64zex7tt7rj"},"type":"Feature","geometry":{"type":"Point","coordinates":[-81.856381,41.4433]}},{"properties":{"zip":44128.0,"latitude":41.441565,"jr":2.0,"longitude":-81.548574,"id":"a64zexc96l7x"},"type":"Feature","geometry":{"type":"Point","coordinates":[-81.548574,41.441565]}},{"properties":{"zip":44129.0,"latitude":41.396474,"jr":3.0,"longitude":-81.734604,"id":"a64zex6si4yy"},"type":"Feature","geometry":{"type":"Point","coordinates":[-81.734604,41.396474]}},{"properties":{"zip":44130.0,"latitude":41.377178,"jr":3.0,"longitude":-81.774858,"id":"a64zexj01bwt"},"type":"Feature","geometry":{"type":"Point","coordinates":[-81.774858,41.377178]}},{"properties":{"zip":44131.0,"latitude":41.380905,"jr":2.0,"longitude":-81.66421,"id":"a64zexcn70ce"},"type":"Feature","geometry":{"type":"Point","coordinates":[-81.66421,41.380905]}},{"properties":{"zip":44133.0,"latitude":41.323164,"jr":4.0,"longitude":-81.745657,"id":"a64zexk3y8n6"},"type":"Feature","geometry":{"type":"Point","coordinates":[-81.745657,41.323164]}},{"properties":{"zip":44134.0,"latitude":41.390764,"jr":6.0,"longitude":-81.705726,"id":"a64zexlnd4ne"},"type":"Feature","geometry":{"type":"Point","coordinates":[-81.705726,41.390764]}},{"properties":{"zip":44135.0,"latitude":41.434177,"jr":7.0,"longitude":-81.804433,"id":"a64zex7aeqvk"},"type":"Feature","geometry":{"type":"Point","coordinates":[-81.804433,41.434177]}},{"properties":{"zip":44136.0,"latitude":41.313218,"jr":3.0,"longitude":-81.828457,"id":"a64zexi90jd9"},"type":"Feature","geometry":{"type":"Point","coordinates":[-81.828457,41.313218]}},{"properties":{"zip":44137.0,"latitude":41.410513,"jr":2.0,"longitude":-81.560339,"id":"a64zexh4qdru"},"type":"Feature","geometry":{"type":"Point","coordinates":[-81.560339,41.410513]}},{"properties":{"zip":44138.0,"latitude":41.373351,"jr":2.0,"longitude":-81.915769,"id":"a64zex88t7sg"},"type":"Feature","geometry":{"type":"Point","coordinates":[-81.915769,41.373351]}},{"properties":{"zip":44139.0,"latitude":41.386597,"jr":10.0,"longitude":-81.442082,"id":"a64zexbad45j"},"type":"Feature","geometry":{"type":"Point","coordinates":[-81.442082,41.386597]}},{"properties":{"zip":44141.0,"latitude":41.316554,"jr":5.0,"longitude":-81.626083,"id":"a64zexfkze8l"},"type":"Feature","geometry":{"type":"Point","coordinates":[-81.626083,41.316554]}},{"properties":{"zip":44143.0,"latitude":41.552195,"jr":8.0,"longitude":-81.484715,"id":"a64zexjg4tin"},"type":"Feature","geometry":{"type":"Point","coordinates":[-81.484715,41.552195]}},{"properties":{"zip":44144.0,"latitude":41.434419,"jr":3.0,"longitude":-81.735222,"id":"a64zexfugygv"},"type":"Feature","geometry":{"type":"Point","coordinates":[-81.735222,41.434419]}},{"properties":{"zip":44145.0,"latitude":41.453459,"jr":11.0,"longitude":-81.921771,"id":"a64zexctwow1"},"type":"Feature","geometry":{"type":"Point","coordinates":[-81.921771,41.453459]}},{"properties":{"zip":44146.0,"latitude":41.392067,"jr":2.0,"longitude":-81.52315,"id":"a64zex8ev8md"},"type":"Feature","geometry":{"type":"Point","coordinates":[-81.52315,41.392067]}},{"properties":{"zip":44147.0,"latitude":41.32907,"jr":5.0,"longitude":-81.680879,"id":"a64zexcwks3f"},"type":"Feature","geometry":{"type":"Point","coordinates":[-81.680879,41.32907]}},{"properties":{"zip":44149.0,"latitude":41.31657,"jr":4.0,"longitude":-81.854344,"id":"a64zexfrtv7n"},"type":"Feature","geometry":{"type":"Point","coordinates":[-81.854344,41.31657]}},{"properties":{"zip":44202.0,"latitude":41.320935,"jr":4.0,"longitude":-81.360424,"id":"a64zex8vbkqj"},"type":"Feature","geometry":{"type":"Point","coordinates":[-81.360424,41.320935]}},{"properties":{"zip":44203.0,"latitude":41.018589,"jr":3.0,"longitude":-81.615314,"id":"a64zexcc6ns1"},"type":"Feature","geometry":{"type":"Point","coordinates":[-81.615314,41.018589]}},{"properties":{"zip":44212.0,"latitude":41.247053,"jr":4.0,"longitude":-81.827968,"id":"a64zexd5cxpl"},"type":"Feature","geometry":{"type":"Point","coordinates":[-81.827968,41.247053]}},{"properties":{"zip":44221.0,"latitude":41.140082,"jr":1.0,"longitude":-81.478961,"id":"a64zex7h8s31"},"type":"Feature","geometry":{"type":"Point","coordinates":[-81.478961,41.140082]}},{"properties":{"zip":44223.0,"latitude":41.146448,"jr":1.0,"longitude":-81.510719,"id":"a64zexhodv3z"},"type":"Feature","geometry":{"type":"Point","coordinates":[-81.510719,41.146448]}},{"properties":{"zip":44224.0,"latitude":41.174808,"jr":4.0,"longitude":-81.438017,"id":"a64zex8umi60"},"type":"Feature","geometry":{"type":"Point","coordinates":[-81.438017,41.174808]}},{"properties":{"zip":44230.0,"latitude":40.965042,"jr":1.0,"longitude":-81.684845,"id":"a64zexl1m2ec"},"type":"Feature","geometry":{"type":"Point","coordinates":[-81.684845,40.965042]}},{"properties":{"zip":44233.0,"latitude":41.241872,"jr":1.0,"longitude":-81.74527,"id":"a64zex7fuofr"},"type":"Feature","geometry":{"type":"Point","coordinates":[-81.74527,41.241872]}},{"properties":{"zip":44234.0,"latitude":41.332253,"jr":1.0,"longitude":-81.14644,"id":"a64zexec8pt2"},"type":"Feature","geometry":{"type":"Point","coordinates":[-81.14644,41.332253]}},{"properties":{"zip":44240.0,"latitude":41.14492,"jr":2.0,"longitude":-81.34976,"id":"a64zex9s79sf"},"type":"Feature","geometry":{"type":"Point","coordinates":[-81.34976,41.14492]}},{"properties":{"zip":44241.0,"latitude":41.249099,"jr":1.0,"longitude":-81.338298,"id":"a64zexc1l9lg"},"type":"Feature","geometry":{"type":"Point","coordinates":[-81.338298,41.249099]}},{"properties":{"zip":44253.0,"latitude":41.166847,"jr":2.0,"longitude":-82.015674,"id":"a64zexb85g5e"},"type":"Feature","geometry":{"type":"Point","coordinates":[-82.015674,41.166847]}},{"properties":{"zip":44255.0,"latitude":41.294141,"jr":1.0,"longitude":-81.228259,"id":"a64zexerj0jo"},"type":"Feature","geometry":{"type":"Point","coordinates":[-81.228259,41.294141]}},{"properties":{"zip":44256.0,"latitude":41.140415,"jr":4.0,"longitude":-81.858351,"id":"a64zexfp1u16"},"type":"Feature","geometry":{"type":"Point","coordinates":[-81.858351,41.140415]}},{"properties":{"zip":44260.0,"latitude":41.038196,"jr":1.0,"longitude":-81.358963,"id":"a64zex5o6b0m"},"type":"Feature","geometry":{"type":"Point","coordinates":[-81.358963,41.038196]}},{"properties":{"zip":44262.0,"latitude":41.14202,"jr":1.0,"longitude":-81.437565,"id":"a64zexjx9i9h"},"type":"Feature","geometry":{"type":"Point","coordinates":[-81.437565,41.14202]}},{"properties":{"zip":44266.0,"latitude":41.164886,"jr":1.0,"longitude":-81.233656,"id":"a64zexh6c6gs"},"type":"Feature","geometry":{"type":"Point","coordinates":[-81.233656,41.164886]}},{"properties":{"zip":44270.0,"latitude":40.968381,"jr":1.0,"longitude":-81.782599,"id":"a64zexca5mj7"},"type":"Feature","geometry":{"type":"Point","coordinates":[-81.782599,40.968381]}},{"properties":{"zip":44278.0,"latitude":41.097492,"jr":2.0,"longitude":-81.425966,"id":"a64zex92h737"},"type":"Feature","geometry":{"type":"Point","coordinates":[-81.425966,41.097492]}},{"properties":{"zip":44281.0,"latitude":41.038375,"jr":1.0,"longitude":-81.737373,"id":"a64zex7xbkwk"},"type":"Feature","geometry":{"type":"Point","coordinates":[-81.737373,41.038375]}},{"properties":{"zip":44286.0,"latitude":41.23712,"jr":2.0,"longitude":-81.646668,"id":"a64zexcgseem"},"type":"Feature","geometry":{"type":"Point","coordinates":[-81.646668,41.23712]}},{"properties":{"zip":44313.0,"latitude":41.121995,"jr":2.0,"longitude":-81.568487,"id":"a64zex9s546d"},"type":"Feature","geometry":{"type":"Point","coordinates":[-81.568487,41.121995]}},{"properties":{"zip":44321.0,"latitude":41.103139,"jr":4.0,"longitude":-81.648045,"id":"a64zexkhsrtb"},"type":"Feature","geometry":{"type":"Point","coordinates":[-81.648045,41.103139]}},{"properties":{"zip":44333.0,"latitude":41.146734,"jr":6.0,"longitude":-81.62385,"id":"a64zexc2wzvl"},"type":"Feature","geometry":{"type":"Point","coordinates":[-81.62385,41.146734]}},{"properties":{"zip":44406.0,"latitude":41.029328,"jr":1.0,"longitude":-80.756436,"id":"a64zexb2rmuy"},"type":"Feature","geometry":{"type":"Point","coordinates":[-80.756436,41.029328]}},{"properties":{"zip":44410.0,"latitude":41.325125,"jr":4.0,"longitude":-80.732745,"id":"a64zexewkcis"},"type":"Feature","geometry":{"type":"Point","coordinates":[-80.732745,41.325125]}},{"properties":{"zip":44420.0,"latitude":41.161136,"jr":2.0,"longitude":-80.693305,"id":"a64zexhcemf4"},"type":"Feature","geometry":{"type":"Point","coordinates":[-80.693305,41.161136]}},{"properties":{"zip":44425.0,"latitude":41.162401,"jr":1.0,"longitude":-80.576192,"id":"a64zex7rp1ka"},"type":"Feature","geometry":{"type":"Point","coordinates":[-80.576192,41.162401]}},{"properties":{"zip":44428.0,"latitude":41.435442,"jr":1.0,"longitude":-80.576506,"id":"a64zexaxbxc6"},"type":"Feature","geometry":{"type":"Point","coordinates":[-80.576506,41.435442]}},{"properties":{"zip":44437.0,"latitude":41.158026,"jr":1.0,"longitude":-80.731169,"id":"a64zexka55gw"},"type":"Feature","geometry":{"type":"Point","coordinates":[-80.731169,41.158026]}},{"properties":{"zip":44444.0,"latitude":41.191047,"jr":1.0,"longitude":-80.970135,"id":"a64zex9gt7dy"},"type":"Feature","geometry":{"type":"Point","coordinates":[-80.970135,41.191047]}},{"properties":{"zip":44446.0,"latitude":41.182414,"jr":1.0,"longitude":-80.755775,"id":"a64zexl9lfhc"},"type":"Feature","geometry":{"type":"Point","coordinates":[-80.755775,41.182414]}},{"properties":{"zip":44483.0,"latitude":41.263878,"jr":1.0,"longitude":-80.816448,"id":"a64zex8jmobk"},"type":"Feature","geometry":{"type":"Point","coordinates":[-80.816448,41.263878]}},{"properties":{"zip":44502.0,"latitude":41.077366,"jr":2.0,"longitude":-80.640905,"id":"a64zex6u9m2b"},"type":"Feature","geometry":{"type":"Point","coordinates":[-80.640905,41.077366]}},{"properties":{"zip":44509.0,"latitude":41.10498,"jr":1.0,"longitude":-80.694463,"id":"a64zexfsh0j8"},"type":"Feature","geometry":{"type":"Point","coordinates":[-80.694463,41.10498]}},{"properties":{"zip":44512.0,"latitude":41.031985,"jr":2.0,"longitude":-80.666629,"id":"a64zexiv70z9"},"type":"Feature","geometry":{"type":"Point","coordinates":[-80.666629,41.031985]}},{"properties":{"zip":44514.0,"latitude":41.023258,"jr":3.0,"longitude":-80.610254,"id":"a64zex8kfkas"},"type":"Feature","geometry":{"type":"Point","coordinates":[-80.610254,41.023258]}},{"properties":{"zip":44515.0,"latitude":41.093903,"jr":1.0,"longitude":-80.743966,"id":"a64zex7qnbsp"},"type":"Feature","geometry":{"type":"Point","coordinates":[-80.743966,41.093903]}},{"properties":{"zip":44601.0,"latitude":40.915842,"jr":2.0,"longitude":-81.118193,"id":"a64zexlpfy7v"},"type":"Feature","geometry":{"type":"Point","coordinates":[-81.118193,40.915842]}},{"properties":{"zip":44614.0,"latitude":40.88871,"jr":1.0,"longitude":-81.577269,"id":"a64zexafzr9z"},"type":"Feature","geometry":{"type":"Point","coordinates":[-81.577269,40.88871]}},{"properties":{"zip":44622.0,"latitude":40.534338,"jr":1.0,"longitude":-81.476321,"id":"a64zex8ti9pk"},"type":"Feature","geometry":{"type":"Point","coordinates":[-81.476321,40.534338]}},{"properties":{"zip":44632.0,"latitude":40.961798,"jr":2.0,"longitude":-81.323873,"id":"a64zexeigg08"},"type":"Feature","geometry":{"type":"Point","coordinates":[-81.323873,40.961798]}},{"properties":{"zip":44646.0,"latitude":40.811605,"jr":1.0,"longitude":-81.497263,"id":"a64zex8aiouo"},"type":"Feature","geometry":{"type":"Point","coordinates":[-81.497263,40.811605]}},{"properties":{"zip":44647.0,"latitude":40.795918,"jr":1.0,"longitude":-81.553252,"id":"a64zexdx8axw"},"type":"Feature","geometry":{"type":"Point","coordinates":[-81.553252,40.795918]}},{"properties":{"zip":44663.0,"latitude":40.484539,"jr":4.0,"longitude":-81.435827,"id":"a64zexjnk2zl"},"type":"Feature","geometry":{"type":"Point","coordinates":[-81.435827,40.484539]}},{"properties":{"zip":44666.0,"latitude":40.838652,"jr":1.0,"longitude":-81.629946,"id":"a64zexitew1z"},"type":"Feature","geometry":{"type":"Point","coordinates":[-81.629946,40.838652]}},{"properties":{"zip":44681.0,"latitude":40.514785,"jr":1.0,"longitude":-81.660356,"id":"a64zexg13bjo"},"type":"Feature","geometry":{"type":"Point","coordinates":[-81.660356,40.514785]}},{"properties":{"zip":44685.0,"latitude":40.963694,"jr":1.0,"longitude":-81.421108,"id":"a64zexlrg6xi"},"type":"Feature","geometry":{"type":"Point","coordinates":[-81.421108,40.963694]}},{"properties":{"zip":44691.0,"latitude":40.809354,"jr":1.0,"longitude":-81.948272,"id":"a64zexaznhgi"},"type":"Feature","geometry":{"type":"Point","coordinates":[-81.948272,40.809354]}},{"properties":{"zip":44709.0,"latitude":40.837227,"jr":1.0,"longitude":-81.385947,"id":"a64zexkulgo8"},"type":"Feature","geometry":{"type":"Point","coordinates":[-81.385947,40.837227]}},{"properties":{"zip":44714.0,"latitude":40.827174,"jr":2.0,"longitude":-81.360963,"id":"a64zexh5s882"},"type":"Feature","geometry":{"type":"Point","coordinates":[-81.360963,40.827174]}},{"properties":{"zip":44720.0,"latitude":40.889919,"jr":2.0,"longitude":-81.413464,"id":"a64zexbpdeim"},"type":"Feature","geometry":{"type":"Point","coordinates":[-81.413464,40.889919]}},{"properties":{"zip":44721.0,"latitude":40.883446,"jr":1.0,"longitude":-81.33279,"id":"a64zex94izhu"},"type":"Feature","geometry":{"type":"Point","coordinates":[-81.33279,40.883446]}},{"properties":{"zip":44805.0,"latitude":40.855892,"jr":1.0,"longitude":-82.318931,"id":"a64zexkr65w7"},"type":"Feature","geometry":{"type":"Point","coordinates":[-82.318931,40.855892]}},{"properties":{"zip":44839.0,"latitude":41.390662,"jr":1.0,"longitude":-82.555491,"id":"a64zex7d8sq2"},"type":"Feature","geometry":{"type":"Point","coordinates":[-82.555491,41.390662]}},{"properties":{"zip":44870.0,"latitude":41.434878,"jr":1.0,"longitude":-82.70633,"id":"a64zexan66vg"},"type":"Feature","geometry":{"type":"Point","coordinates":[-82.70633,41.434878]}},{"properties":{"zip":45011.0,"latitude":39.405906,"jr":1.0,"longitude":-84.522117,"id":"a64zexap4p18"},"type":"Feature","geometry":{"type":"Point","coordinates":[-84.522117,39.405906]}},{"properties":{"zip":45013.0,"latitude":39.40619,"jr":1.0,"longitude":-84.606655,"id":"a64zex96t3sz"},"type":"Feature","geometry":{"type":"Point","coordinates":[-84.606655,39.40619]}},{"properties":{"zip":45040.0,"latitude":39.335741,"jr":4.0,"longitude":-84.314935,"id":"a64zex7e5anz"},"type":"Feature","geometry":{"type":"Point","coordinates":[-84.314935,39.335741]}},{"properties":{"zip":45069.0,"latitude":39.340243,"jr":7.0,"longitude":-84.399786,"id":"a64zex6j5n87"},"type":"Feature","geometry":{"type":"Point","coordinates":[-84.399786,39.340243]}},{"properties":{"zip":45122.0,"latitude":39.220931,"jr":1.0,"longitude":-84.118764,"id":"a64zexgohxtm"},"type":"Feature","geometry":{"type":"Point","coordinates":[-84.118764,39.220931]}},{"properties":{"zip":45140.0,"latitude":39.244484,"jr":1.0,"longitude":-84.258802,"id":"a64zexlh0g1j"},"type":"Feature","geometry":{"type":"Point","coordinates":[-84.258802,39.244484]}},{"properties":{"zip":45150.0,"latitude":39.179987,"jr":1.0,"longitude":-84.243814,"id":"a64zexgb1a6m"},"type":"Feature","geometry":{"type":"Point","coordinates":[-84.243814,39.179987]}},{"properties":{"zip":45157.0,"latitude":38.953663,"jr":1.0,"longitude":-84.237903,"id":"a64zexj2lhcu"},"type":"Feature","geometry":{"type":"Point","coordinates":[-84.237903,38.953663]}},{"properties":{"zip":45176.0,"latitude":39.075345,"jr":1.0,"longitude":-84.043167,"id":"a64zexas9pwl"},"type":"Feature","geometry":{"type":"Point","coordinates":[-84.043167,39.075345]}},{"properties":{"zip":45208.0,"latitude":39.136082,"jr":2.0,"longitude":-84.435474,"id":"a64zex8rzwc7"},"type":"Feature","geometry":{"type":"Point","coordinates":[-84.435474,39.136082]}},{"properties":{"zip":45209.0,"latitude":39.151578,"jr":1.0,"longitude":-84.427833,"id":"a64zex5j6yew"},"type":"Feature","geometry":{"type":"Point","coordinates":[-84.427833,39.151578]}},{"properties":{"zip":45211.0,"latitude":39.152401,"jr":2.0,"longitude":-84.596714,"id":"a64zex78rqus"},"type":"Feature","geometry":{"type":"Point","coordinates":[-84.596714,39.152401]}},{"properties":{"zip":45215.0,"latitude":39.230063,"jr":1.0,"longitude":-84.457168,"id":"a64zex5v8s96"},"type":"Feature","geometry":{"type":"Point","coordinates":[-84.457168,39.230063]}},{"properties":{"zip":45224.0,"latitude":39.203079,"jr":1.0,"longitude":-84.53883,"id":"a64zexiwhq8o"},"type":"Feature","geometry":{"type":"Point","coordinates":[-84.53883,39.203079]}},{"properties":{"zip":45230.0,"latitude":39.080861,"jr":1.0,"longitude":-84.378727,"id":"a64zexhautjs"},"type":"Feature","geometry":{"type":"Point","coordinates":[-84.378727,39.080861]}},{"properties":{"zip":45231.0,"latitude":39.241827,"jr":1.0,"longitude":-84.543702,"id":"a64zexh05069"},"type":"Feature","geometry":{"type":"Point","coordinates":[-84.543702,39.241827]}},{"properties":{"zip":45242.0,"latitude":39.239881,"jr":2.0,"longitude":-84.359919,"id":"a64zexaln38l"},"type":"Feature","geometry":{"type":"Point","coordinates":[-84.359919,39.239881]}},{"properties":{"zip":45248.0,"latitude":39.159056,"jr":1.0,"longitude":-84.651535,"id":"a64zexe0l0ls"},"type":"Feature","geometry":{"type":"Point","coordinates":[-84.651535,39.159056]}},{"properties":{"zip":45249.0,"latitude":39.275946,"jr":3.0,"longitude":-84.326673,"id":"a64zexaaqor8"},"type":"Feature","geometry":{"type":"Point","coordinates":[-84.326673,39.275946]}},{"properties":{"zip":45255.0,"latitude":39.070642,"jr":1.0,"longitude":-84.330774,"id":"a64zexdmf3i3"},"type":"Feature","geometry":{"type":"Point","coordinates":[-84.330774,39.070642]}},{"properties":{"zip":45322.0,"latitude":39.873976,"jr":1.0,"longitude":-84.309515,"id":"a64zexb0a4ls"},"type":"Feature","geometry":{"type":"Point","coordinates":[-84.309515,39.873976]}},{"properties":{"zip":45338.0,"latitude":39.853404,"jr":1.0,"longitude":-84.53685,"id":"a64zexigztf8"},"type":"Feature","geometry":{"type":"Point","coordinates":[-84.53685,39.853404]}},{"properties":{"zip":45356.0,"latitude":40.148621,"jr":2.0,"longitude":-84.253053,"id":"a64zexao7t9x"},"type":"Feature","geometry":{"type":"Point","coordinates":[-84.253053,40.148621]}},{"properties":{"zip":45371.0,"latitude":39.943577,"jr":1.0,"longitude":-84.171501,"id":"a64zexc8vj5r"},"type":"Feature","geometry":{"type":"Point","coordinates":[-84.171501,39.943577]}},{"properties":{"zip":45377.0,"latitude":39.888273,"jr":1.0,"longitude":-84.202266,"id":"a64zex8cm2xd"},"type":"Feature","geometry":{"type":"Point","coordinates":[-84.202266,39.888273]}},{"properties":{"zip":45387.0,"latitude":39.799569,"jr":1.0,"longitude":-83.889066,"id":"a64zex6q7kms"},"type":"Feature","geometry":{"type":"Point","coordinates":[-83.889066,39.799569]}},{"properties":{"zip":45406.0,"latitude":39.782148,"jr":1.0,"longitude":-84.237297,"id":"a64zex74rps0"},"type":"Feature","geometry":{"type":"Point","coordinates":[-84.237297,39.782148]}},{"properties":{"zip":45410.0,"latitude":39.74743,"jr":1.0,"longitude":-84.16001,"id":"a64zex824gx7"},"type":"Feature","geometry":{"type":"Point","coordinates":[-84.16001,39.74743]}},{"properties":{"zip":45420.0,"latitude":39.721286,"jr":1.0,"longitude":-84.133892,"id":"a64zex9fewdi"},"type":"Feature","geometry":{"type":"Point","coordinates":[-84.133892,39.721286]}},{"properties":{"zip":45424.0,"latitude":39.845339,"jr":1.0,"longitude":-84.123287,"id":"a64zexcuo1fz"},"type":"Feature","geometry":{"type":"Point","coordinates":[-84.123287,39.845339]}},{"properties":{"zip":45426.0,"latitude":39.810548,"jr":1.0,"longitude":-84.298283,"id":"a64zexk9ovet"},"type":"Feature","geometry":{"type":"Point","coordinates":[-84.298283,39.810548]}},{"properties":{"zip":45429.0,"latitude":39.686392,"jr":1.0,"longitude":-84.156077,"id":"a64zexeiqis3"},"type":"Feature","geometry":{"type":"Point","coordinates":[-84.156077,39.686392]}},{"properties":{"zip":45434.0,"latitude":39.716552,"jr":1.0,"longitude":-84.040385,"id":"a64zexcov1t8"},"type":"Feature","geometry":{"type":"Point","coordinates":[-84.040385,39.716552]}},{"properties":{"zip":45440.0,"latitude":39.674854,"jr":1.0,"longitude":-84.113573,"id":"a64zexjot48b"},"type":"Feature","geometry":{"type":"Point","coordinates":[-84.113573,39.674854]}},{"properties":{"zip":45458.0,"latitude":39.615755,"jr":2.0,"longitude":-84.162697,"id":"a64zexaka9dh"},"type":"Feature","geometry":{"type":"Point","coordinates":[-84.162697,39.615755]}},{"properties":{"zip":45502.0,"latitude":39.930486,"jr":1.0,"longitude":-83.841338,"id":"a64zexhnvs2v"},"type":"Feature","geometry":{"type":"Point","coordinates":[-83.841338,39.930486]}},{"properties":{"zip":45662.0,"latitude":38.757252,"jr":1.0,"longitude":-82.94864,"id":"a64zexde1w0h"},"type":"Feature","geometry":{"type":"Point","coordinates":[-82.94864,38.757252]}},{"properties":{"zip":45693.0,"latitude":38.801702,"jr":1.0,"longitude":-83.533349,"id":"a64zexl5empr"},"type":"Feature","geometry":{"type":"Point","coordinates":[-83.533349,38.801702]}},{"properties":{"zip":45701.0,"latitude":39.317824,"jr":1.0,"longitude":-82.102011,"id":"a64zexj80ml8"},"type":"Feature","geometry":{"type":"Point","coordinates":[-82.102011,39.317824]}},{"properties":{"zip":45807.0,"latitude":40.791599,"jr":1.0,"longitude":-84.163966,"id":"a64zexlgftrm"},"type":"Feature","geometry":{"type":"Point","coordinates":[-84.163966,40.791599]}},{"properties":{"zip":45814.0,"latitude":40.876109,"jr":1.0,"longitude":-83.668536,"id":"a64zexds1q0p"},"type":"Feature","geometry":{"type":"Point","coordinates":[-83.668536,40.876109]}},{"properties":{"zip":45822.0,"latitude":40.546074,"jr":2.0,"longitude":-84.570067,"id":"a64zexccipq1"},"type":"Feature","geometry":{"type":"Point","coordinates":[-84.570067,40.546074]}},{"properties":{"zip":45840.0,"latitude":41.044903,"jr":3.0,"longitude":-83.645656,"id":"a64zexd7ydzv"},"type":"Feature","geometry":{"type":"Point","coordinates":[-83.645656,41.044903]}},{"properties":{"zip":46034.0,"latitude":40.126781,"jr":1.0,"longitude":-86.024844,"id":"a64zexb7bp40"},"type":"Feature","geometry":{"type":"Point","coordinates":[-86.024844,40.126781]}},{"properties":{"zip":46104.0,"latitude":39.648791,"jr":1.0,"longitude":-85.582775,"id":"a64zex6cprdc"},"type":"Feature","geometry":{"type":"Point","coordinates":[-85.582775,39.648791]}},{"properties":{"zip":46222.0,"latitude":39.788971,"jr":1.0,"longitude":-86.213574,"id":"a64zex7htci8"},"type":"Feature","geometry":{"type":"Point","coordinates":[-86.213574,39.788971]}},{"properties":{"zip":46278.0,"latitude":39.883858,"jr":1.0,"longitude":-86.291455,"id":"a64zexbvh2wz"},"type":"Feature","geometry":{"type":"Point","coordinates":[-86.291455,39.883858]}},{"properties":{"zip":46311.0,"latitude":41.491976,"jr":1.0,"longitude":-87.510803,"id":"a64zexkmqquo"},"type":"Feature","geometry":{"type":"Point","coordinates":[-87.510803,41.491976]}},{"properties":{"zip":46321.0,"latitude":41.554438,"jr":1.0,"longitude":-87.501101,"id":"a64zexe54fyd"},"type":"Feature","geometry":{"type":"Point","coordinates":[-87.501101,41.554438]}},{"properties":{"zip":46350.0,"latitude":41.599438,"jr":1.0,"longitude":-86.707654,"id":"a64zex5l27w7"},"type":"Feature","geometry":{"type":"Point","coordinates":[-86.707654,41.599438]}},{"properties":{"zip":46385.0,"latitude":41.48045,"jr":2.0,"longitude":-87.114268,"id":"a64zex657w59"},"type":"Feature","geometry":{"type":"Point","coordinates":[-87.114268,41.48045]}},{"properties":{"zip":46511.0,"latitude":41.22307,"jr":1.0,"longitude":-86.412888,"id":"a64zex79m8cd"},"type":"Feature","geometry":{"type":"Point","coordinates":[-86.412888,41.22307]}},{"properties":{"zip":47112.0,"latitude":38.218865,"jr":1.0,"longitude":-86.114465,"id":"a64zexacsfoo"},"type":"Feature","geometry":{"type":"Point","coordinates":[-86.114465,38.218865]}},{"properties":{"zip":47374.0,"latitude":39.83244,"jr":1.0,"longitude":-84.893606,"id":"a64zexdbyxt1"},"type":"Feature","geometry":{"type":"Point","coordinates":[-84.893606,39.83244]}},{"properties":{"zip":48140.0,"latitude":41.854928,"jr":1.0,"longitude":-83.591561,"id":"a64zexbhu9fn"},"type":"Feature","geometry":{"type":"Point","coordinates":[-83.591561,41.854928]}},{"properties":{"zip":48154.0,"latitude":42.395796,"jr":1.0,"longitude":-83.377157,"id":"a64zexkksoit"},"type":"Feature","geometry":{"type":"Point","coordinates":[-83.377157,42.395796]}},{"properties":{"zip":48178.0,"latitude":42.456678,"jr":1.0,"longitude":-83.658951,"id":"a64zex88kopt"},"type":"Feature","geometry":{"type":"Point","coordinates":[-83.658951,42.456678]}},{"properties":{"zip":48182.0,"latitude":41.768229,"jr":1.0,"longitude":-83.579739,"id":"a64zexduch3t"},"type":"Feature","geometry":{"type":"Point","coordinates":[-83.579739,41.768229]}},{"properties":{"zip":48221.0,"latitude":42.425998,"jr":1.0,"longitude":-83.149976,"id":"a64zex6z00a4"},"type":"Feature","geometry":{"type":"Point","coordinates":[-83.149976,42.425998]}},{"properties":{"zip":48301.0,"latitude":42.545044,"jr":1.0,"longitude":-83.2771,"id":"a64zexgr1ss1"},"type":"Feature","geometry":{"type":"Point","coordinates":[-83.2771,42.545044]}},{"properties":{"zip":48322.0,"latitude":42.542366,"jr":1.0,"longitude":-83.379313,"id":"a64zex8s5jil"},"type":"Feature","geometry":{"type":"Point","coordinates":[-83.379313,42.542366]}},{"properties":{"zip":48323.0,"latitude":42.570171,"jr":1.0,"longitude":-83.369342,"id":"a64zexhhaqu7"},"type":"Feature","geometry":{"type":"Point","coordinates":[-83.369342,42.570171]}},{"properties":{"zip":48324.0,"latitude":42.598109,"jr":1.0,"longitude":-83.395536,"id":"a64zexgbfka5"},"type":"Feature","geometry":{"type":"Point","coordinates":[-83.395536,42.598109]}},{"properties":{"zip":48375.0,"latitude":42.460354,"jr":1.0,"longitude":-83.457741,"id":"a64zexdf2n1t"},"type":"Feature","geometry":{"type":"Point","coordinates":[-83.457741,42.460354]}},{"properties":{"zip":48381.0,"latitude":42.575841,"jr":2.0,"longitude":-83.592404,"id":"a64zexinnwc9"},"type":"Feature","geometry":{"type":"Point","coordinates":[-83.592404,42.575841]}},{"properties":{"zip":48462.0,"latitude":42.840943,"jr":1.0,"longitude":-83.428811,"id":"a64zex8y1ym1"},"type":"Feature","geometry":{"type":"Point","coordinates":[-83.428811,42.840943]}},{"properties":{"zip":48823.0,"latitude":42.738805,"jr":1.0,"longitude":-84.476409,"id":"a64zexiuht8m"},"type":"Feature","geometry":{"type":"Point","coordinates":[-84.476409,42.738805]}},{"properties":{"zip":48850.0,"latitude":43.42694,"jr":1.0,"longitude":-85.292421,"id":"a64zexct9fpl"},"type":"Feature","geometry":{"type":"Point","coordinates":[-85.292421,43.42694]}},{"properties":{"zip":49008.0,"latitude":42.262432,"jr":1.0,"longitude":-85.609645,"id":"a64zexakpauj"},"type":"Feature","geometry":{"type":"Point","coordinates":[-85.609645,42.262432]}},{"properties":{"zip":49024.0,"latitude":42.21411,"jr":1.0,"longitude":-85.618169,"id":"a64zex65fqb8"},"type":"Feature","geometry":{"type":"Point","coordinates":[-85.618169,42.21411]}},{"properties":{"zip":49055.0,"latitude":42.370182,"jr":1.0,"longitude":-85.853649,"id":"a64zex8g5aeh"},"type":"Feature","geometry":{"type":"Point","coordinates":[-85.853649,42.370182]}},{"properties":{"zip":49417.0,"latitude":43.037838,"jr":1.0,"longitude":-86.191227,"id":"a64zexjgwjzo"},"type":"Feature","geometry":{"type":"Point","coordinates":[-86.191227,43.037838]}},{"properties":{"zip":49424.0,"latitude":42.813514,"jr":1.0,"longitude":-86.142631,"id":"a64zexe4fb6s"},"type":"Feature","geometry":{"type":"Point","coordinates":[-86.142631,42.813514]}},{"properties":{"zip":49686.0,"latitude":44.74866,"jr":1.0,"longitude":-85.556309,"id":"a64zexgfnms2"},"type":"Feature","geometry":{"type":"Point","coordinates":[-85.556309,44.74866]}},{"properties":{"zip":50350.0,"latitude":41.589779,"jr":1.0,"longitude":-93.615692,"id":"a64zexbjhjr5"},"type":"Feature","geometry":{"type":"Point","coordinates":[-93.615692,41.589779]}},{"properties":{"zip":50588.0,"latitude":42.64738,"jr":1.0,"longitude":-95.196079,"id":"a64zex9ebt42"},"type":"Feature","geometry":{"type":"Point","coordinates":[-95.196079,42.64738]}},{"properties":{"zip":53092.0,"latitude":43.225145,"jr":1.0,"longitude":-87.959357,"id":"a64zex5y2e7w"},"type":"Feature","geometry":{"type":"Point","coordinates":[-87.959357,43.225145]}},{"properties":{"zip":53122.0,"latitude":43.047943,"jr":1.0,"longitude":-88.085374,"id":"a64zexl5vfdv"},"type":"Feature","geometry":{"type":"Point","coordinates":[-88.085374,43.047943]}},{"properties":{"zip":53126.0,"latitude":42.785892,"jr":1.0,"longitude":-87.987273,"id":"a64zexkj7y2l"},"type":"Feature","geometry":{"type":"Point","coordinates":[-87.987273,42.785892]}},{"properties":{"zip":53183.0,"latitude":43.008787,"jr":1.0,"longitude":-88.378742,"id":"a64zexgz6l9v"},"type":"Feature","geometry":{"type":"Point","coordinates":[-88.378742,43.008787]}},{"properties":{"zip":53562.0,"latitude":43.105196,"jr":1.0,"longitude":-89.507258,"id":"a64zex9z1kjl"},"type":"Feature","geometry":{"type":"Point","coordinates":[-89.507258,43.105196]}},{"properties":{"zip":53711.0,"latitude":43.035644,"jr":2.0,"longitude":-89.452558,"id":"a64zexc3u7e4"},"type":"Feature","geometry":{"type":"Point","coordinates":[-89.452558,43.035644]}},{"properties":{"zip":54751.0,"latitude":44.87182,"jr":1.0,"longitude":-91.92651,"id":"a64zexc6ah2r"},"type":"Feature","geometry":{"type":"Point","coordinates":[-91.92651,44.87182]}},{"properties":{"zip":55014.0,"latitude":45.152841,"jr":1.0,"longitude":-93.143984,"id":"a64zexkflait"},"type":"Feature","geometry":{"type":"Point","coordinates":[-93.143984,45.152841]}},{"properties":{"zip":55044.0,"latitude":44.674865,"jr":1.0,"longitude":-93.257802,"id":"a64zexkcxfrv"},"type":"Feature","geometry":{"type":"Point","coordinates":[-93.257802,44.674865]}},{"properties":{"zip":55113.0,"latitude":45.012876,"jr":1.0,"longitude":-93.149245,"id":"a64zexdxy6mi"},"type":"Feature","geometry":{"type":"Point","coordinates":[-93.149245,45.012876]}},{"properties":{"zip":55330.0,"latitude":45.313601,"jr":1.0,"longitude":-93.5814,"id":"a64zexkusyvy"},"type":"Feature","geometry":{"type":"Point","coordinates":[-93.5814,45.313601]}},{"properties":{"zip":55345.0,"latitude":44.913808,"jr":1.0,"longitude":-93.484997,"id":"a64zexiq1akw"},"type":"Feature","geometry":{"type":"Point","coordinates":[-93.484997,44.913808]}},{"properties":{"zip":55435.0,"latitude":44.877143,"jr":1.0,"longitude":-93.371452,"id":"a64zex6ayhxm"},"type":"Feature","geometry":{"type":"Point","coordinates":[-93.371452,44.877143]}},{"properties":{"zip":55811.0,"latitude":46.81341,"jr":1.0,"longitude":-92.168225,"id":"a64zexl94fku"},"type":"Feature","geometry":{"type":"Point","coordinates":[-92.168225,46.81341]}},{"properties":{"zip":55906.0,"latitude":44.021001,"jr":1.0,"longitude":-92.446874,"id":"a64zexdki84f"},"type":"Feature","geometry":{"type":"Point","coordinates":[-92.446874,44.021001]}},{"properties":{"zip":60005.0,"latitude":42.066599,"jr":1.0,"longitude":-87.985461,"id":"a64zexbj69e4"},"type":"Feature","geometry":{"type":"Point","coordinates":[-87.985461,42.066599]}},{"properties":{"zip":60010.0,"latitude":42.161387,"jr":1.0,"longitude":-88.138345,"id":"a64zexb9cius"},"type":"Feature","geometry":{"type":"Point","coordinates":[-88.138345,42.161387]}},{"properties":{"zip":60015.0,"latitude":42.170494,"jr":1.0,"longitude":-87.859033,"id":"a64zexka0sdz"},"type":"Feature","geometry":{"type":"Point","coordinates":[-87.859033,42.170494]}},{"properties":{"zip":60018.0,"latitude":42.015116,"jr":1.0,"longitude":-87.897882,"id":"a64zexh5btzu"},"type":"Feature","geometry":{"type":"Point","coordinates":[-87.897882,42.015116]}},{"properties":{"zip":60046.0,"latitude":42.414796,"jr":1.0,"longitude":-88.063318,"id":"a64zex63y7zk"},"type":"Feature","geometry":{"type":"Point","coordinates":[-88.063318,42.414796]}},{"properties":{"zip":60050.0,"latitude":42.345527,"jr":1.0,"longitude":-88.254429,"id":"a64zexit9zsn"},"type":"Feature","geometry":{"type":"Point","coordinates":[-88.254429,42.345527]}},{"properties":{"zip":60062.0,"latitude":42.125443,"jr":1.0,"longitude":-87.846535,"id":"a64zexijt8u1"},"type":"Feature","geometry":{"type":"Point","coordinates":[-87.846535,42.125443]}},{"properties":{"zip":60068.0,"latitude":42.012171,"jr":1.0,"longitude":-87.841675,"id":"a64zexa4xxl8"},"type":"Feature","geometry":{"type":"Point","coordinates":[-87.841675,42.012171]}},{"properties":{"zip":60070.0,"latitude":42.103324,"jr":1.0,"longitude":-87.914934,"id":"a64zexi8op8h"},"type":"Feature","geometry":{"type":"Point","coordinates":[-87.914934,42.103324]}},{"properties":{"zip":60089.0,"latitude":42.159843,"jr":2.0,"longitude":-87.964364,"id":"a64zexajyob0"},"type":"Feature","geometry":{"type":"Point","coordinates":[-87.964364,42.159843]}},{"properties":{"zip":60091.0,"latitude":42.076462,"jr":1.0,"longitude":-87.724572,"id":"a64zexgnuju3"},"type":"Feature","geometry":{"type":"Point","coordinates":[-87.724572,42.076462]}},{"properties":{"zip":60174.0,"latitude":41.919417,"jr":1.0,"longitude":-88.307022,"id":"a64zexf2i73j"},"type":"Feature","geometry":{"type":"Point","coordinates":[-88.307022,41.919417]}},{"properties":{"zip":60190.0,"latitude":41.874358,"jr":1.0,"longitude":-88.151621,"id":"a64zexfwh5ow"},"type":"Feature","geometry":{"type":"Point","coordinates":[-88.151621,41.874358]}},{"properties":{"zip":60302.0,"latitude":41.892471,"jr":1.0,"longitude":-87.789543,"id":"a64zexaasqpt"},"type":"Feature","geometry":{"type":"Point","coordinates":[-87.789543,41.892471]}},{"properties":{"zip":60305.0,"latitude":41.895064,"jr":1.0,"longitude":-87.8159,"id":"a64zexa0oig4"},"type":"Feature","geometry":{"type":"Point","coordinates":[-87.8159,41.895064]}},{"properties":{"zip":60402.0,"latitude":41.841819,"jr":1.0,"longitude":-87.79075,"id":"a64zex6kcweq"},"type":"Feature","geometry":{"type":"Point","coordinates":[-87.79075,41.841819]}},{"properties":{"zip":60451.0,"latitude":41.506701,"jr":2.0,"longitude":-87.963083,"id":"a64zexikjds0"},"type":"Feature","geometry":{"type":"Point","coordinates":[-87.963083,41.506701]}},{"properties":{"zip":60504.0,"latitude":41.752269,"jr":1.0,"longitude":-88.245281,"id":"a64zexel0phs"},"type":"Feature","geometry":{"type":"Point","coordinates":[-88.245281,41.752269]}},{"properties":{"zip":60510.0,"latitude":41.848165,"jr":1.0,"longitude":-88.309756,"id":"a64zexi0o595"},"type":"Feature","geometry":{"type":"Point","coordinates":[-88.309756,41.848165]}},{"properties":{"zip":60515.0,"latitude":41.803428,"jr":1.0,"longitude":-88.013753,"id":"a64zexbnd664"},"type":"Feature","geometry":{"type":"Point","coordinates":[-88.013753,41.803428]}},{"properties":{"zip":60523.0,"latitude":41.83991,"jr":2.0,"longitude":-87.958114,"id":"a64zexl4zvc2"},"type":"Feature","geometry":{"type":"Point","coordinates":[-87.958114,41.83991]}},{"properties":{"zip":60526.0,"latitude":41.830715,"jr":1.0,"longitude":-87.869679,"id":"a64zex5ta5es"},"type":"Feature","geometry":{"type":"Point","coordinates":[-87.869679,41.830715]}},{"properties":{"zip":60540.0,"latitude":41.766198,"jr":2.0,"longitude":-88.141038,"id":"a64zex9fy216"},"type":"Feature","geometry":{"type":"Point","coordinates":[-88.141038,41.766198]}},{"properties":{"zip":60543.0,"latitude":41.684893,"jr":1.0,"longitude":-88.345305,"id":"a64zex81jceo"},"type":"Feature","geometry":{"type":"Point","coordinates":[-88.345305,41.684893]}},{"properties":{"zip":60561.0,"latitude":41.747179,"jr":1.0,"longitude":-87.979688,"id":"a64zexiwt7yc"},"type":"Feature","geometry":{"type":"Point","coordinates":[-87.979688,41.747179]}},{"properties":{"zip":60564.0,"latitude":41.704022,"jr":1.0,"longitude":-88.195248,"id":"a64zex9k5kqd"},"type":"Feature","geometry":{"type":"Point","coordinates":[-88.195248,41.704022]}},{"properties":{"zip":60565.0,"latitude":41.732833,"jr":3.0,"longitude":-88.128245,"id":"a64zexcs4qep"},"type":"Feature","geometry":{"type":"Point","coordinates":[-88.128245,41.732833]}},{"properties":{"zip":60607.0,"latitude":41.872075,"jr":1.0,"longitude":-87.657845,"id":"a64zexas1qa5"},"type":"Feature","geometry":{"type":"Point","coordinates":[-87.657845,41.872075]}},{"properties":{"zip":60614.0,"latitude":41.92286,"jr":1.0,"longitude":-87.648295,"id":"a64zexjwjuw5"},"type":"Feature","geometry":{"type":"Point","coordinates":[-87.648295,41.92286]}},{"properties":{"zip":60618.0,"latitude":41.946401,"jr":1.0,"longitude":-87.704214,"id":"a64zex969hn7"},"type":"Feature","geometry":{"type":"Point","coordinates":[-87.704214,41.946401]}},{"properties":{"zip":60620.0,"latitude":41.741119,"jr":1.0,"longitude":-87.654251,"id":"a64zexckwj9n"},"type":"Feature","geometry":{"type":"Point","coordinates":[-87.654251,41.741119]}},{"properties":{"zip":60625.0,"latitude":41.970325,"jr":1.0,"longitude":-87.704157,"id":"a64zexfb5nhd"},"type":"Feature","geometry":{"type":"Point","coordinates":[-87.704157,41.970325]}},{"properties":{"zip":60628.0,"latitude":41.693443,"jr":1.0,"longitude":-87.624277,"id":"a64zexal6uy3"},"type":"Feature","geometry":{"type":"Point","coordinates":[-87.624277,41.693443]}},{"properties":{"zip":61761.0,"latitude":40.512446,"jr":1.0,"longitude":-88.988287,"id":"a64zexfm6sy8"},"type":"Feature","geometry":{"type":"Point","coordinates":[-88.988287,40.512446]}},{"properties":{"zip":62236.0,"latitude":38.432469,"jr":1.0,"longitude":-90.202717,"id":"a64zexkw9b73"},"type":"Feature","geometry":{"type":"Point","coordinates":[-90.202717,38.432469]}},{"properties":{"zip":63026.0,"latitude":38.501489,"jr":2.0,"longitude":-90.468299,"id":"a64zex67q7lq"},"type":"Feature","geometry":{"type":"Point","coordinates":[-90.468299,38.501489]}},{"properties":{"zip":63031.0,"latitude":38.806865,"jr":1.0,"longitude":-90.340097,"id":"a64zexcpxvv9"},"type":"Feature","geometry":{"type":"Point","coordinates":[-90.340097,38.806865]}},{"properties":{"zip":63105.0,"latitude":38.642574,"jr":1.0,"longitude":-90.324189,"id":"a64zexdq0w2y"},"type":"Feature","geometry":{"type":"Point","coordinates":[-90.324189,38.642574]}},{"properties":{"zip":63141.0,"latitude":38.661741,"jr":1.0,"longitude":-90.457072,"id":"a64zexcxo5wf"},"type":"Feature","geometry":{"type":"Point","coordinates":[-90.457072,38.661741]}},{"properties":{"zip":63146.0,"latitude":38.688418,"jr":1.0,"longitude":-90.448251,"id":"a64zex8lqaqs"},"type":"Feature","geometry":{"type":"Point","coordinates":[-90.448251,38.688418]}},{"properties":{"zip":64804.0,"latitude":37.046454,"jr":1.0,"longitude":-94.510252,"id":"a64zexgw4z2t"},"type":"Feature","geometry":{"type":"Point","coordinates":[-94.510252,37.046454]}},{"properties":{"zip":65548.0,"latitude":36.989197,"jr":1.0,"longitude":-91.709937,"id":"a64zex7sgbwe"},"type":"Feature","geometry":{"type":"Point","coordinates":[-91.709937,36.989197]}},{"properties":{"zip":65804.0,"latitude":37.165361,"jr":1.0,"longitude":-93.252154,"id":"a64zexh3mr7i"},"type":"Feature","geometry":{"type":"Point","coordinates":[-93.252154,37.165361]}},{"properties":{"zip":66213.0,"latitude":38.904899,"jr":1.0,"longitude":-94.700344,"id":"a64zexge780o"},"type":"Feature","geometry":{"type":"Point","coordinates":[-94.700344,38.904899]}},{"properties":{"zip":67206.0,"latitude":37.699622,"jr":1.0,"longitude":-97.239253,"id":"a64zex6ei2xr"},"type":"Feature","geometry":{"type":"Point","coordinates":[-97.239253,37.699622]}},{"properties":{"zip":68046.0,"latitude":41.152257,"jr":1.0,"longitude":-96.037052,"id":"a64zex6kjjqc"},"type":"Feature","geometry":{"type":"Point","coordinates":[-96.037052,41.152257]}},{"properties":{"zip":68122.0,"latitude":41.333312,"jr":1.0,"longitude":-96.045772,"id":"a64zexacx0m4"},"type":"Feature","geometry":{"type":"Point","coordinates":[-96.045772,41.333312]}},{"properties":{"zip":68133.0,"latitude":41.141564,"jr":1.0,"longitude":-96.013076,"id":"a64zexjsh3wg"},"type":"Feature","geometry":{"type":"Point","coordinates":[-96.013076,41.141564]}},{"properties":{"zip":68135.0,"latitude":41.210419,"jr":1.0,"longitude":-96.169827,"id":"a64zex9cdf3i"},"type":"Feature","geometry":{"type":"Point","coordinates":[-96.169827,41.210419]}},{"properties":{"zip":70506.0,"latitude":30.207707,"jr":1.0,"longitude":-92.065623,"id":"a64zexasmuvz"},"type":"Feature","geometry":{"type":"Point","coordinates":[-92.065623,30.207707]}},{"properties":{"zip":70734.0,"latitude":30.236265,"jr":1.0,"longitude":-90.975824,"id":"a64zexbwzcej"},"type":"Feature","geometry":{"type":"Point","coordinates":[-90.975824,30.236265]}},{"properties":{"zip":72076.0,"latitude":34.881985,"jr":1.0,"longitude":-92.130435,"id":"a64zexh2axrc"},"type":"Feature","geometry":{"type":"Point","coordinates":[-92.130435,34.881985]}},{"properties":{"zip":75093.0,"latitude":33.029866,"jr":1.0,"longitude":-96.788903,"id":"a64zexkcp4k0"},"type":"Feature","geometry":{"type":"Point","coordinates":[-96.788903,33.029866]}},{"properties":{"zip":76092.0,"latitude":32.956456,"jr":1.0,"longitude":-97.148066,"id":"a64zexj1xuud"},"type":"Feature","geometry":{"type":"Point","coordinates":[-97.148066,32.956456]}},{"properties":{"zip":77041.0,"latitude":29.860187,"jr":1.0,"longitude":-95.581663,"id":"a64zex8eg39d"},"type":"Feature","geometry":{"type":"Point","coordinates":[-95.581663,29.860187]}},{"properties":{"zip":77059.0,"latitude":29.597493,"jr":1.0,"longitude":-95.113354,"id":"a64zex891f3k"},"type":"Feature","geometry":{"type":"Point","coordinates":[-95.113354,29.597493]}},{"properties":{"zip":77062.0,"latitude":29.572084,"jr":1.0,"longitude":-95.130292,"id":"a64zexl754ny"},"type":"Feature","geometry":{"type":"Point","coordinates":[-95.130292,29.572084]}},{"properties":{"zip":77083.0,"latitude":29.694709,"jr":1.0,"longitude":-95.651098,"id":"a64zexlkz0au"},"type":"Feature","geometry":{"type":"Point","coordinates":[-95.651098,29.694709]}},{"properties":{"zip":77096.0,"latitude":29.672205,"jr":1.0,"longitude":-95.486066,"id":"a64zexhf4qo3"},"type":"Feature","geometry":{"type":"Point","coordinates":[-95.486066,29.672205]}},{"properties":{"zip":77429.0,"latitude":29.976608,"jr":1.0,"longitude":-95.635778,"id":"a64zexf8gmq3"},"type":"Feature","geometry":{"type":"Point","coordinates":[-95.635778,29.976608]}},{"properties":{"zip":77459.0,"latitude":29.570434,"jr":2.0,"longitude":-95.542284,"id":"a64zexja2bne"},"type":"Feature","geometry":{"type":"Point","coordinates":[-95.542284,29.570434]}},{"properties":{"zip":77469.0,"latitude":29.593226,"jr":1.0,"longitude":-95.752122,"id":"a64zexd9lq7x"},"type":"Feature","geometry":{"type":"Point","coordinates":[-95.752122,29.593226]}},{"properties":{"zip":77478.0,"latitude":29.634153,"jr":1.0,"longitude":-95.621856,"id":"a64zexaacdx0"},"type":"Feature","geometry":{"type":"Point","coordinates":[-95.621856,29.634153]}},{"properties":{"zip":77479.0,"latitude":29.578537,"jr":2.0,"longitude":-95.606591,"id":"a64zexl1dz9b"},"type":"Feature","geometry":{"type":"Point","coordinates":[-95.606591,29.578537]}},{"properties":{"zip":78148.0,"latitude":29.551608,"jr":1.0,"longitude":-98.306742,"id":"a64zexdf38yr"},"type":"Feature","geometry":{"type":"Point","coordinates":[-98.306742,29.551608]}},{"properties":{"zip":78249.0,"latitude":29.561245,"jr":1.0,"longitude":-98.611666,"id":"a64zexfqkwwo"},"type":"Feature","geometry":{"type":"Point","coordinates":[-98.611666,29.561245]}},{"properties":{"zip":78727.0,"latitude":30.425422,"jr":1.0,"longitude":-97.719488,"id":"a64zexfzwtzn"},"type":"Feature","geometry":{"type":"Point","coordinates":[-97.719488,30.425422]}},{"properties":{"zip":78840.0,"latitude":29.373881,"jr":1.0,"longitude":-100.891555,"id":"a64zexafrjpa"},"type":"Feature","geometry":{"type":"Point","coordinates":[-100.891555,29.373881]}},{"properties":{"zip":79705.0,"latitude":32.029473,"jr":1.0,"longitude":-102.091483,"id":"a64zexfqjqh0"},"type":"Feature","geometry":{"type":"Point","coordinates":[-102.091483,32.029473]}},{"properties":{"zip":80919.0,"latitude":38.926795,"jr":1.0,"longitude":-104.84642,"id":"a64zexj17ch3"},"type":"Feature","geometry":{"type":"Point","coordinates":[-104.84642,38.926795]}},{"properties":{"zip":83703.0,"latitude":43.660051,"jr":1.0,"longitude":-116.252396,"id":"a64zexgym3lc"},"type":"Feature","geometry":{"type":"Point","coordinates":[-116.252396,43.660051]}},{"properties":{"zip":85024.0,"latitude":33.661664,"jr":1.0,"longitude":-112.036956,"id":"a64zex7zdh66"},"type":"Feature","geometry":{"type":"Point","coordinates":[-112.036956,33.661664]}},{"properties":{"zip":85048.0,"latitude":33.30356,"jr":1.0,"longitude":-112.026469,"id":"a64zex6c7kp9"},"type":"Feature","geometry":{"type":"Point","coordinates":[-112.026469,33.30356]}},{"properties":{"zip":85202.0,"latitude":33.385095,"jr":1.0,"longitude":-111.872429,"id":"a64zex62qp41"},"type":"Feature","geometry":{"type":"Point","coordinates":[-111.872429,33.385095]}},{"properties":{"zip":85254.0,"latitude":33.616476,"jr":1.0,"longitude":-111.955422,"id":"a64zexjbs8gt"},"type":"Feature","geometry":{"type":"Point","coordinates":[-111.955422,33.616476]}},{"properties":{"zip":88011.0,"latitude":32.327746,"jr":1.0,"longitude":-106.723117,"id":"a64zex9stsik"},"type":"Feature","geometry":{"type":"Point","coordinates":[-106.723117,32.327746]}},{"properties":{"zip":89117.0,"latitude":36.130196,"jr":1.0,"longitude":-115.275518,"id":"a64zex670a8t"},"type":"Feature","geometry":{"type":"Point","coordinates":[-115.275518,36.130196]}},{"properties":{"zip":90046.0,"latitude":34.09743,"jr":1.0,"longitude":-118.357979,"id":"a64zexjw93z9"},"type":"Feature","geometry":{"type":"Point","coordinates":[-118.357979,34.09743]}},{"properties":{"zip":90272.0,"latitude":34.054097,"jr":1.0,"longitude":-118.536874,"id":"a64zexkum8lf"},"type":"Feature","geometry":{"type":"Point","coordinates":[-118.536874,34.054097]}},{"properties":{"zip":91105.0,"latitude":34.135455,"jr":1.0,"longitude":-118.163577,"id":"a64zexexz1sv"},"type":"Feature","geometry":{"type":"Point","coordinates":[-118.163577,34.135455]}},{"properties":{"zip":91344.0,"latitude":34.277068,"jr":1.0,"longitude":-118.4992,"id":"a64zexjfpsdt"},"type":"Feature","geometry":{"type":"Point","coordinates":[-118.4992,34.277068]}},{"properties":{"zip":91390.0,"latitude":34.510809,"jr":1.0,"longitude":-118.417508,"id":"a64zexkbfbvf"},"type":"Feature","geometry":{"type":"Point","coordinates":[-118.417508,34.510809]}},{"properties":{"zip":92131.0,"latitude":32.912343,"jr":1.0,"longitude":-117.089758,"id":"a64zex5sy0bi"},"type":"Feature","geometry":{"type":"Point","coordinates":[-117.089758,32.912343]}},{"properties":{"zip":92648.0,"latitude":33.674577,"jr":1.0,"longitude":-117.999012,"id":"a64zexdx9iim"},"type":"Feature","geometry":{"type":"Point","coordinates":[-117.999012,33.674577]}},{"properties":{"zip":92887.0,"latitude":33.879437,"jr":1.0,"longitude":-117.744996,"id":"a64zexbv5gxf"},"type":"Feature","geometry":{"type":"Point","coordinates":[-117.744996,33.879437]}},{"properties":{"zip":95014.0,"latitude":37.317363,"jr":1.0,"longitude":-122.038604,"id":"a64zexlcv5iw"},"type":"Feature","geometry":{"type":"Point","coordinates":[-122.038604,37.317363]}},{"properties":{"zip":97006.0,"latitude":45.517675,"jr":2.0,"longitude":-122.859209,"id":"a64zex7cq4b5"},"type":"Feature","geometry":{"type":"Point","coordinates":[-122.859209,45.517675]}},{"properties":{"zip":97089.0,"latitude":45.421411,"jr":1.0,"longitude":-122.458252,"id":"a64zex7qw1lw"},"type":"Feature","geometry":{"type":"Point","coordinates":[-122.458252,45.421411]}},{"properties":{"zip":97221.0,"latitude":45.491829,"jr":1.0,"longitude":-122.726723,"id":"a64zexb5yp9k"},"type":"Feature","geometry":{"type":"Point","coordinates":[-122.726723,45.491829]}},{"properties":{"zip":97229.0,"latitude":45.541087,"jr":2.0,"longitude":-122.829924,"id":"a64zex8qxnl0"},"type":"Feature","geometry":{"type":"Point","coordinates":[-122.829924,45.541087]}},{"properties":{"zip":97381.0,"latitude":44.991041,"jr":1.0,"longitude":-122.762724,"id":"a64zexe9a9pu"},"type":"Feature","geometry":{"type":"Point","coordinates":[-122.762724,44.991041]}},{"properties":{"zip":98006.0,"latitude":47.561425,"jr":1.0,"longitude":-122.155179,"id":"a64zexkhq71n"},"type":"Feature","geometry":{"type":"Point","coordinates":[-122.155179,47.561425]}},{"properties":{"zip":98033.0,"latitude":47.678597,"jr":2.0,"longitude":-122.189442,"id":"a64zex609j7u"},"type":"Feature","geometry":{"type":"Point","coordinates":[-122.189442,47.678597]}},{"properties":{"zip":98072.0,"latitude":47.768384,"jr":1.0,"longitude":-122.127087,"id":"a64zexblutqo"},"type":"Feature","geometry":{"type":"Point","coordinates":[-122.127087,47.768384]}},{"properties":{"zip":98074.0,"latitude":47.623402,"jr":1.0,"longitude":-122.042397,"id":"a64zexjav7ms"},"type":"Feature","geometry":{"type":"Point","coordinates":[-122.042397,47.623402]}},{"properties":{"zip":98229.0,"latitude":48.73936,"jr":1.0,"longitude":-122.413459,"id":"a64zex80oacl"},"type":"Feature","geometry":{"type":"Point","coordinates":[-122.413459,48.73936]}},{"properties":{"zip":98501.0,"latitude":47.012906,"jr":1.0,"longitude":-122.876311,"id":"a64zexelpzwc"},"type":"Feature","geometry":{"type":"Point","coordinates":[-122.876311,47.012906]}},{"properties":{"zip":99504.0,"latitude":61.203696,"jr":1.0,"longitude":-149.74467,"id":"a64zex8c5n9g"},"type":"Feature","geometry":{"type":"Point","coordinates":[-149.74467,61.203696]}},{"properties":{"zip":99507.0,"latitude":61.153543,"jr":1.0,"longitude":-149.828912,"id":"a64zex8i31su"},"type":"Feature","geometry":{"type":"Point","coordinates":[-149.828912,61.153543]}},{"properties":{"zip":99516.0,"latitude":61.10541,"jr":1.0,"longitude":-149.779998,"id":"a64zex8a1w17"},"type":"Feature","geometry":{"type":"Point","coordinates":[-149.779998,61.10541]}}],"is_temporal":false,"author":{"url":"","metadata":"","contact_name":"","contact_address":"","source":"","contact_phone":""},"source":"","pagination":{"sort":null,"start":0,"total":607,"limit":1000000},"state":"complete","tags":"college,cwru,university","published":"2014-08-10T18:07:20-04:00","id":14237}