{"type":"FeatureCollection","data_type":"Dataset","url_type":null,"permissions":[{"permissions":{"download":true,"view":true},"group_id":"everyone"}],"classification":null,"title":"DC Geographic Information SystemHIV/Aids Clinics","count":122,"stream_id":153340,"contributor":{"url":"http://geocommons.com/users/159","name":"ajturner"},"data_attributes":null,"calculation_params":null,"icon_link":null,"link":"http://geocommons.com/overlays/153340.json","extent":[-77.0884,38.8246,-76.9258,38.9819],"geometry_types":["point"],"unique_name":"","name":"DC Geographic Information SystemHIV/Aids Clinics","feature_count":122,"description":"HIV/AIDS Clinic locations. The dataset contains locations and attributes of HIV/AIDS clinics, created as part of the DC Geographic Information System (DC GIS) for the D.C. Office of the Chief Technology Officer (OCTO) and participating D.C. government agencies.\r\n\r\nA database provided by the DC Department of Helath identified clinic locations.   &lt;sentence or two describing the dataset and any special conditions or attributes&gt;\r\n\r\nAll DC GIS data is stored and exported in Maryland State Plane coordinates NAD 83 meters.\r\n\r\nMETADATA CONTENT IS IN PROCESS OF VALIDATION AND SUBJECT TO CHANGE.","next_feature":null,"is_raster":false,"short_classification":"Y","stats":{"ADDRID":{"max":304734,"mean":196738.786885246,"variance":10092910920.103,"stdev":100463.480529509,"min":20,"median":239990},"X":{"max":406439.25,"mean":399166.762868852,"variance":7004481.27566029,"stdev":2646.59805706501,"min":392334.76,"median":398841.99},"Y":{"max":146000.74,"mean":137645.845901639,"variance":10305160.5894327,"stdev":3210.16519659544,"min":128539.21,"median":138039.44}},"features":[{"properties":{"NAME":"Andromeda Transcultural","ADDRID":302000,"ZIP":20011.0,"X":397126.56,"Y":142243.35,"TYPE":"Multiple","id":"a62ixifrnn4u","ADDRESS":"1400 DECATUR STREET NW"},"type":"Feature","geometry":{"type":"Point","coordinates":[-77.0331479141528,38.9480821431792]}},{"properties":{"NAME":"Angels and Associates","ADDRID":238467,"ZIP":20001.0,"X":398233.15,"Y":138360.71,"TYPE":"Effi Barry","id":"a62ixinm5pcb","ADDRESS":"607 RHODE ISLAND AVENUE NW"},"type":"Feature","geometry":{"type":"Point","coordinates":[-77.0203723314787,38.9131090510298]}},{"properties":{"NAME":"Antioch Baptist Church","ADDRID":74277,"ZIP":20019.0,"X":406221.45,"Y":137463.2,"TYPE":"Effi Barry","id":"a62ixikv5t6w","ADDRESS":"1105 50TH STREET NE"},"type":"Feature","geometry":{"type":"Point","coordinates":[-76.9282728860282,38.9050037306347]}},{"properties":{"NAME":"Big Chair Chess Club","ADDRID":23438,"ZIP":20019.0,"X":405201.16,"Y":137244.92,"TYPE":"Effi Barry","id":"a62ixijpbi04","ADDRESS":"4322 SHERIFF ROAD NE"},"type":"Feature","geometry":{"type":"Point","coordinates":[-76.9400374614853,38.9030440174832]}},{"properties":{"NAME":"Bread for the City","ADDRID":297622,"ZIP":20001.0,"X":398124.44,"Y":138052.42,"TYPE":"Healthcare","id":"a62ixirnlk3t","ADDRESS":"1525 7TH STREET NW"},"type":"Feature","geometry":{"type":"Point","coordinates":[-77.0216249495804,38.9103316448978]}},{"properties":{"NAME":"Building Futures","ADDRID":234582,"ZIP":20010.0,"X":396976.97,"Y":140625.7,"TYPE":"Housing","id":"a62ixism9y1l","ADDRESS":"1440 MERIDIAN PLACE NW"},"type":"Feature","geometry":{"type":"Point","coordinates":[-77.0348664521739,38.9335093813352]}},{"properties":{"NAME":"Carl Vogel Center","ADDRID":240262,"ZIP":20005.0,"X":397190.06,"Y":137260.45,"TYPE":"Multiple","id":"a62ixikaba7j","ADDRESS":"1012 14TH STREET NW"},"type":"Feature","geometry":{"type":"Point","coordinates":[-77.0323949817134,38.9031948137984]}},{"properties":{"NAME":"Center for Minority Studies","ADDRID":68573,"ZIP":20002.0,"X":401047.0,"Y":136905.27,"TYPE":"Effi Barry","id":"a62ixikzq3vk","ADDRESS":"1307 H STREET NE"},"type":"Feature","geometry":{"type":"Point","coordinates":[-76.9879299822172,38.8999990937535]}},{"properties":{"NAME":"Children's National Medical Center/Burgess Clinic","ADDRID":243365,"ZIP":20010.0,"X":398751.91,"Y":139932.16,"TYPE":"Healthcare","id":"a62ixiki7h41","ADDRESS":"111 MICHIGAN AVENUE NW"},"type":"Feature","geometry":{"type":"Point","coordinates":[-77.0143937239512,38.9272660734462]}},{"properties":{"NAME":"Christ House","ADDRID":235976,"ZIP":20009.0,"X":396532.46,"Y":139664.36,"TYPE":"Effi Barry","id":"a62ixiee6yzx","ADDRESS":"1717 COLUMBIA ROAD NW"},"type":"Feature","geometry":{"type":"Point","coordinates":[-77.0399884000902,38.9248476914043]}},{"properties":{"NAME":"Community Education Group","ADDRID":76603,"ZIP":20003.0,"X":400409.54,"Y":134789.62,"TYPE":"Effi Barry","id":"a62ixih925tl","ADDRESS":"707 8TH STREET SE"},"type":"Feature","geometry":{"type":"Point","coordinates":[-76.995280004973,38.880941056143]}},{"properties":{"NAME":"Community Family Life Center","ADDRID":279657,"ZIP":20001.0,"X":398642.59,"Y":136494.96,"TYPE":"Multiple","id":"a62ixipjr8da","ADDRESS":"305 E STREET NW"},"type":"Feature","geometry":{"type":"Point","coordinates":[-77.015647673237,38.8963024484981]}},{"properties":{"NAME":"Community of Hope","ADDRID":303241,"ZIP":20009.0,"X":396490.06,"Y":139052.45,"TYPE":"CTR","id":"a62ixiebmp5v","ADDRESS":"2250 CHAMPLAIN STREET NW"},"type":"Feature","geometry":{"type":"Point","coordinates":[-77.0404742370472,38.9193352412056]}},{"properties":{"NAME":"Concerned Citizens","ADDRID":40259,"ZIP":20032.0,"X":400012.02,"Y":130635.61,"TYPE":"Effi Barry","id":"a62ixildf83x","ADDRESS":"3115 MARTIN LUTHER KING JR AVENUE SE"},"type":"Feature","geometry":{"type":"Point","coordinates":[-76.999861540748,38.8435200959604]}},{"properties":{"NAME":"Cornerstone Community, Inc.","ADDRID":235903,"ZIP":20009.0,"X":396448.55,"Y":139660.51,"TYPE":"Effi Barry","id":"a62ixiirohxd","ADDRESS":"2720 ONTARIO ROAD NW"},"type":"Feature","geometry":{"type":"Point","coordinates":[-77.0409560477987,38.9248126742666]}},{"properties":{"NAME":"Covenant House Washington","ADDRID":295846,"ZIP":20020.0,"X":402236.97,"Y":130644.33,"TYPE":"Effi Barry","id":"a62ixin7el08","ADDRESS":"2001 MISSISSIPPI AVENUE SE"},"type":"Feature","geometry":{"type":"Point","coordinates":[-76.9742321526233,38.8435958056026]}},{"properties":{"NAME":"Damien Ministries","ADDRID":50769,"ZIP":20018.0,"X":402258.92,"Y":140282.15,"TYPE":"Multiple","id":"a62ixie53acw","ADDRESS":"2200 RHODE ISLAND AVENUE NE"},"type":"Feature","geometry":{"type":"Point","coordinates":[-76.973947625598,38.9304168748535]}},{"properties":{"NAME":"DC Care Consortium","ADDRID":242325,"ZIP":20005.0,"X":396961.78,"Y":137503.5,"TYPE":"Prevention, Education &amp; Outreach","id":"a62ixiklstzp","ADDRESS":"1156 15TH STREET NW"},"type":"Feature","geometry":{"type":"Point","coordinates":[-77.0350278304093,38.9053835340798]}},{"properties":{"NAME":"Deaf Reach","ADDRID":33726,"ZIP":20003.0,"X":400800.33,"Y":140588.61,"TYPE":"Effi Barry","id":"a62ixip8er8k","ADDRESS":"3521 12TH STREET NE"},"type":"Feature","geometry":{"type":"Point","coordinates":[-76.9907693479164,38.9331800993955]}},{"properties":{"NAME":"Different Avenues","ADDRID":252472,"ZIP":20011.0,"X":397899.91,"Y":141590.95,"TYPE":"Effi Barry","id":"a62ixitn7jq8","ADDRESS":"821 UPSHUR STREET NW"},"type":"Feature","geometry":{"type":"Point","coordinates":[-77.0242245760487,38.9422073288984]}},{"properties":{"NAME":"Echelon Community","ADDRID":41874,"ZIP":20019.0,"X":399846.23,"Y":138935.67,"TYPE":"Multiple","id":"a62ixie8rxge","ADDRESS":"302 V STREET NE"},"type":"Feature","geometry":{"type":"Point","coordinates":[-77.0017731448488,38.9182902445821]}},{"properties":{"NAME":"EFFORTS, Inc","ADDRID":243117,"ZIP":20001.0,"X":398077.84,"Y":138193.77,"TYPE":"Multiple","id":"a62ixiibgf72","ADDRESS":"1612 7TH STREET NW"},"type":"Feature","geometry":{"type":"Point","coordinates":[-77.0221626368315,38.911604873127]}},{"properties":{"NAME":"Elizabeth Taylor Medical Center (Whitman-Walker Clinic)","ADDRID":238070,"ZIP":20009.0,"X":397250.73,"Y":138324.13,"TYPE":"Multiple","id":"a62ixiss8f43","ADDRESS":"1701 14TH STREET NW"},"type":"Feature","geometry":{"type":"Point","coordinates":[-77.0316997932289,38.9127770019942]}},{"properties":{"NAME":"Emory Beacon of Light, Inc","ADDRID":253201,"ZIP":20011.0,"X":397562.51,"Y":144074.42,"TYPE":"Effi Barry","id":"a62ixih9yda5","ADDRESS":"6120 GEORGIA AVENUE NW"},"type":"Feature","geometry":{"type":"Point","coordinates":[-77.0281253167988,38.9645782207009]}},{"properties":{"NAME":"Ethiopian Community Services &amp; Development Council","ADDRID":230873,"ZIP":20010.0,"X":397186.8,"Y":140477.04,"TYPE":"Effi Barry","id":"a62ixit4ktlc","ADDRESS":"3421 14TH STREET NW"},"type":"Feature","geometry":{"type":"Point","coordinates":[-77.0324457453832,38.9321709038342]}},{"properties":{"NAME":"Ethopian Community Center, Inc.","ADDRID":253714,"ZIP":20012.0,"X":397732.25,"Y":146000.74,"TYPE":"Effi Barry","id":"a62ixij8vs0q","ADDRESS":"7603 GEORGIA AVENUE NW"},"type":"Feature","geometry":{"type":"Point","coordinates":[-77.0261731210373,38.9819314138203]}},{"properties":{"NAME":"Extended Care","ADDRID":65639,"ZIP":20002.0,"X":401222.47,"Y":136948.75,"TYPE":"Multiple","id":"a62ixio3dkur","ADDRESS":"1374 H STREET NE"},"type":"Feature","geometry":{"type":"Point","coordinates":[-76.9859070528882,38.9003905506507]}},{"properties":{"NAME":"Faith Productions","ADDRID":49494,"ZIP":20011.0,"X":399720.36,"Y":141680.1,"TYPE":"Effi Barry","id":"a62ixif00nko","ADDRESS":"225 WEBSTER STREET NE"},"type":"Feature","geometry":{"type":"Point","coordinates":[-77.0032256888576,38.943012883294]}},{"properties":{"NAME":"FalconsEdge Male Task Force","ADDRID":67626,"ZIP":20002.0,"X":401092.11,"Y":136950.61,"TYPE":"Effi Barry","id":"a62ixisccm1o","ADDRESS":"1322 H STREET NE"},"type":"Feature","geometry":{"type":"Point","coordinates":[-76.9874098733629,38.9004074778208]}},{"properties":{"NAME":"Family &amp; Medical Counseling Services, Inc","ADDRID":278056,"ZIP":20020.0,"X":400882.92,"Y":133122.47,"TYPE":"Multiple","id":"a62ixifx72uj","ADDRESS":"2041 MARTIN LUTHER KING JR AVENUE SE"},"type":"Feature","geometry":{"type":"Point","coordinates":[-76.9898263880335,38.8659223537035]}},{"properties":{"NAME":"Family Life Foundation-Church Community Partners Against HIV/AIDS","ADDRID":225619,"ZIP":20002.0,"X":397896.23,"Y":138039.44,"TYPE":"Effi Barry","id":"a62ixiu3algg","ADDRESS":"1510 9TH STREET NW"},"type":"Feature","geometry":{"type":"Point","coordinates":[-77.0242561397005,38.9102142000105]}},{"properties":{"NAME":"Food and Friends","ADDRID":286697,"ZIP":20011.0,"X":399797.1,"Y":143095.56,"TYPE":"Food","id":"a62ixikfqo0q","ADDRESS":"219 RIGGS ROAD NE"},"type":"Feature","geometry":{"type":"Point","coordinates":[-77.0023409002663,38.9557637578807]}},{"properties":{"NAME":"Gatekeeper Program (Housing Services)","ADDRID":304734,"ZIP":20009.0,"X":396557.92,"Y":139339.54,"TYPE":"Housing","id":"a62iximqgtrj","ADDRESS":"2410 17TH STREET NW"},"type":"Feature","geometry":{"type":"Point","coordinates":[-77.0396931613044,38.9219217092814]}},{"properties":{"NAME":"Georgetown University Hospital (Infectious Disease Clinic) HIV Cl","ADDRID":291547,"ZIP":20007.0,"X":393470.87,"Y":138262.65,"TYPE":"Multiple","id":"a62ixirx4q7n","ADDRESS":"3800 RESERVOIR ROAD NW"},"type":"Feature","geometry":{"type":"Point","coordinates":[-77.0752819567316,38.9122032175591]}},{"properties":{"NAME":"Gospel Truth Ministires","ADDRID":40480,"ZIP":20002.0,"X":400036.16,"Y":130652.47,"TYPE":"Effi Barry","id":"a62ixitoru96","ADDRESS":"3109 MARTIN LUTHER KING JR AVENUE SE"},"type":"Feature","geometry":{"type":"Point","coordinates":[-76.9995834694506,38.8436719776837]}},{"properties":{"NAME":"Greater Mount Calvary Holy Church HIV/AIDS Ministries","ADDRID":288779,"ZIP":20002.0,"X":400187.04,"Y":139260.01,"TYPE":"Effi Barry","id":"a62ixit4ragr","ADDRESS":"610 RHODE ISLAND AVENUE NE"},"type":"Feature","geometry":{"type":"Point","coordinates":[-76.9978431254442,38.9212119986046]}},{"properties":{"NAME":"Greater Washington Urban League","ADDRID":231552,"ZIP":20009.0,"X":397221.46,"Y":139904.79,"TYPE":"Prevention, Education &amp; Outreach","id":"a62ixijinhlm","ADDRESS":"2901 14TH STREET NW"},"type":"Feature","geometry":{"type":"Point","coordinates":[-77.0320436812661,38.927016009322]}},{"properties":{"NAME":"Greater Works Outreach Ministries","ADDRID":289571,"ZIP":20017.0,"X":400216.99,"Y":139558.38,"TYPE":"Effi Barry","id":"a62ixigwvavb","ADDRESS":"601 EDGEWOOD STREET NE"},"type":"Feature","geometry":{"type":"Point","coordinates":[-76.9974976590551,38.9238998045666]}},{"properties":{"NAME":"Helping Individual Prostitutes Survive","ADDRID":284129,"ZIP":20009.0,"X":396325.77,"Y":139473.1,"TYPE":"Multiple","id":"a62ixitv4uze","ADDRESS":"1789 COLUMBIA ROAD NW"},"type":"Feature","geometry":{"type":"Point","coordinates":[-77.0423709685413,38.9231239205874]}},{"properties":{"NAME":"Hill's Community Institute for Prevention and Eradication","ADDRID":149841,"ZIP":20018.0,"X":400899.33,"Y":139597.6,"TYPE":"Effi Barry","id":"a62ixigl0v2p","ADDRESS":"1217 EVARTS STREET NE"},"type":"Feature","geometry":{"type":"Point","coordinates":[-76.9896288242657,38.9242526774235]}},{"properties":{"NAME":"HIV/AIDS Administration (D.C. Department of Health)","ADDRID":289616,"ZIP":20002.0,"X":399396.03,"Y":137923.7,"TYPE":"Multiple","id":"a62ixikqnj37","ADDRESS":"64 NEW YORK AVENUE NE"},"type":"Feature","geometry":{"type":"Point","coordinates":[-77.0069635781761,38.9091738846992]}},{"properties":{"NAME":"Housing Counseling Services","ADDRID":304734,"ZIP":20009.0,"X":396557.92,"Y":139339.54,"TYPE":"Housing","id":"a62ixiksn8iw","ADDRESS":"2410 17TH STREET NW"},"type":"Feature","geometry":{"type":"Point","coordinates":[-77.0396931613044,38.9219217092814]}},{"properties":{"NAME":"Howard University Hospital (HUH CARES)","ADDRID":279523,"ZIP":20060.0,"X":398257.42,"Y":138853.51,"TYPE":"Multiple","id":"a62ixie34re4","ADDRESS":"2041 GEORGIA AVENUE NW"},"type":"Feature","geometry":{"type":"Point","coordinates":[-77.020093741529,38.9175484060812]}},{"properties":{"NAME":"Hughes Memorial United Methodist Church","ADDRID":287077,"ZIP":20019.0,"X":406439.25,"Y":135857.18,"TYPE":"Effi Barry","id":"a62ixiqfzqv7","ADDRESS":"25 53RD STREET NE"},"type":"Feature","geometry":{"type":"Point","coordinates":[-76.9257769247936,38.8905345572457]}},{"properties":{"NAME":"Institute for Behavorial Change","ADDRID":28155,"ZIP":20002.0,"X":399966.14,"Y":136907.99,"TYPE":"Effi Barry","id":"a62ixiidacg1","ADDRESS":"401 H STREET NE"},"type":"Feature","geometry":{"type":"Point","coordinates":[-77.000390344742,38.9000242193617]}},{"properties":{"NAME":"Joseph's House","ADDRID":284400,"ZIP":20009.0,"X":396495.35,"Y":139436.79,"TYPE":"Multiple","id":"a62ixiowj8nz","ADDRESS":"2482 ONTARIO ROAD NW"},"type":"Feature","geometry":{"type":"Point","coordinates":[-77.040415198488,38.9227975211726]}},{"properties":{"NAME":"La Clinica del Pueblo","ADDRID":243232,"ZIP":20009.0,"X":396945.59,"Y":139782.02,"TYPE":"Multiple","id":"a62ixiq95c60","ADDRESS":"2831 15TH STREET NW"},"type":"Feature","geometry":{"type":"Point","coordinates":[-77.0352246221693,38.925909142974]}},{"properties":{"NAME":"Latin America Youth Center","ADDRID":234363,"ZIP":20009.0,"X":397107.54,"Y":139988.13,"TYPE":"Prevention, Education &amp; Outreach","id":"a62ixilpeiuf","ADDRESS":"1419 COLUMBIA ROAD NW"},"type":"Feature","geometry":{"type":"Point","coordinates":[-77.033357821674,38.9277663944911]}},{"properties":{"NAME":"Metro Teen AIDS","ADDRID":1431,"ZIP":20003.0,"X":400280.68,"Y":135189.7,"TYPE":"Prevention, Education &amp; Outreach","id":"a62ixihq1tz8","ADDRESS":"651 PENNSYLVANIA AVENUE SE"},"type":"Feature","geometry":{"type":"Point","coordinates":[-76.99676496771,38.8845451817467]}},{"properties":{"NAME":"Miracle Hands","ADDRID":51442,"ZIP":20018.0,"X":402403.35,"Y":139085.95,"TYPE":"Multiple","id":"a62ixif1hrfw","ADDRESS":"2127 QUEENS CHAPEL ROAD NE"},"type":"Feature","geometry":{"type":"Point","coordinates":[-76.9722860867647,38.9196407431286]}},{"properties":{"NAME":"Neighbors of Seaton Place","ADDRID":28518,"ZIP":20002.0,"X":399366.41,"Y":138330.69,"TYPE":"Effi Barry","id":"a62ixigrp22k","ADDRESS":"40 R STREET NE"},"type":"Feature","geometry":{"type":"Point","coordinates":[-77.0073054626856,38.9128401683496]}},{"properties":{"NAME":"New Commandment Baptist Church","ADDRID":228789,"ZIP":20010.0,"X":398024.65,"Y":140595.48,"TYPE":"Effi Barry","id":"a62ixiqbnnky","ADDRESS":"625 PARK ROAD NW"},"type":"Feature","geometry":{"type":"Point","coordinates":[-77.0227828322108,38.933240130451]}},{"properties":{"NAME":"New Samaritian Baptist Church HIV/AIDS Ministry","ADDRID":285821,"ZIP":20002.0,"X":400735.75,"Y":137313.44,"TYPE":"Multiple","id":"a62ixinpz1l4","ADDRESS":"1100 FLORIDA AVENUE NE"},"type":"Feature","geometry":{"type":"Point","coordinates":[-76.9915176949576,38.903676349816]}},{"properties":{"NAME":"Northwest Church Family Network","ADDRID":285530,"ZIP":20001.0,"X":398759.7,"Y":137490.24,"TYPE":"Multiple","id":"a62ixik9y1nm","ADDRESS":"216 NEW YORK AVENUE NW"},"type":"Feature","geometry":{"type":"Point","coordinates":[-77.0142994737309,38.9052684591591]}},{"properties":{"NAME":"Nursing Enterprises","ADDRID":288966,"ZIP":20017.0,"X":400453.6,"Y":141596.36,"TYPE":"Healthcare","id":"a62ixinihzkt","ADDRESS":"817 VARNUM STREET NE"},"type":"Feature","geometry":{"type":"Point","coordinates":[-76.9947677121203,38.9422584567304]}},{"properties":{"NAME":"Ophelia Egypt Heath Center  (Planned Parenthood)","ADDRID":288044,"ZIP":20019.0,"X":404411.21,"Y":136303.26,"TYPE":"Effi Barry","id":"a62ixiolld32","ADDRESS":"3937 MINNESOTA AVENUE NE"},"type":"Feature","geometry":{"type":"Point","coordinates":[-76.9491505916925,38.8945655254242]}},{"properties":{"NAME":"Oromo Center","ADDRID":252473,"ZIP":20011.0,"X":397927.28,"Y":141581.61,"TYPE":"Effi Barry","id":"a62ixioyopqj","ADDRESS":"811 UPSHUR STREET NW"},"type":"Feature","geometry":{"type":"Point","coordinates":[-77.0239088344026,38.9421232564921]}},{"properties":{"NAME":"Our Place","ADDRID":280150,"ZIP":20003.0,"X":400473.97,"Y":135089.14,"TYPE":"Effi Barry","id":"a62ixiq7w2wp","ADDRESS":"801 PENNSYLVANIA AVENUE SE"},"type":"Feature","geometry":{"type":"Point","coordinates":[-76.9945372353348,38.883639215724]}},{"properties":{"NAME":"Perry School Community Center, Inc.","ADDRID":279016,"ZIP":20001.0,"X":398841.99,"Y":137502.56,"TYPE":"Multiple","id":"a62ixipwgly5","ADDRESS":"128 M STREET NW"},"type":"Feature","geometry":{"type":"Point","coordinates":[-77.0133507694566,38.905379554293]}},{"properties":{"NAME":"PIZZAZZ","ADDRID":46527,"ZIP":20018.0,"X":400622.92,"Y":139443.05,"TYPE":"Effi Barry","id":"a62ixijwdmzd","ADDRESS":"2504 10TH STREET NE"},"type":"Feature","geometry":{"type":"Point","coordinates":[-76.9928165560203,38.9228606810312]}},{"properties":{"NAME":"Planned Parenthood (Schumacher Clinic)","ADDRID":276209,"ZIP":20036.0,"X":396793.79,"Y":137358.07,"TYPE":"CTR","id":"a62ixiqbh33t","ADDRESS":"1108 16TH STREET NW"},"type":"Feature","geometry":{"type":"Point","coordinates":[-77.0369639186244,38.9040728530113]}},{"properties":{"NAME":"Prevention Works!","ADDRID":239990,"ZIP":20009.0,"X":397194.86,"Y":138487.7,"TYPE":"Effi Barry","id":"a62ixighi2sz","ADDRESS":"1407 S STREET NW"},"type":"Feature","geometry":{"type":"Point","coordinates":[-77.0323446569415,38.9142503189438]}},{"properties":{"NAME":"Regional Addiction Prevention, Inc (RAP)","ADDRID":53357,"ZIP":20002.0,"X":399977.76,"Y":138783.72,"TYPE":"Substance abuse","id":"a62ixiil9avu","ADDRESS":"1949 4TH STREET NE"},"type":"Feature","geometry":{"type":"Point","coordinates":[-77.0002564478414,38.9169214420658]}},{"properties":{"NAME":"Right Inc.","ADDRID":57948,"ZIP":20032.0,"X":399389.38,"Y":129338.79,"TYPE":"Effi Barry","id":"a62ixiis9x29","ADDRESS":"17 MISSISSIPPI AVENUE SE"},"type":"Feature","geometry":{"type":"Point","coordinates":[-77.007032625266,38.8318375412769]}},{"properties":{"NAME":"Saint John Community Development Corp., Inc.","ADDRID":44422,"ZIP":20020.0,"X":401111.11,"Y":132062.02,"TYPE":"Effi Barry","id":"a62ixitc9bb1","ADDRESS":"2815 STANTON ROAD SE"},"type":"Feature","geometry":{"type":"Point","coordinates":[-76.9871987393045,38.8563691171031]}},{"properties":{"NAME":"SamariCorp Community Development","ADDRID":75618,"ZIP":20002.0,"X":400679.8,"Y":137329.38,"TYPE":"Effi Barry","id":"a62ixiheei7j","ADDRESS":"1016 FLORIDA AVENUE NE"},"type":"Feature","geometry":{"type":"Point","coordinates":[-76.9921627148106,38.903819988004]}},{"properties":{"NAME":"Samaritian Ministries","ADDRID":255812,"ZIP":20011.0,"X":396892.85,"Y":142759.82,"TYPE":"Multiple","id":"a62ixipvkn5c","ADDRESS":"1516 HAMILTON STREET NW"},"type":"Feature","geometry":{"type":"Point","coordinates":[-77.0358463246766,38.9527338503532]}},{"properties":{"NAME":"Sasha Bruce Youthwork","ADDRID":20,"ZIP":20002.0,"X":400383.7,"Y":136342.22,"TYPE":"Multiple","id":"a62ixigm1kn2","ADDRESS":"701 MARYLAND AVENUE NE"},"type":"Feature","geometry":{"type":"Point","coordinates":[-76.9955769469245,38.8949274750122]}},{"properties":{"NAME":"Serenity, Inc.","ADDRID":218451,"ZIP":20001.0,"X":398341.08,"Y":138427.72,"TYPE":"Multiple","id":"a62ixifccb07","ADDRESS":"1718 5TH STREET NW"},"type":"Feature","geometry":{"type":"Point","coordinates":[-77.0191280268547,38.9137129099995]}},{"properties":{"NAME":"Sexual Minority Youth Assistance League (SMYAL)","ADDRID":26991,"ZIP":20003.0,"X":400352.59,"Y":135062.02,"TYPE":"Multiple","id":"a62ixifb6m05","ADDRESS":"410 7TH STREET SE"},"type":"Feature","geometry":{"type":"Point","coordinates":[-76.9959362204373,38.8833949653853]}},{"properties":{"NAME":"Sign of Jonah","ADDRID":243020,"ZIP":20003.0,"X":396757.52,"Y":139418.79,"TYPE":"Healthcare","id":"a62ixilr50yw","ADDRESS":"2480 16TH STREET NW"},"type":"Feature","geometry":{"type":"Point","coordinates":[-77.0373918011935,38.9226363778742]}},{"properties":{"NAME":"Southeast STD Clinic","ADDRID":301068,"ZIP":20003.0,"X":402119.23,"Y":135264.83,"TYPE":"Multiple","id":"a62ixipgg2xx","ADDRESS":"1900 MASSACHUSETTS AVENUE SE"},"type":"Feature","geometry":{"type":"Point","coordinates":[-76.9755741686231,38.8852194722853]}},{"properties":{"NAME":"START at Westminster Presbyterian Church","ADDRID":150785,"ZIP":20024.0,"X":398419.75,"Y":134576.48,"TYPE":"Multiple","id":"a62ixifl9dkw","ADDRESS":"400 I STREET SW"},"type":"Feature","geometry":{"type":"Point","coordinates":[-77.0182120704889,38.8790196832359]}},{"properties":{"NAME":"Street Wize","ADDRID":4767,"ZIP":20006.0,"X":400175.75,"Y":135245.85,"TYPE":"Effi Barry","id":"a62ixiqs0kva","ADDRESS":"611 PENNSYLVANIA AVENUE SE"},"type":"Feature","geometry":{"type":"Point","coordinates":[-76.9979743446067,38.8850510296696]}},{"properties":{"NAME":"Terrific, Inc","ADDRID":240851,"ZIP":20009.0,"X":397491.51,"Y":138604.37,"TYPE":"Multiple","id":"a62ixigt083k","ADDRESS":"1222 T STREET NW"},"type":"Feature","geometry":{"type":"Point","coordinates":[-77.028924561642,38.9153022180287]}},{"properties":{"NAME":"Transgender Health Empowerment (THE)","ADDRID":57499,"ZIP":20002.0,"X":399241.43,"Y":138345.88,"TYPE":"Effi Barry","id":"a62ixip3qzo1","ADDRESS":"1711 NORTH CAPITOL STREET NE"},"type":"Feature","geometry":{"type":"Point","coordinates":[-77.0087465323894,38.9129769060096]}},{"properties":{"NAME":"Union Temple Baptist Church","ADDRID":70732,"ZIP":20020.0,"X":400958.87,"Y":132965.09,"TYPE":"Effi Barry","id":"a62ixinxlybf","ADDRESS":"1225 W STREET SE"},"type":"Feature","geometry":{"type":"Point","coordinates":[-76.9889514593429,38.8645045301587]}},{"properties":{"NAME":"Unity Health Care","ADDRID":149821,"ZIP":20002.0,"X":400872.9,"Y":139148.55,"TYPE":"Multiple","id":"a62ixiqzrfaj","ADDRESS":"1201 BRENTWOOD ROAD NE"},"type":"Feature","geometry":{"type":"Point","coordinates":[-76.9899341890262,38.9202075171428]}},{"properties":{"NAME":"University of the District of Columbia","ADDRID":297694,"ZIP":20008.0,"X":394423.74,"Y":141839.77,"TYPE":"Multiple","id":"a62ixikvt4uo","ADDRESS":"4200 CONNECTICUT AVENUE NW"},"type":"Feature","geometry":{"type":"Point","coordinates":[-77.0643242729734,38.9444335831293]}},{"properties":{"NAME":"Us Helping Us, People Into Living, Inc.","ADDRID":232153,"ZIP":20010.0,"X":397884.52,"Y":140800.85,"TYPE":"Multiple","id":"a62ixignujqm","ADDRESS":"3636 GEORGIA AVENUE NW"},"type":"Feature","geometry":{"type":"Point","coordinates":[-77.0243996640196,38.9350898390987]}},{"properties":{"NAME":"Ward 7 Arts Collaborative","ADDRID":18455,"ZIP":20019.0,"X":405694.76,"Y":136781.68,"TYPE":"Effi Barry","id":"a62ixinbwirw","ADDRESS":"4645 NANNIE HELEN BURROUGHS AVENUE NE"},"type":"Feature","geometry":{"type":"Point","coordinates":[-76.9343507447427,38.89886792803]}},{"properties":{"NAME":"Whitman-Walker Clinic","ADDRID":239990,"ZIP":20009.0,"X":397194.86,"Y":138487.7,"TYPE":"Multiple","id":"a62iximof3gy","ADDRESS":"1407 S STREET NW"},"type":"Feature","geometry":{"type":"Point","coordinates":[-77.0323446569415,38.9142503189438]}},{"properties":{"NAME":"Whitman-Walker Clinic Max Robinson Center","ADDRID":49021,"ZIP":20020.0,"X":400743.58,"Y":132844.01,"TYPE":"Multiple","id":"a62ixiivmicj","ADDRESS":"2303 MARTIN LUTHER KING JR AVENUE SE"},"type":"Feature","geometry":{"type":"Point","coordinates":[-76.9914322605518,38.8634139996711]}},{"properties":{"NAME":"Women's Collective","ADDRID":301293,"ZIP":20009.0,"X":397089.58,"Y":138736.71,"TYPE":"Multiple","id":"a62ixihx3719","ADDRESS":"1436 U STREET NW"},"type":"Feature","geometry":{"type":"Point","coordinates":[-77.0335596430242,38.9164931415419]}},{"properties":{"NAME":"DC STD Clinic","ADDRID":301068,"ZIP":20003.0,"X":402119.23,"Y":135264.83,"TYPE":"Multiple","id":"a62ixik3v3vm","ADDRESS":"1900 MASSACHUSETTS AVENUE SE"},"type":"Feature","geometry":{"type":"Point","coordinates":[-76.9755741686231,38.8852194722853]}},{"properties":{"NAME":"Unity Health Care Anacostia Center","ADDRID":286061,"ZIP":20020.0,"X":401142.66,"Y":132981.43,"TYPE":"Healthcare","id":"a62ixilr5zkm","ADDRESS":"1328 W STREET SE"},"type":"Feature","geometry":{"type":"Point","coordinates":[-76.9868337193997,38.864651508054]}},{"properties":{"NAME":"Unity Health Care Congress Heights Center","ADDRID":278424,"ZIP":20032.0,"X":399462.71,"Y":129919.8,"TYPE":"Healthcare","id":"a62ixinupr24","ADDRESS":"3720 MARTIN LUTHER KING JR AVENUE SE"},"type":"Feature","geometry":{"type":"Point","coordinates":[-77.0061885235105,38.8370715934653]}},{"properties":{"NAME":"Unity Health Care East of the River Center","ADDRID":301415,"ZIP":20019.0,"X":405421.33,"Y":135926.33,"TYPE":"Healthcare","id":"a62ixina78tr","ADDRESS":"123 45TH STREET NE"},"type":"Feature","geometry":{"type":"Point","coordinates":[-76.9375095976189,38.8911643524118]}},{"properties":{"NAME":"Unity Health Care Good Hope Center","ADDRID":286379,"ZIP":20020.0,"X":401631.98,"Y":133154.39,"TYPE":"Healthcare","id":"a62ixint7kkf","ADDRESS":"1638 GOOD HOPE ROAD SE"},"type":"Feature","geometry":{"type":"Point","coordinates":[-76.9811951275475,38.8662088311873]}},{"properties":{"NAME":"Unity Health Care Hunt Place Center","ADDRID":155959,"ZIP":20019.0,"X":404952.89,"Y":136986.22,"TYPE":"Healthcare","id":"a62ixin9081m","ADDRESS":"4130 HUNT PLACE NE"},"type":"Feature","geometry":{"type":"Point","coordinates":[-76.9429015529531,38.9007149903693]}},{"properties":{"NAME":"Unity Health Care Phoenix Center","ADDRID":301068,"ZIP":20002.0,"X":402119.23,"Y":135264.83,"TYPE":"Healthcare","id":"a62ixihf6esf","ADDRESS":"1900 MASSACHUSETTS AVENUE SE"},"type":"Feature","geometry":{"type":"Point","coordinates":[-76.9755741686231,38.8852194722853]}},{"properties":{"NAME":"Unity Health Care Southwest Center","ADDRID":276851,"ZIP":20024.0,"X":398921.79,"Y":134633.56,"TYPE":"Healthcare","id":"a62ixify5h0u","ADDRESS":"850 DELAWARE AVENUE SW"},"type":"Feature","geometry":{"type":"Point","coordinates":[-77.0124262478498,38.8795346411395]}},{"properties":{"NAME":"Unity Health Care Stanton Road Center","ADDRID":156534,"ZIP":20020.0,"X":401680.12,"Y":131273.8,"TYPE":"Healthcare","id":"a62ixis952cf","ADDRESS":"3240 STANTON ROAD SE"},"type":"Feature","geometry":{"type":"Point","coordinates":[-76.9806450174935,38.8492675885184]}},{"properties":{"NAME":"Unity Health Care Upper Cardozo Center","ADDRID":242939,"ZIP":20009.0,"X":397135.96,"Y":140032.89,"TYPE":"Healthcare","id":"a62ixin43iqs","ADDRESS":"3020 14TH STREET NW"},"type":"Feature","geometry":{"type":"Point","coordinates":[-77.0330302496512,38.9281696996133]}},{"properties":{"NAME":"Unity Health Care Walker-Jones Center","ADDRID":28515,"ZIP":20002.0,"X":399334.52,"Y":137643.64,"TYPE":"Healthcare","id":"a62ixirj4h28","ADDRESS":"40 PATTERSON STREET NE"},"type":"Feature","geometry":{"type":"Point","coordinates":[-77.0076724971326,38.9066509630164]}},{"properties":{"NAME":"Unity Health Care Woodbridge Center","ADDRID":51191,"ZIP":20018.0,"X":402412.62,"Y":139203.19,"TYPE":"Healthcare","id":"a62ixiihnlzq","ADDRESS":"2146 24TH PLACE NE"},"type":"Feature","geometry":{"type":"Point","coordinates":[-76.9721787789716,38.9206968537448]}},{"properties":{"NAME":"Bread for the City","ADDRID":286380,"ZIP":20020.0,"X":401644.18,"Y":133153.45,"TYPE":"Healthcare","id":"a62ixifxmlsv","ADDRESS":"1640 GOOD HOPE ROAD SE"},"type":"Feature","geometry":{"type":"Point","coordinates":[-76.981054552437,38.8662003405569]}},{"properties":{"NAME":"Alliance of Concerned Men","ADDRID":38083,"ZIP":20019.0,"X":403468.07,"Y":135244.12,"TYPE":"Prevention","id":"a62ixiigo1dh","ADDRESS":"3227 DUBOIS PLACE SE"},"type":"Feature","geometry":{"type":"Point","coordinates":[-76.960027808151,38.885028622884]}},{"properties":{"NAME":"American University Outreach Task Force","ADDRID":223994,"ZIP":20016.0,"X":392334.76,"Y":141247.38,"TYPE":"Prevention","id":"a62ixippcevp","ADDRESS":"4400 MASSACHUSETTS AVENUE NW"},"type":"Feature","geometry":{"type":"Point","coordinates":[-77.0884148178262,38.9390814220582]}},{"properties":{"NAME":"Ashford Manor Tenant Assoc.","ADDRID":147547,"ZIP":20032.0,"X":400831.26,"Y":129500.18,"TYPE":"Prevention","id":"a62ixif4v6bm","ADDRESS":"914 BARNABY STREET SE"},"type":"Feature","geometry":{"type":"Point","coordinates":[-76.9904260274761,38.8332912360076]}},{"properties":{"NAME":"Brother Help Thyself","ADDRID":240638,"ZIP":20005.0,"X":397261.69,"Y":137381.07,"TYPE":"Prevention","id":"a62ixisnw8k3","ADDRESS":"1111 14TH STREET NW"},"type":"Feature","geometry":{"type":"Point","coordinates":[-77.0315696612242,38.9042816272653]}},{"properties":{"NAME":"Care For Youth Inc.","ADDRID":248887,"ZIP":20011.0,"X":398297.53,"Y":143654.19,"TYPE":"Prevention","id":"a62ixim6rtwg","ADDRESS":"5815 5TH STREET NW"},"type":"Feature","geometry":{"type":"Point","coordinates":[-77.0196431434274,38.9607944154654]}},{"properties":{"NAME":"Children's Pediatricians &amp; Associates","ADDRID":242481,"ZIP":20036.0,"X":395834.07,"Y":137230.68,"TYPE":"Healthcare","id":"a62ixioiqwhg","ADDRESS":"2141 K STREET NW"},"type":"Feature","geometry":{"type":"Point","coordinates":[-77.0480276134028,38.9029212544997]}},{"properties":{"NAME":"City Year","ADDRID":242828,"ZIP":20009.0,"X":396019.46,"Y":138646.25,"TYPE":"Prevention","id":"a62ixike5lus","ADDRESS":"1875 CONNECTICUT AVENUE NW"},"type":"Feature","geometry":{"type":"Point","coordinates":[-77.0458985197485,38.9156740525294]}},{"properties":{"NAME":"DC Campaign to Prevent Teen Pregnancy","ADDRID":278857,"ZIP":20001.0,"X":397628.64,"Y":137445.35,"TYPE":"Prevention","id":"a62ixitl8oau","ADDRESS":"1112 11TH STREET NW"},"type":"Feature","geometry":{"type":"Point","coordinates":[-77.0273393590671,38.9048617506078]}},{"properties":{"NAME":"DC Primary Care Association","ADDRID":218114,"ZIP":20012.0,"X":397175.45,"Y":137227.85,"TYPE":"Multiple","id":"a62ixiqdgb31","ADDRESS":"1411 K STREET NW"},"type":"Feature","geometry":{"type":"Point","coordinates":[-77.0325632820801,38.9029010946662]}},{"properties":{"NAME":"DCSnacks.com","ADDRID":218480,"ZIP":20006.0,"X":396428.16,"Y":136695.02,"TYPE":"Business","id":"a62ixifdm3we","ADDRESS":"1776 G STREET NW"},"type":"Feature","geometry":{"type":"Point","coordinates":[-77.0411757640911,38.8980984529873]}},{"properties":{"NAME":"Ethiopian Community Dev. Council","ADDRID":242324,"ZIP":20005.0,"X":396920.1,"Y":137627.72,"TYPE":"Prevention","id":"a62ixiplq84y","ADDRESS":"1500 MASSACHUSETTS AVENUE NW"},"type":"Feature","geometry":{"type":"Point","coordinates":[-77.0355089187818,38.9065024060293]}},{"properties":{"NAME":"Fireplace Lounge","ADDRID":225946,"ZIP":20037.0,"X":395785.1,"Y":137997.66,"TYPE":"Business","id":"a62ixim985l1","ADDRESS":"2161 P STREET NW"},"type":"Feature","geometry":{"type":"Point","coordinates":[-77.0485968791662,38.9098302429078]}},{"properties":{"NAME":"GW Voices for Choices","ADDRID":279938,"ZIP":20052.0,"X":395905.84,"Y":136894.63,"TYPE":"Prevention","id":"a62ixirf5itr","ADDRESS":"800 21ST STREET NW"},"type":"Feature","geometry":{"type":"Point","coordinates":[-77.0471981981776,38.8998943340216]}},{"properties":{"NAME":"GWU Medical Faculty Associates","ADDRID":242494,"ZIP":20037.0,"X":395788.2,"Y":137086.96,"TYPE":"Healthcare","id":"a62ixij4ixh4","ADDRESS":"2150 PENNSYLVANIA AVENUE NW"},"type":"Feature","geometry":{"type":"Point","coordinates":[-77.0485555518989,38.9016263553411]}},{"properties":{"NAME":"JMB Ministries of Hope","ADDRID":78797,"ZIP":20019.0,"X":404898.5,"Y":134455.36,"TYPE":"Prevention","id":"a62ixiue6kh8","ADDRESS":"746 RIDGE ROAD SE"},"type":"Feature","geometry":{"type":"Point","coordinates":[-76.9435466204764,38.8779163623262]}},{"properties":{"NAME":"Mary's Center","ADDRID":284370,"ZIP":20009.0,"X":396548.08,"Y":139234.16,"TYPE":"Multiple","id":"a62ixiua93lx","ADDRESS":"2333 ONTARIO ROAD NW"},"type":"Feature","geometry":{"type":"Point","coordinates":[-77.0398061036912,38.9209723736723]}},{"properties":{"NAME":"Miriam's Kitchen","ADDRID":218135,"ZIP":20037.0,"X":395492.61,"Y":136743.52,"TYPE":"Food","id":"a62ixigi3z7d","ADDRESS":"2401 VIRGINIA AVENUE NW"},"type":"Feature","geometry":{"type":"Point","coordinates":[-77.0519609939267,38.8985310592467]}},{"properties":{"NAME":"MSU Peer Education Program","ADDRID":249245,"ZIP":20011.0,"X":398574.49,"Y":143778.93,"TYPE":"Prevention","id":"a62ixiqnfbxb","ADDRESS":"5918 3RD STREET NW"},"type":"Feature","geometry":{"type":"Point","coordinates":[-77.0164478310893,38.9619185982706]}},{"properties":{"NAME":"MWPHA","ADDRID":279563,"ZIP":20037.0,"X":395797.81,"Y":137225.42,"TYPE":"Multiple","id":"a62ixis1dlw1","ADDRESS":"2175 K STREET NW"},"type":"Feature","geometry":{"type":"Point","coordinates":[-77.0484456105538,38.9028736979681]}},{"properties":{"NAME":"Neighbors Consejo","ADDRID":236410,"ZIP":20010.0,"X":396806.73,"Y":140159.22,"TYPE":"Multiple","id":"a62ixie84un7","ADDRESS":"3118 16TH STREET NW"},"type":"Feature","geometry":{"type":"Point","coordinates":[-77.0368277634205,38.929306584671]}},{"properties":{"NAME":"Teen Alliance for Prepared Parenting","ADDRID":228314,"ZIP":20010.0,"X":398643.17,"Y":140197.03,"TYPE":"Prevention","id":"a62ixiherqzg","ADDRESS":"110 IRVING STREET NW"},"type":"Feature","geometry":{"type":"Point","coordinates":[-77.0156483025716,38.9296519436821]}},{"properties":{"NAME":"The H.E.L.P. Foundation","ADDRID":45605,"ZIP":20002.0,"X":399845.45,"Y":139596.99,"TYPE":"Prevention","id":"a62ixishp6h4","ADDRESS":"2625 3RD STREET NE"},"type":"Feature","geometry":{"type":"Point","coordinates":[-77.0017822880287,38.9242476289564]}},{"properties":{"NAME":"Turning Corners, Inc.","ADDRID":62705,"ZIP":20032.0,"X":399274.42,"Y":128539.21,"TYPE":"Prevention","id":"a62ixiuax8an","ADDRESS":"15 GALVESTON PLACE SW"},"type":"Feature","geometry":{"type":"Point","coordinates":[-77.0083557982703,38.8246344638328]}},{"properties":{"NAME":"Unity Clinic/Eastern High School","ADDRID":289529,"ZIP":20003.0,"X":401762.5,"Y":135840.08,"TYPE":"Healthcare","id":"a62ixir71cwb","ADDRESS":"1700 EAST CAPITOL STREET NE"},"type":"Feature","geometry":{"type":"Point","coordinates":[-76.9796842933164,38.8904023290319]}},{"properties":{"NAME":"Washington Hospital Center","ADDRID":228314,"ZIP":20010.0,"X":398643.17,"Y":140197.03,"TYPE":"Healthcare","id":"a62ixij2gol9","ADDRESS":"110 IRVING STREET NW"},"type":"Feature","geometry":{"type":"Point","coordinates":[-77.0156483025716,38.9296519436821]}}],"is_temporal":false,"author":{"url":"","metadata":"","contact_name":"GIS Data Coordinator","contact_address":"441 4th St NW, Suite 930 South, Washington, DC, 20001","source":"D.C. Office of the Chief Technology Officer","contact_phone":""},"source":"","pagination":{"sort":null,"start":0,"total":122,"limit":1000000},"state":"complete","tags":"","published":"2009-05-25T16:00:00Z","id":153340}