{"type":"FeatureCollection","data_type":"Dataset","url_type":null,"permissions":[{"permissions":{"download":true,"view":true},"group_id":"everyone"}],"classification":null,"title":"Test","count":74,"stream_id":15845,"contributor":{"url":"http://geocommons.com/users/26","name":"matt"},"data_attributes":null,"calculation_params":null,"icon_link":null,"link":"http://geocommons.com/overlays/15845.json","extent":[-113.784,37.1052,-109.243,41.8005],"geometry_types":["point"],"unique_name":null,"name":"Test","feature_count":74,"description":"","next_feature":null,"is_raster":false,"short_classification":"Y","stats":{"latitude":{"max":41.8005,"mean":39.9941040540541,"variance":1.29396123053128,"stdev":1.13752416700978,"min":37.1052,"median":40.2247},"carbon_2000":{"max":15900000.0,"mean":543375.743460811,"variance":5495751413114.46,"stdev":2344301.90315037,"min":0.0,"median":0.0},"plant_id":{"max":51245.0,"mean":25866.0,"variance":234603644.958904,"stdev":15316.7765851338,"min":3447.0,"median":25687.0},"longitude":{"max":-109.243,"mean":-111.786417567568,"variance":0.666031865851535,"stdev":0.816107753823927,"min":-113.7841,"median":-111.8314}},"features":[{"properties":{"latitude":41.0723,"zip":"84041","carbon_2000":534.7642,"parentcomp_id":null,"longitude":-111.9824,"plant_id":10343.0,"id":"a649qesjm8qe","city_name":"Layton"},"type":"Feature","geometry":{"type":"Point","coordinates":[-111.9824,41.0723]}},{"properties":{"latitude":40.768,"zip":"84189","carbon_2000":0.0,"parentcomp_id":"US DEPT OF THE INTERIOR","longitude":-111.8904,"plant_id":10463.0,"id":"a649qessdtnt","city_name":"Salt Lake City"},"type":"Feature","geometry":{"type":"Point","coordinates":[-111.8904,40.768]}},{"properties":{"latitude":40.666,"zip":"84029","carbon_2000":0.0,"parentcomp_id":null,"longitude":-112.5273,"plant_id":10650.0,"id":"a649qerrwvqg","city_name":"Grantsville"},"type":"Feature","geometry":{"type":"Point","coordinates":[-112.5273,40.666]}},{"properties":{"latitude":40.3802,"zip":"84005","carbon_2000":0.0,"parentcomp_id":null,"longitude":-111.991,"plant_id":11639.0,"id":"a649qewivzel","city_name":"Eagle Mountain"},"type":"Feature","geometry":{"type":"Point","coordinates":[-111.991,40.3802]}},{"properties":{"latitude":40.8715,"zip":"84010","carbon_2000":0.0,"parentcomp_id":null,"longitude":-111.8314,"plant_id":11779.0,"id":"a649qev4k9fe","city_name":"Bountiful"},"type":"Feature","geometry":{"type":"Point","coordinates":[-111.8314,40.8715]}},{"properties":{"latitude":39.3528,"zip":"84627","carbon_2000":0.0,"parentcomp_id":null,"longitude":-111.5432,"plant_id":12604.0,"id":"a649qejr8plb","city_name":"Ephraim"},"type":"Feature","geometry":{"type":"Point","coordinates":[-111.5432,39.3528]}},{"properties":{"latitude":40.9454,"zip":"84023","carbon_2000":0.0,"parentcomp_id":"US DEPT OF THE INTERIOR","longitude":-109.243,"plant_id":13580.0,"id":"a649qen41ymt","city_name":"Dutch John"},"type":"Feature","geometry":{"type":"Point","coordinates":[-109.243,40.9454]}},{"properties":{"latitude":40.3142,"zip":"84057","carbon_2000":0.0,"parentcomp_id":"MIDAMERICAN ENERGY HOLDINGS","longitude":-111.7099,"plant_id":13935.0,"id":"a649qemb8mj8","city_name":"Orem"},"type":"Feature","geometry":{"type":"Point","coordinates":[-111.7099,40.3142]}},{"properties":{"latitude":40.8067,"zip":"84116","carbon_2000":153519.0,"parentcomp_id":"MIDAMERICAN ENERGY HOLDINGS","longitude":-111.9471,"plant_id":14479.0,"id":"a649qer8gu2w","city_name":"Salt Lake City"},"type":"Feature","geometry":{"type":"Point","coordinates":[-111.9471,40.8067]}},{"properties":{"latitude":41.1018,"zip":"84040","carbon_2000":0.0,"parentcomp_id":null,"longitude":-111.9067,"plant_id":14760.0,"id":"a649qer5xq3b","city_name":"Layton"},"type":"Feature","geometry":{"type":"Point","coordinates":[-111.9067,41.1018]}},{"properties":{"latitude":40.6239,"zip":"84121","carbon_2000":0.0,"parentcomp_id":"MIDAMERICAN ENERGY HOLDINGS","longitude":-111.8176,"plant_id":15775.0,"id":"a649qetcp0eq","city_name":"Salt Lake City"},"type":"Feature","geometry":{"type":"Point","coordinates":[-111.8176,40.6239]}},{"properties":{"latitude":37.7617,"zip":"84720","carbon_2000":0.0,"parentcomp_id":null,"longitude":-113.2197,"plant_id":16356.0,"id":"a649qeogc0xb","city_name":"Cedar City"},"type":"Feature","geometry":{"type":"Point","coordinates":[-113.2197,37.7617]}},{"properties":{"latitude":40.2386,"zip":"84032","carbon_2000":0.0,"parentcomp_id":null,"longitude":-111.1499,"plant_id":17314.0,"id":"a649qemt0o36","city_name":"Heber City"},"type":"Feature","geometry":{"type":"Point","coordinates":[-111.1499,40.2386]}},{"properties":{"latitude":40.1286,"zip":"84663","carbon_2000":0.0,"parentcomp_id":null,"longitude":-111.4916,"plant_id":18032.0,"id":"a649qeprcu0t","city_name":"Springville"},"type":"Feature","geometry":{"type":"Point","coordinates":[-111.4916,40.1286]}},{"properties":{"latitude":39.2182,"zip":"84513","carbon_2000":10500000.0,"parentcomp_id":"MIDAMERICAN ENERGY HOLDINGS","longitude":-111.0239,"plant_id":18905.0,"id":"a649qewdiogo","city_name":"Castle Dale"},"type":"Feature","geometry":{"type":"Point","coordinates":[-111.0239,39.2182]}},{"properties":{"latitude":39.3182,"zip":"84528","carbon_2000":6163818.0,"parentcomp_id":"MIDAMERICAN ENERGY HOLDINGS","longitude":-110.8929,"plant_id":18913.0,"id":"a649qez9tl1r","city_name":"Huntington"},"type":"Feature","geometry":{"type":"Point","coordinates":[-110.8929,39.3182]}},{"properties":{"latitude":41.6128,"zip":"84319","carbon_2000":0.0,"parentcomp_id":null,"longitude":-111.845,"plant_id":19039.0,"id":"a649qerpsdma","city_name":"Hyrum"},"type":"Feature","geometry":{"type":"Point","coordinates":[-111.845,41.6128]}},{"properties":{"latitude":39.3657,"zip":"84624","carbon_2000":15900000.0,"parentcomp_id":null,"longitude":-112.4779,"plant_id":19506.0,"id":"a649qewqbym0","city_name":"Delta"},"type":"Feature","geometry":{"type":"Point","coordinates":[-112.4779,39.3657]}},{"properties":{"latitude":40.2386,"zip":"84032","carbon_2000":0.0,"parentcomp_id":null,"longitude":-111.1499,"plant_id":20580.0,"id":"a649qeozleca","city_name":"Heber City"},"type":"Feature","geometry":{"type":"Point","coordinates":[-111.1499,40.2386]}},{"properties":{"latitude":40.9772,"zip":"84025","carbon_2000":7197.6289,"parentcomp_id":null,"longitude":-111.8755,"plant_id":24129.0,"id":"a649qelvsmce","city_name":"Farmington"},"type":"Feature","geometry":{"type":"Point","coordinates":[-111.8755,40.9772]}},{"properties":{"latitude":40.5769,"zip":"84070","carbon_2000":0.0,"parentcomp_id":null,"longitude":-111.8884,"plant_id":25493.0,"id":"a649qewqh7bg","city_name":"Sandy"},"type":"Feature","geometry":{"type":"Point","coordinates":[-111.8884,40.5769]}},{"properties":{"latitude":41.2701,"zip":"84404","carbon_2000":83962.3203,"parentcomp_id":"MIDAMERICAN ENERGY HOLDINGS","longitude":-112.1354,"plant_id":25506.0,"id":"a649qelg8xhd","city_name":"Ogden"},"type":"Feature","geometry":{"type":"Point","coordinates":[-112.1354,41.2701]}},{"properties":{"latitude":41.6898,"zip":"84321","carbon_2000":1819.0291,"parentcomp_id":null,"longitude":-111.6435,"plant_id":25687.0,"id":"a649qeo3l1mi","city_name":"Logan"},"type":"Feature","geometry":{"type":"Point","coordinates":[-111.6435,41.6898]}},{"properties":{"latitude":39.168,"zip":"84642","carbon_2000":0.0,"parentcomp_id":null,"longitude":-111.5215,"plant_id":27136.0,"id":"a649qesbbd7h","city_name":"Manti"},"type":"Feature","geometry":{"type":"Point","coordinates":[-111.5215,39.168]}},{"properties":{"latitude":39.168,"zip":"84642","carbon_2000":0.0,"parentcomp_id":null,"longitude":-111.5215,"plant_id":27137.0,"id":"a649qem0nx3f","city_name":"Manti"},"type":"Feature","geometry":{"type":"Point","coordinates":[-111.5215,39.168]}},{"properties":{"latitude":39.4687,"zip":"84647","carbon_2000":0.0,"parentcomp_id":null,"longitude":-111.4651,"plant_id":29654.0,"id":"a649qen1o2ea","city_name":"Mount Pleasant"},"type":"Feature","geometry":{"type":"Point","coordinates":[-111.4651,39.4687]}},{"properties":{"latitude":40.6583,"zip":"84107","carbon_2000":0.0,"parentcomp_id":null,"longitude":-111.8836,"plant_id":30039.0,"id":"a649qelbq5ku","city_name":"Salt Lake City"},"type":"Feature","geometry":{"type":"Point","coordinates":[-111.8836,40.6583]}},{"properties":{"latitude":40.0019,"zip":"84651","carbon_2000":0.0,"parentcomp_id":"MDU RESOURCES GROUP INC","longitude":-111.732,"plant_id":30800.0,"id":"a649qetqfk7t","city_name":"Payson"},"type":"Feature","geometry":{"type":"Point","coordinates":[-111.732,40.0019]}},{"properties":{"latitude":39.5857,"zip":"84648","carbon_2000":0.0,"parentcomp_id":null,"longitude":-111.9692,"plant_id":30900.0,"id":"a649qes6f5y4","city_name":"Nephi"},"type":"Feature","geometry":{"type":"Point","coordinates":[-111.9692,39.5857]}},{"properties":{"latitude":39.5857,"zip":"84648","carbon_2000":0.0,"parentcomp_id":null,"longitude":-111.9692,"plant_id":30901.0,"id":"a649qez2ztzy","city_name":"Nephi"},"type":"Feature","geometry":{"type":"Point","coordinates":[-111.9692,39.5857]}},{"properties":{"latitude":40.2247,"zip":"84601","carbon_2000":0.0,"parentcomp_id":"MIDAMERICAN ENERGY HOLDINGS","longitude":-111.6938,"plant_id":32564.0,"id":"a649qewqeh95","city_name":"Provo"},"type":"Feature","geometry":{"type":"Point","coordinates":[-111.6938,40.2247]}},{"properties":{"latitude":40.0019,"zip":"84651","carbon_2000":2012.781,"parentcomp_id":null,"longitude":-111.732,"plant_id":34020.0,"id":"a649qeoniizz","city_name":"Payson"},"type":"Feature","geometry":{"type":"Point","coordinates":[-111.732,40.0019]}},{"properties":{"latitude":40.0019,"zip":"84651","carbon_2000":0.0,"parentcomp_id":null,"longitude":-111.732,"plant_id":34021.0,"id":"a649qeyep9ry","city_name":"Payson"},"type":"Feature","geometry":{"type":"Point","coordinates":[-111.732,40.0019]}},{"properties":{"latitude":40.1286,"zip":"84663","carbon_2000":0.0,"parentcomp_id":null,"longitude":-111.4916,"plant_id":3447.0,"id":"a649qerviim9","city_name":"Springville"},"type":"Feature","geometry":{"type":"Point","coordinates":[-111.4916,40.1286]}},{"properties":{"latitude":40.8715,"zip":"84010","carbon_2000":0.0,"parentcomp_id":null,"longitude":-111.8314,"plant_id":34756.0,"id":"a649qevc71ai","city_name":"Bountiful"},"type":"Feature","geometry":{"type":"Point","coordinates":[-111.8314,40.8715]}},{"properties":{"latitude":41.2444,"zip":"84201","carbon_2000":0.0,"parentcomp_id":"MIDAMERICAN ENERGY HOLDINGS","longitude":-111.9977,"plant_id":34811.0,"id":"a649qejwt657","city_name":"Ogden"},"type":"Feature","geometry":{"type":"Point","coordinates":[-111.9977,41.2444]}},{"properties":{"latitude":40.7638,"zip":"84113","carbon_2000":9910.6904,"parentcomp_id":"INTERMOUNTAIN HEALTH CARE","longitude":-111.833,"plant_id":35858.0,"id":"a649qent172w","city_name":"Salt Lake City"},"type":"Feature","geometry":{"type":"Point","coordinates":[-111.833,40.7638]}},{"properties":{"latitude":40.2247,"zip":"84601","carbon_2000":1362.321,"parentcomp_id":null,"longitude":-111.6938,"plant_id":35944.0,"id":"a649qevcmufn","city_name":"Provo"},"type":"Feature","geometry":{"type":"Point","coordinates":[-111.6938,40.2247]}},{"properties":{"latitude":40.2386,"zip":"84032","carbon_2000":3812.438,"parentcomp_id":null,"longitude":-111.1499,"plant_id":36880.0,"id":"a649qemh33vr","city_name":"Heber City"},"type":"Feature","geometry":{"type":"Point","coordinates":[-111.1499,40.2386]}},{"properties":{"latitude":38.344,"zip":"84713","carbon_2000":0.0,"parentcomp_id":null,"longitude":-112.579,"plant_id":3757.0,"id":"a649qezl1b4y","city_name":"Beaver"},"type":"Feature","geometry":{"type":"Point","coordinates":[-112.579,38.344]}},{"properties":{"latitude":38.344,"zip":"84713","carbon_2000":0.0,"parentcomp_id":"MIDAMERICAN ENERGY HOLDINGS","longitude":-112.579,"plant_id":3766.0,"id":"a649qexvw6cj","city_name":"Beaver"},"type":"Feature","geometry":{"type":"Point","coordinates":[-112.579,38.344]}},{"properties":{"latitude":40.7924,"zip":"84103","carbon_2000":0.0,"parentcomp_id":"TESORO PETROLEUM CORP","longitude":-111.8533,"plant_id":39000.0,"id":"a649qekb5eyk","city_name":"Salt Lake City"},"type":"Feature","geometry":{"type":"Point","coordinates":[-111.8533,40.7924]}},{"properties":{"latitude":37.4701,"zip":"84722","carbon_2000":0.0,"parentcomp_id":"MIDAMERICAN ENERGY HOLDINGS","longitude":-113.7841,"plant_id":39500.0,"id":"a649qeoba3if","city_name":"Central"},"type":"Feature","geometry":{"type":"Point","coordinates":[-113.7841,37.4701]}},{"properties":{"latitude":37.1052,"zip":"84771","carbon_2000":5133.3921,"parentcomp_id":null,"longitude":-113.5767,"plant_id":42063.0,"id":"a649qel4o76o","city_name":"Saint George"},"type":"Feature","geometry":{"type":"Point","coordinates":[-113.5767,37.1052]}},{"properties":{"latitude":40.5333,"zip":"84049","carbon_2000":0.0,"parentcomp_id":null,"longitude":-111.5055,"plant_id":42189.0,"id":"a649qeyyxhtm","city_name":"Midway"},"type":"Feature","geometry":{"type":"Point","coordinates":[-111.5055,40.5333]}},{"properties":{"latitude":40.5333,"zip":"84049","carbon_2000":0.0,"parentcomp_id":"MIDAMERICAN ENERGY HOLDINGS","longitude":-111.5055,"plant_id":42190.0,"id":"a649qevo76y1","city_name":"Midway"},"type":"Feature","geometry":{"type":"Point","coordinates":[-111.5055,40.5333]}},{"properties":{"latitude":40.1192,"zip":"84660","carbon_2000":0.0,"parentcomp_id":null,"longitude":-111.6894,"plant_id":42733.0,"id":"a649qepu11aa","city_name":"Spanish Fork"},"type":"Feature","geometry":{"type":"Point","coordinates":[-111.6894,40.1192]}},{"properties":{"latitude":40.1192,"zip":"84660","carbon_2000":0.0,"parentcomp_id":null,"longitude":-111.6894,"plant_id":42734.0,"id":"a649qeq9xhm5","city_name":"Spanish Fork"},"type":"Feature","geometry":{"type":"Point","coordinates":[-111.6894,40.1192]}},{"properties":{"latitude":40.1286,"zip":"84663","carbon_2000":0.0,"parentcomp_id":null,"longitude":-111.4916,"plant_id":42826.0,"id":"a649qemz7yb9","city_name":"Springville"},"type":"Feature","geometry":{"type":"Point","coordinates":[-111.4916,40.1286]}},{"properties":{"latitude":40.6239,"zip":"84121","carbon_2000":0.0,"parentcomp_id":"MIDAMERICAN ENERGY HOLDINGS","longitude":-111.8176,"plant_id":43118.0,"id":"a649qemkozuu","city_name":"Salt Lake City"},"type":"Feature","geometry":{"type":"Point","coordinates":[-111.8176,40.6239]}},{"properties":{"latitude":40.0019,"zip":"84651","carbon_2000":0.0,"parentcomp_id":null,"longitude":-111.732,"plant_id":43530.0,"id":"a649qeu31yfy","city_name":"Payson"},"type":"Feature","geometry":{"type":"Point","coordinates":[-111.732,40.0019]}},{"properties":{"latitude":39.5558,"zip":"84539","carbon_2000":474860.0,"parentcomp_id":"CONSTELLATION ENERGY INC","longitude":-110.3999,"plant_id":43882.0,"id":"a649qen0m2cv","city_name":"Sunnyside"},"type":"Feature","geometry":{"type":"Point","coordinates":[-110.3999,39.5558]}},{"properties":{"latitude":38.9075,"zip":"84525","carbon_2000":0.0,"parentcomp_id":null,"longitude":-110.4885,"plant_id":45320.0,"id":"a649qeznfo4o","city_name":"Green River"},"type":"Feature","geometry":{"type":"Point","coordinates":[-110.4885,38.9075]}},{"properties":{"latitude":40.5914,"zip":"84066","carbon_2000":0.0,"parentcomp_id":null,"longitude":-110.3792,"plant_id":4581.0,"id":"a649qeo712ih","city_name":"Roosevelt"},"type":"Feature","geometry":{"type":"Point","coordinates":[-110.3792,40.5914]}},{"properties":{"latitude":40.5098,"zip":"84053","carbon_2000":0.0,"parentcomp_id":null,"longitude":-110.0981,"plant_id":47013.0,"id":"a649qeo9bdve","city_name":"Neola"},"type":"Feature","geometry":{"type":"Point","coordinates":[-110.0981,40.5098]}},{"properties":{"latitude":40.1286,"zip":"84663","carbon_2000":0.0,"parentcomp_id":null,"longitude":-111.4916,"plant_id":47313.0,"id":"a649qenmt4is","city_name":"Springville"},"type":"Feature","geometry":{"type":"Point","coordinates":[-111.4916,40.1286]}},{"properties":{"latitude":40.7034,"zip":"84044","carbon_2000":1353733.0,"parentcomp_id":null,"longitude":-112.1122,"plant_id":47488.0,"id":"a649qex3klua","city_name":"Magna"},"type":"Feature","geometry":{"type":"Point","coordinates":[-112.1122,40.7034]}},{"properties":{"latitude":37.4701,"zip":"84722","carbon_2000":0.0,"parentcomp_id":"MIDAMERICAN ENERGY HOLDINGS","longitude":-113.7841,"plant_id":48174.0,"id":"a649qeti7onf","city_name":"Central"},"type":"Feature","geometry":{"type":"Point","coordinates":[-113.7841,37.4701]}},{"properties":{"latitude":41.1018,"zip":"84040","carbon_2000":0.0,"parentcomp_id":null,"longitude":-111.9067,"plant_id":49016.0,"id":"a649qelm64zk","city_name":"Layton"},"type":"Feature","geometry":{"type":"Point","coordinates":[-111.9067,41.1018]}},{"properties":{"latitude":41.1783,"zip":"84403","carbon_2000":0.0,"parentcomp_id":"MIDAMERICAN ENERGY HOLDINGS","longitude":-111.9156,"plant_id":49232.0,"id":"a649qerii33z","city_name":"Ogden"},"type":"Feature","geometry":{"type":"Point","coordinates":[-111.9156,41.1783]}},{"properties":{"latitude":40.6511,"zip":"84118","carbon_2000":0.0,"parentcomp_id":"MIDAMERICAN ENERGY HOLDINGS","longitude":-112.0182,"plant_id":49515.0,"id":"a649qet4i9ks","city_name":"Salt Lake City"},"type":"Feature","geometry":{"type":"Point","coordinates":[-112.0182,40.6511]}},{"properties":{"latitude":37.1656,"zip":"84780","carbon_2000":199.2859,"parentcomp_id":null,"longitude":-113.4755,"plant_id":4956.0,"id":"a649qezzu3f8","city_name":"Washington"},"type":"Feature","geometry":{"type":"Point","coordinates":[-113.4755,37.1656]}},{"properties":{"latitude":40.1286,"zip":"84663","carbon_2000":6544.4902,"parentcomp_id":null,"longitude":-111.4916,"plant_id":49707.0,"id":"a649qera45y0","city_name":"Springville"},"type":"Feature","geometry":{"type":"Point","coordinates":[-111.4916,40.1286]}},{"properties":{"latitude":38.3622,"zip":"84751","carbon_2000":0.0,"parentcomp_id":"MIDAMERICAN ENERGY HOLDINGS","longitude":-113.4045,"plant_id":4997.0,"id":"a649qeujrsc2","city_name":"Milford"},"type":"Feature","geometry":{"type":"Point","coordinates":[-113.4045,38.3622]}},{"properties":{"latitude":37.1888,"zip":"84767","carbon_2000":0.0,"parentcomp_id":null,"longitude":-113.0001,"plant_id":51245.0,"id":"a649qewx809z","city_name":"Springdale"},"type":"Feature","geometry":{"type":"Point","coordinates":[-113.0001,37.1888]}},{"properties":{"latitude":40.1055,"zip":"84078","carbon_2000":4279250.0,"parentcomp_id":null,"longitude":-109.4989,"plant_id":5218.0,"id":"a649qepeth1m","city_name":"Vernal"},"type":"Feature","geometry":{"type":"Point","coordinates":[-109.4989,40.1055]}},{"properties":{"latitude":37.881,"zip":"84716","carbon_2000":0.0,"parentcomp_id":null,"longitude":-111.2743,"plant_id":5436.0,"id":"a649qer5sqy2","city_name":"Boulder"},"type":"Feature","geometry":{"type":"Point","coordinates":[-111.2743,37.881]}},{"properties":{"latitude":40.8715,"zip":"84010","carbon_2000":3049.875,"parentcomp_id":null,"longitude":-111.8314,"plant_id":5448.0,"id":"a649qeuelxmv","city_name":"Bountiful"},"type":"Feature","geometry":{"type":"Point","coordinates":[-111.8314,40.8715]}},{"properties":{"latitude":41.4833,"zip":"84302","carbon_2000":0.0,"parentcomp_id":null,"longitude":-112.0954,"plant_id":5801.0,"id":"a649qejrozgb","city_name":"Brigham City"},"type":"Feature","geometry":{"type":"Point","coordinates":[-112.0954,41.4833]}},{"properties":{"latitude":39.7304,"zip":"84526","carbon_2000":1259086.0,"parentcomp_id":"MIDAMERICAN ENERGY HOLDINGS","longitude":-110.9173,"plant_id":7107.0,"id":"a649qet60bix","city_name":"Helper"},"type":"Feature","geometry":{"type":"Point","coordinates":[-110.9173,39.7304]}},{"properties":{"latitude":41.1018,"zip":"84040","carbon_2000":0.0,"parentcomp_id":null,"longitude":-111.9067,"plant_id":7477.0,"id":"a649qeyw4trb","city_name":"Layton"},"type":"Feature","geometry":{"type":"Point","coordinates":[-111.9067,41.1018]}},{"properties":{"latitude":38.344,"zip":"84713","carbon_2000":0.0,"parentcomp_id":null,"longitude":-112.579,"plant_id":9586.0,"id":"a649qexsxt13","city_name":"Beaver"},"type":"Feature","geometry":{"type":"Point","coordinates":[-112.579,38.344]}},{"properties":{"latitude":39.852,"zip":"84645","carbon_2000":0.0,"parentcomp_id":"MIDAMERICAN ENERGY HOLDINGS","longitude":-111.8394,"plant_id":9899.0,"id":"a649qes8tgat","city_name":"Mona"},"type":"Feature","geometry":{"type":"Point","coordinates":[-111.8394,39.852]}},{"properties":{"latitude":41.8005,"zip":"84306","carbon_2000":0.0,"parentcomp_id":"MIDAMERICAN ENERGY HOLDINGS","longitude":-112.0827,"plant_id":9932.0,"id":"a649qeymj181","city_name":"Collinston"},"type":"Feature","geometry":{"type":"Point","coordinates":[-112.0827,41.8005]}}],"is_temporal":false,"author":{"url":"","metadata":"","contact_name":"","contact_address":"","source":"","contact_phone":""},"source":"","pagination":{"sort":null,"start":0,"total":74,"limit":1000000},"state":"complete","tags":"test","published":"2009-09-09T13:50:01Z","id":15845}