{"type":"FeatureCollection","data_type":"Dataset","url_type":null,"permissions":[{"permissions":{"download":true,"view":true},"group_id":"everyone"}],"classification":null,"title":"DUFTYCLEAN","count":26,"stream_id":173375,"contributor":{"url":"http://geocommons.com/users/27762","name":"Mission Local"},"data_attributes":null,"calculation_params":null,"icon_link":null,"link":"http://geocommons.com/overlays/173375.json","extent":[-122.497,37.7192,-122.388,37.8029],"geometry_types":["point"],"unique_name":null,"name":"DUFTYCLEAN","feature_count":26,"description":"","next_feature":null,"is_raster":false,"short_classification":"Y","stats":{"latitude":{"max":37.802929,"mean":37.76697528,"variance":0.000761321489710062,"stdev":0.0275920548294262,"min":37.719196,"median":37.77355},"contributions":{"max":30450,"mean":3474.30769230769,"variance":39570675.0215385,"stdev":6290.52263500724,"min":20,"median":1750},"zipcode":{"max":94134,"mean":94117.08,"variance":101.66,"stdev":10.082658379614,"min":94102,"median":94116},"longitude":{"max":-122.387822,"mean":-122.43382444,"variance":0.00103583305184005,"stdev":0.0321843603608966,"min":-122.496779,"median":-122.435729}},"features":[{"properties":{"latitude":37.777125,"contributions":1350,"zipcode":94102,"longitude":-122.419644,"id":"a655713vfmnt"},"type":"Feature","geometry":{"type":"Point","coordinates":[-122.419644,37.777125]}},{"properties":{"latitude":37.77355,"contributions":3205,"zipcode":94103,"longitude":-122.411329,"id":"a6557123ia2g"},"type":"Feature","geometry":{"type":"Point","coordinates":[-122.411329,37.77355]}},{"properties":{"latitude":37.791051,"contributions":250,"zipcode":94104,"longitude":-122.401709,"id":"a655719n3ovo"},"type":"Feature","geometry":{"type":"Point","coordinates":[-122.401709,37.791051]}},{"properties":{"latitude":37.789572,"contributions":20,"zipcode":94105,"longitude":-122.394712,"id":"a655714saout"},"type":"Feature","geometry":{"type":"Point","coordinates":[-122.394712,37.789572]}},{"properties":{"latitude":37.767022,"contributions":2926,"zipcode":94107,"longitude":-122.395687,"id":"a655715y6z1i"},"type":"Feature","geometry":{"type":"Point","coordinates":[-122.395687,37.767022]}},{"properties":{"latitude":37.79179,"contributions":1201,"zipcode":94108,"longitude":-122.407419,"id":"a6557170z5g5"},"type":"Feature","geometry":{"type":"Point","coordinates":[-122.407419,37.79179]}},{"properties":{"latitude":37.79514,"contributions":2820,"zipcode":94109,"longitude":-122.420749,"id":"a6557130i0ip"},"type":"Feature","geometry":{"type":"Point","coordinates":[-122.420749,37.79514]}},{"properties":{"latitude":37.74779,"contributions":3775,"zipcode":94110,"longitude":-122.414864,"id":"a65571dv4cp4"},"type":"Feature","geometry":{"type":"Point","coordinates":[-122.414864,37.74779]}},{"properties":{"latitude":37.797876,"contributions":1000,"zipcode":94111,"longitude":-122.399278,"id":"a65570z0c1i8"},"type":"Feature","geometry":{"type":"Point","coordinates":[-122.399278,37.797876]}},{"properties":{"latitude":37.719744,"contributions":1070,"zipcode":94112,"longitude":-122.441957,"id":"a65571e3pa23"},"type":"Feature","geometry":{"type":"Point","coordinates":[-122.441957,37.719744]}},{"properties":{"latitude":37.7592,"contributions":16159,"zipcode":94114,"longitude":-122.436489,"id":"a6557126gs96"},"type":"Feature","geometry":{"type":"Point","coordinates":[-122.436489,37.7592]}},{"properties":{"latitude":37.78578,"contributions":3110,"zipcode":94115,"longitude":-122.435729,"id":"a65571by5pzi"},"type":"Feature","geometry":{"type":"Point","coordinates":[-122.435729,37.78578]}},{"properties":{"latitude":37.74346,"contributions":2825,"zipcode":94116,"longitude":-122.487539,"id":"a65571e5v9lz"},"type":"Feature","geometry":{"type":"Point","coordinates":[-122.487539,37.74346]}},{"properties":{"latitude":37.769951,"contributions":4375,"zipcode":94117,"longitude":-122.443553,"id":"a655712npde3"},"type":"Feature","geometry":{"type":"Point","coordinates":[-122.443553,37.769951]}},{"properties":{"latitude":37.77459,"contributions":2650,"zipcode":94118,"longitude":-122.462755,"id":"a65571cpl9m2"},"type":"Feature","geometry":{"type":"Point","coordinates":[-122.462755,37.77459]}},{"properties":{"latitude":37.77574,"contributions":950,"zipcode":94121,"longitude":-122.496779,"id":"a655719hwyy6"},"type":"Feature","geometry":{"type":"Point","coordinates":[-122.496779,37.77574]}},{"properties":{"latitude":37.759485,"contributions":1750,"zipcode":94122,"longitude":-122.484889,"id":"a6557165xooz"},"type":"Feature","geometry":{"type":"Point","coordinates":[-122.484889,37.759485]}},{"properties":{"latitude":37.802733,"contributions":650,"zipcode":94123,"longitude":-122.43582,"id":"a655719veioa"},"type":"Feature","geometry":{"type":"Point","coordinates":[-122.43582,37.802733]}},{"properties":{"latitude":37.727982,"contributions":1700,"zipcode":94124,"longitude":-122.387822,"id":"a65571e8q1zu"},"type":"Feature","geometry":{"type":"Point","coordinates":[-122.387822,37.727982]}},{"properties":{"latitude":37.735258,"contributions":1770,"zipcode":94127,"longitude":-122.460592,"id":"a65571711yg8"},"type":"Feature","geometry":{"type":"Point","coordinates":[-122.460592,37.735258]}},{"properties":{"latitude":37.79989,"contributions":450,"zipcode":94129,"longitude":-122.462589,"id":"a65571a3ybmb"},"type":"Feature","geometry":{"type":"Point","coordinates":[-122.462589,37.79989]}},{"properties":{"latitude":37.74462,"contributions":3402,"zipcode":94131,"longitude":-122.439565,"id":"a6557156megh"},"type":"Feature","geometry":{"type":"Point","coordinates":[-122.439565,37.74462]}},{"properties":{"latitude":37.722908,"contributions":1224,"zipcode":94132,"longitude":-122.483376,"id":"a65571afo2rn"},"type":"Feature","geometry":{"type":"Point","coordinates":[-122.483376,37.722908]}},{"properties":{"latitude":37.802929,"contributions":650,"zipcode":94133,"longitude":-122.410295,"id":"a655715s5xmm"},"type":"Feature","geometry":{"type":"Point","coordinates":[-122.410295,37.802929]}},{"properties":{"latitude":37.719196,"contributions":600,"zipcode":94134,"longitude":-122.410471,"id":"a655715k0r94"},"type":"Feature","geometry":{"type":"Point","coordinates":[-122.410471,37.719196]}},{"properties":{"latitude":null,"contributions":30450,"zipcode":null,"longitude":null,"id":"a6557108b215"},"type":"Feature","geometry":null}],"is_temporal":false,"author":{"url":"","metadata":null,"contact_name":null,"contact_address":null,"source":null,"contact_phone":null},"source":"","pagination":{"sort":null,"start":0,"total":26,"limit":1000000},"state":"complete","tags":"","published":"2014-08-13T02:32:20-04:00","id":173375}