{"type":"FeatureCollection","data_type":"Dataset","url_type":null,"permissions":[{"permissions":{"download":true,"edit":true,"view":true},"group_id":33927},{"permissions":{"download":true,"view":true},"group_id":"everyone"}],"classification":null,"title":"yee","count":25,"stream_id":173415,"contributor":{"url":"http://geocommons.com/users/27762","name":"Mission Local"},"data_attributes":null,"calculation_params":null,"icon_link":null,"link":"http://geocommons.com/overlays/173415.json","extent":[-122.497,37.7192,-122.388,37.8029],"geometry_types":["point"],"unique_name":null,"name":"yee","feature_count":25,"description":"","next_feature":null,"is_raster":false,"short_classification":"Y","stats":{"latitude":{"max":37.802929,"mean":37.7656038333333,"variance":0.000745356355536303,"stdev":0.0273012152758133,"min":37.719196,"median":37.77355},"contributions":{"max":238683,"mean":19094.64,"variance":2134969438.82333,"stdev":46205.7295021227,"min":1200,"median":8893},"zipcode":{"max":94134,"mean":94116.5833333333,"variance":99.6449275362319,"stdev":9.98223058921361,"min":94102,"median":94116},"longitude":{"max":-122.387822,"mean":-122.432625916667,"variance":0.00104339644938413,"stdev":0.032301647781253,"min":-122.496779,"median":-122.420749}},"features":[{"properties":{"column_5":null,"latitude":37.777125,"column_6":null,"column_7":null,"contributions":5150,"zipcode":94102,"longitude":-122.419644,"id":"a6c94u2jj61s"},"type":"Feature","geometry":{"type":"Point","coordinates":[-122.419644,37.777125]}},{"properties":{"column_5":null,"latitude":37.77355,"column_6":null,"column_7":null,"contributions":6951,"zipcode":94103,"longitude":-122.411329,"id":"a6c94u0rqait"},"type":"Feature","geometry":{"type":"Point","coordinates":[-122.411329,37.77355]}},{"properties":{"column_5":null,"latitude":37.791051,"column_6":null,"column_7":null,"contributions":1200,"zipcode":94104,"longitude":-122.401709,"id":"a6c94u0bjs5l"},"type":"Feature","geometry":{"type":"Point","coordinates":[-122.401709,37.791051]}},{"properties":{"column_5":null,"latitude":37.789572,"column_6":null,"column_7":null,"contributions":3570,"zipcode":94105,"longitude":-122.394712,"id":"a6c94tzwof83"},"type":"Feature","geometry":{"type":"Point","coordinates":[-122.394712,37.789572]}},{"properties":{"column_5":null,"latitude":37.767022,"column_6":null,"column_7":null,"contributions":5730,"zipcode":94107,"longitude":-122.395687,"id":"a6c94u0vmugj"},"type":"Feature","geometry":{"type":"Point","coordinates":[-122.395687,37.767022]}},{"properties":{"column_5":null,"latitude":37.79179,"column_6":null,"column_7":null,"contributions":15545,"zipcode":94108,"longitude":-122.407419,"id":"a6c94ub0k3am"},"type":"Feature","geometry":{"type":"Point","coordinates":[-122.407419,37.79179]}},{"properties":{"column_5":null,"latitude":37.79514,"column_6":null,"column_7":null,"contributions":11950,"zipcode":94109,"longitude":-122.420749,"id":"a6c94u3aliav"},"type":"Feature","geometry":{"type":"Point","coordinates":[-122.420749,37.79514]}},{"properties":{"column_5":null,"latitude":37.74779,"column_6":null,"column_7":null,"contributions":7985,"zipcode":94110,"longitude":-122.414864,"id":"a6c94u3k3pif"},"type":"Feature","geometry":{"type":"Point","coordinates":[-122.414864,37.74779]}},{"properties":{"column_5":null,"latitude":37.797876,"column_6":null,"column_7":null,"contributions":3500,"zipcode":94111,"longitude":-122.399278,"id":"a6c94txzzgpc"},"type":"Feature","geometry":{"type":"Point","coordinates":[-122.399278,37.797876]}},{"properties":{"column_5":null,"latitude":37.719744,"column_6":null,"column_7":null,"contributions":16360,"zipcode":94112,"longitude":-122.441957,"id":"a6c94tw04v4u"},"type":"Feature","geometry":{"type":"Point","coordinates":[-122.441957,37.719744]}},{"properties":{"column_5":null,"latitude":37.7592,"column_6":null,"column_7":null,"contributions":7155,"zipcode":94114,"longitude":-122.436489,"id":"a6c94u2kcmiw"},"type":"Feature","geometry":{"type":"Point","coordinates":[-122.436489,37.7592]}},{"properties":{"column_5":null,"latitude":37.78578,"column_6":null,"column_7":null,"contributions":16925,"zipcode":94115,"longitude":-122.435729,"id":"a6c94u7bo1ik"},"type":"Feature","geometry":{"type":"Point","coordinates":[-122.435729,37.78578]}},{"properties":{"column_5":null,"latitude":37.74346,"column_6":null,"column_7":null,"contributions":4780,"zipcode":94116,"longitude":-122.487539,"id":"a6c94u62yaug"},"type":"Feature","geometry":{"type":"Point","coordinates":[-122.487539,37.74346]}},{"properties":{"column_5":null,"latitude":37.769951,"column_6":null,"column_7":null,"contributions":13975,"zipcode":94117,"longitude":-122.443553,"id":"a6c94u4rwexn"},"type":"Feature","geometry":{"type":"Point","coordinates":[-122.443553,37.769951]}},{"properties":{"column_5":null,"latitude":37.77459,"column_6":null,"column_7":null,"contributions":1720,"zipcode":94118,"longitude":-122.462755,"id":"a6c94u800dmd"},"type":"Feature","geometry":{"type":"Point","coordinates":[-122.462755,37.77459]}},{"properties":{"column_5":null,"latitude":37.77574,"column_6":null,"column_7":null,"contributions":21270,"zipcode":94121,"longitude":-122.496779,"id":"a6c94txeism7"},"type":"Feature","geometry":{"type":"Point","coordinates":[-122.496779,37.77574]}},{"properties":{"column_5":null,"latitude":37.759485,"column_6":null,"column_7":null,"contributions":29025,"zipcode":94122,"longitude":-122.484889,"id":"a6c94u1w3k52"},"type":"Feature","geometry":{"type":"Point","coordinates":[-122.484889,37.759485]}},{"properties":{"column_5":null,"latitude":37.802733,"column_6":null,"column_7":null,"contributions":7250,"zipcode":94123,"longitude":-122.43582,"id":"a6c94uawjipe"},"type":"Feature","geometry":{"type":"Point","coordinates":[-122.43582,37.802733]}},{"properties":{"column_5":null,"latitude":37.727982,"column_6":null,"column_7":null,"contributions":3405,"zipcode":94124,"longitude":-122.387822,"id":"a6c94u37lwyb"},"type":"Feature","geometry":{"type":"Point","coordinates":[-122.387822,37.727982]}},{"properties":{"column_5":null,"latitude":37.735258,"column_6":null,"column_7":null,"contributions":12090,"zipcode":94127,"longitude":-122.460592,"id":"a6c94uanz9hk"},"type":"Feature","geometry":{"type":"Point","coordinates":[-122.460592,37.735258]}},{"properties":{"column_5":null,"latitude":37.74462,"column_6":null,"column_7":null,"contributions":11644,"zipcode":94131,"longitude":-122.439565,"id":"a6c94u8u8h6l"},"type":"Feature","geometry":{"type":"Point","coordinates":[-122.439565,37.74462]}},{"properties":{"column_5":null,"latitude":37.722908,"column_6":null,"column_7":null,"contributions":11870,"zipcode":94132,"longitude":-122.483376,"id":"a6c94tz7y8bf"},"type":"Feature","geometry":{"type":"Point","coordinates":[-122.483376,37.722908]}},{"properties":{"column_5":null,"latitude":37.802929,"column_6":null,"column_7":null,"contributions":8893,"zipcode":94133,"longitude":-122.410295,"id":"a6c94u35qxj7"},"type":"Feature","geometry":{"type":"Point","coordinates":[-122.410295,37.802929]}},{"properties":{"column_5":null,"latitude":37.719196,"column_6":null,"column_7":null,"contributions":10740,"zipcode":94134,"longitude":-122.410471,"id":"a6c94ty61vd6"},"type":"Feature","geometry":{"type":"Point","coordinates":[-122.410471,37.719196]}},{"properties":{"column_5":null,"latitude":null,"column_6":null,"column_7":null,"contributions":238683,"zipcode":null,"longitude":null,"id":"a6c94tzambzd"},"type":"Feature","geometry":null}],"is_temporal":false,"author":{"url":"","metadata":"","contact_name":"","contact_address":"","source":"","contact_phone":""},"source":"","pagination":{"sort":null,"start":0,"total":25,"limit":1000000},"state":"complete","tags":"","published":"2014-08-13T02:35:57-04:00","id":173415}