{"type":"FeatureCollection","data_type":"Dataset","url_type":null,"permissions":[{"permissions":{"download":true,"view":true},"group_id":"everyone"}],"classification":null,"title":"chiuclean","count":26,"stream_id":173428,"contributor":{"url":"http://geocommons.com/users/27762","name":"Mission Local"},"data_attributes":null,"calculation_params":null,"icon_link":null,"link":"http://geocommons.com/overlays/173428.json","extent":[-122.497,37.7192,-122.388,37.8029],"geometry_types":["point"],"unique_name":null,"name":"chiuclean","feature_count":26,"description":"","next_feature":null,"is_raster":false,"short_classification":"Y","stats":{"latitude":{"max":37.802929,"mean":37.76697528,"variance":0.000761321489710062,"stdev":0.0275920548294262,"min":37.719196,"median":37.77355},"contributions":{"max":269636,"mean":20741.2307692308,"variance":2615879329.46462,"stdev":51145.6677487411,"min":100,"median":11941},"zipcode":{"max":94134,"mean":94117.08,"variance":101.66,"stdev":10.082658379614,"min":94102,"median":94116},"longitude":{"max":-122.387822,"mean":-122.43382444,"variance":0.00103583305184005,"stdev":0.0321843603608966,"min":-122.496779,"median":-122.435729}},"features":[{"properties":{"latitude":37.777125,"contributions":5050,"zipcode":94102,"longitude":-122.419644,"id":"a62vca0fl1t5"},"type":"Feature","geometry":{"type":"Point","coordinates":[-122.419644,37.777125]}},{"properties":{"latitude":37.77355,"contributions":7525,"zipcode":94103,"longitude":-122.411329,"id":"a62vc9tggpj9"},"type":"Feature","geometry":{"type":"Point","coordinates":[-122.411329,37.77355]}},{"properties":{"latitude":37.791051,"contributions":2800,"zipcode":94104,"longitude":-122.401709,"id":"a62vca7g3do0"},"type":"Feature","geometry":{"type":"Point","coordinates":[-122.401709,37.791051]}},{"properties":{"latitude":37.789572,"contributions":12790,"zipcode":94105,"longitude":-122.394712,"id":"a62vc9xmcv8g"},"type":"Feature","geometry":{"type":"Point","coordinates":[-122.394712,37.789572]}},{"properties":{"latitude":37.767022,"contributions":19621,"zipcode":94107,"longitude":-122.395687,"id":"a62vc9xvgxc0"},"type":"Feature","geometry":{"type":"Point","coordinates":[-122.395687,37.767022]}},{"properties":{"latitude":37.79179,"contributions":9235,"zipcode":94108,"longitude":-122.407419,"id":"a62vca4keo0s"},"type":"Feature","geometry":{"type":"Point","coordinates":[-122.407419,37.79179]}},{"properties":{"latitude":37.79514,"contributions":25854,"zipcode":94109,"longitude":-122.420749,"id":"a62vca1ww2np"},"type":"Feature","geometry":{"type":"Point","coordinates":[-122.420749,37.79514]}},{"properties":{"latitude":37.74779,"contributions":13675,"zipcode":94110,"longitude":-122.414864,"id":"a62vc9sa0hjx"},"type":"Feature","geometry":{"type":"Point","coordinates":[-122.414864,37.74779]}},{"properties":{"latitude":37.797876,"contributions":11941,"zipcode":94111,"longitude":-122.399278,"id":"a62vca5e7jnw"},"type":"Feature","geometry":{"type":"Point","coordinates":[-122.399278,37.797876]}},{"properties":{"latitude":37.719744,"contributions":5075,"zipcode":94112,"longitude":-122.441957,"id":"a62vc9z7wd7y"},"type":"Feature","geometry":{"type":"Point","coordinates":[-122.441957,37.719744]}},{"properties":{"latitude":37.7592,"contributions":15534,"zipcode":94114,"longitude":-122.436489,"id":"a62vca1xq72n"},"type":"Feature","geometry":{"type":"Point","coordinates":[-122.436489,37.7592]}},{"properties":{"latitude":37.78578,"contributions":13180,"zipcode":94115,"longitude":-122.435729,"id":"a62vca0tdxwg"},"type":"Feature","geometry":{"type":"Point","coordinates":[-122.435729,37.78578]}},{"properties":{"latitude":37.74346,"contributions":11005,"zipcode":94116,"longitude":-122.487539,"id":"a62vca0l56lp"},"type":"Feature","geometry":{"type":"Point","coordinates":[-122.487539,37.74346]}},{"properties":{"latitude":37.769951,"contributions":10415,"zipcode":94117,"longitude":-122.443553,"id":"a62vca6f12h1"},"type":"Feature","geometry":{"type":"Point","coordinates":[-122.443553,37.769951]}},{"properties":{"latitude":37.77459,"contributions":15336,"zipcode":94118,"longitude":-122.462755,"id":"a62vc9y28e92"},"type":"Feature","geometry":{"type":"Point","coordinates":[-122.462755,37.77459]}},{"properties":{"latitude":37.77574,"contributions":11075,"zipcode":94121,"longitude":-122.496779,"id":"a62vc9x0ncb8"},"type":"Feature","geometry":{"type":"Point","coordinates":[-122.496779,37.77574]}},{"properties":{"latitude":37.759485,"contributions":18800,"zipcode":94122,"longitude":-122.484889,"id":"a62vc9w59cxe"},"type":"Feature","geometry":{"type":"Point","coordinates":[-122.484889,37.759485]}},{"properties":{"latitude":37.802733,"contributions":13675,"zipcode":94123,"longitude":-122.43582,"id":"a62vca10y2rq"},"type":"Feature","geometry":{"type":"Point","coordinates":[-122.43582,37.802733]}},{"properties":{"latitude":37.727982,"contributions":4050,"zipcode":94124,"longitude":-122.387822,"id":"a62vc9s7oqrh"},"type":"Feature","geometry":{"type":"Point","coordinates":[-122.387822,37.727982]}},{"properties":{"latitude":37.735258,"contributions":12600,"zipcode":94127,"longitude":-122.460592,"id":"a62vc9tiewyw"},"type":"Feature","geometry":{"type":"Point","coordinates":[-122.460592,37.735258]}},{"properties":{"latitude":37.79989,"contributions":700,"zipcode":94129,"longitude":-122.462589,"id":"a62vc9vpehdz"},"type":"Feature","geometry":{"type":"Point","coordinates":[-122.462589,37.79989]}},{"properties":{"latitude":37.74462,"contributions":9945,"zipcode":94131,"longitude":-122.439565,"id":"a62vc9xxwmfz"},"type":"Feature","geometry":{"type":"Point","coordinates":[-122.439565,37.74462]}},{"properties":{"latitude":37.722908,"contributions":2070,"zipcode":94132,"longitude":-122.483376,"id":"a62vc9yxeqo1"},"type":"Feature","geometry":{"type":"Point","coordinates":[-122.483376,37.722908]}},{"properties":{"latitude":37.802929,"contributions":17585,"zipcode":94133,"longitude":-122.410295,"id":"a62vca784cfn"},"type":"Feature","geometry":{"type":"Point","coordinates":[-122.410295,37.802929]}},{"properties":{"latitude":37.719196,"contributions":100,"zipcode":94134,"longitude":-122.410471,"id":"a62vca3fadhi"},"type":"Feature","geometry":{"type":"Point","coordinates":[-122.410471,37.719196]}},{"properties":{"latitude":null,"contributions":269636,"zipcode":null,"longitude":null,"id":"a62vc9td6quf"},"type":"Feature","geometry":null}],"is_temporal":false,"author":{"url":"","metadata":"","contact_name":"","contact_address":"","source":"","contact_phone":""},"source":"","pagination":{"sort":null,"start":0,"total":26,"limit":1000000},"state":"complete","tags":"","published":"2014-08-13T02:36:04-04:00","id":173428}