{"type":"FeatureCollection","data_type":"Dataset","url_type":null,"permissions":[{"permissions":{"download":true,"view":true},"group_id":"everyone"}],"classification":null,"title":"Community_Finance_Client_Geo_Profile","count":17,"stream_id":178373,"contributor":{"url":"http://geocommons.com/users/35862","name":"ChrisWilson61"},"data_attributes":null,"calculation_params":null,"icon_link":null,"link":"http://geocommons.com/overlays/178373.json","extent":[152.905,-27.6491,153.124,-27.5242],"geometry_types":["point"],"unique_name":null,"name":"Community_Finance_Client_Geo_Profile","feature_count":17,"description":"","next_feature":null,"is_raster":false,"short_classification":"Y","stats":{"latitude":{"max":-27.52419,"mean":-27.5862271764706,"variance":0.0013298651135294,"stdev":0.0364673156885642,"min":-27.649076,"median":-27.58185},"number":{"max":74,"mean":16.5882352941176,"variance":343.632352941176,"stdev":18.5373232409962,"min":2,"median":8},"postcode":{"max":4300,"mean":4117.64705882353,"variance":2432.86764705882,"stdev":49.3241081729698,"min":4076,"median":4110},"longitude":{"max":153.124222,"mean":153.028051941176,"variance":0.00353683371393374,"stdev":0.059471284784623,"min":152.905243,"median":153.033257}},"features":[{"properties":{"column_5":null,"latitude":-27.61374,"column_6":"-","number":74,"postcode":4110,"longitude":153.010345,"id":"a636zlqa4bbz"},"type":"Feature","geometry":{"type":"Point","coordinates":[153.010345,-27.61374]}},{"properties":{"column_5":null,"latitude":-27.629285,"column_6":"-","number":12,"postcode":4115,"longitude":153.033257,"id":"a636zlw5av5q"},"type":"Feature","geometry":{"type":"Point","coordinates":[153.033257,-27.629285]}},{"properties":{"column_5":null,"latitude":-27.630975,"column_6":"-","number":8,"postcode":4116,"longitude":153.056915,"id":"a636zlsu05wu"},"type":"Feature","geometry":{"type":"Point","coordinates":[153.056915,-27.630975]}},{"properties":{"column_5":null,"latitude":-27.567325,"column_6":"-","number":31,"postcode":4108,"longitude":153.022804,"id":"a636zljthxlk"},"type":"Feature","geometry":{"type":"Point","coordinates":[153.022804,-27.567325]}},{"properties":{"column_5":null,"latitude":-27.58838,"column_6":"-","number":32,"postcode":4113,"longitude":153.086723,"id":"a636zlu14aif"},"type":"Feature","geometry":{"type":"Point","coordinates":[153.086723,-27.58838]}},{"properties":{"column_5":null,"latitude":-27.60638,"column_6":"-","number":4,"postcode":4112,"longitude":153.092712,"id":"a636zlopy8wr"},"type":"Feature","geometry":{"type":"Point","coordinates":[153.092712,-27.60638]}},{"properties":{"column_5":null,"latitude":-27.58185,"column_6":"-","number":28,"postcode":4109,"longitude":153.063141,"id":"a636zlq4kjf0"},"type":"Feature","geometry":{"type":"Point","coordinates":[153.063141,-27.58185]}},{"properties":{"column_5":null,"latitude":-27.54186,"column_6":"-","number":19,"postcode":4122,"longitude":153.089745,"id":"a636zlfqohba"},"type":"Feature","geometry":{"type":"Point","coordinates":[153.089745,-27.54186]}},{"properties":{"column_5":null,"latitude":-27.57798,"column_6":"-","number":2,"postcode":4123,"longitude":153.124222,"id":"a636zltxwr5x"},"type":"Feature","geometry":{"type":"Point","coordinates":[153.124222,-27.57798]}},{"properties":{"column_5":null,"latitude":-27.548755,"column_6":"-","number":4,"postcode":4107,"longitude":153.033821,"id":"a636zlny14tq"},"type":"Feature","geometry":{"type":"Point","coordinates":[153.033821,-27.548755]}},{"properties":{"column_5":null,"latitude":-27.602325,"column_6":"-","number":16,"postcode":4077,"longitude":152.968132,"id":"a636zlusels3"},"type":"Feature","geometry":{"type":"Point","coordinates":[152.968132,-27.602325]}},{"properties":{"column_5":null,"latitude":-27.649076,"column_6":"-","number":6,"postcode":4300,"longitude":152.905243,"id":"a636zlu083qg"},"type":"Feature","geometry":{"type":"Point","coordinates":[152.905243,-27.649076]}},{"properties":{"column_5":null,"latitude":-27.581486,"column_6":"-","number":4,"postcode":4076,"longitude":152.930588,"id":"a636zlmqjl33"},"type":"Feature","geometry":{"type":"Point","coordinates":[152.930588,-27.581486]}},{"properties":{"column_5":null,"latitude":-27.533615,"column_6":"-","number":2,"postcode":4105,"longitude":153.014725,"id":"a636zlmgpdx6"},"type":"Feature","geometry":{"type":"Point","coordinates":[153.014725,-27.533615]}},{"properties":{"column_5":null,"latitude":-27.52419,"column_6":"-","number":2,"postcode":4121,"longitude":153.058167,"id":"a636zlnv5kfb"},"type":"Feature","geometry":{"type":"Point","coordinates":[153.058167,-27.52419]}},{"properties":{"column_5":null,"latitude":-27.621315,"column_6":"-","number":7,"postcode":4078,"longitude":152.963539,"id":"a636zluns5qb"},"type":"Feature","geometry":{"type":"Point","coordinates":[152.963539,-27.621315]}},{"properties":{"column_5":null,"latitude":-27.567325,"column_6":"-","number":31,"postcode":4108,"longitude":153.022804,"id":"a636zlmv9d1k"},"type":"Feature","geometry":{"type":"Point","coordinates":[153.022804,-27.567325]}}],"is_temporal":false,"author":{"url":"","metadata":null,"contact_name":null,"contact_address":null,"source":null,"contact_phone":null},"source":"","pagination":{"sort":null,"start":0,"total":17,"limit":1000000},"state":"complete","tags":"","published":"2014-08-13T10:08:41-04:00","id":178373}