{"type":"FeatureCollection","data_type":"Data Feed","url_type":"csv","permissions":[{"permissions":{"download":true,"view":true},"group_id":"everyone"}],"classification":null,"title":"pub?key=0ApKRukr89xTYdDZINksyTl9fYVlBZ0pUd1J6ZGo1cWc&amp;single=true&amp;gid=0&amp;output=csv","count":264,"stream_id":297121,"contributor":{"url":"http://geocommons.com/users/48593","name":"screwfix"},"data_attributes":null,"calculation_params":null,"icon_link":null,"link":"http://geocommons.com/overlays/297121.json","extent":[50.1641,-5.25212,57.4847,1.72288],"geometry_types":["point"],"unique_name":null,"name":"pub?key=0ApKRukr89xTYdDZINksyTl9fYVlBZ0pUd1J6ZGo1cWc&single=true&gid=0&output=csv","feature_count":264,"description":"","next_feature":null,"is_raster":false,"short_classification":"Y","stats":{"east":{"max":653095,"mean":440753.34469697,"variance":9358410176.02901,"stdev":96738.8762392298,"median":446417,"min":168144},"north":{"max":846005,"mean":287848.151515151,"variance":26196913024.7907,"stdev":161854.60458322,"median":224603,"min":34004},"lat":{"max":1.722881,"mean":-1.42250564772727,"variance":2.02171378616069,"stdev":1.42186982039872,"median":-1.310382,"min":-5.252122},"long":{"max":57.484698,"mean":52.4784385189394,"variance":2.12274681804954,"stdev":1.45696493370621,"median":51.918338,"min":50.164142}},"features":[{"properties":{"column_4":null,"east":394594,"postcode":"AB11 8DG","store":"Aberdeen","id":"aa6g1i90h8wg","sales average":"£34,730.42","lat":-2.090916,"north":804276,"long":57.129372},"type":"Feature","geometry":{"type":"Point","coordinates":[57.129372,-2.090916]}},{"properties":{"column_4":null,"east":387168,"postcode":"AB21 8GT","store":"Aberdeen Bridge of Don","id":"aa6g1idrgy2k","sales average":null,"lat":-2.214219,"north":816586,"long":57.239806},"type":"Feature","geometry":{"type":"Point","coordinates":[57.239806,-2.214219]}},{"properties":{"column_4":null,"east":261103,"postcode":"SY23 3JQ","store":"Aberystwyth","id":"aa6g1i3121e7","sales average":"£11,783.28","lat":-4.043073,"north":280249,"long":52.402582},"type":"Feature","geometry":{"type":"Point","coordinates":[52.402582,-4.043073]}},{"properties":{"column_4":null,"east":375671,"postcode":"BB5 1EF","store":"Accrington","id":"aa6g1i5waqb6","sales average":"£21,259.08","lat":-2.370452,"north":428887,"long":53.755771},"type":"Feature","geometry":{"type":"Point","coordinates":[53.755771,-2.370452]}},{"properties":{"column_4":null,"east":519207,"postcode":"W3 0SL","store":"Acton","id":"aa6g1ifj4mf8","sales average":"£22,717.65","lat":-0.283068,"north":182068,"long":51.524954},"type":"Feature","geometry":{"type":"Point","coordinates":[51.524954,-0.283068]}},{"properties":{"column_4":null,"east":337139,"postcode":"L9 5AY","store":"Aintree","id":"aa6g1i2ksl47","sales average":"£46,632.70","lat":-2.948662,"north":398584,"long":53.480216},"type":"Feature","geometry":{"type":"Point","coordinates":[53.480216,-2.948662]}},{"properties":{"column_4":null,"east":434335,"postcode":"SP10 3SJ","store":"Andover","id":"aa6g1ielbm3k","sales average":"£14,919.51","lat":-1.509831,"north":145896,"long":51.211242},"type":"Feature","geometry":{"type":"Point","coordinates":[51.211242,-1.509831]}},{"properties":{"column_4":null,"east":392174,"postcode":"OL7 0QN","store":"Ashton under Lyne","id":"aa6g1i9hl64s","sales average":"£42,510.40","lat":-2.119382,"north":398419,"long":53.482431},"type":"Feature","geometry":{"type":"Point","coordinates":[53.482431,-2.119382]}},{"properties":{"column_4":null,"east":408180,"postcode":"B6 5RS","store":"Aston","id":"aa6g1ick1rh3","sales average":"£33,781.88","lat":-1.88092,"north":288996,"long":52.498808},"type":"Feature","geometry":{"type":"Point","coordinates":[52.498808,-1.88092]}},{"properties":{"column_4":null,"east":352353,"postcode":"BS11 9QD","store":"Avonmouth","id":"aa6g1i4gmn8f","sales average":"£33,691.04","lat":-2.687772,"north":177976,"long":51.498712},"type":"Feature","geometry":{"type":"Point","coordinates":[51.498712,-2.687772]}},{"properties":{"column_4":null,"east":480644,"postcode":"HP19 8UQ","store":"Aylesbury","id":"aa6g1id058ll","sales average":"£37,275.29","lat":-0.831408,"north":214047,"long":51.81924},"type":"Feature","geometry":{"type":"Point","coordinates":[51.81924,-0.831408]}},{"properties":{"column_4":null,"east":446417,"postcode":"OX16 3JU","store":"Banbury","id":"aa6g1ia9olkg","sales average":"£32,015.81","lat":-1.324154,"north":242020,"long":52.074606},"type":"Feature","geometry":{"type":"Point","coordinates":[52.074606,-1.324154]}},{"properties":{"column_4":null,"east":259111,"postcode":"LL57 4YH","store":"Bangor","id":"aa6g1iaupud5","sales average":"£24,175.55","lat":-4.111519,"north":371071,"long":53.217968},"type":"Feature","geometry":{"type":"Point","coordinates":[53.217968,-4.111519]}},{"properties":{"column_4":null,"east":547703,"postcode":"IG11 0TP","store":"Barking","id":"aa6g1ie54mek","sales average":"£36,192.40","lat":0.127984,"north":183430,"long":51.530465},"type":"Feature","geometry":{"type":"Point","coordinates":[51.530465,0.127984]}},{"properties":{"column_4":null,"east":437713,"postcode":"S70 3NS","store":"Barnsley","id":"aa6g1i5bve1s","sales average":"£18,067.65","lat":-1.43239,"north":404959,"long":53.539929},"type":"Feature","geometry":{"type":"Point","coordinates":[53.539929,-1.43239]}},{"properties":{"column_4":null,"east":254360,"postcode":"EX31 1LZ","store":"Barnstaple","id":"aa6g1i2ajj2h","sales average":"£34,438.23","lat":-4.080707,"north":133714,"long":51.084214},"type":"Feature","geometry":{"type":"Point","coordinates":[51.084214,-4.080707]}},{"properties":{"column_4":null,"east":318923,"postcode":"LA14 2UA","store":"Barrow","id":"aa6g1i3tyd62","sales average":"£14,421.30","lat":-3.241969,"north":470225,"long":54.121479},"type":"Feature","geometry":{"type":"Point","coordinates":[54.121479,-3.241969]}},{"properties":{"column_4":null,"east":314210,"postcode":"CF63 2BE","store":"Barry","id":"aa6g1ii5cj11","sales average":"£11,871.81","lat":-3.235008,"north":169171,"long":51.415051},"type":"Feature","geometry":{"type":"Point","coordinates":[51.415051,-3.235008]}},{"properties":{"column_4":null,"east":569712,"postcode":"SS14 3GL","store":"Basildon","id":"aa6g1i51nn6j","sales average":"£50,394.82","lat":0.448147,"north":189986,"long":51.583181},"type":"Feature","geometry":{"type":"Point","coordinates":[51.583181,0.448147]}},{"properties":{"column_4":null,"east":462559,"postcode":"RG21 8BJ","store":"Basingstoke","id":"aa6g1i8b3fgv","sales average":"£39,516.25","lat":-1.104772,"north":151904,"long":51.26287},"type":"Feature","geometry":{"type":"Point","coordinates":[51.26287,-1.104772]}},{"properties":{"column_4":null,"east":535881,"postcode":"BR3 4AA","store":"Beckenham","id":"aa6g1i751ras","sales average":"£59,593.47","lat":-0.04818,"north":168215,"long":51.396705},"type":"Feature","geometry":{"type":"Point","coordinates":[51.396705,-0.04818]}},{"properties":{"column_4":null,"east":505420,"postcode":"MK42 0NY","store":"Bedford","id":"aa6g1iayjpv0","sales average":"£40,347.20","lat":-0.461469,"north":248639,"long":52.126017},"type":"Feature","geometry":{"type":"Point","coordinates":[52.126017,-0.461469]}},{"properties":{"column_4":null,"east":272116,"postcode":"ML4 3LR","store":"Bellshill","id":"aa6g1ii1iye1","sales average":"£41,905.51","lat":-4.042963,"north":661062,"long":55.825816},"type":"Feature","geometry":{"type":"Point","coordinates":[55.825816,-4.042963]}},{"properties":{"column_4":null,"east":535117,"postcode":"SE16 3LL","store":"Bermondsey","id":"aa6g1iiktqzc","sales average":"£27,093.58","lat":-0.055234,"north":178495,"long":51.489267},"type":"Feature","geometry":{"type":"Point","coordinates":[51.489267,-0.055234]}},{"properties":{"column_4":null,"east":459840,"postcode":"OX26 4LD","store":"Bicester","id":"aa6g1i72kr42","sales average":"£17,162.75","lat":-1.131617,"north":223136,"long":51.90356},"type":"Feature","geometry":{"type":"Point","coordinates":[51.90356,-1.131617]}},{"properties":{"column_4":null,"east":332639,"postcode":"CH41 9HS","store":"Birkenhead","id":"aa6g1i2te31e","sales average":"£35,666.63","lat":-3.01417,"north":387904,"long":53.383676},"type":"Feature","geometry":{"type":"Point","coordinates":[53.383676,-3.01417]}},{"properties":{"column_4":null,"east":368576,"postcode":"BB2 3AG","store":"Blackburn","id":"aa6g1i6pj0gw","sales average":"£9,628.24","lat":-2.477873,"north":427098,"long":53.739311},"type":"Feature","geometry":{"type":"Point","coordinates":[53.739311,-2.477873]}},{"properties":{"column_4":null,"east":332681,"postcode":"FY4 4NG","store":"Blackpool","id":"aa6g1i65qal6","sales average":"£32,088.52","lat":-3.023472,"north":433858,"long":53.796663},"type":"Feature","geometry":{"type":"Point","coordinates":[53.796663,-3.023472]}},{"properties":{"column_4":null,"east":374083,"postcode":"BL2 1HB","store":"Bolton","id":"aa6g1i79y21n","sales average":"£26,202.48","lat":-2.393024,"north":410876,"long":53.593819},"type":"Feature","geometry":{"type":"Point","coordinates":[53.593819,-2.393024]}},{"properties":{"column_4":null,"east":334068,"postcode":"L20 6PF","store":"Bootle","id":"aa6g1icgb5yu","sales average":null,"lat":-2.994614,"north":397084,"long":53.466359},"type":"Feature","geometry":{"type":"Point","coordinates":[53.466359,-2.994614]}},{"properties":{"column_4":null,"east":520849,"postcode":"WD6 2BT","store":"Borehamwood","id":"aa6g1iijaj82","sales average":"£46,126.49","lat":-0.254786,"north":195533,"long":51.645615},"type":"Feature","geometry":{"type":"Point","coordinates":[51.645615,-0.254786]}},{"properties":{"column_4":null,"east":537197,"postcode":"E3 2JE","store":"Bow","id":"aa6g1i9libvu","sales average":"£47,161.59","lat":-0.023283,"north":183669,"long":51.535261},"type":"Feature","geometry":{"type":"Point","coordinates":[51.535261,-0.023283]}},{"properties":{"column_4":null,"east":485678,"postcode":"RG12 1RW","store":"Bracknell","id":"aa6g1idwgfgc","sales average":"£23,891.11","lat":-0.769316,"north":169314,"long":51.416379},"type":"Feature","geometry":{"type":"Point","coordinates":[51.416379,-0.769316]}},{"properties":{"column_4":null,"east":417768,"postcode":"BD4 7RW","store":"Bradford","id":"aa6g1i64rlle","sales average":"£36,710.31","lat":-1.731827,"north":431616,"long":53.780573},"type":"Feature","geometry":{"type":"Point","coordinates":[53.780573,-1.731827]}},{"properties":{"column_4":null,"east":576897,"postcode":"CM77 8YL","store":"Braintree","id":"aa6g1iadvian","sales average":"£35,188.28","lat":0.568285,"north":222573,"long":51.873672},"type":"Feature","geometry":{"type":"Point","coordinates":[51.873672,0.568285]}},{"properties":{"column_4":null,"east":517884,"postcode":"TW8 9PL","store":"Brentford","id":"aa6g1i4mxy89","sales average":"£61,752.36","lat":-0.303374,"north":178340,"long":51.491726},"type":"Feature","geometry":{"type":"Point","coordinates":[51.491726,-0.303374]}},{"properties":{"column_4":null,"east":559583,"postcode":"CM15 9TB","store":"Brentwood","id":"aa6g1ibjf9i7","sales average":null,"lat":0.303985,"north":194173,"long":51.623751},"type":"Feature","geometry":{"type":"Point","coordinates":[51.623751,0.303985]}},{"properties":{"column_4":null,"east":291618,"postcode":"CF31 3TB","store":"Bridgend","id":"aa6g1igivs9c","sales average":"£25,165.70","lat":-3.56274,"north":178894,"long":51.49857},"type":"Feature","geometry":{"type":"Point","coordinates":[51.49857,-3.56274]}},{"properties":{"column_4":null,"east":330405,"postcode":"TA6 4BH","store":"Bridgewater","id":"aa6g1ia0s14x","sales average":"£11,449.77","lat":-2.996136,"north":138238,"long":51.139172},"type":"Feature","geometry":{"type":"Point","coordinates":[51.139172,-2.996136]}},{"properties":{"column_4":null,"east":392940,"postcode":"DY5 1TX","store":"Brierley Hill","id":"aa6g1iatdna2","sales average":"£11,191.38","lat":-2.105376,"north":287376,"long":52.484257},"type":"Feature","geometry":{"type":"Point","coordinates":[52.484257,-2.105376]}},{"properties":{"column_4":null,"east":414545,"postcode":"HD6 4AS","store":"Brighouse","id":"aa6g1i5z6qby","sales average":null,"lat":-1.781107,"north":423701,"long":53.709533},"type":"Feature","geometry":{"type":"Point","coordinates":[53.709533,-1.781107]}},{"properties":{"column_4":null,"east":532286,"postcode":"BN2 0DF","store":"Brighton","id":"aa6g1i2wct5m","sales average":"£52,962.97","lat":-0.123267,"north":104226,"long":50.822473},"type":"Feature","geometry":{"type":"Point","coordinates":[50.822473,-0.123267]}},{"properties":{"column_4":null,"east":362430,"postcode":"BS4 5NL","store":"Brislington","id":"aa6g1i8nx9yu","sales average":"£38,789.32","lat":-2.541797,"north":170332,"long":51.430737},"type":"Feature","geometry":{"type":"Point","coordinates":[51.430737,-2.541797]}},{"properties":{"column_4":null,"east":358437,"postcode":"BS3 4JQ","store":"Bristol","id":"aa6g1ibe6zix","sales average":"£52,346.88","lat":-2.599339,"north":171244,"long":51.438666},"type":"Feature","geometry":{"type":"Point","coordinates":[51.438666,-2.599339]}},{"properties":{"column_4":null,"east":383697,"postcode":"BB11 1TQ","store":"Burnley","id":"aa6g1iftmt69","sales average":"£14,031.03","lat":-2.248907,"north":432282,"long":53.7866},"type":"Feature","geometry":{"type":"Point","coordinates":[53.7866,-2.248907]}},{"properties":{"column_4":null,"east":425650,"postcode":"DE13 0BB","store":"Burton On Trent","id":"aa6g1i6fapy1","sales average":"£32,846.74","lat":-1.620748,"north":325601,"long":52.82733},"type":"Feature","geometry":{"type":"Point","coordinates":[52.82733,-1.620748]}},{"properties":{"column_4":null,"east":371102,"postcode":"BL1 8AF","store":"Bury","id":"aa6g1igorqy6","sales average":"£19,779.43","lat":-2.438067,"north":410930,"long":53.594142},"type":"Feature","geometry":{"type":"Point","coordinates":[53.594142,-2.438067]}},{"properties":{"column_4":null,"east":587652,"postcode":"IP32 7BX","store":"Bury St Edmonds","id":"aa6g1i59zs6b","sales average":"£32,930.96","lat":0.74699,"north":263855,"long":52.240887},"type":"Feature","geometry":{"type":"Point","coordinates":[52.240887,0.74699]}},{"properties":{"column_4":null,"east":505847,"postcode":"KT14 7AX","store":"Byfleet","id":"aa6g1ifze84p","sales average":"£17,897.80","lat":-0.481628,"north":161774,"long":51.345203},"type":"Feature","geometry":{"type":"Point","coordinates":[51.345203,-0.481628]}},{"properties":{"column_4":null,"east":485794,"postcode":"GU15 3DL","store":"Camberley","id":"aa6g1i91wnuc","sales average":"£25,562.94","lat":-0.769945,"north":159792,"long":51.330762},"type":"Feature","geometry":{"type":"Point","coordinates":[51.330762,-0.769945]}},{"properties":{"column_4":null,"east":546238,"postcode":"CB1 7EB","store":"Cambridge","id":"aa6g1igtuw6q","sales average":"£37,657.47","lat":0.138001,"north":257016,"long":52.191997},"type":"Feature","geometry":{"type":"Point","coordinates":[52.191997,0.138001]}},{"properties":{"column_4":null,"east":397826,"postcode":"WS11 0LR","store":"Cannock","id":"aa6g1ia9zp6c","sales average":"£45,769.35","lat":-2.033573,"north":308481,"long":52.674029},"type":"Feature","geometry":{"type":"Point","coordinates":[52.674029,-2.033573]}},{"properties":{"column_4":null,"east":614046,"postcode":"CT1 3RB","store":"Canterbury","id":"aa6g1i2r54ui","sales average":"£32,538.08","lat":1.067411,"north":157290,"long":51.274536},"type":"Feature","geometry":{"type":"Point","coordinates":[51.274536,1.067411]}},{"properties":{"column_4":null,"east":316907,"postcode":"CF11 8TU","store":"Cardiff","id":"aa6g1icba43x","sales average":"£31,587.31","lat":-3.197399,"north":174123,"long":51.45997},"type":"Feature","geometry":{"type":"Point","coordinates":[51.45997,-3.197399]}},{"properties":{"column_4":null,"east":320466,"postcode":"CF23 9AN","store":"Cardiff Colchester Avenue","id":"aa6g1idruvb9","sales average":"£15,555.68","lat":-3.147102,"north":178202,"long":51.49715},"type":"Feature","geometry":{"type":"Point","coordinates":[51.49715,-3.147102]}},{"properties":{"column_4":null,"east":339356,"postcode":"CA3 0ET","store":"Carlisle","id":"aa6g1ih1zdtb","sales average":"£21,058.74","lat":-2.947784,"north":559423,"long":54.925801},"type":"Feature","geometry":{"type":"Point","coordinates":[54.925801,-2.947784]}},{"properties":{"column_4":null,"east":443120,"postcode":"WF10 4UA","store":"Castleford","id":"aa6g1i2xf0qa","sales average":"£17,381.09","lat":-1.348144,"north":424238,"long":53.712787},"type":"Feature","geometry":{"type":"Point","coordinates":[53.712787,-1.348144]}},{"properties":{"column_4":null,"east":540605,"postcode":"SE7 7AX","store":"Charlton","id":"aa6g1i32v3xj","sales average":"£40,169.18","lat":0.023746,"north":178462,"long":51.487634},"type":"Feature","geometry":{"type":"Point","coordinates":[51.487634,0.023746]}},{"properties":{"column_4":null,"east":572936,"postcode":"CM2 6UW","store":"Chelmsford","id":"aa6g1icwbrgk","sales average":"£47,943.32","lat":0.503417,"north":207752,"long":51.741785},"type":"Feature","geometry":{"type":"Point","coordinates":[51.741785,0.503417]}},{"properties":{"column_4":null,"east":393426,"postcode":"GL51 9NQ","store":"Cheltenham","id":"aa6g1iccopbh","sales average":"£41,754.87","lat":-2.096976,"north":224428,"long":51.918338},"type":"Feature","geometry":{"type":"Point","coordinates":[51.918338,-2.096976]}},{"properties":{"column_4":null,"east":519235,"postcode":"KT9 1DG","store":"Chessington","id":"aa6g1iboqjqu","sales average":"£23,521.19","lat":-0.288512,"north":164696,"long":51.368817},"type":"Feature","geometry":{"type":"Point","coordinates":[51.368817,-0.288512]}},{"properties":{"column_4":null,"east":338882,"postcode":"CH1 4LT","store":"Chester","id":"aa6g1ickkivk","sales average":"£44,219.47","lat":-2.916208,"north":366550,"long":53.192516},"type":"Feature","geometry":{"type":"Point","coordinates":[53.192516,-2.916208]}},{"properties":{"column_4":null,"east":438271,"postcode":"S40 2EU","store":"Chesterfield","id":"aa6g1i7jo621","sales average":"£26,011.03","lat":-1.428292,"north":369178,"long":53.218285},"type":"Feature","geometry":{"type":"Point","coordinates":[53.218285,-1.428292]}},{"properties":{"column_4":null,"east":487725,"postcode":"PO19 8NS","store":"Chichester","id":"aa6g1iefycsh","sales average":"£57,733.87","lat":-0.755693,"north":104284,"long":50.831453},"type":"Feature","geometry":{"type":"Point","coordinates":[50.831453,-0.755693]}},{"properties":{"column_4":null,"east":390529,"postcode":"SN14 6LH","store":"Chippenham","id":"aa6g1ihuncbp","sales average":"£19,100.43","lat":-2.137711,"north":174194,"long":51.466638},"type":"Feature","geometry":{"type":"Point","coordinates":[51.466638,-2.137711]}},{"properties":{"column_4":null,"east":358544,"postcode":"PR7 1QD","store":"Chorley","id":"aa6g1ifzh8h8","sales average":null,"lat":-2.628824,"north":418666,"long":53.662825},"type":"Feature","geometry":{"type":"Point","coordinates":[53.662825,-2.628824]}},{"properties":{"column_4":null,"east":418251,"postcode":"BH23 3RU","store":"Christchurch","id":"aa6g1i3d2ui2","sales average":"£23,094.96","lat":-1.742708,"north":93305,"long":50.739072},"type":"Feature","geometry":{"type":"Point","coordinates":[50.739072,-1.742708]}},{"properties":{"column_4":null,"east":402897,"postcode":"GL7 1LT","store":"Cirencester","id":"aa6g1ihwo0sp","sales average":"£14,824.70","lat":-1.959459,"north":201129,"long":51.70889},"type":"Feature","geometry":{"type":"Point","coordinates":[51.70889,-1.959459]}},{"properties":{"column_4":null,"east":601458,"postcode":"CO2 8WA","store":"Colchester","id":"aa6g1ia0cr3v","sales average":"£45,824.49","lat":0.925169,"north":223555,"long":51.874167},"type":"Feature","geometry":{"type":"Point","coordinates":[51.874167,0.925169]}},{"properties":{"column_4":null,"east":520310,"postcode":"NW9 0EQ","store":"Colindale","id":"aa6g1ieui24f","sales average":"£32,922.49","lat":-0.264517,"north":189848,"long":51.594641},"type":"Feature","geometry":{"type":"Point","coordinates":[51.594641,-0.264517]}},{"properties":{"column_4":null,"east":528649,"postcode":"RH10 9RX","store":"Crawley","id":"aa6g1i81nv6h","sales average":"£59,983.84","lat":-0.162383,"north":139543,"long":51.14071},"type":"Feature","geometry":{"type":"Point","coordinates":[51.14071,-0.162383]}},{"properties":{"column_4":null,"east":371227,"postcode":"CW1 6YU","store":"Crewe","id":"aa6g1i38fb40","sales average":"£17,783.51","lat":-2.431119,"north":355485,"long":53.095796},"type":"Feature","geometry":{"type":"Point","coordinates":[53.095796,-2.431119]}},{"properties":{"column_4":null,"east":530782,"postcode":"CR0 3JP","store":"Croydon","id":"aa6g1ihtltx9","sales average":"£66,472.45","lat":-0.122013,"north":166631,"long":51.383664},"type":"Feature","geometry":{"type":"Point","coordinates":[51.383664,-0.122013]}},{"properties":{"column_4":null,"east":529883,"postcode":"CR0 4TQ","store":"Croydon Evo","id":"aa6g1ifx2h40","sales average":"£9,827.55","lat":-0.134834,"north":166881,"long":51.38612},"type":"Feature","geometry":{"type":"Point","coordinates":[51.38612,-0.134834]}},{"properties":{"column_4":null,"east":329785,"postcode":"NP44 3AW","store":"Cwmbran","id":"aa6g1ii67qim","sales average":"£16,071.03","lat":-3.015921,"north":193391,"long":51.634935},"type":"Feature","geometry":{"type":"Point","coordinates":[51.634935,-3.015921]}},{"properties":{"column_4":null,"east":549933,"postcode":"RM10 8TX","store":"Dagenham","id":"aa6g1ifxk8fh","sales average":"£19,659.63","lat":0.161024,"north":185566,"long":51.549072},"type":"Feature","geometry":{"type":"Point","coordinates":[51.549072,0.161024]}},{"properties":{"column_4":null,"east":551957,"postcode":"DA1 4AL","store":"Dartford","id":"aa6g1igfgk5u","sales average":"£43,693.29","lat":0.185556,"north":174810,"long":51.451887},"type":"Feature","geometry":{"type":"Point","coordinates":[51.451887,0.185556]}},{"properties":{"column_4":null,"east":458195,"postcode":"NN11 4HB","store":"Daventry","id":"aa6g1i50g9er","sales average":"£13,465.62","lat":-1.149004,"north":261439,"long":52.248066},"type":"Feature","geometry":{"type":"Point","coordinates":[52.248066,-1.149004]}},{"properties":{"column_4":null,"east":436954,"postcode":"DE24 8GW","store":"Derby","id":"aa6g1idx7w7h","sales average":"£55,404.11","lat":-1.45209,"north":333555,"long":52.898174},"type":"Feature","geometry":{"type":"Point","coordinates":[52.898174,-1.45209]}},{"properties":{"column_4":null,"east":460442,"postcode":"DN2 4BH","store":"Doncaster","id":"aa6g1i5t2amc","sales average":"£37,743.86","lat":-1.089232,"north":406151,"long":53.548523},"type":"Feature","geometry":{"type":"Point","coordinates":[53.548523,-1.089232]}},{"properties":{"column_4":null,"east":631071,"postcode":"CT16 3PT","store":"Dover","id":"aa6g1i6w39ik","sales average":"£17,362.10","lat":1.302878,"north":144550,"long":51.153526},"type":"Feature","geometry":{"type":"Point","coordinates":[51.153526,1.302878]}},{"properties":{"column_4":null,"east":395281,"postcode":"DY1 4SJ","store":"Dudley","id":"aa6g1ifw2l1h","sales average":"£37,458.26","lat":-2.070963,"north":291474,"long":52.521124},"type":"Feature","geometry":{"type":"Point","coordinates":[52.521124,-2.070963]}},{"properties":{"column_4":null,"east":337747,"postcode":"DD2 3QQ","store":"Dundee","id":"aa6g1ibooilo","sales average":"£22,389.24","lat":-3.012402,"north":732881,"long":56.483908},"type":"Feature","geometry":{"type":"Point","coordinates":[56.483908,-3.012402]}},{"properties":{"column_4":null,"east":313334,"postcode":"KY11 7EG","store":"Dunfermline","id":"aa6g1if9dwjx","sales average":"£17,103.64","lat":-3.394109,"north":688523,"long":56.08164},"type":"Feature","geometry":{"type":"Point","coordinates":[56.08164,-3.394109]}},{"properties":{"column_4":null,"east":264550,"postcode":"G75 0GZ","store":"East Kilbride","id":"aa6g1ibfnvml","sales average":"£11,773.63","lat":-4.159451,"north":652631,"long":55.748053},"type":"Feature","geometry":{"type":"Point","coordinates":[55.748053,-4.159451]}},{"properties":{"column_4":null,"east":562224,"postcode":"BN23 6QA","store":"Eastbourne","id":"aa6g1i5a93ed","sales average":"£44,067.97","lat":0.300218,"north":101466,"long":50.790068},"type":"Feature","geometry":{"type":"Point","coordinates":[50.790068,0.300218]}},{"properties":{"column_4":null,"east":329431,"postcode":"EH15 1TB","store":"Edinburgh Seafield","id":"aa6g1ifbtvmo","sales average":"£39,586.25","lat":-3.13202,"north":675204,"long":55.964647},"type":"Feature","geometry":{"type":"Point","coordinates":[55.964647,-3.13202]}},{"properties":{"column_4":null,"east":319089,"postcode":"EH11 4BP","store":"Edinburgh Sighthill","id":"aa6g1i5ek7gs","sales average":"£49,045.35","lat":-3.296441,"north":671190,"long":55.926958},"type":"Feature","geometry":{"type":"Point","coordinates":[55.926958,-3.296441]}},{"properties":{"column_4":null,"east":535420,"postcode":"N18 3AF","store":"Edmonton","id":"aa6g1id0s0pn","sales average":"£48,150.00","lat":-0.045611,"north":192175,"long":51.612126},"type":"Feature","geometry":{"type":"Point","coordinates":[51.612126,-0.045611]}},{"properties":{"column_4":null,"east":339037,"postcode":"CH65 3AW","store":"Ellesmere Port","id":"aa6g1i9p81wh","sales average":"£14,555.21","lat":-2.915874,"north":376906,"long":53.28561},"type":"Feature","geometry":{"type":"Point","coordinates":[53.28561,-2.915874]}},{"properties":{"column_4":null,"east":536363,"postcode":"EN3 7UL","store":"Enfield","id":"aa6g1igwglhz","sales average":"£42,075.40","lat":-0.030503,"north":196026,"long":51.646503},"type":"Feature","geometry":{"type":"Point","coordinates":[51.646503,-0.030503]}},{"properties":{"column_4":null,"east":520231,"postcode":"KT19 9AN","store":"Epsom","id":"aa6g1i4xk3si","sales average":"£42,536.71","lat":-0.274839,"north":162841,"long":51.351938},"type":"Feature","geometry":{"type":"Point","coordinates":[51.351938,-0.274839]}},{"properties":{"column_4":null,"east":550578,"postcode":"DA8 1QS","store":"Erith","id":"aa6g1ibfx8it","sales average":"£13,732.90","lat":0.167135,"north":178122,"long":51.482014},"type":"Feature","geometry":{"type":"Point","coordinates":[51.482014,0.167135]}},{"properties":{"column_4":null,"east":403703,"postcode":"WR11 1XG","store":"Evesham","id":"aa6g1i76euex","sales average":"£13,671.54","lat":-1.947363,"north":242504,"long":52.080882},"type":"Feature","geometry":{"type":"Point","coordinates":[52.080882,-1.947363]}},{"properties":{"column_4":null,"east":292132,"postcode":"EX2 8QG","store":"Exeter","id":"aa6g1ig5f7q7","sales average":"£40,037.59","lat":-3.528936,"north":90647,"long":50.705432},"type":"Feature","geometry":{"type":"Point","coordinates":[50.705432,-3.528936]}},{"properties":{"column_4":null,"east":289577,"postcode":"FK2 9EG","store":"Falkirk","id":"aa6g1i41uwn6","sales average":"£37,947.05","lat":-3.772574,"north":681061,"long":56.009729},"type":"Feature","geometry":{"type":"Point","coordinates":[56.009729,-3.772574]}},{"properties":{"column_4":null,"east":457658,"postcode":"PO14 1TY","store":"Fareham","id":"aa6g1i7j6k5w","sales average":"£28,381.40","lat":-1.18257,"north":104314,"long":50.835493},"type":"Feature","geometry":{"type":"Point","coordinates":[50.835493,-1.18257]}},{"properties":{"column_4":null,"east":486232,"postcode":"GU14 7QU","store":"Farnborough","id":"aa6g1i7pgtqm","sales average":"£50,678.35","lat":-0.764817,"north":154999,"long":51.287609},"type":"Feature","geometry":{"type":"Point","coordinates":[51.287609,-0.764817]}},{"properties":{"column_4":null,"east":621725,"postcode":"CT19 5DS","store":"Folkestone","id":"aa6g1iacst5o","sales average":"£19,295.42","lat":1.165219,"north":137651,"long":51.095282},"type":"Feature","geometry":{"type":"Point","coordinates":[51.095282,1.165219]}},{"properties":{"column_4":null,"east":425262,"postcode":"NE11 0JY","store":"Gateshead","id":"aa6g1id1euc6","sales average":"£44,392.54","lat":-1.607361,"north":558825,"long":54.923482},"type":"Feature","geometry":{"type":"Point","coordinates":[54.923482,-1.607361]}},{"properties":{"column_4":null,"east":579582,"postcode":"ME8 0PY","store":"Gillingham","id":"aa6g1i3lj1rz","sales average":"£46,153.02","lat":0.578289,"north":166034,"long":51.364977},"type":"Feature","geometry":{"type":"Point","coordinates":[51.364977,0.578289]}},{"properties":{"column_4":null,"east":257698,"postcode":"G5 8SG","store":"Glasgow","id":"aa6g1i42or1p","sales average":"£58,217.05","lat":-4.274743,"north":664533,"long":55.852942},"type":"Feature","geometry":{"type":"Point","coordinates":[55.852942,-4.274743]}},{"properties":{"column_4":null,"east":259013,"postcode":"G22 5HT","store":"Glasgow Possill Park","id":"aa6g1i4noe8n","sales average":null,"lat":-4.255261,"north":667426,"long":55.879301},"type":"Feature","geometry":{"type":"Point","coordinates":[55.879301,-4.255261]}},{"properties":{"column_4":null,"east":348963,"postcode":"BA6 9NR","store":"Glastonbury","id":"aa6g1i6j9y3m","sales average":"£20,293.26","lat":-2.730927,"north":138441,"long":51.142953},"type":"Feature","geometry":{"type":"Point","coordinates":[51.142953,-2.730927]}},{"properties":{"column_4":null,"east":329016,"postcode":"KY7 4NS","store":"Glenrothes","id":"aa6g1id0x1u1","sales average":"£18,443.75","lat":-3.145188,"north":699745,"long":56.185032},"type":"Feature","geometry":{"type":"Point","coordinates":[56.185032,-3.145188]}},{"properties":{"column_4":null,"east":384780,"postcode":"GL4 3SJ","store":"Gloucester","id":"aa6g1ie6v3sn","sales average":"£51,489.34","lat":-2.222387,"north":217714,"long":51.857802},"type":"Feature","geometry":{"type":"Point","coordinates":[51.857802,-2.222387]}},{"properties":{"column_4":null,"east":472888,"postcode":"DN14 8JN","store":"Goole","id":"aa6g1i42qyrh","sales average":"£13,338.45","lat":-0.897295,"north":423817,"long":53.705703},"type":"Feature","geometry":{"type":"Point","coordinates":[53.705703,-0.897295]}},{"properties":{"column_4":null,"east":490808,"postcode":"NG31 7SA","store":"Grantham","id":"aa6g1i6dcau0","sales average":"£13,475.89","lat":-0.651389,"north":334647,"long":52.901601},"type":"Feature","geometry":{"type":"Point","coordinates":[52.901601,-0.651389]}},{"properties":{"column_4":null,"east":651619,"postcode":"NR31 0LX","store":"Great Yarmouth","id":"aa6g1igqb5xh","sales average":"£26,235.16","lat":1.713637,"north":305930,"long":52.592867},"type":"Feature","geometry":{"type":"Point","coordinates":[52.592867,1.713637]}},{"properties":{"column_4":null,"east":557905,"postcode":"DA9 9AY","store":"Greenhithe","id":"aa6g1ifs6nx1","sales average":"£12,949.81","lat":0.271234,"north":175138,"long":51.453208},"type":"Feature","geometry":{"type":"Point","coordinates":[51.453208,0.271234]}},{"properties":{"column_4":null,"east":228475,"postcode":"PA15 1HB","store":"Greenock","id":"aa6g1i2b3qae","sales average":"£13,793.25","lat":-4.748072,"north":675666,"long":55.943346},"type":"Feature","geometry":{"type":"Point","coordinates":[55.943346,-4.748072]}},{"properties":{"column_4":null,"east":525380,"postcode":"DN31 2UT","store":"Grimsby","id":"aa6g1i45w8r9","sales average":"£21,872.26","lat":-0.107694,"north":410876,"long":53.579497},"type":"Feature","geometry":{"type":"Point","coordinates":[53.579497,-0.107694]}},{"properties":{"column_4":null,"east":499033,"postcode":"GU1 1BD","store":"Guildford","id":"aa6g1i342ae7","sales average":"£52,484.60","lat":-0.582492,"north":150722,"long":51.247083},"type":"Feature","geometry":{"type":"Point","coordinates":[51.247083,-0.582492]}},{"properties":{"column_4":null,"east":408749,"postcode":"HX1 5DW","store":"Halifax","id":"aa6g1if78mc0","sales average":"£27,528.87","lat":-1.868869,"north":425353,"long":53.724509},"type":"Feature","geometry":{"type":"Point","coordinates":[53.724509,-1.868869]}},{"properties":{"column_4":null,"east":512465,"postcode":"TW13 6DB","store":"Hanworth","id":"aa6g1i31pr4l","sales average":"£41,394.38","lat":-0.383275,"north":172426,"long":51.439674},"type":"Feature","geometry":{"type":"Point","coordinates":[51.439674,-0.383275]}},{"properties":{"column_4":null,"east":546465,"postcode":"CM20 2HW","store":"Harlow","id":"aa6g1i33h4yx","sales average":"£58,976.45","lat":0.12209,"north":211954,"long":51.787078},"type":"Feature","geometry":{"type":"Point","coordinates":[51.787078,0.12209]}},{"properties":{"column_4":null,"east":429585,"postcode":"HG1 2AU","store":"Harrogate","id":"aa6g1i5do3ei","sales average":"£21,630.46","lat":-1.550107,"north":456521,"long":54.003873},"type":"Feature","geometry":{"type":"Point","coordinates":[54.003873,-1.550107]}},{"properties":{"column_4":null,"east":515940,"postcode":"HA3 8NT","store":"Harrow","id":"aa6g1igq9dun","sales average":"£20,289.32","lat":-0.327785,"north":189213,"long":51.58985},"type":"Feature","geometry":{"type":"Point","coordinates":[51.58985,-0.327785]}},{"properties":{"column_4":null,"east":511272,"postcode":"UB4 0TU","store":"Hayes","id":"aa6g1ifkf4q2","sales average":"#N/A","lat":-0.397812,"north":180752,"long":51.514743},"type":"Feature","geometry":{"type":"Point","coordinates":[51.514743,-0.397812]}},{"properties":{"column_4":null,"east":510750,"postcode":"TW4 6NF","store":"Heathrow","id":"aa6g1iieo94c","sales average":"£20,630.51","lat":-0.406809,"north":176041,"long":51.472503},"type":"Feature","geometry":{"type":"Point","coordinates":[51.472503,-0.406809]}},{"properties":{"column_4":null,"east":448810,"postcode":"SO30 2JR","store":"Hedge End","id":"aa6g1i4dnmet","sales average":"£41,574.04","lat":-1.306904,"north":114092,"long":50.924227},"type":"Feature","geometry":{"type":"Point","coordinates":[50.924227,-1.306904]}},{"properties":{"column_4":null,"east":507610,"postcode":"HP2 7EB","store":"Hemel Hempstead","id":"aa6g1ieu3frr","sales average":"£50,549.26","lat":-0.44198,"north":208698,"long":51.766629},"type":"Feature","geometry":{"type":"Point","coordinates":[51.766629,-0.44198]}},{"properties":{"column_4":null,"east":485176,"postcode":"HP12 3QL","store":"High Wycombe","id":"aa6g1idgusgh","sales average":"£55,973.75","lat":-0.771036,"north":192090,"long":51.621196},"type":"Feature","geometry":{"type":"Point","coordinates":[51.621196,-0.771036]}},{"properties":{"column_4":null,"east":534565,"postcode":"E1W 2BP","store":"Highway","id":"aa6g1ifawob7","sales average":"£37,574.74","lat":-0.062343,"north":180685,"long":51.509078},"type":"Feature","geometry":{"type":"Point","coordinates":[51.509078,-0.062343]}},{"properties":{"column_4":null,"east":518154,"postcode":"RH13 5PX","store":"Horsham","id":"aa6g1i59gtrd","sales average":"£36,879.50","lat":-0.31494,"north":131569,"long":51.071298},"type":"Feature","geometry":{"type":"Point","coordinates":[51.071298,-0.31494]}},{"properties":{"column_4":null,"east":513093,"postcode":"TW3 3LL","store":"Hounslow","id":"aa6g1icolno5","sales average":null,"lat":-0.373285,"north":175427,"long":51.466522},"type":"Feature","geometry":{"type":"Point","coordinates":[51.466522,-0.373285]}},{"properties":{"column_4":null,"east":526998,"postcode":"BN3 5RY","store":"Hove","id":"aa6g1i5qg8fa","sales average":"£23,685.20","lat":-0.197846,"north":105541,"long":50.835475},"type":"Feature","geometry":{"type":"Point","coordinates":[50.835475,-0.197846]}},{"properties":{"column_4":null,"east":415854,"postcode":"HD2 1YJ","store":"Huddersfield","id":"aa6g1i9wimhq","sales average":"£38,399.48","lat":-1.761551,"north":418282,"long":53.660789},"type":"Feature","geometry":{"type":"Point","coordinates":[53.660789,-1.761551]}},{"properties":{"column_4":null,"east":509923,"postcode":"HU7 0XQ","store":"Hull","id":"aa6g1i8zhaiw","sales average":"£44,938.70","lat":-0.333491,"north":432221,"long":53.774732},"type":"Feature","geometry":{"type":"Point","coordinates":[53.774732,-0.333491]}},{"properties":{"column_4":null,"east":523602,"postcode":"PE29 7DA","store":"Huntingdon","id":"aa6g1i3jkmmd","sales average":"£33,396.22","lat":-0.187144,"north":272908,"long":52.340332},"type":"Feature","geometry":{"type":"Point","coordinates":[52.340332,-0.187144]}},{"properties":{"column_4":null,"east":345338,"postcode":"L36 6FH","store":"Huyton","id":"aa6g1igsczfi","sales average":"£24,806.68","lat":-2.823683,"north":390261,"long":53.406321},"type":"Feature","geometry":{"type":"Point","coordinates":[53.406321,-2.823683]}},{"properties":{"column_4":null,"east":544288,"postcode":"IG2 6PW","store":"Ilford","id":"aa6g1igfz84e","sales average":null,"lat":0.080744,"north":188207,"long":51.574271},"type":"Feature","geometry":{"type":"Point","coordinates":[51.574271,0.080744]}},{"properties":{"column_4":null,"east":266942,"postcode":"IV1 1SY","store":"Inverness","id":"aa6g1ih8l05o","sales average":"£19,443.99","lat":-4.221068,"north":846005,"long":57.484698},"type":"Feature","geometry":{"type":"Point","coordinates":[57.484698,-4.221068]}},{"properties":{"column_4":null,"east":619992,"postcode":"IP3 9RT","store":"Ipswich","id":"aa6g1ii9n375","sales average":"£38,636.08","lat":1.20549,"north":241558,"long":52.028779},"type":"Feature","geometry":{"type":"Point","coordinates":[52.028779,1.20549]}},{"properties":{"column_4":null,"east":449867,"postcode":"PO30 5FA","store":"Isle Of Wight","id":"aa6g1i7uxrlo","sales average":"£21,486.11","lat":-1.295112,"north":90167,"long":50.709007},"type":"Feature","geometry":{"type":"Point","coordinates":[50.709007,-1.295112]}},{"properties":{"column_4":null,"east":406196,"postcode":"BD21 5JP","store":"Keighley","id":"aa6g1ibdgwmt","sales average":"£14,669.67","lat":-1.907253,"north":440824,"long":53.863598},"type":"Feature","geometry":{"type":"Point","coordinates":[53.863598,-1.907253]}},{"properties":{"column_4":null,"east":485446,"postcode":"NN16 8UW","store":"Kettering","id":"aa6g1i573fad","sales average":"£38,309.90","lat":-0.745379,"north":279396,"long":52.40591},"type":"Feature","geometry":{"type":"Point","coordinates":[52.40591,-0.745379]}},{"properties":{"column_4":null,"east":383866,"postcode":"DY11 7AR","store":"Kidderminster","id":"aa6g1ic7ehmf","sales average":"£39,503.06","lat":-2.238353,"north":274181,"long":52.36544},"type":"Feature","geometry":{"type":"Point","coordinates":[52.36544,-2.238353]}},{"properties":{"column_4":null,"east":242749,"postcode":"KA1 4DD","store":"Kilmarnock","id":"aa6g1ii37r7p","sales average":"£13,726.04","lat":-4.497372,"north":636840,"long":55.599712},"type":"Feature","geometry":{"type":"Point","coordinates":[55.599712,-4.497372]}},{"properties":{"column_4":null,"east":530448,"postcode":"N7 9NH","store":"Kings Cross","id":"aa6g1id5bd0x","sales average":"£23,284.80","lat":-0.120172,"north":184641,"long":51.545594},"type":"Feature","geometry":{"type":"Point","coordinates":[51.545594,-0.120172]}},{"properties":{"column_4":null,"east":563278,"postcode":"PE30 4HY","store":"Kings Lynn","id":"aa6g1ig20gg0","sales average":"£40,603.82","lat":0.417333,"north":318888,"long":52.742958},"type":"Feature","geometry":{"type":"Point","coordinates":[52.742958,0.417333]}},{"properties":{"column_4":null,"east":517976,"postcode":"KT2 5BQ","store":"Kingston","id":"aa6g1ifb1r94","sales average":"£43,808.92","lat":-0.304379,"north":171350,"long":51.428884},"type":"Feature","geometry":{"type":"Point","coordinates":[51.428884,-0.304379]}},{"properties":{"column_4":null,"east":344990,"postcode":"LA3 3AY","store":"Lancaster","id":"aa6g1iikog9p","sales average":"£36,739.36","lat":-2.84193,"north":463259,"long":54.062333},"type":"Feature","geometry":{"type":"Point","coordinates":[54.062333,-2.84193]}},{"properties":{"column_4":null,"east":431325,"postcode":"CV34 6RS","store":"Leamington Spa","id":"aa6g1idm03nr","sales average":"£33,950.04","lat":-1.542341,"north":263786,"long":52.271342},"type":"Feature","geometry":{"type":"Point","coordinates":[52.271342,-1.542341]}},{"properties":{"column_4":null,"east":427853,"postcode":"LS12 6AL","store":"Leeds","id":"aa6g1icgajue","sales average":"£53,198.65","lat":-1.57876,"north":431901,"long":53.782695},"type":"Feature","geometry":{"type":"Point","coordinates":[53.782695,-1.57876]}},{"properties":{"column_4":null,"east":458714,"postcode":"LE2 7SZ","store":"Leicester","id":"aa6g1iaor54u","sales average":"£48,518.93","lat":-1.134227,"north":302356,"long":52.615811},"type":"Feature","geometry":{"type":"Point","coordinates":[52.615811,-1.134227]}},{"properties":{"column_4":null,"east":492392,"postcode":"LU7 4SE","store":"Leighton Buzzard","id":"aa6g1i3eq807","sales average":null,"lat":-0.658215,"north":224531,"long":51.911659},"type":"Feature","geometry":{"type":"Point","coordinates":[51.911659,-0.658215]}},{"properties":{"column_4":null,"east":523275,"postcode":"SG6 1LP","store":"Letchworth","id":"aa6g1i6xmxqu","sales average":"£19,493.19","lat":-0.206235,"north":233500,"long":51.986284},"type":"Feature","geometry":{"type":"Point","coordinates":[51.986284,-0.206235]}},{"properties":{"column_4":null,"east":536545,"postcode":"E10 7NQ","store":"Leyton","id":"aa6g1ialy065","sales average":"£37,837.57","lat":-0.031199,"north":187481,"long":51.569674},"type":"Feature","geometry":{"type":"Point","coordinates":[51.569674,-0.031199]}},{"properties":{"column_4":null,"east":413715,"postcode":"WS14 9UX","store":"Lichfield","id":"aa6g1i4fo7n8","sales average":"£23,915.61","lat":-1.798541,"north":309608,"long":52.683995},"type":"Feature","geometry":{"type":"Point","coordinates":[52.683995,-1.798541]}},{"properties":{"column_4":null,"east":496739,"postcode":"LN6 7AN","store":"Lincoln","id":"aa6g1i63hrrq","sales average":"£35,925.33","lat":-0.552471,"north":370540,"long":53.22311},"type":"Feature","geometry":{"type":"Point","coordinates":[53.22311,-0.552471]}},{"properties":{"column_4":null,"east":305724,"postcode":"EH54 5BZ","store":"Livingston","id":"aa6g1i4owrto","sales average":"£25,417.34","lat":-3.509634,"north":669416,"long":55.908588},"type":"Feature","geometry":{"type":"Point","coordinates":[55.908588,-3.509634]}},{"properties":{"column_4":null,"east":449660,"postcode":"NG10 1GT","store":"Long Eaton","id":"aa6g1iipb1t5","sales average":null,"lat":-1.263285,"north":333156,"long":52.893567},"type":"Feature","geometry":{"type":"Point","coordinates":[52.893567,-1.263285]}},{"properties":{"column_4":null,"east":453170,"postcode":"LE11 5XS","store":"Loughborough","id":"aa6g1i7s1or8","sales average":"£34,788.14","lat":-1.213135,"north":320751,"long":52.781729},"type":"Feature","geometry":{"type":"Point","coordinates":[52.781729,-1.213135]}},{"properties":{"column_4":null,"east":653095,"postcode":"NR33 7NG","store":"Lowestoft","id":"aa6g1i4phzx1","sales average":"£18,937.20","lat":1.722881,"north":289497,"long":52.444765},"type":"Feature","geometry":{"type":"Point","coordinates":[52.444765,1.722881]}},{"properties":{"column_4":null,"east":506718,"postcode":"LU1 1UU","store":"Luton","id":"aa6g1i77nzw0","sales average":"£60,299.33","lat":-0.450824,"north":221940,"long":51.885814},"type":"Feature","geometry":{"type":"Point","coordinates":[51.885814,-0.450824]}},{"properties":{"column_4":null,"east":578850,"postcode":"ME15 9NL","store":"Maidstone","id":"aa6g1ice9adn","sales average":"£39,608.63","lat":0.560884,"north":152254,"long":51.241425},"type":"Feature","geometry":{"type":"Point","coordinates":[51.241425,0.560884]}},{"properties":{"column_4":null,"east":385403,"postcode":"M1 2NP","store":"Manchester Ancoats","id":"aa6g1ie911cy","sales average":"£14,905.50","lat":-2.22139,"north":397936,"long":53.477944},"type":"Feature","geometry":{"type":"Point","coordinates":[53.477944,-2.22139]}},{"properties":{"column_4":null,"east":452419,"postcode":"NG18 5DN","store":"Mansfield","id":"aa6g1iayiexd","sales average":"£42,230.63","lat":-1.217982,"north":359687,"long":53.131775},"type":"Feature","geometry":{"type":"Point","coordinates":[53.131775,-1.217982]}},{"properties":{"column_4":null,"east":474244,"postcode":"LE16 7QE","store":"Market Harborough","id":"aa6g1icmvzam","sales average":"£15,003.75","lat":-0.908201,"north":287545,"long":52.480789},"type":"Feature","geometry":{"type":"Point","coordinates":[52.480789,-0.908201]}},{"properties":{"column_4":null,"east":526118,"postcode":"SW19 3XD","store":"Merton","id":"aa6g1i6ohgxz","sales average":null,"lat":-0.187948,"north":169595,"long":51.411359},"type":"Feature","geometry":{"type":"Point","coordinates":[51.411359,-0.187948]}},{"properties":{"column_4":null,"east":452280,"postcode":"TS3 8BS","store":"Middlesborough","id":"aa6g1i4cyxts","sales average":"£28,296.54","lat":-1.19283,"north":519901,"long":54.571634},"type":"Feature","geometry":{"type":"Point","coordinates":[54.571634,-1.19283]}},{"properties":{"column_4":null,"east":486760,"postcode":"MK1 1DF","store":"Milton Keynes","id":"aa6g1ibsilbk","sales average":"£62,933.12","lat":-0.73747,"north":234852,"long":52.005338},"type":"Feature","geometry":{"type":"Point","coordinates":[52.005338,-0.73747]}},{"properties":{"column_4":null,"east":415043,"postcode":"B76 1DH","store":"Minworth","id":"aa6g1i7sdbsi","sales average":"£37,296.69","lat":-1.779667,"north":292530,"long":52.530434},"type":"Feature","geometry":{"type":"Point","coordinates":[52.530434,-1.779667]}},{"properties":{"column_4":null,"east":528510,"postcode":"CR4 2AP","store":"Mitcham","id":"aa6g1icis7ny","sales average":"£38,323.02","lat":-0.15346,"north":169905,"long":51.413609},"type":"Feature","geometry":{"type":"Point","coordinates":[51.413609,-0.15346]}},{"properties":{"column_4":null,"east":528822,"postcode":"N11 1JL","store":"New Southgate","id":"aa6g1i34owye","sales average":"£37,111.56","lat":-0.140583,"north":192892,"long":51.620116},"type":"Feature","geometry":{"type":"Point","coordinates":[51.620116,-0.140583]}},{"properties":{"column_4":null,"east":481429,"postcode":"NG24 2DE","store":"Newark","id":"aa6g1iars5ie","sales average":"£29,118.34","lat":-0.78562,"north":355201,"long":53.087824},"type":"Feature","geometry":{"type":"Point","coordinates":[53.087824,-0.78562]}},{"properties":{"column_4":null,"east":448068,"postcode":"RG14 5SH","store":"Newbury","id":"aa6g1i9ikq6m","sales average":"£31,499.82","lat":-1.310382,"north":167177,"long":51.401594},"type":"Feature","geometry":{"type":"Point","coordinates":[51.401594,-1.310382]}},{"properties":{"column_4":null,"east":421650,"postcode":"NE3 2EF","store":"Newcastle","id":"aa6g1ihyotn2","sales average":"£27,702.23","lat":-1.662982,"north":568612,"long":55.011597},"type":"Feature","geometry":{"type":"Point","coordinates":[55.011597,-1.662982]}},{"properties":{"column_4":null,"east":563186,"postcode":"CB8 7XA","store":"Newmarket","id":"aa6g1i3bcafv","sales average":"£17,379.38","lat":0.389671,"north":265207,"long":52.260822},"type":"Feature","geometry":{"type":"Point","coordinates":[52.260822,0.389671]}},{"properties":{"column_4":null,"east":330474,"postcode":"NP20 2NN","store":"Newport","id":"aa6g1ih4kpq9","sales average":"£42,246.76","lat":-3.004526,"north":186130,"long":51.569745},"type":"Feature","geometry":{"type":"Point","coordinates":[51.569745,-3.004526]}},{"properties":{"column_4":null,"east":432863,"postcode":"NE29 7DE","store":"North Shields","id":"aa6g1idv7ddg","sales average":"£40,946.70","lat":-1.487765,"north":567636,"long":55.002216},"type":"Feature","geometry":{"type":"Point","coordinates":[55.002216,-1.487765]}},{"properties":{"column_4":null,"east":474211,"postcode":"NN5 7AY","store":"Northampton","id":"aa6g1i8vw769","sales average":"£44,384.16","lat":-0.914306,"north":262108,"long":52.252152},"type":"Feature","geometry":{"type":"Point","coordinates":[52.252152,-0.914306]}},{"properties":{"column_4":null,"east":622614,"postcode":"NR4 6DG","store":"Norwich Hall Road","id":"aa6g1iclrwo5","sales average":"£20,024.75","lat":1.286015,"north":305646,"long":52.602963},"type":"Feature","geometry":{"type":"Point","coordinates":[52.602963,1.286015]}},{"properties":{"column_4":null,"east":621860,"postcode":"NR6 6RA","store":"Norwich Mile Lane","id":"aa6g1ifaotst","sales average":"£40,668.33","lat":1.278905,"north":311614,"long":52.656834},"type":"Feature","geometry":{"type":"Point","coordinates":[52.656834,1.278905]}},{"properties":{"column_4":null,"east":455820,"postcode":"NG7 2NR","store":"Nottingham","id":"aa6g1ia3mltl","sales average":"£61,133.84","lat":-1.170932,"north":337825,"long":52.934931},"type":"Feature","geometry":{"type":"Point","coordinates":[52.934931,-1.170932]}},{"properties":{"column_4":null,"east":448337,"postcode":"NG16 2UZ","store":"Nottingham Giltbrook","id":"aa6g1ifluwyn","sales average":"£45,675.66","lat":-1.281114,"north":345484,"long":53.004498},"type":"Feature","geometry":{"type":"Point","coordinates":[53.004498,-1.281114]}},{"properties":{"column_4":null,"east":435702,"postcode":"CV10 7RA","store":"Nuneaton","id":"aa6g1idr8rm4","sales average":"£41,832.81","lat":-1.47551,"north":289104,"long":52.498678},"type":"Feature","geometry":{"type":"Point","coordinates":[52.498678,-1.47551]}},{"properties":{"column_4":null,"east":547024,"postcode":"BR5 3ST","store":"Orpington","id":"aa6g1ihmrgqi","sales average":"£57,203.19","lat":0.111807,"north":168022,"long":51.392199},"type":"Feature","geometry":{"type":"Point","coordinates":[51.392199,0.111807]}},{"properties":{"column_4":null,"east":330382,"postcode":"SY10 8NN","store":"Oswestry","id":"aa6g1ibotc0p","sales average":"£12,127.45","lat":-3.035081,"north":328005,"long":52.845041},"type":"Feature","geometry":{"type":"Point","coordinates":[52.845041,-3.035081]}},{"properties":{"column_4":null,"east":455696,"postcode":"OX4 2RD","store":"Oxford","id":"aa6g1ighy49v","sales average":"£40,779.34","lat":-1.194796,"north":204743,"long":51.738634},"type":"Feature","geometry":{"type":"Point","coordinates":[51.738634,-1.194796]}},{"properties":{"column_4":null,"east":247201,"postcode":"PA3 1RQ","store":"Paisley","id":"aa6g1ibd9fc4","sales average":"#N/A","lat":-4.442351,"north":664693,"long":55.851165},"type":"Feature","geometry":{"type":"Point","coordinates":[55.851165,-4.442351]}},{"properties":{"column_4":null,"east":519633,"postcode":"NW10 7UL","store":"Park Royal","id":"aa6g1idwme1i","sales average":"£67,098.97","lat":-0.276496,"north":183347,"long":51.536359},"type":"Feature","geometry":{"type":"Point","coordinates":[51.536359,-0.276496]}},{"properties":{"column_4":null,"east":177266,"postcode":"TR10 9EW","store":"Penryn","id":"aa6g1i3d6qgc","sales average":"£12,209.42","lat":-5.120045,"north":34004,"long":50.164142},"type":"Feature","geometry":{"type":"Point","coordinates":[50.164142,-5.120045]}},{"properties":{"column_4":null,"east":309247,"postcode":"PH1 3TT","store":"Perth","id":"aa6g1iaw6y07","sales average":"£21,966.46","lat":-3.472703,"north":726226,"long":56.419505},"type":"Feature","geometry":{"type":"Point","coordinates":[56.419505,-3.472703]}},{"properties":{"column_4":null,"east":520710,"postcode":"PE1 5QA","store":"Peterborough","id":"aa6g1iggy3vv","sales average":"£45,365.58","lat":-0.220345,"north":298438,"long":52.57038},"type":"Feature","geometry":{"type":"Point","coordinates":[52.57038,-0.220345]}},{"properties":{"column_4":null,"east":252943,"postcode":"PL7 1RF","store":"Plymouth","id":"aa6g1ihv356h","sales average":"£37,734.57","lat":-4.070031,"north":56349,"long":50.388598},"type":"Feature","geometry":{"type":"Point","coordinates":[50.388598,-4.070031]}},{"properties":{"column_4":null,"east":310769,"postcode":"CF37 5UD","store":"Pontypridd","id":"aa6g1ii7cyuf","sales average":"£49,461.17","lat":-3.288957,"north":186874,"long":51.573655},"type":"Feature","geometry":{"type":"Point","coordinates":[51.573655,-3.288957]}},{"properties":{"column_4":null,"east":400454,"postcode":"BH17 7AE","store":"Poole","id":"aa6g1idtp4z9","sales average":"£47,566.58","lat":-1.994917,"north":93728,"long":50.743159},"type":"Feature","geometry":{"type":"Point","coordinates":[50.743159,-1.994917]}},{"properties":{"column_4":null,"east":403570,"postcode":"BH12 3LL","store":"Poole 2","id":"aa6g1id3e7z3","sales average":"#N/A","lat":-1.950758,"north":93313,"long":50.739417},"type":"Feature","geometry":{"type":"Point","coordinates":[50.739417,-1.950758]}},{"properties":{"column_4":null,"east":466540,"postcode":"PO3 5NJ","store":"Portsmouth","id":"aa6g1i33nh5w","sales average":"£48,073.03","lat":-1.056611,"north":103461,"long":50.826872},"type":"Feature","geometry":{"type":"Point","coordinates":[50.826872,-1.056611]}},{"properties":{"column_4":null,"east":354890,"postcode":"PR1 5DP","store":"Preston","id":"aa6g1i9a2cj4","sales average":"£17,157.14","lat":-2.685775,"north":430018,"long":53.764547},"type":"Feature","geometry":{"type":"Point","coordinates":[53.764547,-2.685775]}},{"properties":{"column_4":null,"east":468740,"postcode":"RG30 6BX","store":"Reading","id":"aa6g1i2o9tfz","sales average":"£34,860.62","lat":-1.011873,"north":174316,"long":51.463651},"type":"Feature","geometry":{"type":"Point","coordinates":[51.463651,-1.011873]}},{"properties":{"column_4":null,"east":471646,"postcode":"RG2 0HG","store":"Reading 2","id":"aa6g1igpivrl","sales average":"£34,004.11","lat":-0.970659,"north":171298,"long":51.436159},"type":"Feature","geometry":{"type":"Point","coordinates":[51.436159,-0.970659]}},{"properties":{"column_4":null,"east":406557,"postcode":"B98 0HU","store":"Redditch","id":"aa6g1iactei3","sales average":"£28,499.68","lat":-1.905288,"north":265051,"long":52.283563},"type":"Feature","geometry":{"type":"Point","coordinates":[52.283563,-1.905288]}},{"properties":{"column_4":null,"east":168144,"postcode":"TR15 3RQ","store":"Redruth","id":"aa6g1iik0jdu","sales average":"£14,917.58","lat":-5.252122,"north":41485,"long":50.227815},"type":"Feature","geometry":{"type":"Point","coordinates":[50.227815,-5.252122]}},{"properties":{"column_4":null,"east":390477,"postcode":"OL16 5NP","store":"Rochdale","id":"aa6g1if8ebfl","sales average":"£26,414.88","lat":-2.145399,"north":412869,"long":53.612284},"type":"Feature","geometry":{"type":"Point","coordinates":[53.612284,-2.145399]}},{"properties":{"column_4":null,"east":553739,"postcode":"RM3 8UJ","store":"Romford","id":"aa6g1iew5tj6","sales average":"£47,112.55","lat":0.218243,"north":191005,"long":51.596914},"type":"Feature","geometry":{"type":"Point","coordinates":[51.596914,0.218243]}},{"properties":{"column_4":null,"east":360598,"postcode":"HR9 7BW","store":"Ross On Wye","id":"aa6g1idg8505","sales average":"£14,140.90","lat":-2.574262,"north":224364,"long":51.916409},"type":"Feature","geometry":{"type":"Point","coordinates":[51.916409,-2.574262]}},{"properties":{"column_4":null,"east":442814,"postcode":"S61 4RJ","store":"Rotherham","id":"aa6g1i46n9ih","sales average":"£46,117.85","lat":-1.356877,"north":394283,"long":53.443585},"type":"Feature","geometry":{"type":"Point","coordinates":[53.443585,-1.356877]}},{"properties":{"column_4":null,"east":381972,"postcode":"M5 3GR","store":"Salford","id":"aa6g1i5ovrc2","sales average":null,"lat":-2.273086,"north":397933,"long":53.47781},"type":"Feature","geometry":{"type":"Point","coordinates":[53.47781,-2.273086]}},{"properties":{"column_4":null,"east":415383,"postcode":"SP1 2LE","store":"Salisbury","id":"aa6g1i8ee5qg","sales average":"£25,784.27","lat":-1.781845,"north":129312,"long":51.062941},"type":"Feature","geometry":{"type":"Point","coordinates":[51.062941,-1.781845]}},{"properties":{"column_4":null,"east":489465,"postcode":"DN15 6AL","store":"Scunthorpe","id":"aa6g1i6qxk9e","sales average":"£30,949.58","lat":-0.649664,"north":411917,"long":53.5962},"type":"Feature","geometry":{"type":"Point","coordinates":[53.5962,-0.649664]}},{"properties":{"column_4":null,"east":435744,"postcode":"S2 4DH","store":"Sheffield","id":"aa6g1i65a931","sales average":"£55,908.86","lat":-1.46423,"north":386154,"long":53.371046},"type":"Feature","geometry":{"type":"Point","coordinates":[53.371046,-1.46423]}},{"properties":{"column_4":null,"east":433708,"postcode":"S6 1PG","store":"Sheffield 2","id":"aa6g1i3dsnky","sales average":null,"lat":-1.494351,"north":390649,"long":53.411581},"type":"Feature","geometry":{"type":"Point","coordinates":[53.411581,-1.494351]}},{"properties":{"column_4":null,"east":361776,"postcode":"BA4 5AX","store":"Shepton Mallet","id":"aa6g1i4x66f1","sales average":"#N/A","lat":-2.548312,"north":143421,"long":51.188727},"type":"Feature","geometry":{"type":"Point","coordinates":[51.188727,-2.548312]}},{"properties":{"column_4":null,"east":350227,"postcode":"SY1 3AB","store":"Shrewsbury","id":"aa6g1i5uabgc","sales average":"£40,795.01","lat":-2.738735,"north":316664,"long":52.745303},"type":"Feature","geometry":{"type":"Point","coordinates":[52.745303,-2.738735]}},{"properties":{"column_4":null,"east":590828,"postcode":"ME10 2PD","store":"Sittingbourne","id":"aa6g1i52j5cb","sales average":"£35,128.93","lat":0.739043,"north":164914,"long":51.351254},"type":"Feature","geometry":{"type":"Point","coordinates":[51.351254,0.739043]}},{"properties":{"column_4":null,"east":496130,"postcode":"SL1 4UN","store":"Slough","id":"aa6g1idv2xbp","sales average":"£59,783.10","lat":-0.615888,"north":180991,"long":51.519668},"type":"Feature","geometry":{"type":"Point","coordinates":[51.519668,-0.615888]}},{"properties":{"column_4":null,"east":413132,"postcode":"B90 4QU","store":"Solihull","id":"aa6g1iesie9z","sales average":"£49,411.73","lat":-1.808418,"north":277661,"long":52.396812},"type":"Feature","geometry":{"type":"Point","coordinates":[52.396812,-1.808418]}},{"properties":{"column_4":null,"east":513967,"postcode":"UB2 4SD","store":"Southall","id":"aa6g1i6yizqw","sales average":"£34,763.65","lat":-0.35927,"north":179888,"long":51.506441},"type":"Feature","geometry":{"type":"Point","coordinates":[51.506441,-0.35927]}},{"properties":{"column_4":null,"east":438429,"postcode":"SO15 0LB","store":"Southampton","id":"aa6g1ia9q5sl","sales average":"£41,014.86","lat":-1.45468,"north":113274,"long":50.917654},"type":"Feature","geometry":{"type":"Point","coordinates":[50.917654,-1.45468]}},{"properties":{"column_4":null,"east":587541,"postcode":"SS2 5QA","store":"Southend On Sea","id":"aa6g1i29oe9b","sales average":"£35,726.21","lat":0.704165,"north":188059,"long":51.560225},"type":"Feature","geometry":{"type":"Point","coordinates":[51.560225,0.704165]}},{"properties":{"column_4":null,"east":336048,"postcode":"PR9 7RJ","store":"Southport","id":"aa6g1iaxrbtg","sales average":null,"lat":-2.96876,"north":416445,"long":53.640602},"type":"Feature","geometry":{"type":"Point","coordinates":[53.640602,-2.96876]}},{"properties":{"column_4":null,"east":524677,"postcode":"PE11 3UF","store":"Spalding","id":"aa6g1i34zcqw","sales average":"£16,560.47","lat":-0.151801,"north":324980,"long":52.807966},"type":"Feature","geometry":{"type":"Point","coordinates":[52.807966,-0.151801]}},{"properties":{"column_4":null,"east":205311,"postcode":"PL25 3RF","store":"St Austell","id":"aa6g1iadjtv8","sales average":"£14,734.16","lat":-4.737574,"north":52878,"long":50.343571},"type":"Feature","geometry":{"type":"Point","coordinates":[50.343571,-4.737574]}},{"properties":{"column_4":null,"east":351881,"postcode":"WA9 5JD","store":"St Helens","id":"aa6g1ihlv4e5","sales average":"£11,902.31","lat":-2.7259,"north":394367,"long":53.443872},"type":"Feature","geometry":{"type":"Point","coordinates":[53.443872,-2.7259]}},{"properties":{"column_4":null,"east":517079,"postcode":"PE19 8YW","store":"St Neots","id":"aa6g1i2trkii","sales average":"£14,053.78","lat":-0.287931,"north":258234,"long":52.209898},"type":"Feature","geometry":{"type":"Point","coordinates":[52.209898,-0.287931]}},{"properties":{"column_4":null,"east":522652,"postcode":"NW2 6LU","store":"Staples Corner","id":"aa6g1i2ke4is","sales average":"£73,393.85","lat":-0.231678,"north":187113,"long":51.569557},"type":"Feature","geometry":{"type":"Point","coordinates":[51.569557,-0.231678]}},{"properties":{"column_4":null,"east":522899,"postcode":"SG1 2NB","store":"Stevenage","id":"aa6g1i6xns3w","sales average":"£42,268.59","lat":-0.214888,"north":224603,"long":51.906417},"type":"Feature","geometry":{"type":"Point","coordinates":[51.906417,-0.214888]}},{"properties":{"column_4":null,"east":280553,"postcode":"FK7 7RZ","store":"Stirling","id":"aa6g1igmdhpt","sales average":"£31,305.60","lat":-3.922423,"north":692723,"long":56.112284},"type":"Feature","geometry":{"type":"Point","coordinates":[56.112284,-3.922423]}},{"properties":{"column_4":null,"east":389084,"postcode":"SK4 1QR","store":"Stockport","id":"aa6g1i889i8m","sales average":"£60,135.60","lat":-2.165727,"north":392203,"long":53.426503},"type":"Feature","geometry":{"type":"Point","coordinates":[53.426503,-2.165727]}},{"properties":{"column_4":null,"east":446357,"postcode":"TS18 2AD","store":"Stockton on Tees","id":"aa6g1iholilf","sales average":"£43,812.69","lat":-1.284355,"north":520430,"long":54.576964},"type":"Feature","geometry":{"type":"Point","coordinates":[54.576964,-1.284355]}},{"properties":{"column_4":null,"east":389303,"postcode":"ST1  3NQ","store":"Stoke","id":"aa6g1ib72nmw","sales average":"£45,249.55","lat":-2.160899,"north":347003,"long":53.020215},"type":"Feature","geometry":{"type":"Point","coordinates":[53.020215,-2.160899]}},{"properties":{"column_4":null,"east":390138,"postcode":"DY8 1JN","store":"Stourbridge","id":"aa6g1icjp6lh","sales average":"£17,608.78","lat":-2.146557,"north":284702,"long":52.460174},"type":"Feature","geometry":{"type":"Point","coordinates":[52.460174,-2.146557]}},{"properties":{"column_4":null,"east":419218,"postcode":"CV37 0HR","store":"Stratford on Avon","id":"aa6g1i2zhezn","sales average":"£13,004.40","lat":-1.720205,"north":255998,"long":52.20188},"type":"Feature","geometry":{"type":"Point","coordinates":[52.20188,-1.720205]}},{"properties":{"column_4":null,"east":438245,"postcode":"SR5 2BN","store":"Sunderland","id":"aa6g1ifr89fe","sales average":"£26,153.28","lat":-1.404895,"north":558133,"long":54.916441},"type":"Feature","geometry":{"type":"Point","coordinates":[54.916441,-1.404895]}},{"properties":{"column_4":null,"east":524804,"postcode":"SM3 9DA","store":"Sutton","id":"aa6g1ic18sar","sales average":"£58,811.74","lat":-0.208141,"north":165867,"long":51.378146},"type":"Feature","geometry":{"type":"Point","coordinates":[51.378146,-0.208141]}},{"properties":{"column_4":null,"east":267925,"postcode":"SA7 9FB","store":"Swansea","id":"aa6g1i2gl7fz","sales average":"£50,944.12","lat":-3.910764,"north":197190,"long":51.657941},"type":"Feature","geometry":{"type":"Point","coordinates":[51.657941,-3.910764]}},{"properties":{"column_4":null,"east":416158,"postcode":"SN2 8XA","store":"Swindon","id":"aa6g1i3n0luo","sales average":"£53,865.74","lat":-1.768216,"north":186406,"long":51.57629},"type":"Feature","geometry":{"type":"Point","coordinates":[51.57629,-1.768216]}},{"properties":{"column_4":null,"east":536785,"postcode":"SE26 5BA","store":"Sydenham","id":"aa6g1idcx9yu","sales average":"£14,426.14","lat":-0.033899,"north":171575,"long":51.426682},"type":"Feature","geometry":{"type":"Point","coordinates":[51.426682,-0.033899]}},{"properties":{"column_4":null,"east":421949,"postcode":"B77 5ES","store":"Tamworth","id":"aa6g1i7f3ek6","sales average":"£14,519.01","lat":-1.677343,"north":300502,"long":52.601867},"type":"Feature","geometry":{"type":"Point","coordinates":[52.601867,-1.677343]}},{"properties":{"column_4":null,"east":324270,"postcode":"TA2 8QY","store":"Taunton","id":"aa6g1i5an7n5","sales average":"£39,545.67","lat":-3.08126,"north":126077,"long":51.029059},"type":"Feature","geometry":{"type":"Point","coordinates":[51.029059,-3.08126]}},{"properties":{"column_4":null,"east":533858,"postcode":"N15 4NA","store":"Tottenham","id":"aa6g1ifgjff4","sales average":"£12,357.63","lat":-0.069385,"north":188952,"long":51.583536},"type":"Feature","geometry":{"type":"Point","coordinates":[51.583536,-0.069385]}},{"properties":{"column_4":null,"east":378683,"postcode":"M17 1PS","store":"Trafford Park","id":"aa6g1ifsla4b","sales average":"£44,606.36","lat":-2.322547,"north":396547,"long":53.465229},"type":"Feature","geometry":{"type":"Point","coordinates":[53.465229,-2.322547]}},{"properties":{"column_4":null,"east":560112,"postcode":"TN2 3EN","store":"Tunbridge Wells","id":"aa6g1ign94eb","sales average":"£36,664.99","lat":0.288049,"north":141858,"long":51.153583},"type":"Feature","geometry":{"type":"Point","coordinates":[51.153583,0.288049]}},{"properties":{"column_4":null,"east":546802,"postcode":"TN22 1QL","store":"Uckfield","id":"aa6g1i616t6f","sales average":"£18,278.88","lat":0.089395,"north":120945,"long":50.969222},"type":"Feature","geometry":{"type":"Point","coordinates":[50.969222,0.089395]}},{"properties":{"column_4":null,"east":433542,"postcode":"WF1 5QN","store":"Wakefield","id":"aa6g1i6emcw3","sales average":"£40,173.07","lat":-1.493701,"north":420099,"long":53.676288},"type":"Feature","geometry":{"type":"Point","coordinates":[53.676288,-1.493701]}},{"properties":{"column_4":null,"east":537163,"postcode":"E17 5DU","store":"Walthamstow","id":"aa6g1i6fu06v","sales average":"£10,002.20","lat":-0.020915,"north":190997,"long":51.601119},"type":"Feature","geometry":{"type":"Point","coordinates":[51.601119,-0.020915]}},{"properties":{"column_4":null,"east":512319,"postcode":"KT12 3PU","store":"Walton On Thames","id":"aa6g1ify7oeg","sales average":"£20,527.85","lat":-0.387525,"north":165628,"long":51.378602},"type":"Feature","geometry":{"type":"Point","coordinates":[51.378602,-0.387525]}},{"properties":{"column_4":null,"east":360284,"postcode":"WA2 8NT","store":"Warrington","id":"aa6g1igj7tdc","sales average":"£29,754.34","lat":-2.598798,"north":389613,"long":53.401836},"type":"Feature","geometry":{"type":"Point","coordinates":[53.401836,-2.598798]}},{"properties":{"column_4":null,"east":511142,"postcode":"WD24 4PP","store":"Watford","id":"aa6g1icltznp","sales average":"£57,938.89","lat":-0.394259,"north":197902,"long":51.66891},"type":"Feature","geometry":{"type":"Point","coordinates":[51.66891,-0.394259]}},{"properties":{"column_4":null,"east":524937,"postcode":"AL7 1FS","store":"Welwyn Garden City","id":"aa6g1i9i0jc9","sales average":"£44,765.90","lat":-0.189252,"north":213601,"long":51.807096},"type":"Feature","geometry":{"type":"Point","coordinates":[51.807096,-0.189252]}},{"properties":{"column_4":null,"east":402116,"postcode":"B71 4JZ","store":"West Bromwich","id":"aa6g1idnwzon","sales average":"£25,291.71","lat":-1.970236,"north":290331,"long":52.510871},"type":"Feature","geometry":{"type":"Point","coordinates":[52.510871,-1.970236]}},{"properties":{"column_4":null,"east":506766,"postcode":"UB7 8HP","store":"West Drayton","id":"aa6g1i8e4qm3","sales average":"£33,037.68","lat":-0.462871,"north":180266,"long":51.511244},"type":"Feature","geometry":{"type":"Point","coordinates":[51.511244,-0.462871]}},{"properties":{"column_4":null,"east":558342,"postcode":"RM20 3XD","store":"West Thurrock","id":"aa6g1i9d6jqs","sales average":"£34,244.95","lat":0.278892,"north":178209,"long":51.480677},"type":"Feature","geometry":{"type":"Point","coordinates":[51.480677,0.278892]}},{"properties":{"column_4":null,"east":333734,"postcode":"BS24 9DJ","store":"Weston Super Mare","id":"aa6g1iik24u3","sales average":"£29,771.72","lat":-2.952391,"north":158915,"long":51.325467},"type":"Feature","geometry":{"type":"Point","coordinates":[51.325467,-2.952391]}},{"properties":{"column_4":null,"east":506280,"postcode":"KT15 2SN","store":"Weybridge","id":"aa6g1i7u5hl0","sales average":"£17,328.10","lat":-0.474592,"north":164523,"long":51.369832},"type":"Feature","geometry":{"type":"Point","coordinates":[51.369832,-0.474592]}},{"properties":{"column_4":null,"east":366972,"postcode":"DT4 0HX","store":"Weymouth","id":"aa6g1idf5yg3","sales average":null,"lat":-2.468109,"north":78909,"long":50.608963},"type":"Feature","geometry":{"type":"Point","coordinates":[50.608963,-2.468109]}},{"properties":{"column_4":null,"east":352289,"postcode":"WA8 0GU","store":"Widnes","id":"aa6g1idjyftg","sales average":"£28,855.42","lat":-2.718412,"north":385487,"long":53.364097},"type":"Feature","geometry":{"type":"Point","coordinates":[53.364097,-2.718412]}},{"properties":{"column_4":null,"east":357049,"postcode":"WN5 9AD","store":"Wigan","id":"aa6g1iaxeoir","sales average":"£24,950.25","lat":-2.649562,"north":405024,"long":53.540094},"type":"Feature","geometry":{"type":"Point","coordinates":[53.540094,-2.649562]}},{"properties":{"column_4":null,"east":449298,"postcode":"SO23 7RX","store":"Winchester","id":"aa6g1ihy9cw0","sales average":"£23,437.63","lat":-1.297724,"north":130613,"long":51.072735},"type":"Feature","geometry":{"type":"Point","coordinates":[51.072735,-1.297724]}},{"properties":{"column_4":null,"east":435291,"postcode":"OX28 4XZ","store":"Witney","id":"aa6g1i7i0f4h","sales average":"£29,922.30","lat":-1.48988,"north":208810,"long":51.776851},"type":"Feature","geometry":{"type":"Point","coordinates":[51.776851,-1.48988]}},{"properties":{"column_4":null,"east":480638,"postcode":"RG41 2RX","store":"Wokingham","id":"aa6g1iim3rud","sales average":"£23,375.34","lat":-0.842066,"north":168035,"long":51.405619},"type":"Feature","geometry":{"type":"Point","coordinates":[51.405619,-0.842066]}},{"properties":{"column_4":null,"east":394603,"postcode":"WV13 3YA","store":"Wolverhampton","id":"aa6g1i682qn3","sales average":"£38,610.25","lat":-2.081086,"north":299322,"long":52.591669},"type":"Feature","geometry":{"type":"Point","coordinates":[52.591669,-2.081086]}},{"properties":{"column_4":null,"east":532117,"postcode":"N17 7RP","store":"Wood Green","id":"aa6g1ifyobtk","sales average":null,"lat":-0.093548,"north":191476,"long":51.606628},"type":"Feature","geometry":{"type":"Point","coordinates":[51.606628,-0.093548]}},{"properties":{"column_4":null,"east":541543,"postcode":"IG8 8HF","store":"Woodford","id":"aa6g1ib2kngn","sales average":"£25,402.50","lat":0.041902,"north":190049,"long":51.591518},"type":"Feature","geometry":{"type":"Point","coordinates":[51.591518,0.041902]}},{"properties":{"column_4":null,"east":545389,"postcode":"SE28 0BQ","store":"Woolwich","id":"aa6g1i3p4jjt","sales average":"£10,349.71","lat":0.092885,"north":179151,"long":51.492616},"type":"Feature","geometry":{"type":"Point","coordinates":[51.492616,0.092885]}},{"properties":{"column_4":null,"east":385948,"postcode":"WR4 9AB","store":"Worcester","id":"aa6g1ia2rsfd","sales average":"£31,811.06","lat":-2.20698,"north":255200,"long":52.194855},"type":"Feature","geometry":{"type":"Point","coordinates":[52.194855,-2.20698]}},{"properties":{"column_4":null,"east":299269,"postcode":"CA14 3YD","store":"Workington","id":"aa6g1iehud6o","sales average":null,"lat":-3.562091,"north":527804,"long":54.635278},"type":"Feature","geometry":{"type":"Point","coordinates":[54.635278,-3.562091]}},{"properties":{"column_4":null,"east":332805,"postcode":"LL11 4YL","store":"Wrexham","id":"aa6g1ibno4dm","sales average":null,"lat":-3.0042,"north":352496,"long":53.06547},"type":"Feature","geometry":{"type":"Point","coordinates":[53.06547,-3.0042]}},{"properties":{"column_4":null,"east":369902,"postcode":"BS37 5PB","store":"Yate","id":"aa6g1i3kgwqn","sales average":"£18,029.52","lat":-2.435382,"north":182733,"long":51.542685},"type":"Feature","geometry":{"type":"Point","coordinates":[51.542685,-2.435382]}},{"properties":{"column_4":null,"east":357561,"postcode":"BA21 5HR","store":"Yeovil","id":"aa6g1ihq54pt","sales average":"£37,619.38","lat":-2.605526,"north":117125,"long":50.951985},"type":"Feature","geometry":{"type":"Point","coordinates":[50.951985,-2.605526]}},{"properties":{"column_4":null,"east":458880,"postcode":"YO30 4XY","store":"York","id":"aa6g1ihbjuvb","sales average":"£42,911.86","lat":-1.103457,"north":455235,"long":53.989814},"type":"Feature","geometry":{"type":"Point","coordinates":[53.989814,-1.103457]}}],"is_temporal":false,"author":{"url":"","metadata":null,"contact_name":null,"contact_address":null,"source":null,"contact_phone":null},"source":"","pagination":{"sort":null,"start":0,"total":264,"limit":1000000},"state":"complete","tags":"","published":"2014-08-15T00:05:09-04:00","id":297121}