{"type":"FeatureCollection","data_type":"Dataset","url_type":null,"permissions":[{"permissions":{"download":true,"view":true},"group_id":"everyone"}],"classification":null,"title":"CC by Zip","count":98,"stream_id":33992,"contributor":{"url":"http://geocommons.com/users/7658","name":"rwcjr"},"data_attributes":null,"calculation_params":null,"icon_link":null,"link":"http://geocommons.com/overlays/33992.json","extent":[-82.5436,37.1314,-75.3803,39.7835],"geometry_types":["point"],"unique_name":null,"name":"CC by Zip","feature_count":98,"description":"","next_feature":null,"is_raster":false,"short_classification":"Y","stats":{"latitude":{"max":39.7834598437425,"mean":38.836465253113,"variance":0.39034516227571,"stdev":0.624776089711914,"min":37.1314167295595,"median":38.9862262780818},"total employees":{"max":4,"mean":1.27551020408163,"variance":0.387229118451504,"stdev":0.622277364566239,"min":1,"median":1},"zipcode":{"max":45680,"mean":21676.4081632653,"variance":7364199.13065432,"stdev":2713.70579294335,"min":19707,"median":21204},"longitude":{"max":-75.3803153897603,"mean":-77.2081671293456,"variance":0.807654933477564,"stdev":0.898696240938819,"min":-82.5435757452116,"median":-77.1815446442162}},"features":[{"properties":{"latitude":39.7834598437425,"total employees":1,"zipcode":19707,"longitude":-75.6789004061861,"id":"a649evcunm4g"},"type":"Feature","geometry":{"type":"Point","coordinates":[-75.6789004061861,39.7834598437425]}},{"properties":{"latitude":38.9354683381149,"total employees":1,"zipcode":19963,"longitude":-75.3803153897603,"id":"a649evl6nsl6"},"type":"Feature","geometry":{"type":"Point","coordinates":[-75.3803153897603,38.9354683381149]}},{"properties":{"latitude":38.9379934306339,"total employees":1,"zipcode":20017,"longitude":-76.9939613297844,"id":"a649evd8b1gl"},"type":"Feature","geometry":{"type":"Point","coordinates":[-76.9939613297844,38.9379934306339]}},{"properties":{"latitude":38.7918730555727,"total employees":3,"zipcode":20109,"longitude":-77.5281106562648,"id":"a649evc5nex4"},"type":"Feature","geometry":{"type":"Point","coordinates":[-77.5281106562648,38.7918730555727]}},{"properties":{"latitude":38.7458901891824,"total employees":2,"zipcode":20110,"longitude":-77.4863170576977,"id":"a649evkqwf0t"},"type":"Feature","geometry":{"type":"Point","coordinates":[-77.4863170576977,38.7458901891824]}},{"properties":{"latitude":38.7490921201578,"total employees":1,"zipcode":20111,"longitude":-77.4316435500684,"id":"a649evoorare"},"type":"Feature","geometry":{"type":"Point","coordinates":[-77.4316435500684,38.7490921201578]}},{"properties":{"latitude":38.6683747372304,"total employees":1,"zipcode":20112,"longitude":-77.427104006475,"id":"a649evdepo2s"},"type":"Feature","geometry":{"type":"Point","coordinates":[-77.427104006475,38.6683747372304]}},{"properties":{"latitude":38.8533350878749,"total employees":1,"zipcode":20120,"longitude":-77.4765880235257,"id":"a649evl58ows"},"type":"Feature","geometry":{"type":"Point","coordinates":[-77.4765880235257,38.8533350878749]}},{"properties":{"latitude":38.8459643724653,"total employees":1,"zipcode":20122,"longitude":-77.4422851521528,"id":"a649evdmbqtx"},"type":"Feature","geometry":{"type":"Point","coordinates":[-77.4422851521528,38.8459643724653]}},{"properties":{"latitude":38.7814559184822,"total employees":1,"zipcode":20124,"longitude":-77.3907500076427,"id":"a649eva77bx7"},"type":"Feature","geometry":{"type":"Point","coordinates":[-77.3907500076427,38.7814559184822]}},{"properties":{"latitude":39.1687762140281,"total employees":1,"zipcode":20132,"longitude":-77.7270096921323,"id":"a649evjcja0w"},"type":"Feature","geometry":{"type":"Point","coordinates":[-77.7270096921323,39.1687762140281]}},{"properties":{"latitude":38.7448425499996,"total employees":1,"zipcode":20136,"longitude":-77.561382222338,"id":"a649evj1rw9f"},"type":"Feature","geometry":{"type":"Point","coordinates":[-77.561382222338,38.7448425499996]}},{"properties":{"latitude":39.0504788499833,"total employees":2,"zipcode":20165,"longitude":-77.3880454039909,"id":"a649evh5n803"},"type":"Feature","geometry":{"type":"Point","coordinates":[-77.3880454039909,39.0504788499833]}},{"properties":{"latitude":38.9805167431758,"total employees":1,"zipcode":20170,"longitude":-77.3802202623736,"id":"a649evis70y1"},"type":"Feature","geometry":{"type":"Point","coordinates":[-77.3802202623736,38.9805167431758]}},{"properties":{"latitude":39.0568452981232,"total employees":1,"zipcode":20175,"longitude":-77.5986447485732,"id":"a649evedovav"},"type":"Feature","geometry":{"type":"Point","coordinates":[-77.5986447485732,39.0568452981232]}},{"properties":{"latitude":39.1837498418115,"total employees":1,"zipcode":20176,"longitude":-77.535775952857,"id":"a649evdijp15"},"type":"Feature","geometry":{"type":"Point","coordinates":[-77.535775952857,39.1837498418115]}},{"properties":{"latitude":39.2684019236346,"total employees":1,"zipcode":20180,"longitude":-77.639075090103,"id":"a649evest1qg"},"type":"Feature","geometry":{"type":"Point","coordinates":[-77.639075090103,39.2684019236346]}},{"properties":{"latitude":38.6908631535996,"total employees":1,"zipcode":20181,"longitude":-77.57387098491,"id":"a649evklpy3g"},"type":"Feature","geometry":{"type":"Point","coordinates":[-77.57387098491,38.6908631535996]}},{"properties":{"latitude":38.9803728210645,"total employees":1,"zipcode":20194,"longitude":-77.3438631314321,"id":"a649evmuwqz4"},"type":"Feature","geometry":{"type":"Point","coordinates":[-77.3438631314321,38.9803728210645]}},{"properties":{"latitude":38.8911150939343,"total employees":1,"zipcode":20198,"longitude":-77.7575946363922,"id":"a649evlx84lt"},"type":"Feature","geometry":{"type":"Point","coordinates":[-77.7575946363922,38.8911150939343]}},{"properties":{"latitude":38.6695631785236,"total employees":1,"zipcode":20607,"longitude":-77.0352129574253,"id":"a649evn67udd"},"type":"Feature","geometry":{"type":"Point","coordinates":[-77.0352129574253,38.6695631785236]}},{"properties":{"latitude":39.0961130484251,"total employees":1,"zipcode":20707,"longitude":-76.880415050709,"id":"a649evm4mpa8"},"type":"Feature","geometry":{"type":"Point","coordinates":[-76.880415050709,39.0961130484251]}},{"properties":{"latitude":38.9419954065685,"total employees":1,"zipcode":20710,"longitude":-76.9264808041537,"id":"a649eve9kxe2"},"type":"Feature","geometry":{"type":"Point","coordinates":[-76.9264808041537,38.9419954065685]}},{"properties":{"latitude":38.9862262780818,"total employees":3,"zipcode":20715,"longitude":-76.7389936303934,"id":"a649evdiai1l"},"type":"Feature","geometry":{"type":"Point","coordinates":[-76.7389936303934,38.9862262780818]}},{"properties":{"latitude":39.0801411514474,"total employees":1,"zipcode":20724,"longitude":-76.7852407515515,"id":"a649eva1za1l"},"type":"Feature","geometry":{"type":"Point","coordinates":[-76.7852407515515,39.0801411514474]}},{"properties":{"latitude":38.8045370398557,"total employees":1,"zipcode":20733,"longitude":-76.5332859080336,"id":"a649evge59dr"},"type":"Feature","geometry":{"type":"Point","coordinates":[-76.5332859080336,38.8045370398557]}},{"properties":{"latitude":38.7489482581003,"total employees":1,"zipcode":20735,"longitude":-76.9071935938053,"id":"a649evgq8uw2"},"type":"Feature","geometry":{"type":"Point","coordinates":[-76.9071935938053,38.7489482581003]}},{"properties":{"latitude":38.8842147540864,"total employees":1,"zipcode":20743,"longitude":-76.8936055367788,"id":"a649evjph0c1"},"type":"Feature","geometry":{"type":"Point","coordinates":[-76.8936055367788,38.8842147540864]}},{"properties":{"latitude":38.9647571396236,"total employees":1,"zipcode":20782,"longitude":-76.9648033865864,"id":"a649evl34o3l"},"type":"Feature","geometry":{"type":"Point","coordinates":[-76.9648033865864,38.9647571396236]}},{"properties":{"latitude":38.9977324290018,"total employees":1,"zipcode":20817,"longitude":-77.1510939378523,"id":"a649evf746qk"},"type":"Feature","geometry":{"type":"Point","coordinates":[-77.1510939378523,38.9977324290018]}},{"properties":{"latitude":39.1545047440243,"total employees":2,"zipcode":20832,"longitude":-77.0754156584685,"id":"a649evblfsq3"},"type":"Feature","geometry":{"type":"Point","coordinates":[-77.0754156584685,39.1545047440243]}},{"properties":{"latitude":39.1836752471656,"total employees":1,"zipcode":20841,"longitude":-77.3265966210768,"id":"a649ev9n71jm"},"type":"Feature","geometry":{"type":"Point","coordinates":[-77.3265966210768,39.1836752471656]}},{"properties":{"latitude":39.0907730372435,"total employees":1,"zipcode":20850,"longitude":-77.1815446442162,"id":"a649evod08jy"},"type":"Feature","geometry":{"type":"Point","coordinates":[-77.1815446442162,39.0907730372435]}},{"properties":{"latitude":39.1328479824441,"total employees":1,"zipcode":20874,"longitude":-77.2942903148958,"id":"a649evavghoq"},"type":"Feature","geometry":{"type":"Point","coordinates":[-77.2942903148958,39.1328479824441]}},{"properties":{"latitude":39.1142536741828,"total employees":2,"zipcode":20878,"longitude":-77.2494209050539,"id":"a649evf3ftnl"},"type":"Feature","geometry":{"type":"Point","coordinates":[-77.2494209050539,39.1142536741828]}},{"properties":{"latitude":39.179001622669,"total employees":1,"zipcode":20886,"longitude":-77.1954088984156,"id":"a649evaxwffb"},"type":"Feature","geometry":{"type":"Point","coordinates":[-77.1954088984156,39.179001622669]}},{"properties":{"latitude":39.5116164802387,"total employees":1,"zipcode":21001,"longitude":-76.2027513582327,"id":"a649evi83kyg"},"type":"Feature","geometry":{"type":"Point","coordinates":[-76.2027513582327,39.5116164802387]}},{"properties":{"latitude":39.4737223056022,"total employees":4,"zipcode":21009,"longitude":-76.2916120535216,"id":"a649evisedo1"},"type":"Feature","geometry":{"type":"Point","coordinates":[-76.2916120535216,39.4737223056022]}},{"properties":{"latitude":39.5362968040617,"total employees":1,"zipcode":21014,"longitude":-76.3513054814866,"id":"a649evkmoc75"},"type":"Feature","geometry":{"type":"Point","coordinates":[-76.3513054814866,39.5362968040617]}},{"properties":{"latitude":39.5485302878796,"total employees":1,"zipcode":21015,"longitude":-76.2976621535426,"id":"a649ev9afd38"},"type":"Feature","geometry":{"type":"Point","coordinates":[-76.2976621535426,39.5485302878796]}},{"properties":{"latitude":39.2598673551935,"total employees":2,"zipcode":21043,"longitude":-76.7984081756645,"id":"a649evbe2zfk"},"type":"Feature","geometry":{"type":"Point","coordinates":[-76.7984081756645,39.2598673551935]}},{"properties":{"latitude":39.2062230352872,"total employees":1,"zipcode":21075,"longitude":-76.7552657786231,"id":"a649evoa20f7"},"type":"Feature","geometry":{"type":"Point","coordinates":[-76.7552657786231,39.2062230352872]}},{"properties":{"latitude":39.4452530187314,"total employees":2,"zipcode":21085,"longitude":-76.3558581508022,"id":"a649evd1pds1"},"type":"Feature","geometry":{"type":"Point","coordinates":[-76.3558581508022,39.4452530187314]}},{"properties":{"latitude":39.4466515418027,"total employees":2,"zipcode":21087,"longitude":-76.4143792996485,"id":"a649evetqjj8"},"type":"Feature","geometry":{"type":"Point","coordinates":[-76.4143792996485,39.4466515418027]}},{"properties":{"latitude":39.0543870925451,"total employees":2,"zipcode":21113,"longitude":-76.716192265268,"id":"a649evet757y"},"type":"Feature","geometry":{"type":"Point","coordinates":[-76.716192265268,39.0543870925451]}},{"properties":{"latitude":39.42727249421,"total employees":1,"zipcode":21117,"longitude":-76.7757998355026,"id":"a649evk3hv1x"},"type":"Feature","geometry":{"type":"Point","coordinates":[-76.7757998355026,39.42727249421]}},{"properties":{"latitude":39.1219053476831,"total employees":2,"zipcode":21122,"longitude":-76.5061459669972,"id":"a649eval7qog"},"type":"Feature","geometry":{"type":"Point","coordinates":[-76.5061459669972,39.1219053476831]}},{"properties":{"latitude":39.406956636435,"total employees":1,"zipcode":21128,"longitude":-76.4478235533311,"id":"a649evlsgptu"},"type":"Feature","geometry":{"type":"Point","coordinates":[-76.4478235533311,39.406956636435]}},{"properties":{"latitude":39.3766184488459,"total employees":1,"zipcode":21133,"longitude":-76.8132942657317,"id":"a649evlmexqn"},"type":"Feature","geometry":{"type":"Point","coordinates":[-76.8132942657317,39.3766184488459]}},{"properties":{"latitude":39.4025977652779,"total employees":1,"zipcode":21204,"longitude":-76.6319537481591,"id":"a649evl3rrcp"},"type":"Feature","geometry":{"type":"Point","coordinates":[-76.6319537481591,39.4025977652779]}},{"properties":{"latitude":39.3238754958769,"total employees":1,"zipcode":21207,"longitude":-76.7200517459101,"id":"a649evfpss3g"},"type":"Feature","geometry":{"type":"Point","coordinates":[-76.7200517459101,39.3238754958769]}},{"properties":{"latitude":39.3847100487327,"total employees":1,"zipcode":21208,"longitude":-76.7255387747684,"id":"a649evnvbk1a"},"type":"Feature","geometry":{"type":"Point","coordinates":[-76.7255387747684,39.3847100487327]}},{"properties":{"latitude":39.3675543136388,"total employees":2,"zipcode":21212,"longitude":-76.6149269865501,"id":"a649evfrqr9v"},"type":"Feature","geometry":{"type":"Point","coordinates":[-76.6149269865501,39.3675543136388]}},{"properties":{"latitude":39.3143144782109,"total employees":2,"zipcode":21213,"longitude":-76.576861929246,"id":"a649evkqvt3j"},"type":"Feature","geometry":{"type":"Point","coordinates":[-76.576861929246,39.3143144782109]}},{"properties":{"latitude":39.3522273054349,"total employees":1,"zipcode":21214,"longitude":-76.5643129890799,"id":"a649evkc57dc"},"type":"Feature","geometry":{"type":"Point","coordinates":[-76.5643129890799,39.3522273054349]}},{"properties":{"latitude":39.3299075103829,"total employees":1,"zipcode":21218,"longitude":-76.6017867377838,"id":"a649evole9zp"},"type":"Feature","geometry":{"type":"Point","coordinates":[-76.6017867377838,39.3299075103829]}},{"properties":{"latitude":39.2834083733844,"total employees":1,"zipcode":21224,"longitude":-76.5421366986741,"id":"a649evk4ehl1"},"type":"Feature","geometry":{"type":"Point","coordinates":[-76.5421366986741,39.2834083733844]}},{"properties":{"latitude":39.2258615919858,"total employees":1,"zipcode":21225,"longitude":-76.614642387137,"id":"a649evoq4lza"},"type":"Feature","geometry":{"type":"Point","coordinates":[-76.614642387137,39.2258615919858]}},{"properties":{"latitude":39.2403347812488,"total employees":1,"zipcode":21227,"longitude":-76.6784336697426,"id":"a649evk71e5a"},"type":"Feature","geometry":{"type":"Point","coordinates":[-76.6784336697426,39.2403347812488]}},{"properties":{"latitude":39.2852909049673,"total employees":1,"zipcode":21229,"longitude":-76.6910952032372,"id":"a649evj68qgu"},"type":"Feature","geometry":{"type":"Point","coordinates":[-76.6910952032372,39.2852909049673]}},{"properties":{"latitude":39.3931210452876,"total employees":4,"zipcode":21234,"longitude":-76.5331998050506,"id":"a649evahz0pl"},"type":"Feature","geometry":{"type":"Point","coordinates":[-76.5331998050506,39.3931210452876]}},{"properties":{"latitude":39.3871034687871,"total employees":3,"zipcode":21236,"longitude":-76.4872117430736,"id":"a649evnf0ts6"},"type":"Feature","geometry":{"type":"Point","coordinates":[-76.4872117430736,39.3871034687871]}},{"properties":{"latitude":39.4150325154997,"total employees":1,"zipcode":21286,"longitude":-76.5736669238075,"id":"a649evc6p2ok"},"type":"Feature","geometry":{"type":"Point","coordinates":[-76.5736669238075,39.4150325154997]}},{"properties":{"latitude":39.0028423011111,"total employees":2,"zipcode":21401,"longitude":-76.5080754038044,"id":"a649evhx0e27"},"type":"Feature","geometry":{"type":"Point","coordinates":[-76.5080754038044,39.0028423011111]}},{"properties":{"latitude":38.9704755919238,"total employees":1,"zipcode":21409,"longitude":-76.5038676351061,"id":"a649evkdwimx"},"type":"Feature","geometry":{"type":"Point","coordinates":[-76.5038676351061,38.9704755919238]}},{"properties":{"latitude":38.9403533672696,"total employees":1,"zipcode":21666,"longitude":-76.3334179724937,"id":"a649ev9mfybg"},"type":"Feature","geometry":{"type":"Point","coordinates":[-76.3334179724937,38.9403533672696]}},{"properties":{"latitude":39.4458977688033,"total employees":1,"zipcode":21701,"longitude":-77.3372986760619,"id":"a649evjzk7wu"},"type":"Feature","geometry":{"type":"Point","coordinates":[-77.3372986760619,39.4458977688033]}},{"properties":{"latitude":39.4745353919536,"total employees":1,"zipcode":21702,"longitude":-77.4560336369674,"id":"a649ev9uc0wo"},"type":"Feature","geometry":{"type":"Point","coordinates":[-77.4560336369674,39.4745353919536]}},{"properties":{"latitude":39.3932783205876,"total employees":1,"zipcode":21771,"longitude":-77.1566551369828,"id":"a649eviqibus"},"type":"Feature","geometry":{"type":"Point","coordinates":[-77.1566551369828,39.3932783205876]}},{"properties":{"latitude":39.4104435798548,"total employees":1,"zipcode":21774,"longitude":-77.2698107923737,"id":"a649evjws7c9"},"type":"Feature","geometry":{"type":"Point","coordinates":[-77.2698107923737,39.4104435798548]}},{"properties":{"latitude":38.3767985831539,"total employees":1,"zipcode":21801,"longitude":-75.6431115127263,"id":"a649evgu65d8"},"type":"Feature","geometry":{"type":"Point","coordinates":[-75.6431115127263,38.3767985831539]}},{"properties":{"latitude":38.7884548487042,"total employees":1,"zipcode":22015,"longitude":-77.2812286123541,"id":"a649evguemtq"},"type":"Feature","geometry":{"type":"Point","coordinates":[-77.2812286123541,38.7884548487042]}},{"properties":{"latitude":38.5669962813214,"total employees":1,"zipcode":22025,"longitude":-77.3233242059996,"id":"a649evgxjwmx"},"type":"Feature","geometry":{"type":"Point","coordinates":[-77.3233242059996,38.5669962813214]}},{"properties":{"latitude":38.5850501933403,"total employees":1,"zipcode":22026,"longitude":-77.3184484598194,"id":"a649evj0bjh4"},"type":"Feature","geometry":{"type":"Point","coordinates":[-77.3184484598194,38.5850501933403]}},{"properties":{"latitude":38.6828850205391,"total employees":2,"zipcode":22192,"longitude":-77.3183009242549,"id":"a649evdt0dj3"},"type":"Feature","geometry":{"type":"Point","coordinates":[-77.3183009242549,38.6828850205391]}},{"properties":{"latitude":38.6447956952465,"total employees":2,"zipcode":22193,"longitude":-77.3455947453998,"id":"a649evaapa7y"},"type":"Feature","geometry":{"type":"Point","coordinates":[-77.3455947453998,38.6447956952465]}},{"properties":{"latitude":38.8866792674184,"total employees":1,"zipcode":22201,"longitude":-77.0944220992236,"id":"a649evopeja5"},"type":"Feature","geometry":{"type":"Point","coordinates":[-77.0944220992236,38.8866792674184]}},{"properties":{"latitude":38.8125841216695,"total employees":1,"zipcode":22304,"longitude":-77.1161905241143,"id":"a649evb3oy26"},"type":"Feature","geometry":{"type":"Point","coordinates":[-77.1161905241143,38.8125841216695]}},{"properties":{"latitude":38.4249114578398,"total employees":1,"zipcode":22554,"longitude":-77.3836370851083,"id":"a649evb8epur"},"type":"Feature","geometry":{"type":"Point","coordinates":[-77.3836370851083,38.4249114578398]}},{"properties":{"latitude":38.4425615551209,"total employees":1,"zipcode":22701,"longitude":-77.9905468038748,"id":"a649evajldny"},"type":"Feature","geometry":{"type":"Point","coordinates":[-77.9905468038748,38.4425615551209]}},{"properties":{"latitude":38.087476302628,"total employees":1,"zipcode":22901,"longitude":-78.5561643585233,"id":"a649evg1m4j7"},"type":"Feature","geometry":{"type":"Point","coordinates":[-78.5561643585233,38.087476302628]}},{"properties":{"latitude":38.0963757891685,"total employees":1,"zipcode":22911,"longitude":-78.406596333688,"id":"a649evjzz066"},"type":"Feature","geometry":{"type":"Point","coordinates":[-78.406596333688,38.0963757891685]}},{"properties":{"latitude":38.09976508286,"total employees":2,"zipcode":22980,"longitude":-78.8835851522324,"id":"a649evnvpk9v"},"type":"Feature","geometry":{"type":"Point","coordinates":[-78.8835851522324,38.09976508286]}},{"properties":{"latitude":37.9139040927576,"total employees":1,"zipcode":23024,"longitude":-77.7823550810725,"id":"a649evofhffj"},"type":"Feature","geometry":{"type":"Point","coordinates":[-77.7823550810725,37.9139040927576]}},{"properties":{"latitude":37.6605621522293,"total employees":1,"zipcode":23060,"longitude":-77.5322829801874,"id":"a649evm7p40y"},"type":"Feature","geometry":{"type":"Point","coordinates":[-77.5322829801874,37.6605621522293]}},{"properties":{"latitude":37.4386920147713,"total employees":1,"zipcode":23112,"longitude":-77.662173292884,"id":"a649evir767i"},"type":"Feature","geometry":{"type":"Point","coordinates":[-77.662173292884,37.4386920147713]}},{"properties":{"latitude":37.4831677929499,"total employees":1,"zipcode":23114,"longitude":-77.6600754016138,"id":"a649evj5z126"},"type":"Feature","geometry":{"type":"Point","coordinates":[-77.6600754016138,37.4831677929499]}},{"properties":{"latitude":37.5507709823622,"total employees":1,"zipcode":23139,"longitude":-77.9308547066568,"id":"a649evov9fam"},"type":"Feature","geometry":{"type":"Point","coordinates":[-77.9308547066568,37.5507709823622]}},{"properties":{"latitude":37.581100936214,"total employees":1,"zipcode":23226,"longitude":-77.5207494125742,"id":"a649evl4miel"},"type":"Feature","geometry":{"type":"Point","coordinates":[-77.5207494125742,37.581100936214]}},{"properties":{"latitude":37.6133612938929,"total employees":1,"zipcode":23233,"longitude":-77.6337901332715,"id":"a649evj1dura"},"type":"Feature","geometry":{"type":"Point","coordinates":[-77.6337901332715,37.6133612938929]}},{"properties":{"latitude":37.5137986013535,"total employees":1,"zipcode":23235,"longitude":-77.5648534429616,"id":"a649evjq2ssr"},"type":"Feature","geometry":{"type":"Point","coordinates":[-77.5648534429616,37.5137986013535]}},{"properties":{"latitude":37.5293867444974,"total employees":1,"zipcode":23238,"longitude":-77.4755600211652,"id":"a649evlcdmu9"},"type":"Feature","geometry":{"type":"Point","coordinates":[-77.4755600211652,37.5293867444974]}},{"properties":{"latitude":37.1314167295595,"total employees":1,"zipcode":23805,"longitude":-77.3953334489415,"id":"a649evoani5k"},"type":"Feature","geometry":{"type":"Point","coordinates":[-77.3953334489415,37.1314167295595]}},{"properties":{"latitude":37.3166875432528,"total employees":1,"zipcode":24012,"longitude":-79.8939748137672,"id":"a649evmpng8y"},"type":"Feature","geometry":{"type":"Point","coordinates":[-79.8939748137672,37.3166875432528]}},{"properties":{"latitude":37.3628092855439,"total employees":1,"zipcode":24502,"longitude":-79.2206992168855,"id":"a649evaom4io"},"type":"Feature","geometry":{"type":"Point","coordinates":[-79.2206992168855,37.3628092855439]}},{"properties":{"latitude":37.3666402175258,"total employees":1,"zipcode":24551,"longitude":-79.3251466336715,"id":"a649evk3lq56"},"type":"Feature","geometry":{"type":"Point","coordinates":[-79.3251466336715,37.3666402175258]}},{"properties":{"latitude":39.2660610428017,"total employees":1,"zipcode":25414,"longitude":-77.8698662892436,"id":"a649evbota79"},"type":"Feature","geometry":{"type":"Point","coordinates":[-77.8698662892436,39.2660610428017]}},{"properties":{"latitude":38.4532798333567,"total employees":1,"zipcode":45680,"longitude":-82.5435757452116,"id":"a649evhwowmm"},"type":"Feature","geometry":{"type":"Point","coordinates":[-82.5435757452116,38.4532798333567]}}],"is_temporal":false,"author":{"url":"","metadata":"","contact_name":"","contact_address":"","source":"","contact_phone":""},"source":"","pagination":{"sort":null,"start":0,"total":98,"limit":1000000},"state":"complete","tags":"comcast","published":"2010-03-16T16:00:00Z","id":33992}