{"type":"FeatureCollection","data_type":"Dataset","url_type":null,"permissions":[{"permissions":{"download":true,"view":true},"group_id":"everyone"}],"classification":null,"title":"cafo","count":90,"stream_id":350682,"contributor":{"url":"http://geocommons.com/users/70651","name":"bommar40"},"data_attributes":null,"calculation_params":null,"icon_link":null,"link":"http://geocommons.com/overlays/350682.json","extent":[-123.046,-33.8914,151.228,52.1109],"geometry_types":["point"],"unique_name":null,"name":"cafo","feature_count":90,"description":"","next_feature":null,"is_raster":false,"short_classification":"Y","stats":{},"features":[{"properties":{"city":null,"zip":"97038","notes":"Distributed 100 copies of CAFO: The Tragedy of Industrial Animal Factories","website":"http://www.friendsoffamilyfarmers.org/","id":"aduo3daowcq2","organizati":"Friends of Family Farmers","state":null},"type":"Feature","geometry":{"type":"Point","coordinates":[-122.505962,45.070265]}},{"properties":{"city":null,"zip":"28562","notes":"Distributed 150 copies of CAFO: The Tragedy of Industrial Animal Factories","website":"http://www.neuseriver.org/","id":"aduo3d9hf7l5","organizati":"Lower Neuse Riverkeepers","state":null},"type":"Feature","geometry":{"type":"Point","coordinates":[-77.092169,35.089807]}},{"properties":{"city":null,"zip":"94108","notes":"Distributed 50 copies of CAFO: The Tragedy of Industrial Animal Factories","website":"http://rootsofchange.org/","id":"aduo3ddiebud","organizati":"Roots of Change","state":null},"type":"Feature","geometry":{"type":"Point","coordinates":[-122.407419,37.79179]}},{"properties":{"city":null,"zip":"21205","notes":"Distributed 200 copies of CAFO: The Tragedy of Industrial Animal Factories, and","website":"http://www.jhsph.edu/clf/","id":"aduo3d4ipa8j","organizati":"Center for a Livable Future","state":null},"type":"Feature","geometry":{"type":"Point","coordinates":[-76.572749,39.30118]}},{"properties":{"city":null,"zip":"97219","notes":"Distributed 50 copies of CAFO: The Tragedy of Industrial Animal Factories, and 5","website":"http://law.lclark.edu/","id":"aduo3dfwgyb2","organizati":"Lewis and Clark Law School","state":null},"type":"Feature","geometry":{"type":"Point","coordinates":[-122.706544,45.457941]}},{"properties":{"city":null,"zip":"94111","notes":"Distributed 350 copies of CAFO: The Tragedy of Industrial Animal Factories, and","website":"http://www.centerforfoodsafety.org/","id":"aduo3dd7qh5t","organizati":"Center for Food Safety, SF","state":null},"type":"Feature","geometry":{"type":"Point","coordinates":[-122.398942,37.797927]}},{"properties":{"city":null,"zip":"20003","notes":"Distributed 350 copies of CAFO: The Tragedy of Industrial Animal Factories","website":"http://www.centerforfoodsafety.org/","id":"aduo3d5pqizl","organizati":"Center for Food Safety, DC","state":null},"type":"Feature","geometry":{"type":"Point","coordinates":[-76.992137,38.883154]}},{"properties":{"city":null,"zip":"83638","notes":"Distributed 1150 copies of CAFO: The Tragedy of Industrial Animal Factories, and","website":"http://www.sraproject.org/","id":"aduo3d4gzmga","organizati":"Socially Responsible Agriculture Project","state":null},"type":"Feature","geometry":{"type":"Point","coordinates":[-116.045642,44.87939]}},{"properties":{"city":null,"zip":"20037","notes":"Distributed 250 copies of CAFO: The Tragedy of Industrial Animal Factories, and","website":"http://www.humanesociety.org/","id":"aduo3dfipunr","organizati":"The Humane Society of the United States","state":null},"type":"Feature","geometry":{"type":"Point","coordinates":[-77.048899,38.89338]}},{"properties":{"city":null,"zip":"30324","notes":"Distributed 50 copies of CAFO: The Tragedy of Industrial Animal Factories","website":"www.georgiaorganics.org/","id":"aduo3dh315us","organizati":"Georgia Organics","state":null},"type":"Feature","geometry":{"type":"Point","coordinates":[-84.357902,33.822412]}},{"properties":{"city":null,"zip":"95448","notes":"Distributed 650 copies of CAFO: The Tragedy of Industrial Animal Factories, and","website":"www.watershedmedia.org","id":"aduo3d6yfduo","organizati":"Watershed Media","state":null},"type":"Feature","geometry":{"type":"Point","coordinates":[-122.86135,38.619305]}},{"properties":{"city":null,"zip":"20036","notes":"Distributed 75 copies of CAFO: The Tragedy of Industrial Animal Factories","website":"http://www.foodandwaterwatch.org/","id":"aduo3dhu0a2k","organizati":"Food and Water Watch","state":null},"type":"Feature","geometry":{"type":"Point","coordinates":[-77.041659,38.90812]}},{"properties":{"city":"London","zip":"WC1X","notes":"Distributed 25 copies of CAFO: The Tragedy of Industrial Animal Factories, and 2","website":"http://www.wspa.org.uk/","id":"aduo3d750uco","organizati":"World Society for the Protection of Animals, UK","state":null},"type":"Feature","geometry":{"type":"Point","coordinates":[-0.11304,51.523224]}},{"properties":{"city":null,"zip":"2111","notes":null,"website":"http://www.wspa-usa.org/","id":"aduo3d9wh26l","organizati":"World Society for the Protection of Animals, USA","state":null},"type":"Feature","geometry":{"type":"Point","coordinates":[-123.045601,45.176384]}},{"properties":{"city":"Saskatoon","zip":"S7H2H6","notes":null,"website":"http://beyondfactoryfarming.org/","id":"aduo3dfoer5t","organizati":"Beyond Factory Farming","state":"SK"},"type":"Feature","geometry":{"type":"Point","coordinates":[-106.639797,52.11092]}},{"properties":{"city":null,"zip":"42301","notes":"Distributed 50 copies of CAFO: The Tragedy of Industrial Animal Factories, and 5","website":"http://kentucky.sierraclub.org/","id":"aduo3d5ivsxl","organizati":"The Sierra Club, KY Chapter","state":null},"type":"Feature","geometry":{"type":"Point","coordinates":[-87.172023,37.7515]}},{"properties":{"city":null,"zip":"48906","notes":"Distributed 150 copies of CAFO: The Tragedy of Industrial Animal Factories","website":"http://michigan.sierraclub.org/","id":"aduo3d4k29kl","organizati":"The Sierra Club, Michigan Chapter","state":null},"type":"Feature","geometry":{"type":"Point","coordinates":[-84.564869,42.765738]}},{"properties":{"city":null,"zip":"49247","notes":null,"website":"http://www.nocafos.org/","id":"aduo3dfncga3","organizati":"Environmentally Concerned Citizens of South Central Michigan","state":null},"type":"Feature","geometry":{"type":"Point","coordinates":[-84.342459,41.854037]}},{"properties":{"city":null,"zip":"60659","notes":"Distributed 80 copies of CAFO: The Tragedy of Industrial Animal Factories","website":"http://www.foodanimalconcerns.org/","id":"aduo3demm6bg","organizati":"Food Animal Concerns Trust","state":null},"type":"Feature","geometry":{"type":"Point","coordinates":[-123.045601,45.176384]}},{"properties":{"city":null,"zip":"17314","notes":"Distributed 100 copies of CAFO: The Tragedy of Industrial Animal Factories","website":"http://www.pbccg.com/","id":"aduo3d96kzk3","organizati":"Peach Bottom Concerned Citizens Group","state":null},"type":"Feature","geometry":{"type":"Point","coordinates":[-76.342492,39.751097]}},{"properties":{"city":null,"zip":"53703","notes":"Distributed 45 copies of CAFO: The Tragedy of Industrial Animal Factories","website":"http://familyfarmers.org/","id":"aduo3d2j4okl","organizati":"Family Farm Defenders","state":null},"type":"Feature","geometry":{"type":"Point","coordinates":[-89.377922,43.079252]}},{"properties":{"city":null,"zip":"5602","notes":"Distributed 25 copies of CAFO: The Tragedy of Industrial Animal Factories, and 1","website":"http://www.ruralvermont.org/","id":"aduo3d7h82aw","organizati":"Rural Vermont","state":null},"type":"Feature","geometry":{"type":"Point","coordinates":[-123.045601,45.176384]}},{"properties":{"city":null,"zip":"52556","notes":"Distributed 1436 copies of CAFO: The Tragedy of Industrial Animal Factories, and","website":"http://www.jfaniowa.org/","id":"aduo3de9yfxt","organizati":"Jefferson County Farmers and Neighbors","state":null},"type":"Feature","geometry":{"type":"Point","coordinates":[-91.954049,41.01194]}},{"properties":{"city":null,"zip":"20912","notes":"Distributed 24 copies of CAFO: The Tragedy of Industrial Animal Factories, and 2","website":"http://www.cok.net/","id":"aduo3dgxj1ix","organizati":"Compassion Over Killing","state":null},"type":"Feature","geometry":{"type":"Point","coordinates":[-76.99943,38.982448]}},{"properties":{"city":null,"zip":"54930","notes":"Distributed 200 copies of CAFO: The Tragedy of Industrial Animal Factories","website":"http://www.friendsofcs.org/","id":"aduo3dbzr0f0","organizati":"Friends of Central Sands","state":null},"type":"Feature","geometry":{"type":"Point","coordinates":[-89.512191,44.02739]}},{"properties":{"city":null,"zip":"10003","notes":"Distributed 50 copies of The CAFO Reader","website":"http://www.glynwood.org/glynwood-institute/","id":"aduo3dgr3xda","organizati":"Glynwood Institute","state":null},"type":"Feature","geometry":{"type":"Point","coordinates":[-73.987432,40.732947]}},{"properties":{"city":null,"zip":"94720","notes":"Distributed 11 copies of CAFO: The Tragedy of Industrial Animal Factories","website":"http://www.facebook.com/calveg","id":"aduo3d476qok","organizati":"Berkeley Organization for Animal Advocacy","state":null},"type":"Feature","geometry":{"type":"Point","coordinates":[-122.258308,37.872828]}},{"properties":{"city":null,"zip":"61087","notes":"Distributed 50 copies of CAFO: The Tragedy of Industrial Animal Factories","website":"www.stopthemegadairy.org/","id":"aduo3d6nx5vl","organizati":"Helping Others Maintain Environmental Standards","state":null},"type":"Feature","geometry":{"type":"Point","coordinates":[-89.988519,42.49065]}},{"properties":{"city":null,"zip":"10591","notes":"Distributed 21 copies of CAFO: The Tragedy of Industrial Animal Factories","website":"Stone Barns\nwww.stonebarnscenter.org/","id":"aduo3d9rnnl9","organizati":"Stone Barns Center","state":null},"type":"Feature","geometry":{"type":"Point","coordinates":[-73.854269,41.081121]}},{"properties":{"city":null,"zip":"13041","notes":null,"website":"PhoenixTalks.com\nwww.phoenixtalks.com/","id":"aduo3d6n0w7x","organizati":"Citizens for Family Farms","state":null},"type":"Feature","geometry":{"type":"Point","coordinates":[-76.172079,43.173899]}},{"properties":{"city":null,"zip":"54628","notes":null,"website":"crawfordstewardshipproject.org/","id":"aduo3dahuvnq","organizati":"Crawford Stewardship Project","state":null},"type":"Feature","geometry":{"type":"Point","coordinates":[-91.04046,43.37417]}},{"properties":{"city":null,"zip":"20002","notes":null,"website":"www.nsac.org/","id":"aduo3d9h3apt","organizati":"National Sustainalbe  Agriculture Coalition","state":null},"type":"Feature","geometry":{"type":"Point","coordinates":[-76.989243,38.904102]}},{"properties":{"city":null,"zip":"20016","notes":null,"website":"http://www.pcrm.org/","id":"aduo3df4p1qk","organizati":"Physicians Committee for Responsible Medicine","state":null},"type":"Feature","geometry":{"type":"Point","coordinates":[-77.088479,38.9398]}},{"properties":{"city":null,"zip":"20010","notes":null,"website":"http://awellfedworld.org/","id":"aduo3dfd5ccu","organizati":"A Well- Fed World","state":null},"type":"Feature","geometry":{"type":"Point","coordinates":[-77.027167,38.932207]}},{"properties":{"city":null,"zip":"GU7 1EZ","notes":null,"website":"http://www.ciwf.org.uk/","id":"aduo3ddz2yeg","organizati":"Compassion in World Farming Dorset","state":null},"type":"Feature","geometry":{"type":"Point","coordinates":[-0.617705,51.184895]}},{"properties":{"city":null,"zip":"2141","notes":null,"website":"www.farmaid.org/","id":"aduo3daytsts","organizati":"Farm Aid","state":null},"type":"Feature","geometry":{"type":"Point","coordinates":[120.32505,31.58254]}},{"properties":{"city":null,"zip":"48108","notes":null,"website":"www.animalsandsociety.org/","id":"aduo3d785le6","organizati":"Animals in Society Institute","state":null},"type":"Feature","geometry":{"type":"Point","coordinates":[-123.045601,45.176384]}},{"properties":{"city":null,"zip":"6491","notes":null,"website":"www.nofa.org/","id":"aduo3d317wpc","organizati":"Organic Farmers Association","state":null},"type":"Feature","geometry":{"type":"Point","coordinates":[8.472505,46.57723]}},{"properties":{"city":null,"zip":"BS1 3NX","notes":null,"website":"www.soilassociation.org/","id":"aduo3db10fz9","organizati":"Soil Association","state":null},"type":"Feature","geometry":{"type":"Point","coordinates":[-2.590195,51.459589]}},{"properties":{"city":null,"zip":"17236","notes":null,"website":"www.celdf.org/","id":"aduo3d7rrf3k","organizati":"Community Environmental Legal Defense Fund","state":null},"type":"Feature","geometry":{"type":"Point","coordinates":[-77.92047,39.795841]}},{"properties":{"city":null,"zip":"20036","notes":null,"website":"www.worldwatch.org/nourishingtheplanet","id":"aduo3df7q1le","organizati":"Nourish the Planet- Worldwatch Institute","state":null},"type":"Feature","geometry":{"type":"Point","coordinates":[-77.041659,38.90812]}},{"properties":{"city":null,"zip":"94901","notes":null,"website":"www.idausa.org/","id":"aduo3ddc8hug","organizati":"In Defense of Animals","state":null},"type":"Feature","geometry":{"type":"Point","coordinates":[-122.51346,37.974461]}},{"properties":{"city":"Bristol","zip":"BS2 8QH","notes":null,"website":"www.viva.org.uk/","id":"aduo3d52phmo","organizati":"Viva! - Vegetarians International Voice for Animals","state":null},"type":"Feature","geometry":{"type":"Point","coordinates":[-2.586945,51.461004]}},{"properties":{"city":null,"zip":"1773","notes":null,"website":"thefoodproject.org/","id":"aduo3debt44s","organizati":"The Food Project","state":null},"type":"Feature","geometry":{"type":"Point","coordinates":[-123.045601,45.176384]}},{"properties":{"city":null,"zip":"53202","notes":null,"website":"www.midwestadvocates.org/","id":"aduo3d6c7fb6","organizati":"Midwest Environmental Advocates","state":null},"type":"Feature","geometry":{"type":"Point","coordinates":[-87.899093,43.043254]}},{"properties":{"city":null,"zip":"97208","notes":null,"website":"www.farmforward.com/","id":"aduo3dif3zdb","organizati":"Farm Forward","state":null},"type":"Feature","geometry":{"type":"Point","coordinates":[-123.045601,45.176384]}},{"properties":{"city":null,"zip":"30303","notes":null,"website":"greenlaw.org/","id":"aduo3d67dvfp","organizati":"Green Law","state":null},"type":"Feature","geometry":{"type":"Point","coordinates":[-84.389709,33.75438]}},{"properties":{"city":null,"zip":"10036","notes":null,"website":"www.justfood.org/","id":"aduo3d7h0v3d","organizati":"Just Food","state":null},"type":"Feature","geometry":{"type":"Point","coordinates":[-73.990262,40.759136]}},{"properties":{"city":null,"zip":"55603","notes":null,"website":"www.organicconsumers.org/","id":"aduo3d8wdojy","organizati":"Organic Consumers Association","state":null},"type":"Feature","geometry":{"type":"Point","coordinates":[-91.20941,47.51785]}},{"properties":{"city":null,"zip":"10016","notes":null,"website":"www.gracelinks.org/","id":"aduo3dgndjs2","organizati":"GRACE","state":null},"type":"Feature","geometry":{"type":"Point","coordinates":[-73.977736,40.745564]}},{"properties":{"city":null,"zip":"20009","notes":null,"website":"www.edf.org/","id":"aduo3dhjifk9","organizati":"Environmental Defense Fund","state":null},"type":"Feature","geometry":{"type":"Point","coordinates":[-77.037698,38.919129]}},{"properties":{"city":null,"zip":"55404","notes":null,"website":"www.iatp.org/","id":"aduo3d6urelq","organizati":"Institute for Agriculture and Trade Policy","state":null},"type":"Feature","geometry":{"type":"Point","coordinates":[-93.261059,44.96332]}},{"properties":{"city":null,"zip":"55407","notes":null,"website":"www.landstewardshipproject.org/","id":"aduo3dhlenn0","organizati":"Land Stewardship Project","state":null},"type":"Feature","geometry":{"type":"Point","coordinates":[-93.254934,44.93684]}},{"properties":{"city":null,"zip":"20002","notes":null,"website":"www.nffc.net/","id":"aduo3ddm6379","organizati":"National Family Farm Coalition","state":null},"type":"Feature","geometry":{"type":"Point","coordinates":[-76.989243,38.904102]}},{"properties":{"city":null,"zip":"59101","notes":null,"website":"www.worc.org/","id":"aduo3dbad11d","organizati":"Western Organization of Resource Councils","state":null},"type":"Feature","geometry":{"type":"Point","coordinates":[-108.497686,45.770272]}},{"properties":{"city":null,"zip":"43212","notes":null,"website":"www.theoec.org/","id":"aduo3d65kc5j","organizati":"Ohio Environmental Counsil","state":null},"type":"Feature","geometry":{"type":"Point","coordinates":[-83.040743,39.99079]}},{"properties":{"city":null,"zip":"20036","notes":null,"website":"www.defenders.org/","id":"aduo3daqst3p","organizati":"Defenders of Wildlife","state":null},"type":"Feature","geometry":{"type":"Point","coordinates":[-77.041659,38.90812]}},{"properties":{"city":null,"zip":"53561","notes":null,"website":"cswab.org/","id":"aduo3dg0aeo8","organizati":"Citizens for Safe Water Around Badger","state":null},"type":"Feature","geometry":{"type":"Point","coordinates":[-89.648933,43.388496]}},{"properties":{"city":null,"zip":"53061","notes":null,"website":"www.wisrawmilkassociation.com/","id":"aduo3dftq1nn","organizati":"Wisconsin Raw Milk Association","state":null},"type":"Feature","geometry":{"type":"Point","coordinates":[-88.098314,43.94796]}},{"properties":{"city":null,"zip":"46208","notes":null,"website":"www.hecweb.org/","id":"aduo3dec7uuf","organizati":"Hoosier Environmental Council","state":null},"type":"Feature","geometry":{"type":"Point","coordinates":[-86.171618,39.824718]}},{"properties":{"city":null,"zip":"10025","notes":null,"website":"www.foodfight.org/","id":"aduo3dal274n","organizati":"FoodFight","state":null},"type":"Feature","geometry":{"type":"Point","coordinates":[-73.968899,40.80008]}},{"properties":{"city":null,"zip":"54767","notes":null,"website":"www.mosesorganic.org/","id":"aduo3dhxrqv3","organizati":"Midwest Organic and Sustainable Education Service","state":null},"type":"Feature","geometry":{"type":"Point","coordinates":[-92.269777,44.83372]}},{"properties":{"city":null,"zip":"77057","notes":null,"website":"www.cechouston.org/","id":"aduo3dgcpe1f","organizati":"Citizens' Environmental Coalition","state":null},"type":"Feature","geometry":{"type":"Point","coordinates":[-95.488655,29.74407]}},{"properties":{"city":null,"zip":"72702","notes":null,"website":"www.ssawg.org/","id":"aduo3dbu3f31","organizati":"Southern SAWG","state":null},"type":"Feature","geometry":{"type":"Point","coordinates":[-94.091343,35.94558]}},{"properties":{"city":null,"zip":"54016","notes":null,"website":"grassworks.org/","id":"aduo3d9q15mc","organizati":"GrassWorks","state":null},"type":"Feature","geometry":{"type":"Point","coordinates":[-92.712545,44.9747]}},{"properties":{"city":null,"zip":"58458","notes":null,"website":"www.npsas.org/","id":"aduo3d6mu9ci","organizati":"Northern Plains Sustainable Agriculture Society","state":null},"type":"Feature","geometry":{"type":"Point","coordinates":[-98.285369,46.36779]}},{"properties":{"city":null,"zip":"43402","notes":null,"website":"www.wccoff.org/","id":"aduo3dav1gjn","organizati":"Wood County Citizens Opposed to Factory Farms","state":null},"type":"Feature","geometry":{"type":"Point","coordinates":[-83.658575,41.38537]}},{"properties":{"city":null,"zip":"54302","notes":null,"website":"www.cwac.net/","id":"aduo3d7oyvh9","organizati":"Clean Water Action Council","state":null},"type":"Feature","geometry":{"type":"Point","coordinates":[-87.977459,44.504175]}},{"properties":{"city":null,"zip":"20005","notes":null,"website":"www.environmentalintegrity.org/","id":"aduo3dhnxd6z","organizati":"Environmental Integrity Project","state":null},"type":"Feature","geometry":{"type":"Point","coordinates":[-77.031079,38.904363]}},{"properties":{"city":null,"zip":"78701","notes":null,"website":"www.environmentalintegrity.org/","id":"aduo3di7qy08","organizati":"Environmental Integrity Project","state":null},"type":"Feature","geometry":{"type":"Point","coordinates":[-97.740189,30.272469]}},{"properties":{"city":null,"zip":"22201","notes":null,"website":"www.animalagalliance.org/","id":"aduo3d8ibnh7","organizati":"Animal Agriculture Alliance","state":null},"type":"Feature","geometry":{"type":"Point","coordinates":[-77.094879,38.88659]}},{"properties":{"city":null,"zip":"87931","notes":null,"website":"caballonm.com/","id":"aduo3d4sy2dd","organizati":"Caballo Concerned Citizens Group","state":null},"type":"Feature","geometry":{"type":"Point","coordinates":[-107.325197,32.965225]}},{"properties":{"city":null,"zip":"88240","notes":null,"website":"www.dairynm.org/","id":"aduo3d5ps0x9","organizati":"Citizens for Diary Reform","state":null},"type":"Feature","geometry":{"type":"Point","coordinates":[-103.155709,32.700679]}},{"properties":{"city":null,"zip":"10011","notes":null,"website":"www.nrdc.org/","id":"aduo3d9ykukp","organizati":"The Natural Resources Defense Council","state":null},"type":"Feature","geometry":{"type":"Point","coordinates":[-74.002552,40.742266]}},{"properties":{"city":null,"zip":"50010","notes":null,"website":"www.wfan.org/","id":"aduo3d5phtqs","organizati":"Women, Food and Agriculture Network","state":null},"type":"Feature","geometry":{"type":"Point","coordinates":[-93.614729,42.03453]}},{"properties":{"city":null,"zip":"96021","notes":null,"website":"www.farmsanctuary.org/","id":"aduo3d81wp6q","organizati":"Farm Sanctuary","state":null},"type":"Feature","geometry":{"type":"Point","coordinates":[-122.218719,39.93921]}},{"properties":{"city":null,"zip":"94618","notes":null,"website":"http://www.foodfirst.org/","id":"aduo3dal2kkp","organizati":"First Food: Instituted for Food and Development Policy","state":null},"type":"Feature","geometry":{"type":"Point","coordinates":[-122.242149,37.843671]}},{"properties":{"city":null,"zip":"97075","notes":null,"website":"cookingupastory.com/","id":"aduo3d2ni9t1","organizati":"Cooking Up a Story","state":null},"type":"Feature","geometry":{"type":"Point","coordinates":[-122.799973,45.496454]}},{"properties":{"city":null,"zip":"98417","notes":null,"website":"www.eatwild.com/","id":"aduo3d3wmlmh","organizati":"Eat Wild","state":null},"type":"Feature","geometry":{"type":"Point","coordinates":[-122.439915,47.248495]}},{"properties":{"city":null,"zip":"94618","notes":null,"website":"info@foodfirst.org","id":"aduo3dbl02zp","organizati":"First  Food","state":null},"type":"Feature","geometry":{"type":"Point","coordinates":[-122.242149,37.843671]}},{"properties":{"city":null,"zip":"22314","notes":null,"website":"www.animalwelfareapproved.org/","id":"aduo3ddcjfet","organizati":"Animal Welfare Approved","state":null},"type":"Feature","geometry":{"type":"Point","coordinates":[-77.052068,38.80747]}},{"properties":{"city":null,"zip":"80246","notes":null,"website":"www.americangrassfed.org/","id":"aduo3dghd33i","organizati":"American Grassfed Association","state":null},"type":"Feature","geometry":{"type":"Point","coordinates":[-104.931269,39.70589]}},{"properties":{"city":null,"zip":"98273","notes":null,"website":"wsffn.org/","id":"aduo3dbihl3h","organizati":"Washington Sustainable Food &amp; Farming Network","state":null},"type":"Feature","geometry":{"type":"Point","coordinates":[-122.358871,48.40308]}},{"properties":{"city":null,"zip":"50010","notes":null,"website":"www.practicalfarmers.org/","id":"aduo3d8ibixm","organizati":"Practical Farmers of Iowa","state":null},"type":"Feature","geometry":{"type":"Point","coordinates":[-93.614729,42.03453]}},{"properties":{"city":null,"zip":"94102","notes":null,"website":"www.panna.org/","id":"aduo3df62a5z","organizati":"Pesticide Action Network North America","state":null},"type":"Feature","geometry":{"type":"Point","coordinates":[-122.418444,37.779541]}},{"properties":{"city":null,"zip":"16854","notes":null,"website":"www.pasafarming.org/","id":"aduo3ddl3kpl","organizati":"Pennsylvania Association for Sustainable Agriculture","state":null},"type":"Feature","geometry":{"type":"Point","coordinates":[-77.476009,40.89149]}},{"properties":{"city":null,"zip":"98101","notes":null,"website":"www.pccfarmlandtrust.org/","id":"aduo3d2cdsps","organizati":"PCC Farmland Trust","state":null},"type":"Feature","geometry":{"type":"Point","coordinates":[-122.335847,47.610588]}},{"properties":{"city":null,"zip":"12583","notes":null,"website":null,"id":"aduo3d38lsr8","organizati":"Young Farmers Coalition","state":null},"type":"Feature","geometry":{"type":"Point","coordinates":[-73.885079,42.05395]}},{"properties":{"city":null,"zip":"98232","notes":null,"website":null,"id":"aduo3d35gfk7","organizati":"Island Grown Farmers Coalition","state":null},"type":"Feature","geometry":{"type":"Point","coordinates":[-122.412776,48.559652]}},{"properties":{"city":null,"zip":"2021","notes":null,"website":null,"id":"aduo3d6nnwza","organizati":"Voiceless","state":"NSW"},"type":"Feature","geometry":{"type":"Point","coordinates":[151.228447,-33.89142]}}],"is_temporal":false,"author":{"url":"","metadata":null,"contact_name":null,"contact_address":null,"source":null,"contact_phone":null},"source":"","pagination":{"sort":null,"start":0,"total":90,"limit":1000000},"state":"complete","tags":"","published":"2014-08-16T14:06:27-04:00","id":350682}