{"type":"FeatureCollection","data_type":"Dataset","url_type":null,"permissions":[{"permissions":{"download":true,"view":true},"group_id":"everyone"}],"classification":null,"title":"Minerva Hearing Protection Fitting Centres","count":77,"stream_id":54195,"contributor":{"url":"http://geocommons.com/users/13835","name":"MinervaHP"},"data_attributes":null,"calculation_params":null,"icon_link":null,"link":"http://geocommons.com/overlays/54195.json","extent":[-87.6815,0.0,1.38258,57.4736],"geometry_types":["point"],"unique_name":null,"name":"Minerva Hearing Protection Fitting Centres","feature_count":77,"description":"Finding an audiologist to custom fit earpieces can be time-consuming.  Weâ€™ve made it easy for you by collaborating with Hidden Hearing. You can have you impressions taken at over 75 locations nationwide.\n\nYou can find your nearest fitting centre for Minerva Hearing Protection products with this map. When you order from http://www.minerva-hearingprotection.co.uk you can select a time and fitting centre handy for you, and the centre will call you the next day to confirm your appointment.\n","next_feature":null,"is_raster":false,"short_classification":"Y","stats":{"bg_long":{"max":1.3825847,"mean":-2.65707511948052,"variance":98.93677806993,"stdev":9.94669684216474,"min":-87.6815329,"median":-1.541379},"bg_lat":{"max":57.4735775,"mean":51.6994755155844,"variance":42.3215545195582,"stdev":6.50550186531048,"min":0.0,"median":52.1938391}},"features":[{"properties":{"nearest branch name":"Aberdeen","postcode":"AB10 1SB","bg_long":-2.1090422,"address 1":"21 Summer Street","bg_lat":57.144055,"id":"a62jcujl75af"},"type":"Feature","geometry":{"type":"Point","coordinates":[-2.1090422,57.144055]}},{"properties":{"nearest branch name":"Altrincham","postcode":"WA14 2DE","bg_long":-2.3518733,"address 1":"4 Lloyd Street","bg_lat":53.3843977,"id":"a62jcubnk1mi"},"type":"Feature","geometry":{"type":"Point","coordinates":[-2.3518733,53.3843977]}},{"properties":{"nearest branch name":"Ayr","postcode":"KA7 2AY","bg_long":-4.6329011,"address 1":"28 Miller Road","bg_lat":55.4581449,"id":"a62jcuc3n0e8"},"type":"Feature","geometry":{"type":"Point","coordinates":[-4.6329011,55.4581449]}},{"properties":{"nearest branch name":"Baker street","postcode":"NW1 6UY","bg_long":-0.1582043,"address 1":"191 Baker Street","bg_lat":51.5236209,"id":"a62jcugmubnc"},"type":"Feature","geometry":{"type":"Point","coordinates":[-0.1582043,51.5236209]}},{"properties":{"nearest branch name":"Barnsley","postcode":"S70 2QN","bg_long":-1.4354149,"address 1":"16-18 The Arcade","bg_lat":53.5594303,"id":"a62jcu9xifr4"},"type":"Feature","geometry":{"type":"Point","coordinates":[-1.4354149,53.5594303]}},{"properties":{"nearest branch name":"Barnstaple","postcode":"EX31 1RP","bg_long":-4.058703,"address 1":"24 Boutport Street","bg_lat":51.0815932,"id":"a62jcu4lr84w"},"type":"Feature","geometry":{"type":"Point","coordinates":[-4.058703,51.0815932]}},{"properties":{"nearest branch name":"Bath","postcode":"BA1 1UL","bg_long":-2.3607386,"address 1":"18 St. James's Parade","bg_lat":51.3791591,"id":"a62jcud20251"},"type":"Feature","geometry":{"type":"Point","coordinates":[-2.3607386,51.3791591]}},{"properties":{"nearest branch name":"Bedford","postcode":"MK40 3US","bg_long":-0.4619061,"address 1":"12 Castle Lane","bg_lat":52.1366129,"id":"a62jcuaxhqdm"},"type":"Feature","geometry":{"type":"Point","coordinates":[-0.4619061,52.1366129]}},{"properties":{"nearest branch name":"Bolton","postcode":"BL1 1HX","bg_long":-2.4238876,"address 1":"3 Church Bank","bg_lat":53.5797327,"id":"a62jcu8097pi"},"type":"Feature","geometry":{"type":"Point","coordinates":[-2.4238876,53.5797327]}},{"properties":{"nearest branch name":"Bournemouth","postcode":"BH4 9BB","bg_long":-1.9039061,"address 1":"97 Poole Road","bg_lat":50.7232296,"id":"a62jcu6hbezz"},"type":"Feature","geometry":{"type":"Point","coordinates":[-1.9039061,50.7232296]}},{"properties":{"nearest branch name":"Bradford","postcode":"BD1 1PJ","bg_long":-1.7193105,"address 1":"1-3 Piece Hall Yard","bg_lat":53.8208652,"id":"a62jcufu3ewc"},"type":"Feature","geometry":{"type":"Point","coordinates":[-1.7193105,53.8208652]}},{"properties":{"nearest branch name":"Brentwood","postcode":"CM15 8NB","bg_long":0.3245617,"address 1":"108-110 Hutton Road","bg_lat":51.6294808,"id":"a62jcujojavd"},"type":"Feature","geometry":{"type":"Point","coordinates":[0.3245617,51.6294808]}},{"properties":{"nearest branch name":"Bromley","postcode":"BR1 1QW","bg_long":0.0167207,"address 1":"46 East Street","bg_lat":51.4077534,"id":"a62jcuftz8pn"},"type":"Feature","geometry":{"type":"Point","coordinates":[0.0167207,51.4077534]}},{"properties":{"nearest branch name":"Cambridge","postcode":"CB1 3AN","bg_long":0.1460712,"address 1":"193 Mill Road","bg_lat":52.1972975,"id":"a62jcufrdexk"},"type":"Feature","geometry":{"type":"Point","coordinates":[0.1460712,52.1972975]}},{"properties":{"nearest branch name":"Canterbury","postcode":"CT1 2NZ","bg_long":1.0766873,"address 1":"22-24 Stour Street","bg_lat":51.2779173,"id":"a62jcu9dg10v"},"type":"Feature","geometry":{"type":"Point","coordinates":[1.0766873,51.2779173]}},{"properties":{"nearest branch name":"Cardiff","postcode":"CF11 9AE","bg_long":-3.1896433,"address 1":"51 Cowbridge Road East","bg_lat":51.4814744,"id":"a62jcu6takab"},"type":"Feature","geometry":{"type":"Point","coordinates":[-3.1896433,51.4814744]}},{"properties":{"nearest branch name":"Cheltenham","postcode":"GL50 1HE","bg_long":-2.0756285,"address 1":"14 Regent Street","bg_lat":51.8993988,"id":"a62jcui3o3s7"},"type":"Feature","geometry":{"type":"Point","coordinates":[-2.0756285,51.8993988]}},{"properties":{"nearest branch name":"Chester","postcode":"CH1 1EA","bg_long":-2.8902335,"address 1":"5 Pepper Row","bg_lat":53.1886986,"id":"a62jcucvm3oy"},"type":"Feature","geometry":{"type":"Point","coordinates":[-2.8902335,53.1886986]}},{"properties":{"nearest branch name":"Chesterfield","postcode":"S40 1RQ","bg_long":-1.4271393,"address 1":"34 Knifesmithgate","bg_lat":53.2362457,"id":"a62jcu7bxcgb"},"type":"Feature","geometry":{"type":"Point","coordinates":[-1.4271393,53.2362457]}},{"properties":{"nearest branch name":"Clacton","postcode":"CO15 1SP","bg_long":1.1538095,"address 1":"72 Station Road","bg_lat":51.7911573,"id":"a62jcuaorkdg"},"type":"Feature","geometry":{"type":"Point","coordinates":[1.1538095,51.7911573]}},{"properties":{"nearest branch name":"Crewe","postcode":"CW2 7RA","bg_long":-2.4420812,"address 1":"1 Wistaston Road","bg_lat":53.0950654,"id":"a62jcu5xahza"},"type":"Feature","geometry":{"type":"Point","coordinates":[-2.4420812,53.0950654]}},{"properties":{"nearest branch name":"Croydon","postcode":"CR0 1YD","bg_long":-0.0983429,"address 1":"19 Park Street","bg_lat":51.3734971,"id":"a62jcu7k2r3q"},"type":"Feature","geometry":{"type":"Point","coordinates":[-0.0983429,51.3734971]}},{"properties":{"nearest branch name":"Derby","postcode":"DE1 1SD","bg_long":-1.476014,"address 1":"Unit 3 Babington Court","bg_lat":52.9196436,"id":"a62jcubjh134"},"type":"Feature","geometry":{"type":"Point","coordinates":[-1.476014,52.9196436]}},{"properties":{"nearest branch name":"Duke street","postcode":"W1K 5NY","bg_long":-0.1507057,"address 1":"71 Duke Street","bg_lat":51.5128465,"id":"a62jcujeanfq"},"type":"Feature","geometry":{"type":"Point","coordinates":[-0.1507057,51.5128465]}},{"properties":{"nearest branch name":"Dundee","postcode":"DD1 3AF","bg_long":-2.9683247,"address 1":"28/30 Castle Street","bg_lat":56.4606005,"id":"a62jcu7nabsq"},"type":"Feature","geometry":{"type":"Point","coordinates":[-2.9683247,56.4606005]}},{"properties":{"nearest branch name":"Eastbourne","postcode":"BN21 4RL","bg_long":0.2813912,"address 1":"4 Gildredge Road","bg_lat":50.7686752,"id":"a62jcubc25ep"},"type":"Feature","geometry":{"type":"Point","coordinates":[0.2813912,50.7686752]}},{"properties":{"nearest branch name":"Edinburgh","postcode":"EH2 3ES","bg_long":-3.1948544,"address 1":"Forsyth house","bg_lat":55.952319,"id":"a62jcu4rnxvd"},"type":"Feature","geometry":{"type":"Point","coordinates":[-3.1948544,55.952319]}},{"properties":{"nearest branch name":"Exeter","postcode":"EX4 1AA","bg_long":-3.5381155,"address 1":"182 Cowick Street","bg_lat":50.7180172,"id":"a62jcu5arpsn"},"type":"Feature","geometry":{"type":"Point","coordinates":[-3.5381155,50.7180172]}},{"properties":{"nearest branch name":"Finchley","postcode":"N3 2BU","bg_long":-0.1908823,"address 1":"66 Ballards Lane","bg_lat":51.6033166,"id":"a62jcu5q06yd"},"type":"Feature","geometry":{"type":"Point","coordinates":[-0.1908823,51.6033166]}},{"properties":{"nearest branch name":"Glasgow","postcode":"G2 1QR","bg_long":-4.2562365,"address 1":"117 West George Street","bg_lat":55.8622996,"id":"a62jcuc57vc4"},"type":"Feature","geometry":{"type":"Point","coordinates":[-4.2562365,55.8622996]}},{"properties":{"nearest branch name":"Guildford","postcode":"GU1 3JQ","bg_long":-0.5740163,"address 1":"Unit 4 Trinity Gate","bg_lat":51.2395271,"id":"a62jcu8j0cqg"},"type":"Feature","geometry":{"type":"Point","coordinates":[-0.5740163,51.2395271]}},{"properties":{"nearest branch name":"Hereford","postcode":"HR4 9AP","bg_long":-2.7175306,"address 1":"10 Broad Street","bg_lat":52.0559282,"id":"a62jcufnanbh"},"type":"Feature","geometry":{"type":"Point","coordinates":[-2.7175306,52.0559282]}},{"properties":{"nearest branch name":"High Wycombe","postcode":"HP13 6RZ","bg_long":-0.7508325,"address 1":"5 Castle Street","bg_lat":51.6302314,"id":"a62jcu4joy4e"},"type":"Feature","geometry":{"type":"Point","coordinates":[-0.7508325,51.6302314]}},{"properties":{"nearest branch name":"Hove","postcode":"BN3 5QL","bg_long":-0.1844659,"address 1":"140 Portland Road","bg_lat":50.8331923,"id":"a62jcua55ekc"},"type":"Feature","geometry":{"type":"Point","coordinates":[-0.1844659,50.8331923]}},{"properties":{"nearest branch name":"Inverness","postcode":"IV1 1LS","bg_long":-4.2457381,"address 1":"16 Margaret Street","bg_lat":57.4735775,"id":"a62jcucqwgiq"},"type":"Feature","geometry":{"type":"Point","coordinates":[-4.2457381,57.4735775]}},{"properties":{"nearest branch name":"Ipswich","postcode":"IP1 1SL","bg_long":1.1537928,"address 1":"18 Falcon Street","bg_lat":52.0559605,"id":"a62jcu9867od"},"type":"Feature","geometry":{"type":"Point","coordinates":[1.1537928,52.0559605]}},{"properties":{"nearest branch name":"Isle of Man","postcode":"IM3 4EB","bg_long":-4.4788988,"address 1":"Manx Hidden Hearing Clinic","bg_lat":54.2035183,"id":"a62jcukek1un"},"type":"Feature","geometry":{"type":"Point","coordinates":[-4.4788988,54.2035183]}},{"properties":{"nearest branch name":"Jersey","postcode":"JE1 7XP","bg_long":0.0,"address 1":"Lido Cedical Centre","bg_lat":0.0,"id":"a62jcuamkdtb"},"type":"Feature","geometry":{"type":"Point","coordinates":[0.0,0.0]}},{"properties":{"nearest branch name":"King's Lynn","postcode":"PE30 5DQ","bg_long":0.39422,"address 1":"3 Saturday Market Place","bg_lat":52.7523,"id":"a62jcucge1sv"},"type":"Feature","geometry":{"type":"Point","coordinates":[0.39422,52.7523]}},{"properties":{"nearest branch name":"Kingston upon Thames","postcode":"KT1 1DG","bg_long":-0.3059626,"address 1":"8 Eden Street","bg_lat":51.4089789,"id":"a62jcug079u2"},"type":"Feature","geometry":{"type":"Point","coordinates":[-0.3059626,51.4089789]}},{"properties":{"nearest branch name":"Leeds","postcode":"LS1 6DB","bg_long":-1.541379,"address 1":"4 Fish Street","bg_lat":53.7972893,"id":"a62jcuhyp2a3"},"type":"Feature","geometry":{"type":"Point","coordinates":[-1.541379,53.7972893]}},{"properties":{"nearest branch name":"Leigh-on-sea","postcode":"SS9 2UR","bg_long":0.6323303,"address 1":"1488 London Road","bg_lat":51.5483051,"id":"a62jcu6xatqc"},"type":"Feature","geometry":{"type":"Point","coordinates":[0.6323303,51.5483051]}},{"properties":{"nearest branch name":"Lichfield","postcode":"WS13 6LL","bg_long":-1.8281597,"address 1":"18 Bore Street","bg_lat":52.6826156,"id":"a62jcuhxsqvk"},"type":"Feature","geometry":{"type":"Point","coordinates":[-1.8281597,52.6826156]}},{"properties":{"nearest branch name":"Lincoln","postcode":"LN5 7HE","bg_long":-0.5879982,"address 1":"7 Cornhill Pavement","bg_lat":53.1412334,"id":"a62jcuexg8vo"},"type":"Feature","geometry":{"type":"Point","coordinates":[-0.5879982,53.1412334]}},{"properties":{"nearest branch name":"Liverpool","postcode":"L1 5BE","bg_long":-2.9854914,"address 1":"11 Cleveland Square","bg_lat":53.4015997,"id":"a62jcuh98mf0"},"type":"Feature","geometry":{"type":"Point","coordinates":[-2.9854914,53.4015997]}},{"properties":{"nearest branch name":"Llandudno","postcode":"LL30 2UU","bg_long":-3.8306904,"address 1":"11 Lloyd Street","bg_lat":53.3238769,"id":"a62jcue4rd9q"},"type":"Feature","geometry":{"type":"Point","coordinates":[-3.8306904,53.3238769]}},{"properties":{"nearest branch name":"Lytham","postcode":"FY8 5JP","bg_long":-2.9824077,"address 1":"4 Clifton Square","bg_lat":53.7368466,"id":"a62jcu60y7au"},"type":"Feature","geometry":{"type":"Point","coordinates":[-2.9824077,53.7368466]}},{"properties":{"nearest branch name":"Maidstone","postcode":"ME14 1PA","bg_long":0.5202661,"address 1":"31 Pudding Lane","bg_lat":51.274434,"id":"a62jcu5ma68h"},"type":"Feature","geometry":{"type":"Point","coordinates":[0.5202661,51.274434]}},{"properties":{"nearest branch name":"Margate","postcode":"CT9 1NX","bg_long":1.3825847,"address 1":"6 Cecil Street","bg_lat":51.3873015,"id":"a62jcuezccu5"},"type":"Feature","geometry":{"type":"Point","coordinates":[1.3825847,51.3873015]}},{"properties":{"nearest branch name":"Middlesbrough","postcode":"TS1 3RZ","bg_long":-1.228523,"address 1":"167b Borough Road","bg_lat":54.5722851,"id":"a62jcu6y0hoq"},"type":"Feature","geometry":{"type":"Point","coordinates":[-1.228523,54.5722851]}},{"properties":{"nearest branch name":"Newcastle upon Tyne","postcode":"NE1 5AQ","bg_long":-1.615727,"address 1":"6 Nun Street","bg_lat":54.9723087,"id":"a62jcu7ous03"},"type":"Feature","geometry":{"type":"Point","coordinates":[-1.615727,54.9723087]}},{"properties":{"nearest branch name":"Northampton","postcode":"NN1 2QL","bg_long":-0.8961419,"address 1":"8 Mercers row","bg_lat":52.2374349,"id":"a62jcu948er1"},"type":"Feature","geometry":{"type":"Point","coordinates":[-0.8961419,52.2374349]}},{"properties":{"nearest branch name":"Norwich","postcode":"NR2 1JL","bg_long":1.2913392,"address 1":"11 St. Giles Street","bg_lat":52.6291258,"id":"a62jcuap6hil"},"type":"Feature","geometry":{"type":"Point","coordinates":[1.2913392,52.6291258]}},{"properties":{"nearest branch name":"Nottingham","postcode":"NG1 6DQ","bg_long":-1.1519014,"address 1":"38 Friar Lane","bg_lat":52.9522239,"id":"a62jcug16buc"},"type":"Feature","geometry":{"type":"Point","coordinates":[-1.1519014,52.9522239]}},{"properties":{"nearest branch name":"Perth","postcode":"PH1 5HZ","bg_long":-3.4288094,"address 1":"2 Mill Street","bg_lat":56.3976697,"id":"a62jcu5x5d5o"},"type":"Feature","geometry":{"type":"Point","coordinates":[-3.4288094,56.3976697]}},{"properties":{"nearest branch name":"Peterborough","postcode":"PE1 1TN","bg_long":-0.241162,"address 1":"8 Nidgate","bg_lat":52.574036,"id":"a62jcu9pmaw0"},"type":"Feature","geometry":{"type":"Point","coordinates":[-0.241162,52.574036]}},{"properties":{"nearest branch name":"Plymouth","postcode":"PL1 1EW","bg_long":-4.1435525,"address 1":"66-70 Royal Parade","bg_lat":50.3703732,"id":"a62jcubtik0v"},"type":"Feature","geometry":{"type":"Point","coordinates":[-4.1435525,50.3703732]}},{"properties":{"nearest branch name":"Reading","postcode":"RG1 7QG","bg_long":-0.9736507,"address 1":"19 Oxford Road","bg_lat":51.4691409,"id":"a62jcu9ef7i3"},"type":"Feature","geometry":{"type":"Point","coordinates":[-0.9736507,51.4691409]}},{"properties":{"nearest branch name":"Rugby","postcode":"CV21 3BG","bg_long":-1.2224152,"address 1":"21-22 High Street","bg_lat":52.3590489,"id":"a62jcu6zy7w6"},"type":"Feature","geometry":{"type":"Point","coordinates":[-1.2224152,52.3590489]}},{"properties":{"nearest branch name":"Salisbury","postcode":"SP1 1BT","bg_long":-1.7902674,"address 1":"3 Market Walk","bg_lat":51.0638848,"id":"a62jcu9yf29b"},"type":"Feature","geometry":{"type":"Point","coordinates":[-1.7902674,51.0638848]}},{"properties":{"nearest branch name":"Sheffield","postcode":"S1 2ER","bg_long":-87.6815329,"address 1":"19/23 York Street","bg_lat":34.7685926,"id":"a62jcu5njy2t"},"type":"Feature","geometry":{"type":"Point","coordinates":[-87.6815329,34.7685926]}},{"properties":{"nearest branch name":"Shrewsbury","postcode":"SY1 1HS","bg_long":-2.7562886,"address 1":"24 Shoplatch","bg_lat":52.7074068,"id":"a62jcu9xsyfo"},"type":"Feature","geometry":{"type":"Point","coordinates":[-2.7562886,52.7074068]}},{"properties":{"nearest branch name":"Southport","postcode":"PR9 0AN","bg_long":-2.999763,"address 1":"625-627 Lord Street","bg_lat":53.6515488,"id":"a62jcuf1ab2r"},"type":"Feature","geometry":{"type":"Point","coordinates":[-2.999763,53.6515488]}},{"properties":{"nearest branch name":"St. Albans","postcode":"AL3 5BX","bg_long":-0.3371688,"address 1":"26-28 Catherine Street","bg_lat":51.7551964,"id":"a62jcu5ztdu5"},"type":"Feature","geometry":{"type":"Point","coordinates":[-0.3371688,51.7551964]}},{"properties":{"nearest branch name":"Stafford","postcode":"ST16 2JZ","bg_long":-2.1162034,"address 1":"5 Market Street","bg_lat":52.8074607,"id":"a62jcuby6h0w"},"type":"Feature","geometry":{"type":"Point","coordinates":[-2.1162034,52.8074607]}},{"properties":{"nearest branch name":"Stanmore","postcode":"HA7 3DZ","bg_long":-0.3164145,"address 1":"93 Stanmore Hill","bg_lat":51.6209885,"id":"a62jcubtlweu"},"type":"Feature","geometry":{"type":"Point","coordinates":[-0.3164145,51.6209885]}},{"properties":{"nearest branch name":"Stockport","postcode":"SK1 1TY","bg_long":-2.1569853,"address 1":"12 Vernon Street","bg_lat":53.412031,"id":"a62jcu5qlhgp"},"type":"Feature","geometry":{"type":"Point","coordinates":[-2.1569853,53.412031]}},{"properties":{"nearest branch name":"Stratford upon Avon","postcode":"CV37 6NR","bg_long":-1.7104092,"address 1":"8 Mansell Street","bg_lat":52.1938391,"id":"a62jcuituk5u"},"type":"Feature","geometry":{"type":"Point","coordinates":[-1.7104092,52.1938391]}},{"properties":{"nearest branch name":"Swansea","postcode":"SA1 5HF","bg_long":-3.9434353,"address 1":"45 Princess way","bg_lat":51.6212663,"id":"a62jcu76t7rj"},"type":"Feature","geometry":{"type":"Point","coordinates":[-3.9434353,51.6212663]}},{"properties":{"nearest branch name":"Truro","postcode":"TR1 2LS","bg_long":-5.0543865,"address 1":"Lemon House","bg_lat":50.2565488,"id":"a62jcukhh8r2"},"type":"Feature","geometry":{"type":"Point","coordinates":[-5.0543865,50.2565488]}},{"properties":{"nearest branch name":"Tunbridge Wells","postcode":"TN1 1LU","bg_long":0.2641835,"address 1":"44 Monson Road","bg_lat":51.1334518,"id":"a62jcua45q0r"},"type":"Feature","geometry":{"type":"Point","coordinates":[0.2641835,51.1334518]}},{"properties":{"nearest branch name":"Warrington","postcode":"WA1 1XL","bg_long":-2.5634829,"address 1":"6b The Courtyard","bg_lat":53.3982517,"id":"a62jcuai8537"},"type":"Feature","geometry":{"type":"Point","coordinates":[-2.5634829,53.3982517]}},{"properties":{"nearest branch name":"Wigmore Street","postcode":"W1U 2AU","bg_long":-0.1504035,"address 1":"John bell &amp; croyden","bg_lat":51.5161008,"id":"a62jcue9ll5k"},"type":"Feature","geometry":{"type":"Point","coordinates":[-0.1504035,51.5161008]}},{"properties":{"nearest branch name":"Wolverhampton","postcode":"WV1 1TQ","bg_long":-2.1337308,"address 1":"4 Hampton Walk","bg_lat":52.5898661,"id":"a62jcu6v81f6"},"type":"Feature","geometry":{"type":"Point","coordinates":[-2.1337308,52.5898661]}},{"properties":{"nearest branch name":"Worthing","postcode":"BN11 1QH","bg_long":-0.3728503,"address 1":"3 Portland Square","bg_lat":50.8108502,"id":"a62jcu4wlcy3"},"type":"Feature","geometry":{"type":"Point","coordinates":[-0.3728503,50.8108502]}},{"properties":{"nearest branch name":"Yeovil","postcode":"BA20 1EQ","bg_long":-2.6338086,"address 1":"24 Princes Street","bg_lat":50.9421259,"id":"a62jcuf6nz6s"},"type":"Feature","geometry":{"type":"Point","coordinates":[-2.6338086,50.9421259]}},{"properties":{"nearest branch name":"York","postcode":"YO30 7BW","bg_long":-1.0860676,"address 1":"23 Bootham","bg_lat":53.963295,"id":"a62jcu4pobrw"},"type":"Feature","geometry":{"type":"Point","coordinates":[-1.0860676,53.963295]}}],"is_temporal":false,"author":{"url":"","metadata":"","contact_name":"","contact_address":"","source":"","contact_phone":""},"source":"","pagination":{"sort":null,"start":0,"total":77,"limit":1000000},"state":"complete","tags":"and,custom,earplugs,health,hearing,protection,safety","published":"2014-08-10T14:15:38-04:00","id":54195}