{"type":"FeatureCollection","data_type":"Dataset","url_type":null,"permissions":[{"permissions":{"download":true,"view":true},"group_id":"everyone"}],"classification":null,"title":"testing_flickr_nyc","count":200,"stream_id":7926,"contributor":{"url":"http://geocommons.com/users/142","name":"tom"},"data_attributes":null,"calculation_params":null,"icon_link":null,"link":"http://geocommons.com/overlays/7926.json","extent":[-74.145,40.558,-73.715,40.907],"geometry_types":["point"],"unique_name":null,"name":"testing_flickr_nyc","feature_count":200,"description":"","next_feature":null,"is_raster":false,"short_classification":"Y","stats":{"woeid":{"max":55864591,"mean":18722424.05,"variance":168691647251776.0,"stdev":12988134.8642434,"min":2356876,"median":23511864},"latitude":{"max":40.907,"mean":40.730855,"variance":0.00529393364321605,"stdev":0.0727594230544474,"min":40.558,"median":40.731},"longitude":{"max":-73.715,"mean":-73.945385,"variance":0.00440594650753767,"stdev":0.0663773041599135,"min":-74.145,"median":-73.961},"photostaken":{"max":26592,"mean":1992.525,"variance":11018703.6576633,"stdev":3319.44327525917,"min":97,"median":781}},"features":[{"properties":{"placename":"Astoria, New York, NY, US, United States","woeid":2356876,"latitude":40.774,"longitude":-73.922,"id":"a6hgyql6299z","photostaken":1588},"type":"Feature","geometry":{"type":"Point","coordinates":[-73.922,40.774]}},{"properties":{"placename":"Astoria South, Astoria, NY, US, United States","woeid":2356878,"latitude":40.763,"longitude":-73.932,"id":"a6hgyqhl8sw2","photostaken":472},"type":"Feature","geometry":{"type":"Point","coordinates":[-73.932,40.763]}},{"properties":{"placename":"Bath Beach, NY, US, United States","woeid":2359981,"latitude":40.597,"longitude":-74.001,"id":"a6hgyqteq46b","photostaken":121},"type":"Feature","geometry":{"type":"Point","coordinates":[-74.001,40.597]}},{"properties":{"placename":"Battery Park City, New York, NY, US, United States","woeid":2360037,"latitude":40.708,"longitude":-74.016,"id":"a6hgyqp7v2os","photostaken":11542},"type":"Feature","geometry":{"type":"Point","coordinates":[-74.016,40.708]}},{"properties":{"placename":"Bay Ridge, NY, US, United States","woeid":2360230,"latitude":40.632,"longitude":-74.024,"id":"a6hgyquwfkix","photostaken":362},"type":"Feature","geometry":{"type":"Point","coordinates":[-74.024,40.632]}},{"properties":{"placename":"Bedford, NY, US, United States","woeid":2361199,"latitude":40.688,"longitude":-73.947,"id":"a6hgyqnahjfr","photostaken":2061},"type":"Feature","geometry":{"type":"Point","coordinates":[-73.947,40.688]}},{"properties":{"placename":"Bedford, NY, US, United States","woeid":2361199,"latitude":40.688,"longitude":-73.947,"id":"a6hgyqgssk77","photostaken":186},"type":"Feature","geometry":{"type":"Point","coordinates":[-73.947,40.688]}},{"properties":{"placename":"Bensonhurst, NY, US, United States","woeid":2362717,"latitude":40.619,"longitude":-73.996,"id":"a6hgyqq94oxv","photostaken":212},"type":"Feature","geometry":{"type":"Point","coordinates":[-73.996,40.619]}},{"properties":{"placename":"Breezy Point, Breezy Point, NY, US, United States","woeid":2368455,"latitude":40.558,"longitude":-73.901,"id":"a6hgyqk4figp","photostaken":268},"type":"Feature","geometry":{"type":"Point","coordinates":[-73.901,40.558]}},{"properties":{"placename":"Brighton Beach, NY, US, United States","woeid":2369165,"latitude":40.576,"longitude":-73.961,"id":"a6hgyqu5x38v","photostaken":385},"type":"Feature","geometry":{"type":"Point","coordinates":[-73.961,40.576]}},{"properties":{"placename":"Broad Channel, Far Rockaway, NY, US, United States","woeid":2369460,"latitude":40.617,"longitude":-73.824,"id":"a6hgyqml0olm","photostaken":143},"type":"Feature","geometry":{"type":"Point","coordinates":[-73.824,40.617]}},{"properties":{"placename":"Bronxdale, NY, US, United States","woeid":2369744,"latitude":40.849,"longitude":-73.866,"id":"a6hgyqmwwhgb","photostaken":685},"type":"Feature","geometry":{"type":"Point","coordinates":[-73.866,40.849]}},{"properties":{"placename":"Brooklyn Heights, NY, US, United States","woeid":2369991,"latitude":40.694,"longitude":-73.994,"id":"a6hgyqhhwu0g","photostaken":1048},"type":"Feature","geometry":{"type":"Point","coordinates":[-73.994,40.694]}},{"properties":{"placename":"Bushwick, NY, US, United States","woeid":2372523,"latitude":40.696,"longitude":-73.918,"id":"a6hgyqgomzmc","photostaken":907},"type":"Feature","geometry":{"type":"Point","coordinates":[-73.918,40.696]}},{"properties":{"placename":"Cambria Heights, Cambria Heights, NY, US, United States","woeid":2373536,"latitude":40.699,"longitude":-73.727,"id":"a6hgyqfjbpqt","photostaken":151},"type":"Feature","geometry":{"type":"Point","coordinates":[-73.727,40.699]}},{"properties":{"placename":"Central Park, New York, NY, US, United States","woeid":2377611,"latitude":40.782,"longitude":-73.965,"id":"a6hgyqfjsw2n","photostaken":6613},"type":"Feature","geometry":{"type":"Point","coordinates":[-73.965,40.782]}},{"properties":{"placename":"Chelsea, New York, NY, US, United States","woeid":2378824,"latitude":40.748,"longitude":-74.004,"id":"a6hgyqv69jup","photostaken":3296},"type":"Feature","geometry":{"type":"Point","coordinates":[-74.004,40.748]}},{"properties":{"placename":"Chinatown, New York, NY, US, United States","woeid":2379860,"latitude":40.716,"longitude":-74.0,"id":"a6hgyqp7iat4","photostaken":2622},"type":"Feature","geometry":{"type":"Point","coordinates":[-74.0,40.716]}},{"properties":{"placename":"Coney Island, NY, US, United States","woeid":2384115,"latitude":40.581,"longitude":-73.984,"id":"a6hgyqmln705","photostaken":10767},"type":"Feature","geometry":{"type":"Point","coordinates":[-73.984,40.581]}},{"properties":{"placename":"Corona, Corona, NY, US, United States","woeid":2385249,"latitude":40.751,"longitude":-73.863,"id":"a6hgyqg5c48c","photostaken":241},"type":"Feature","geometry":{"type":"Point","coordinates":[-73.863,40.751]}},{"properties":{"placename":"East Tremont, NY, US, United States","woeid":2396250,"latitude":40.848,"longitude":-73.889,"id":"a6hgyqjxn1yq","photostaken":832},"type":"Feature","geometry":{"type":"Point","coordinates":[-73.889,40.848]}},{"properties":{"placename":"East Village, New York, NY, US, United States","woeid":2396288,"latitude":40.728,"longitude":-73.986,"id":"a6hgyquiwtsd","photostaken":1194},"type":"Feature","geometry":{"type":"Point","coordinates":[-73.986,40.728]}},{"properties":{"placename":"Elmhurst, New York, NY, US, United States","woeid":2398977,"latitude":40.746,"longitude":-73.874,"id":"a6hgyqq1ie6d","photostaken":556},"type":"Feature","geometry":{"type":"Point","coordinates":[-73.874,40.746]}},{"properties":{"placename":"Flatlands, NY, US, United States","woeid":2404185,"latitude":40.623,"longitude":-73.928,"id":"a6hgyqmq4985","photostaken":145},"type":"Feature","geometry":{"type":"Point","coordinates":[-73.928,40.623]}},{"properties":{"placename":"Forest Hills, Forest Hills, NY, US, United States","woeid":2405169,"latitude":40.73,"longitude":-73.844,"id":"a6hgyqj5njw3","photostaken":213},"type":"Feature","geometry":{"type":"Point","coordinates":[-73.844,40.73]}},{"properties":{"placename":"Fort Greene, NY, US, United States","woeid":2405711,"latitude":40.683,"longitude":-73.976,"id":"a6hgyqpzdlgc","photostaken":2071},"type":"Feature","geometry":{"type":"Point","coordinates":[-73.976,40.683]}},{"properties":{"placename":"Fort Hamilton, NY, US, United States","woeid":2405715,"latitude":40.614,"longitude":-74.026,"id":"a6hgyqlm3xf8","photostaken":922},"type":"Feature","geometry":{"type":"Point","coordinates":[-74.026,40.614]}},{"properties":{"placename":"Fort Jay, New York, NY, US, United States","woeid":2405750,"latitude":40.691,"longitude":-74.014,"id":"a6hgyqrwuf2m","photostaken":1175},"type":"Feature","geometry":{"type":"Point","coordinates":[-74.014,40.691]}},{"properties":{"placename":"Fort Totten, Bayside, NY, US, United States","woeid":2405985,"latitude":40.788,"longitude":-73.775,"id":"a6hgyqo973zt","photostaken":149},"type":"Feature","geometry":{"type":"Point","coordinates":[-73.775,40.788]}},{"properties":{"placename":"Glen Oaks, Glen Oaks, NY, US, United States","woeid":2410874,"latitude":40.75,"longitude":-73.715,"id":"a6hgyqnlfm2q","photostaken":102},"type":"Feature","geometry":{"type":"Point","coordinates":[-73.715,40.75]}},{"properties":{"placename":"Gravesend, NY, US, United States","woeid":2413389,"latitude":40.595,"longitude":-73.969,"id":"a6hgyqnagdq3","photostaken":452},"type":"Feature","geometry":{"type":"Point","coordinates":[-73.969,40.595]}},{"properties":{"placename":"Greenpoint, NY, US, United States","woeid":2414423,"latitude":40.729,"longitude":-73.947,"id":"a6hgyqjijmp0","photostaken":1393},"type":"Feature","geometry":{"type":"Point","coordinates":[-73.947,40.729]}},{"properties":{"placename":"Hollis, Hollis, NY, US, United States","woeid":2423189,"latitude":40.713,"longitude":-73.765,"id":"a6hgyqjrj0t9","photostaken":127},"type":"Feature","geometry":{"type":"Point","coordinates":[-73.765,40.713]}},{"properties":{"placename":"Inwood, New York, NY, US, United States","woeid":2427367,"latitude":40.87,"longitude":-73.923,"id":"a6hgyqmndlbc","photostaken":1135},"type":"Feature","geometry":{"type":"Point","coordinates":[-73.923,40.87]}},{"properties":{"placename":"Kensington, NY, US, United States","woeid":2431631,"latitude":40.641,"longitude":-73.982,"id":"a6hgyqtvper6","photostaken":164},"type":"Feature","geometry":{"type":"Point","coordinates":[-73.982,40.641]}},{"properties":{"placename":"Linden Hill, Maspeth, NY, US, United States","woeid":2439709,"latitude":40.715,"longitude":-73.914,"id":"a6hgyqtsn0ki","photostaken":120},"type":"Feature","geometry":{"type":"Point","coordinates":[-73.914,40.715]}},{"properties":{"placename":"Little Italy, New York, NY, US, United States","woeid":2440236,"latitude":40.719,"longitude":-73.998,"id":"a6hgyqopbuvg","photostaken":1755},"type":"Feature","geometry":{"type":"Point","coordinates":[-73.998,40.719]}},{"properties":{"placename":"Little Neck, New York, NY, US, United States","woeid":2440275,"latitude":40.775,"longitude":-73.746,"id":"a6hgyqoacs8l","photostaken":190},"type":"Feature","geometry":{"type":"Point","coordinates":[-73.746,40.775]}},{"properties":{"placename":"Long Island City, New York, NY, US, United States","woeid":2441564,"latitude":40.749,"longitude":-73.938,"id":"a6hgyqvfinq1","photostaken":1645},"type":"Feature","geometry":{"type":"Point","coordinates":[-73.938,40.749]}},{"properties":{"placename":"Lower East Side, New York, NY, US, United States","woeid":2442599,"latitude":40.713,"longitude":-73.983,"id":"a6hgyqr039xc","photostaken":1553},"type":"Feature","geometry":{"type":"Point","coordinates":[-73.983,40.713]}},{"properties":{"placename":"Lower Manhattan, New York, NY, US, United States","woeid":2442628,"latitude":40.719,"longitude":-74.001,"id":"a6hgyqrbpijk","photostaken":3788},"type":"Feature","geometry":{"type":"Point","coordinates":[-74.001,40.719]}},{"properties":{"placename":"Mott Haven, NY, US, United States","woeid":2454651,"latitude":40.813,"longitude":-73.92,"id":"a6hgyqnjns1f","photostaken":1051},"type":"Feature","geometry":{"type":"Point","coordinates":[-73.92,40.813]}},{"properties":{"placename":"Murray Hill, New York, NY, US, United States","woeid":2456515,"latitude":40.747,"longitude":-73.974,"id":"a6hgyqqx90od","photostaken":4513},"type":"Feature","geometry":{"type":"Point","coordinates":[-73.974,40.747]}},{"properties":{"placename":"Neponsit, Rockaway Park, NY, US, United States","woeid":2457802,"latitude":40.573,"longitude":-73.861,"id":"a6hgyqpfl11e","photostaken":166},"type":"Feature","geometry":{"type":"Point","coordinates":[-73.861,40.573]}},{"properties":{"placename":"New York, NY, United States","woeid":2459115,"latitude":40.714,"longitude":-74.007,"id":"a6hgyqin68uz","photostaken":3477},"type":"Feature","geometry":{"type":"Point","coordinates":[-74.007,40.714]}},{"properties":{"placename":"Park Slope, NY, US, United States","woeid":2468432,"latitude":40.668,"longitude":-73.977,"id":"a6hgyqjjb154","photostaken":3792},"type":"Feature","geometry":{"type":"Point","coordinates":[-73.977,40.668]}},{"properties":{"placename":"Parkside, Forest Hills, NY, US, United States","woeid":2468673,"latitude":40.712,"longitude":-73.852,"id":"a6hgyqhi6ln1","photostaken":1582},"type":"Feature","geometry":{"type":"Point","coordinates":[-73.852,40.712]}},{"properties":{"placename":"Red Hook, NY, US, United States","woeid":2479351,"latitude":40.671,"longitude":-74.01,"id":"a6hgyqui6kdf","photostaken":1514},"type":"Feature","geometry":{"type":"Point","coordinates":[-74.01,40.671]}},{"properties":{"placename":"Roosevelt Island, New York, NY, US, United States","woeid":2484381,"latitude":40.761,"longitude":-73.95,"id":"a6hgyqn2ky04","photostaken":1331},"type":"Feature","geometry":{"type":"Point","coordinates":[-73.95,40.761]}},{"properties":{"placename":"Seagate, NY, US, United States","woeid":2490258,"latitude":40.575,"longitude":-74.004,"id":"a6hgyqjioud5","photostaken":357},"type":"Feature","geometry":{"type":"Point","coordinates":[-74.004,40.575]}},{"properties":{"placename":"Sheepshead Bay, NY, US, United States","woeid":2492063,"latitude":40.591,"longitude":-73.95,"id":"a6hgyquhj21a","photostaken":127},"type":"Feature","geometry":{"type":"Point","coordinates":[-73.95,40.591]}},{"properties":{"placename":"Spuyten Duyvil, NY, US, United States","woeid":2498630,"latitude":40.885,"longitude":-73.924,"id":"a6hgyqges3lq","photostaken":176},"type":"Feature","geometry":{"type":"Point","coordinates":[-73.924,40.885]}},{"properties":{"placename":"Steinway, Astoria, NY, US, United States","woeid":2499525,"latitude":40.783,"longitude":-73.912,"id":"a6hgyqt5olfb","photostaken":751},"type":"Feature","geometry":{"type":"Point","coordinates":[-73.912,40.783]}},{"properties":{"placename":"Stuyvesant Town, New York, NY, US, United States","woeid":2501158,"latitude":40.731,"longitude":-73.976,"id":"a6hgyqj13q0p","photostaken":513},"type":"Feature","geometry":{"type":"Point","coordinates":[-73.976,40.731]}},{"properties":{"placename":"Sunnyside, Sunnyside, NY, US, United States","woeid":2502249,"latitude":40.743,"longitude":-73.919,"id":"a6hgyqjnz9l9","photostaken":706},"type":"Feature","geometry":{"type":"Point","coordinates":[-73.919,40.743]}},{"properties":{"placename":"Throgs Neck, NY, US, United States","woeid":2506134,"latitude":40.812,"longitude":-73.807,"id":"a6hgyqgrur8k","photostaken":161},"type":"Feature","geometry":{"type":"Point","coordinates":[-73.807,40.812]}},{"properties":{"placename":"Turtle Bay, New York, NY, US, United States","woeid":2508889,"latitude":40.755,"longitude":-73.966,"id":"a6hgyqfjevrz","photostaken":4672},"type":"Feature","geometry":{"type":"Point","coordinates":[-73.966,40.755]}},{"properties":{"placename":"Upper West Side, New York, NY, US, United States","woeid":2510368,"latitude":40.792,"longitude":-73.976,"id":"a6hgyqnks0yu","photostaken":1123},"type":"Feature","geometry":{"type":"Point","coordinates":[-73.976,40.792]}},{"properties":{"placename":"Utopia, Fresh Meadows, NY, US, United States","woeid":2510556,"latitude":40.732,"longitude":-73.8,"id":"a6hgyqvsx81j","photostaken":112},"type":"Feature","geometry":{"type":"Point","coordinates":[-73.8,40.732]}},{"properties":{"placename":"Van Nest, NY, US, United States","woeid":2511172,"latitude":40.848,"longitude":-73.863,"id":"a6hgyqtuxgrn","photostaken":118},"type":"Feature","geometry":{"type":"Point","coordinates":[-73.863,40.848]}},{"properties":{"placename":"Wakefield, NY, US, United States","woeid":2513241,"latitude":40.898,"longitude":-73.845,"id":"a6hgyqjzxtj2","photostaken":306},"type":"Feature","geometry":{"type":"Point","coordinates":[-73.845,40.898]}},{"properties":{"placename":"Washington Heights, New York, NY, US, United States","woeid":2514888,"latitude":40.837,"longitude":-73.944,"id":"a6hgyqm07e32","photostaken":1067},"type":"Feature","geometry":{"type":"Point","coordinates":[-73.944,40.837]}},{"properties":{"placename":"West Farms, NY, US, United States","woeid":2517012,"latitude":40.837,"longitude":-73.872,"id":"a6hgyqspci79","photostaken":1007},"type":"Feature","geometry":{"type":"Point","coordinates":[-73.872,40.837]}},{"properties":{"placename":"West Village, New York, NY, US, United States","woeid":2517895,"latitude":40.736,"longitude":-74.008,"id":"a6hgyqrxa3nz","photostaken":1855},"type":"Feature","geometry":{"type":"Point","coordinates":[-74.008,40.736]}},{"properties":{"placename":"Westerleigh, NY, US, United States","woeid":2518093,"latitude":40.621,"longitude":-74.131,"id":"a6hgyqo30ujx","photostaken":230},"type":"Feature","geometry":{"type":"Point","coordinates":[-74.131,40.621]}},{"properties":{"placename":"Whitestone, Whitestone, NY, US, United States","woeid":2519821,"latitude":40.782,"longitude":-73.807,"id":"a6hgyqqyiphi","photostaken":239},"type":"Feature","geometry":{"type":"Point","coordinates":[-73.807,40.782]}},{"properties":{"placename":"Williamsburg, NY, US, United States","woeid":2520841,"latitude":40.701,"longitude":-73.954,"id":"a6hgyqs3kare","photostaken":912},"type":"Feature","geometry":{"type":"Point","coordinates":[-73.954,40.701]}},{"properties":{"placename":"Willowbrook, NY, US, United States","woeid":2521245,"latitude":40.597,"longitude":-74.145,"id":"a6hgyqv93rjv","photostaken":142},"type":"Feature","geometry":{"type":"Point","coordinates":[-74.145,40.597]}},{"properties":{"placename":"Woodlawn, NY, US, United States","woeid":2523370,"latitude":40.898,"longitude":-73.874,"id":"a6hgyquy77n1","photostaken":319},"type":"Feature","geometry":{"type":"Point","coordinates":[-73.874,40.898]}},{"properties":{"placename":"Woodside, Jackson Heights, NY, US, United States","woeid":2523693,"latitude":40.752,"longitude":-73.892,"id":"a6hgyqkakc8y","photostaken":781},"type":"Feature","geometry":{"type":"Point","coordinates":[-73.892,40.752]}},{"properties":{"placename":"Belmont, NY, US, United States","woeid":23511805,"latitude":40.863,"longitude":-73.885,"id":"a6hgyqk4jwg3","photostaken":2000},"type":"Feature","geometry":{"type":"Point","coordinates":[-73.885,40.863]}},{"properties":{"placename":"Clinton, New York, NY, US, United States","woeid":23511806,"latitude":40.767,"longitude":-73.996,"id":"a6hgyqi2ibho","photostaken":1671},"type":"Feature","geometry":{"type":"Point","coordinates":[-73.996,40.767]}},{"properties":{"placename":"Prospect Hights, NY, US, United States","woeid":23511807,"latitude":40.676,"longitude":-73.962,"id":"a6hgyqoo10cs","photostaken":556},"type":"Feature","geometry":{"type":"Point","coordinates":[-73.962,40.676]}},{"properties":{"placename":"Morningside Hights, New York, NY, US, United States","woeid":23511810,"latitude":40.814,"longitude":-73.964,"id":"a6hgyqgp1xdy","photostaken":1171},"type":"Feature","geometry":{"type":"Point","coordinates":[-73.964,40.814]}},{"properties":{"placename":"Blissville, Long Island City, NY, US, United States","woeid":23511812,"latitude":40.73,"longitude":-73.927,"id":"a6hgyqguuqv7","photostaken":236},"type":"Feature","geometry":{"type":"Point","coordinates":[-73.927,40.73]}},{"properties":{"placename":"Somerville, Arverne, NY, US, United States","woeid":23511813,"latitude":40.597,"longitude":-73.801,"id":"a6hgyqvkeu1b","photostaken":276},"type":"Feature","geometry":{"type":"Point","coordinates":[-73.801,40.597]}},{"properties":{"placename":"Central Harlem, New York, NY, US, United States","woeid":23511814,"latitude":40.807,"longitude":-73.945,"id":"a6hgyqhlqjns","photostaken":509},"type":"Feature","geometry":{"type":"Point","coordinates":[-73.945,40.807]}},{"properties":{"placename":"Astoria Hights, Astoria, NY, US, United States","woeid":23511820,"latitude":40.774,"longitude":-73.898,"id":"a6hgyqjsq4zl","photostaken":429},"type":"Feature","geometry":{"type":"Point","coordinates":[-73.898,40.774]}},{"properties":{"placename":"Civic Center, New York, NY, US, United States","woeid":23511822,"latitude":40.713,"longitude":-74.003,"id":"a6hgyqfm55im","photostaken":2421},"type":"Feature","geometry":{"type":"Point","coordinates":[-74.003,40.713]}},{"properties":{"placename":"Ocean Parkway, NY, US, United States","woeid":23511824,"latitude":40.618,"longitude":-73.974,"id":"a6hgyqsf5c19","photostaken":108},"type":"Feature","geometry":{"type":"Point","coordinates":[-73.974,40.618]}},{"properties":{"placename":"Queensboro Hills, Flushing, NY, US, United States","woeid":23511825,"latitude":40.747,"longitude":-73.825,"id":"a6hgyqp95kfi","photostaken":347},"type":"Feature","geometry":{"type":"Point","coordinates":[-73.825,40.747]}},{"properties":{"placename":"Lenox Hill, New York, NY, US, United States","woeid":23511826,"latitude":40.769,"longitude":-73.964,"id":"a6hgyqg9g3wj","photostaken":7220},"type":"Feature","geometry":{"type":"Point","coordinates":[-73.964,40.769]}},{"properties":{"placename":"Plum Beach, NY, US, United States","woeid":23511827,"latitude":40.587,"longitude":-73.919,"id":"a6hgyqv3jsgc","photostaken":275},"type":"Feature","geometry":{"type":"Point","coordinates":[-73.919,40.587]}},{"properties":{"placename":"Windsor Teraace, NY, US, United States","woeid":23511828,"latitude":40.655,"longitude":-73.989,"id":"a6hgyqikdwae","photostaken":133},"type":"Feature","geometry":{"type":"Point","coordinates":[-73.989,40.655]}},{"properties":{"placename":"Prospect Park Sout, NY, US, United States","woeid":23511831,"latitude":40.647,"longitude":-73.963,"id":"a6hgyqrvv8kf","photostaken":315},"type":"Feature","geometry":{"type":"Point","coordinates":[-73.963,40.647]}},{"properties":{"placename":"Gowanus, NY, US, United States","woeid":23511834,"latitude":40.668,"longitude":-73.996,"id":"a6hgyqpqeyde","photostaken":2247},"type":"Feature","geometry":{"type":"Point","coordinates":[-73.996,40.668]}},{"properties":{"placename":"Wingate, NY, US, United States","woeid":23511836,"latitude":40.664,"longitude":-73.933,"id":"a6hgyqoyg63j","photostaken":97},"type":"Feature","geometry":{"type":"Point","coordinates":[-73.933,40.664]}},{"properties":{"placename":"South Side, NY, US, United States","woeid":23511844,"latitude":40.71,"longitude":-73.962,"id":"a6hgyqpspwuz","photostaken":3063},"type":"Feature","geometry":{"type":"Point","coordinates":[-73.962,40.71]}},{"properties":{"placename":"East Williasburg, NY, US, United States","woeid":23511845,"latitude":40.712,"longitude":-73.934,"id":"a6hgyqgrpsm1","photostaken":787},"type":"Feature","geometry":{"type":"Point","coordinates":[-73.934,40.712]}},{"properties":{"placename":"North Side, NY, US, United States","woeid":23511846,"latitude":40.722,"longitude":-73.956,"id":"a6hgyqk838zo","photostaken":5613},"type":"Feature","geometry":{"type":"Point","coordinates":[-73.956,40.722]}},{"properties":{"placename":"Down Town, NY, US, United States","woeid":23511847,"latitude":40.692,"longitude":-73.981,"id":"a6hgyqhh4w47","photostaken":327},"type":"Feature","geometry":{"type":"Point","coordinates":[-73.981,40.692]}},{"properties":{"placename":"Clinton Hill, NY, US, United States","woeid":23511848,"latitude":40.691,"longitude":-73.971,"id":"a6hgyqkf6vzc","photostaken":1257},"type":"Feature","geometry":{"type":"Point","coordinates":[-73.971,40.691]}},{"properties":{"placename":"Navy Yard, NY, US, United States","woeid":23511849,"latitude":40.697,"longitude":-73.971,"id":"a6hgyqo3o91x","photostaken":649},"type":"Feature","geometry":{"type":"Point","coordinates":[-73.971,40.697]}},{"properties":{"placename":"Tulton Ferry, NY, US, United States","woeid":23511850,"latitude":40.7,"longitude":-73.992,"id":"a6hgyqoajyju","photostaken":1844},"type":"Feature","geometry":{"type":"Point","coordinates":[-73.992,40.7]}},{"properties":{"placename":"Cypres Hills, NY, US, United States","woeid":23511855,"latitude":40.688,"longitude":-73.873,"id":"a6hgyqptpqin","photostaken":679},"type":"Feature","geometry":{"type":"Point","coordinates":[-73.873,40.688]}},{"properties":{"placename":"City Line, NY, US, United States","woeid":23511856,"latitude":40.679,"longitude":-73.864,"id":"a6hgyqoxqg9t","photostaken":102},"type":"Feature","geometry":{"type":"Point","coordinates":[-73.864,40.679]}},{"properties":{"placename":"Hunters Point, Long Island City, NY, US, United States","woeid":23511858,"latitude":40.741,"longitude":-73.949,"id":"a6hgyqq2z4e5","photostaken":2292},"type":"Feature","geometry":{"type":"Point","coordinates":[-73.949,40.741]}},{"properties":{"placename":"Ravenswood, Astoria, NY, US, United States","woeid":23511860,"latitude":40.763,"longitude":-73.935,"id":"a6hgyqhtpuhn","photostaken":2199},"type":"Feature","geometry":{"type":"Point","coordinates":[-73.935,40.763]}},{"properties":{"placename":"Down Town Flushing, Flushing, NY, US, United States","woeid":23511862,"latitude":40.768,"longitude":-73.83,"id":"a6hgyqh80r3k","photostaken":228},"type":"Feature","geometry":{"type":"Point","coordinates":[-73.83,40.768]}},{"properties":{"placename":"Lefrak City, Corona, NY, US, United States","woeid":23511863,"latitude":40.74,"longitude":-73.863,"id":"a6hgyqjh3udr","photostaken":103},"type":"Feature","geometry":{"type":"Point","coordinates":[-73.863,40.74]}},{"properties":{"placename":"South Corona, Corona, NY, US, United States","woeid":23511864,"latitude":40.754,"longitude":-73.859,"id":"a6hgyqhix1jh","photostaken":993},"type":"Feature","geometry":{"type":"Point","coordinates":[-73.859,40.754]}},{"properties":{"placename":"Brookville, Springfield Gardens, NY, US, United States","woeid":23511867,"latitude":40.653,"longitude":-73.753,"id":"a6hgyqski2ug","photostaken":124},"type":"Feature","geometry":{"type":"Point","coordinates":[-73.753,40.653]}},{"properties":{"placename":"Pomonok, Flushing, NY, US, United States","woeid":23511868,"latitude":40.738,"longitude":-73.817,"id":"a6hgyqplo28n","photostaken":120},"type":"Feature","geometry":{"type":"Point","coordinates":[-73.817,40.738]}},{"properties":{"placename":"Country Club, NY, US, United States","woeid":23511878,"latitude":40.85,"longitude":-73.791,"id":"a6hgyqm2nzlr","photostaken":141},"type":"Feature","geometry":{"type":"Point","coordinates":[-73.791,40.85]}},{"properties":{"placename":"Concourse, NY, US, United States","woeid":23511882,"latitude":40.839,"longitude":-73.915,"id":"a6hgyqv9suxt","photostaken":168},"type":"Feature","geometry":{"type":"Point","coordinates":[-73.915,40.839]}},{"properties":{"placename":"Fildston, NY, US, United States","woeid":23511886,"latitude":40.907,"longitude":-73.912,"id":"a6hgyqnw6xuv","photostaken":99},"type":"Feature","geometry":{"type":"Point","coordinates":[-73.912,40.907]}},{"properties":{"placename":"Hamilton Hights, New York, NY, US, United States","woeid":23511887,"latitude":40.83,"longitude":-73.952,"id":"a6hgyqhhu30i","photostaken":836},"type":"Feature","geometry":{"type":"Point","coordinates":[-73.952,40.83]}},{"properties":{"placename":"Manhattanville, New York, NY, US, United States","woeid":23511888,"latitude":40.818,"longitude":-73.955,"id":"a6hgyqmu2x3o","photostaken":745},"type":"Feature","geometry":{"type":"Point","coordinates":[-73.955,40.818]}},{"properties":{"placename":"Manhattan Valley, New York, NY, US, United States","woeid":23511889,"latitude":40.797,"longitude":-73.965,"id":"a6hgyqlum5be","photostaken":3072},"type":"Feature","geometry":{"type":"Point","coordinates":[-73.965,40.797]}},{"properties":{"placename":"Lincoln Square, New York, NY, US, United States","woeid":23511890,"latitude":40.775,"longitude":-73.986,"id":"a6hgyqo3qz1y","photostaken":2679},"type":"Feature","geometry":{"type":"Point","coordinates":[-73.986,40.775]}},{"properties":{"placename":"Soho, New York, NY, US, United States","woeid":23511891,"latitude":40.724,"longitude":-74.008,"id":"a6hgyqjtu4oq","photostaken":3946},"type":"Feature","geometry":{"type":"Point","coordinates":[-74.008,40.724]}},{"properties":{"placename":"East Harlem, New York, NY, US, United States","woeid":23511892,"latitude":40.8,"longitude":-73.934,"id":"a6hgyqqjv25a","photostaken":682},"type":"Feature","geometry":{"type":"Point","coordinates":[-73.934,40.8]}},{"properties":{"placename":"Upper East Side, New York, NY, US, United States","woeid":23511893,"latitude":40.776,"longitude":-73.96,"id":"a6hgyqv7sefd","photostaken":9334},"type":"Feature","geometry":{"type":"Point","coordinates":[-73.96,40.776]}},{"properties":{"placename":"Carnegie Hills, New York, NY, US, United States","woeid":23511894,"latitude":40.781,"longitude":-73.949,"id":"a6hgyql953il","photostaken":473},"type":"Feature","geometry":{"type":"Point","coordinates":[-73.949,40.781]}},{"properties":{"placename":"York Ville, New York, NY, US, United States","woeid":23511895,"latitude":40.773,"longitude":-73.947,"id":"a6hgyqox01e2","photostaken":566},"type":"Feature","geometry":{"type":"Point","coordinates":[-73.947,40.773]}},{"properties":{"placename":"NoHo, New York, NY, US, United States","woeid":23511896,"latitude":40.729,"longitude":-73.993,"id":"a6hgyqqzg4z1","photostaken":10119},"type":"Feature","geometry":{"type":"Point","coordinates":[-73.993,40.729]}},{"properties":{"placename":"Midtown South, New York, NY, US, United States","woeid":23511897,"latitude":40.742,"longitude":-73.986,"id":"a6hgyqgqrmwx","photostaken":5688},"type":"Feature","geometry":{"type":"Point","coordinates":[-73.986,40.742]}},{"properties":{"placename":"Tudor City, New York, NY, US, United States","woeid":23511898,"latitude":40.746,"longitude":-73.97,"id":"a6hgyqvs70ei","photostaken":781},"type":"Feature","geometry":{"type":"Point","coordinates":[-73.97,40.746]}},{"properties":{"placename":"Gramercy, New York, NY, US, United States","woeid":23511899,"latitude":40.735,"longitude":-73.984,"id":"a6hgyqvjtwsx","photostaken":4822},"type":"Feature","geometry":{"type":"Point","coordinates":[-73.984,40.735]}},{"properties":{"placename":"Sutton Place, New York, NY, US, United States","woeid":23511900,"latitude":40.757,"longitude":-73.961,"id":"a6hgyqng1ser","photostaken":1151},"type":"Feature","geometry":{"type":"Point","coordinates":[-73.961,40.757]}},{"properties":{"placename":"Flatiron, New York, NY, US, United States","woeid":23511902,"latitude":40.745,"longitude":-73.985,"id":"a6hgyqpwz880","photostaken":2190},"type":"Feature","geometry":{"type":"Point","coordinates":[-73.985,40.745]}},{"properties":{"placename":"Financial District, New York, NY, US, United States","woeid":23511903,"latitude":40.709,"longitude":-74.005,"id":"a6hgyqk3jwqi","photostaken":8250},"type":"Feature","geometry":{"type":"Point","coordinates":[-74.005,40.709]}},{"properties":{"placename":"Tribeca, New York, NY, US, United States","woeid":23511904,"latitude":40.719,"longitude":-74.013,"id":"a6hgyqmeepcp","photostaken":1742},"type":"Feature","geometry":{"type":"Point","coordinates":[-74.013,40.719]}},{"properties":{"placename":"Home Crest, NY, US, United States","woeid":23512008,"latitude":40.58,"longitude":-73.967,"id":"a6hgyqgio9fc","photostaken":262},"type":"Feature","geometry":{"type":"Point","coordinates":[-73.967,40.58]}},{"properties":{"placename":"Randall Manor, NY, US, United States","woeid":23512015,"latitude":40.638,"longitude":-74.109,"id":"a6hgyqful6wd","photostaken":193},"type":"Feature","geometry":{"type":"Point","coordinates":[-74.109,40.638]}},{"properties":{"placename":"Howland Hook, NY, US, United States","woeid":23512018,"latitude":40.645,"longitude":-74.078,"id":"a6hgyqqemhnf","photostaken":512},"type":"Feature","geometry":{"type":"Point","coordinates":[-74.078,40.645]}},{"properties":{"placename":"Crown Heights, NY, US, United States","woeid":28288818,"latitude":40.672,"longitude":-73.944,"id":"a6hgyqh7mz5t","photostaken":437},"type":"Feature","geometry":{"type":"Point","coordinates":[-73.944,40.672]}},{"properties":{"placename":"Ord-Stuyvesant, NY, US, United States","woeid":28288819,"latitude":40.688,"longitude":-73.942,"id":"a6hgyqo1rv25","photostaken":188},"type":"Feature","geometry":{"type":"Point","coordinates":[-73.942,40.688]}},{"properties":{"placename":"City Hall Area, New York, NY, US, United States","woeid":28288820,"latitude":40.713,"longitude":-74.005,"id":"a6hgyql2tkji","photostaken":4374},"type":"Feature","geometry":{"type":"Point","coordinates":[-74.005,40.713]}},{"properties":{"placename":"Garment District, New York, NY, US, United States","woeid":28288821,"latitude":40.749,"longitude":-73.993,"id":"a6hgyqlon3rk","photostaken":5965},"type":"Feature","geometry":{"type":"Point","coordinates":[-73.993,40.749]}},{"properties":{"placename":"Harlem, New York, NY, US, United States","woeid":28288822,"latitude":40.81,"longitude":-73.947,"id":"a6hgyqi0ze7d","photostaken":663},"type":"Feature","geometry":{"type":"Point","coordinates":[-73.947,40.81]}},{"properties":{"placename":"Theater District, New York, NY, US, United States","woeid":28288823,"latitude":40.759,"longitude":-73.986,"id":"a6hgyqgulbto","photostaken":26592},"type":"Feature","geometry":{"type":"Point","coordinates":[-73.986,40.759]}},{"properties":{"placename":"Melrose Houses, NY, US, United States","woeid":28297825,"latitude":40.82,"longitude":-73.919,"id":"a6hgyqjaufgj","photostaken":3297},"type":"Feature","geometry":{"type":"Point","coordinates":[-73.919,40.82]}},{"properties":{"placename":"Governor Alfred e Smith Houses, New York, NY, US, United States","woeid":28297832,"latitude":40.71,"longitude":-73.999,"id":"a6hgyqjqbsfx","photostaken":3673},"type":"Feature","geometry":{"type":"Point","coordinates":[-73.999,40.71]}},{"properties":{"placename":"Hell's Kitchen, New York, NY, US, United States","woeid":28297833,"latitude":40.756,"longitude":-73.996,"id":"a6hgyqrkxxkw","photostaken":5178},"type":"Feature","geometry":{"type":"Point","coordinates":[-73.996,40.756]}},{"properties":{"placename":"Kips Bay, New York, NY, US, United States","woeid":28297834,"latitude":40.741,"longitude":-73.978,"id":"a6hgyqtu1vyf","photostaken":732},"type":"Feature","geometry":{"type":"Point","coordinates":[-73.978,40.741]}},{"properties":{"placename":"Loisaida, New York, NY, US, United States","woeid":28297836,"latitude":40.724,"longitude":-73.978,"id":"a6hgyqqqkusk","photostaken":1698},"type":"Feature","geometry":{"type":"Point","coordinates":[-73.978,40.724]}},{"properties":{"placename":"Rose Hill, New York, NY, US, United States","woeid":28297837,"latitude":40.742,"longitude":-73.984,"id":"a6hgyqkt4xco","photostaken":847},"type":"Feature","geometry":{"type":"Point","coordinates":[-73.984,40.742]}},{"properties":{"placename":"San Juan Hill, New York, NY, US, United States","woeid":28297838,"latitude":40.767,"longitude":-73.984,"id":"a6hgyqtq1g45","photostaken":5571},"type":"Feature","geometry":{"type":"Point","coordinates":[-73.984,40.767]}},{"properties":{"placename":"Eastern Parkway, NY, US, United States","woeid":28746216,"latitude":40.669,"longitude":-73.94,"id":"a6hgyqjywa57","photostaken":107},"type":"Feature","geometry":{"type":"Point","coordinates":[-73.94,40.669]}},{"properties":{"placename":"South Brooklyn, NY, US, United States","woeid":28746217,"latitude":40.683,"longitude":-73.995,"id":"a6hgyqo0h0qw","photostaken":752},"type":"Feature","geometry":{"type":"Point","coordinates":[-73.995,40.683]}},{"properties":{"placename":"Adelphi, NY, US, United States","woeid":28746218,"latitude":40.68,"longitude":-73.964,"id":"a6hgyqlnv5m0","photostaken":555},"type":"Feature","geometry":{"type":"Point","coordinates":[-73.964,40.68]}},{"properties":{"placename":"Alphabet City, New York, NY, US, United States","woeid":28751146,"latitude":40.723,"longitude":-73.978,"id":"a6hgyqhbc6je","photostaken":501},"type":"Feature","geometry":{"type":"Point","coordinates":[-73.978,40.723]}},{"properties":{"placename":"Ansonia, New York, NY, US, United States","woeid":28751148,"latitude":40.783,"longitude":-73.986,"id":"a6hgyqnsidf1","photostaken":1149},"type":"Feature","geometry":{"type":"Point","coordinates":[-73.986,40.783]}},{"properties":{"placename":"Barren Island, NY, US, United States","woeid":28751161,"latitude":40.587,"longitude":-73.89,"id":"a6hgyqj9t1wn","photostaken":201},"type":"Feature","geometry":{"type":"Point","coordinates":[-73.89,40.587]}},{"properties":{"placename":"Beekman, New York, NY, US, United States","woeid":28751168,"latitude":40.751,"longitude":-73.966,"id":"a6hgyqm6nulb","photostaken":1378},"type":"Feature","geometry":{"type":"Point","coordinates":[-73.966,40.751]}},{"properties":{"placename":"Boerum Hill, NY, US, United States","woeid":28751175,"latitude":40.686,"longitude":-73.988,"id":"a6hgyqr37xit","photostaken":123},"type":"Feature","geometry":{"type":"Point","coordinates":[-73.988,40.686]}},{"properties":{"placename":"Boerum Hill, NY, US, United States","woeid":28751175,"latitude":40.686,"longitude":-73.988,"id":"a6hgyqro67f1","photostaken":1018},"type":"Feature","geometry":{"type":"Point","coordinates":[-73.988,40.686]}},{"properties":{"placename":"Bowery, New York, NY, US, United States","woeid":28751176,"latitude":40.719,"longitude":-73.992,"id":"a6hgyqg8rzfn","photostaken":2436},"type":"Feature","geometry":{"type":"Point","coordinates":[-73.992,40.719]}},{"properties":{"placename":"Cadman Plaza, NY, US, United States","woeid":28751190,"latitude":40.693,"longitude":-73.988,"id":"a6hgyqqmw5gz","photostaken":1015},"type":"Feature","geometry":{"type":"Point","coordinates":[-73.988,40.693]}},{"properties":{"placename":"Carnegie Hill, New York, NY, US, United States","woeid":28751193,"latitude":40.784,"longitude":-73.954,"id":"a6hgyqht37xy","photostaken":1771},"type":"Feature","geometry":{"type":"Point","coordinates":[-73.954,40.784]}},{"properties":{"placename":"Cobble Hill, NY, US, United States","woeid":28751204,"latitude":40.688,"longitude":-73.996,"id":"a6hgyqukxfso","photostaken":770},"type":"Feature","geometry":{"type":"Point","coordinates":[-73.996,40.688]}},{"properties":{"placename":"Downtown Brooklyn, NY, US, United States","woeid":28751214,"latitude":40.695,"longitude":-73.981,"id":"a6hgyqpqtiv6","photostaken":152},"type":"Feature","geometry":{"type":"Point","coordinates":[-73.981,40.695]}},{"properties":{"placename":"DUMBO, NY, US, United States","woeid":28751217,"latitude":40.7,"longitude":-73.993,"id":"a6hgyqrpx1qj","photostaken":4660},"type":"Feature","geometry":{"type":"Point","coordinates":[-73.993,40.7]}},{"properties":{"placename":"East Morrisania, NY, US, United States","woeid":28751220,"latitude":40.827,"longitude":-73.893,"id":"a6hgyqrfqfoc","photostaken":248},"type":"Feature","geometry":{"type":"Point","coordinates":[-73.893,40.827]}},{"properties":{"placename":"East Williamsburg, NY, US, United States","woeid":28751222,"latitude":40.714,"longitude":-73.937,"id":"a6hgyqipkux1","photostaken":618},"type":"Feature","geometry":{"type":"Point","coordinates":[-73.937,40.714]}},{"properties":{"placename":"Fiske Terrace, NY, US, United States","woeid":28751244,"latitude":40.63,"longitude":-73.96,"id":"a6hgyqs8gm7h","photostaken":167},"type":"Feature","geometry":{"type":"Point","coordinates":[-73.96,40.63]}},{"properties":{"placename":"Flatiron District, New York, NY, US, United States","woeid":28751245,"latitude":40.742,"longitude":-73.989,"id":"a6hgyqns9hg9","photostaken":2747},"type":"Feature","geometry":{"type":"Point","coordinates":[-73.989,40.742]}},{"properties":{"placename":"Flushing Meadows, Flushing, NY, US, United States","woeid":28751246,"latitude":40.739,"longitude":-73.838,"id":"a6hgyqq1k1ni","photostaken":2112},"type":"Feature","geometry":{"type":"Point","coordinates":[-73.838,40.739]}},{"properties":{"placename":"Fort George, New York, NY, US, United States","woeid":28751253,"latitude":40.859,"longitude":-73.931,"id":"a6hgyqinryjj","photostaken":1372},"type":"Feature","geometry":{"type":"Point","coordinates":[-73.931,40.859]}},{"properties":{"placename":"Fulton Ferry, NY, US, United States","woeid":28751260,"latitude":40.701,"longitude":-73.988,"id":"a6hgyqpmyg6t","photostaken":2215},"type":"Feature","geometry":{"type":"Point","coordinates":[-73.988,40.701]}},{"properties":{"placename":"Hamilton Heights, New York, NY, US, United States","woeid":28751283,"latitude":40.823,"longitude":-73.948,"id":"a6hgyqiv7kan","photostaken":464},"type":"Feature","geometry":{"type":"Point","coordinates":[-73.948,40.823]}},{"properties":{"placename":"Highbridge, NY, US, United States","woeid":28751294,"latitude":40.845,"longitude":-73.923,"id":"a6hgyqubw9ma","photostaken":421},"type":"Feature","geometry":{"type":"Point","coordinates":[-73.923,40.845]}},{"properties":{"placename":"Hudson Heights, New York, NY, US, United States","woeid":28751308,"latitude":40.859,"longitude":-73.934,"id":"a6hgyqu1jqjx","photostaken":571},"type":"Feature","geometry":{"type":"Point","coordinates":[-73.934,40.859]}},{"properties":{"placename":"Kingsbridge, NY, US, United States","woeid":28751327,"latitude":40.891,"longitude":-73.904,"id":"a6hgyqnbveht","photostaken":113},"type":"Feature","geometry":{"type":"Point","coordinates":[-73.904,40.891]}},{"properties":{"placename":"Kingsbridge Heights, NY, US, United States","woeid":28751328,"latitude":40.868,"longitude":-73.904,"id":"a6hgyqo5w640","photostaken":288},"type":"Feature","geometry":{"type":"Point","coordinates":[-73.904,40.868]}},{"properties":{"placename":"Koreatown, New York, NY, US, United States","woeid":28751330,"latitude":40.748,"longitude":-73.986,"id":"a6hgyqm9iaaw","photostaken":6714},"type":"Feature","geometry":{"type":"Point","coordinates":[-73.986,40.748]}},{"properties":{"placename":"Little Germany, New York, NY, US, United States","woeid":28751354,"latitude":40.726,"longitude":-73.981,"id":"a6hgyqr6d0xl","photostaken":2434},"type":"Feature","geometry":{"type":"Point","coordinates":[-73.981,40.726]}},{"properties":{"placename":"Little Poland, NY, US, United States","woeid":28751356,"latitude":40.734,"longitude":-73.956,"id":"a6hgyqj8279n","photostaken":922},"type":"Feature","geometry":{"type":"Point","coordinates":[-73.956,40.734]}},{"properties":{"placename":"LoHo, New York, NY, US, United States","woeid":28751359,"latitude":40.718,"longitude":-73.979,"id":"a6hgyqnepzsr","photostaken":361},"type":"Feature","geometry":{"type":"Point","coordinates":[-73.979,40.718]}},{"properties":{"placename":"Longwood, NY, US, United States","woeid":28751360,"latitude":40.82,"longitude":-73.881,"id":"a6hgyqukgylx","photostaken":219},"type":"Feature","geometry":{"type":"Point","coordinates":[-73.881,40.82]}},{"properties":{"placename":"Meatpacking District, New York, NY, US, United States","woeid":28751369,"latitude":40.74,"longitude":-74.01,"id":"a6hgyqozebmq","photostaken":4240},"type":"Feature","geometry":{"type":"Point","coordinates":[-74.01,40.74]}},{"properties":{"placename":"Medical Centre, New York, NY, US, United States","woeid":28751371,"latitude":40.739,"longitude":-73.975,"id":"a6hgyqtohoj6","photostaken":151},"type":"Feature","geometry":{"type":"Point","coordinates":[-73.975,40.739]}},{"properties":{"placename":"Midtown Manhattan, New York, NY, US, United States","woeid":28751381,"latitude":40.747,"longitude":-73.989,"id":"a6hgyqs2y27s","photostaken":20989},"type":"Feature","geometry":{"type":"Point","coordinates":[-73.989,40.747]}},{"properties":{"placename":"Midtown Manhattan, New York, NY, US, United States","woeid":28751381,"latitude":40.747,"longitude":-73.989,"id":"a6hgyqqhba9z","photostaken":11379},"type":"Feature","geometry":{"type":"Point","coordinates":[-73.989,40.747]}},{"properties":{"placename":"Morgan Avenue, NY, US, United States","woeid":28751393,"latitude":40.708,"longitude":-73.93,"id":"a6hgyqmdjit6","photostaken":649},"type":"Feature","geometry":{"type":"Point","coordinates":[-73.93,40.708]}},{"properties":{"placename":"Morningside Heights, New York, NY, US, United States","woeid":28751395,"latitude":40.81,"longitude":-73.958,"id":"a6hgyqsfa7yv","photostaken":2340},"type":"Feature","geometry":{"type":"Point","coordinates":[-73.958,40.81]}},{"properties":{"placename":"New York Navy Yard, NY, US, United States","woeid":28751402,"latitude":40.699,"longitude":-73.973,"id":"a6hgyqm73rbs","photostaken":285},"type":"Feature","geometry":{"type":"Point","coordinates":[-73.973,40.699]}},{"properties":{"placename":"Nolita, New York, NY, US, United States","woeid":28751406,"latitude":40.722,"longitude":-73.996,"id":"a6hgyqr0p58o","photostaken":3823},"type":"Feature","geometry":{"type":"Point","coordinates":[-73.996,40.722]}},{"properties":{"placename":"Norwood, NY, US, United States","woeid":28751421,"latitude":40.875,"longitude":-73.877,"id":"a6hgyqkvlyiv","photostaken":365},"type":"Feature","geometry":{"type":"Point","coordinates":[-73.877,40.875]}},{"properties":{"placename":"Prospect Heights, NY, US, United States","woeid":28751452,"latitude":40.675,"longitude":-73.962,"id":"a6hgyqqs8gpt","photostaken":14819},"type":"Feature","geometry":{"type":"Point","coordinates":[-73.962,40.675]}},{"properties":{"placename":"Prospect Park South, NY, US, United States","woeid":28751454,"latitude":40.647,"longitude":-73.964,"id":"a6hgyqrcrk1a","photostaken":357},"type":"Feature","geometry":{"type":"Point","coordinates":[-73.964,40.647]}},{"properties":{"placename":"Prospect, NY, US, United States","woeid":28751455,"latitude":40.658,"longitude":-73.956,"id":"a6hgyqmaoxit","photostaken":411},"type":"Feature","geometry":{"type":"Point","coordinates":[-73.956,40.658]}},{"properties":{"placename":"Queensbridge, Long Island City, NY, US, United States","woeid":28751457,"latitude":40.756,"longitude":-73.937,"id":"a6hgyqvx1q7o","photostaken":265},"type":"Feature","geometry":{"type":"Point","coordinates":[-73.937,40.756]}},{"properties":{"placename":"Southern Tip, New York, NY, US, United States","woeid":28751495,"latitude":40.688,"longitude":-74.019,"id":"a6hgyqnd212y","photostaken":4441},"type":"Feature","geometry":{"type":"Point","coordinates":[-74.019,40.688]}},{"properties":{"placename":"Spanish Harlem, New York, NY, US, United States","woeid":28751497,"latitude":40.791,"longitude":-73.945,"id":"a6hgyqo5k27n","photostaken":1411},"type":"Feature","geometry":{"type":"Point","coordinates":[-73.945,40.791]}},{"properties":{"placename":"SPURA, New York, NY, US, United States","woeid":28751503,"latitude":40.722,"longitude":-73.987,"id":"a6hgyqnbaoyk","photostaken":3197},"type":"Feature","geometry":{"type":"Point","coordinates":[-73.987,40.722]}},{"properties":{"placename":"Sugar Hill, New York, NY, US, United States","woeid":28751508,"latitude":40.827,"longitude":-73.943,"id":"a6hgyqsnzhxh","photostaken":200},"type":"Feature","geometry":{"type":"Point","coordinates":[-73.943,40.827]}},{"properties":{"placename":"Tenderloin, New York, NY, US, United States","woeid":28751516,"latitude":40.752,"longitude":-73.983,"id":"a6hgyqkra1ft","photostaken":4792},"type":"Feature","geometry":{"type":"Point","coordinates":[-73.983,40.752]}},{"properties":{"placename":"Two Bridges, New York, NY, US, United States","woeid":28751526,"latitude":40.712,"longitude":-73.996,"id":"a6hgyqns4zah","photostaken":1334},"type":"Feature","geometry":{"type":"Point","coordinates":[-73.996,40.712]}},{"properties":{"placename":"Vinegar Hill, NY, US, United States","woeid":28751536,"latitude":40.698,"longitude":-73.984,"id":"a6hgyquz7siv","photostaken":273},"type":"Feature","geometry":{"type":"Point","coordinates":[-73.984,40.698]}},{"properties":{"placename":"Willets Point, Corona, NY, US, United States","woeid":28751558,"latitude":40.76,"longitude":-73.84,"id":"a6hgyqthgb4b","photostaken":3047},"type":"Feature","geometry":{"type":"Point","coordinates":[-73.84,40.76]}},{"properties":{"placename":"Windsor Terrace, NY, US, United States","woeid":28751567,"latitude":40.654,"longitude":-73.989,"id":"a6hgyqi25rfi","photostaken":387},"type":"Feature","geometry":{"type":"Point","coordinates":[-73.989,40.654]}},{"properties":{"placename":"Yorkville, New York, NY, US, United States","woeid":28751571,"latitude":40.778,"longitude":-73.95,"id":"a6hgyqumy5uc","photostaken":214},"type":"Feature","geometry":{"type":"Point","coordinates":[-73.95,40.778]}},{"properties":{"placename":"Flatbush, NY, US, United States","woeid":28751576,"latitude":40.632,"longitude":-73.95,"id":"a6hgyqo0c9oo","photostaken":191},"type":"Feature","geometry":{"type":"Point","coordinates":[-73.95,40.632]}},{"properties":{"placename":"Downtown, New York, NY, US, United States","woeid":55864586,"latitude":40.722,"longitude":-73.998,"id":"a6hgyqoglzvg","photostaken":10974},"type":"Feature","geometry":{"type":"Point","coordinates":[-73.998,40.722]}},{"properties":{"placename":"East Side, New York, NY, US, United States","woeid":55864587,"latitude":40.744,"longitude":-73.974,"id":"a6hgyqlplnil","photostaken":595},"type":"Feature","geometry":{"type":"Point","coordinates":[-73.974,40.744]}},{"properties":{"placename":"Midtown West, New York, NY, US, United States","woeid":55864589,"latitude":40.755,"longitude":-73.993,"id":"a6hgyqgk7jcj","photostaken":1844},"type":"Feature","geometry":{"type":"Point","coordinates":[-73.993,40.755]}},{"properties":{"placename":"Uptown, New York, NY, US, United States","woeid":55864590,"latitude":40.82,"longitude":-73.953,"id":"a6hgyqsugwgt","photostaken":6443},"type":"Feature","geometry":{"type":"Point","coordinates":[-73.953,40.82]}},{"properties":{"placename":"West Side, New York, NY, US, United States","woeid":55864591,"latitude":40.772,"longitude":-73.987,"id":"a6hgyqkqgsj0","photostaken":6007},"type":"Feature","geometry":{"type":"Point","coordinates":[-73.987,40.772]}}],"is_temporal":false,"author":{"url":"","metadata":"","contact_name":"","contact_address":"","source":"","contact_phone":""},"source":"","pagination":{"sort":null,"start":0,"total":200,"limit":1000000},"state":"complete","tags":"","published":"2014-08-11T09:08:04-04:00","id":7926}