{"type":"FeatureCollection","data_type":"Dataset","url_type":null,"permissions":[{"permissions":{"download":true,"view":true},"group_id":"everyone"}],"classification":null,"title":"Houston ISD 2008 Magnet School Transportation","count":65,"stream_id":8271,"contributor":{"url":"http://geocommons.com/users/3633","name":"finder.htx"},"data_attributes":null,"calculation_params":null,"icon_link":null,"link":"http://geocommons.com/overlays/8271.json","extent":[-95.6366,29.3415,-94.6788,30.2391],"geometry_types":["point"],"unique_name":null,"name":"Houston ISD 2008 Magnet School Transportation","feature_count":65,"description":"","next_feature":null,"is_raster":false,"short_classification":"Y","stats":{"pct":{"max":0.0901,"mean":0.01538,"variance":0.000313094125,"stdev":0.0176944659427743,"min":0.0004,"median":0.0097},"zip":{"max":77650,"mean":77106.1846153846,"variance":26729.1216346154,"stdev":163.490432853471,"min":77003,"median":77048},"lat":{"max":30.239131,"mean":29.7293015076923,"variance":0.0168086788577539,"stdev":0.129648289066049,"min":29.341531,"median":29.72329},"long":{"max":-94.678796,"mean":-95.3856022769231,"variance":0.0219171408187346,"stdev":0.148044388001486,"min":-95.636606,"median":-95.396959}},"features":[{"properties":{"pct":0.0004,"zip":77650,"id":"a6395kri8p4o","lat":29.428492,"long":-94.678796},"type":"Feature","geometry":{"type":"Point","coordinates":[-94.678796,29.428492]}},{"properties":{"pct":0.0004,"zip":77586,"id":"a6395kgelqh7","lat":29.57706,"long":-95.032389},"type":"Feature","geometry":{"type":"Point","coordinates":[-95.032389,29.57706]}},{"properties":{"pct":0.0004,"zip":77072,"id":"a6395kj1s6j6","lat":29.699623,"long":-95.588378},"type":"Feature","geometry":{"type":"Point","coordinates":[-95.588378,29.699623]}},{"properties":{"pct":0.0004,"zip":77099,"id":"a6395ks4mvmt","lat":29.669735,"long":-95.586581},"type":"Feature","geometry":{"type":"Point","coordinates":[-95.586581,29.669735]}},{"properties":{"pct":0.0004,"zip":77373,"id":"a6395kdaqda3","lat":30.062833,"long":-95.39327},"type":"Feature","geometry":{"type":"Point","coordinates":[-95.39327,30.062833]}},{"properties":{"pct":0.0004,"zip":77563,"id":"a6395kpf6e47","lat":29.341531,"long":-94.996794},"type":"Feature","geometry":{"type":"Point","coordinates":[-94.996794,29.341531]}},{"properties":{"pct":0.0004,"zip":77479,"id":"a6395kdilfij","lat":29.57265,"long":-95.636606},"type":"Feature","geometry":{"type":"Point","coordinates":[-95.636606,29.57265]}},{"properties":{"pct":0.0004,"zip":77302,"id":"a6395kjhjhf8","lat":30.239131,"long":-95.390021},"type":"Feature","geometry":{"type":"Point","coordinates":[-95.390021,30.239131]}},{"properties":{"pct":0.0004,"zip":77014,"id":"a6395kc7qckh","lat":29.9773,"long":-95.464719},"type":"Feature","geometry":{"type":"Point","coordinates":[-95.464719,29.9773]}},{"properties":{"pct":0.0008,"zip":77098,"id":"a6395ks7bj84","lat":29.73466,"long":-95.415124},"type":"Feature","geometry":{"type":"Point","coordinates":[-95.415124,29.73466]}},{"properties":{"pct":0.0008,"zip":77005,"id":"a6395ks32c7e","lat":29.71844,"long":-95.422424},"type":"Feature","geometry":{"type":"Point","coordinates":[-95.422424,29.71844]}},{"properties":{"pct":0.0008,"zip":77015,"id":"a6395kpmsqj3","lat":29.78132,"long":-95.183049},"type":"Feature","geometry":{"type":"Point","coordinates":[-95.183049,29.78132]}},{"properties":{"pct":0.0013,"zip":77401,"id":"a6395kea3bns","lat":29.70401,"long":-95.462214},"type":"Feature","geometry":{"type":"Point","coordinates":[-95.462214,29.70401]}},{"properties":{"pct":0.0013,"zip":77006,"id":"a6395klm7ox5","lat":29.74133,"long":-95.390589},"type":"Feature","geometry":{"type":"Point","coordinates":[-95.390589,29.74133]}},{"properties":{"pct":0.0013,"zip":77056,"id":"a6395kfxbpfz","lat":29.747027,"long":-95.469698},"type":"Feature","geometry":{"type":"Point","coordinates":[-95.469698,29.747027]}},{"properties":{"pct":0.0017,"zip":77025,"id":"a6395kon9zd7","lat":29.68724,"long":-95.434264},"type":"Feature","geometry":{"type":"Point","coordinates":[-95.434264,29.68724]}},{"properties":{"pct":0.0017,"zip":77054,"id":"a6395ksafe0r","lat":29.68316,"long":-95.40318},"type":"Feature","geometry":{"type":"Point","coordinates":[-95.40318,29.68316]}},{"properties":{"pct":0.0017,"zip":77584,"id":"a6395khsjyfe","lat":29.55311,"long":-95.363019},"type":"Feature","geometry":{"type":"Point","coordinates":[-95.363019,29.55311]}},{"properties":{"pct":0.0017,"zip":77016,"id":"a6395ko6lcry","lat":29.856789,"long":-95.304468},"type":"Feature","geometry":{"type":"Point","coordinates":[-95.304468,29.856789]}},{"properties":{"pct":0.0025,"zip":77019,"id":"a6395kjaz2zo","lat":29.753139,"long":-95.403509},"type":"Feature","geometry":{"type":"Point","coordinates":[-95.403509,29.753139]}},{"properties":{"pct":0.003,"zip":77003,"id":"a6395klfi134","lat":29.748997,"long":-95.347153},"type":"Feature","geometry":{"type":"Point","coordinates":[-95.347153,29.748997]}},{"properties":{"pct":0.0034,"zip":77004,"id":"a6395knfinu6","lat":29.726942,"long":-95.361667},"type":"Feature","geometry":{"type":"Point","coordinates":[-95.361667,29.726942]}},{"properties":{"pct":0.0051,"zip":77057,"id":"a6395knbobk7","lat":29.74408,"long":-95.489789},"type":"Feature","geometry":{"type":"Point","coordinates":[-95.489789,29.74408]}},{"properties":{"pct":0.0055,"zip":77088,"id":"a6395kh0bc6k","lat":29.88111,"long":-95.452629},"type":"Feature","geometry":{"type":"Point","coordinates":[-95.452629,29.88111]}},{"properties":{"pct":0.0059,"zip":77011,"id":"a6395kg4f8x6","lat":29.742494,"long":-95.309237},"type":"Feature","geometry":{"type":"Point","coordinates":[-95.309237,29.742494]}},{"properties":{"pct":0.0063,"zip":77007,"id":"a6395krzsugm","lat":29.77206,"long":-95.404039},"type":"Feature","geometry":{"type":"Point","coordinates":[-95.404039,29.77206]}},{"properties":{"pct":0.0072,"zip":77037,"id":"a6395kqlczmo","lat":29.891132,"long":-95.396959},"type":"Feature","geometry":{"type":"Point","coordinates":[-95.396959,29.891132]}},{"properties":{"pct":0.0076,"zip":77012,"id":"a6395kdwfret","lat":29.71851,"long":-95.278469},"type":"Feature","geometry":{"type":"Point","coordinates":[-95.278469,29.71851]}},{"properties":{"pct":0.0076,"zip":77081,"id":"a6395koj7li2","lat":29.70738,"long":-95.481529},"type":"Feature","geometry":{"type":"Point","coordinates":[-95.481529,29.70738]}},{"properties":{"pct":0.008,"zip":77063,"id":"a6395kczl838","lat":29.732935,"long":-95.521569},"type":"Feature","geometry":{"type":"Point","coordinates":[-95.521569,29.732935]}},{"properties":{"pct":0.0093,"zip":77023,"id":"a6395kkgjpma","lat":29.72329,"long":-95.319179},"type":"Feature","geometry":{"type":"Point","coordinates":[-95.319179,29.72329]}},{"properties":{"pct":0.0093,"zip":77022,"id":"a6395kdpugjg","lat":29.828384,"long":-95.377339},"type":"Feature","geometry":{"type":"Point","coordinates":[-95.377339,29.828384]}},{"properties":{"pct":0.0097,"zip":77042,"id":"a6395knb3uo8","lat":29.73981,"long":-95.560559},"type":"Feature","geometry":{"type":"Point","coordinates":[-95.560559,29.73981]}},{"properties":{"pct":0.0097,"zip":77489,"id":"a6395kjdpljt","lat":29.599522,"long":-95.516523},"type":"Feature","geometry":{"type":"Point","coordinates":[-95.516523,29.599522]}},{"properties":{"pct":0.0097,"zip":77021,"id":"a6395kjr8lh5","lat":29.696526,"long":-95.357321},"type":"Feature","geometry":{"type":"Point","coordinates":[-95.357321,29.696526]}},{"properties":{"pct":0.011,"zip":77008,"id":"a6395kob3p0h","lat":29.799665,"long":-95.414909},"type":"Feature","geometry":{"type":"Point","coordinates":[-95.414909,29.799665]}},{"properties":{"pct":0.0123,"zip":77009,"id":"a6395kcfpw8c","lat":29.795082,"long":-95.367857},"type":"Feature","geometry":{"type":"Point","coordinates":[-95.367857,29.795082]}},{"properties":{"pct":0.0123,"zip":77091,"id":"a6395kpb7ye4","lat":29.854615,"long":-95.438419},"type":"Feature","geometry":{"type":"Point","coordinates":[-95.438419,29.854615]}},{"properties":{"pct":0.0127,"zip":77028,"id":"a6395krjbxip","lat":29.82564,"long":-95.286919},"type":"Feature","geometry":{"type":"Point","coordinates":[-95.286919,29.82564]}},{"properties":{"pct":0.014,"zip":77051,"id":"a6395kpwdt2v","lat":29.66416,"long":-95.369889},"type":"Feature","geometry":{"type":"Point","coordinates":[-95.369889,29.66416]}},{"properties":{"pct":0.014,"zip":77096,"id":"a6395kragzon","lat":29.67598,"long":-95.479919},"type":"Feature","geometry":{"type":"Point","coordinates":[-95.479919,29.67598]}},{"properties":{"pct":0.0148,"zip":77029,"id":"a6395keku5u3","lat":29.75865,"long":-95.26564},"type":"Feature","geometry":{"type":"Point","coordinates":[-95.26564,29.75865]}},{"properties":{"pct":0.0165,"zip":77092,"id":"a6395kh6i7dy","lat":29.828691,"long":-95.473949},"type":"Feature","geometry":{"type":"Point","coordinates":[-95.473949,29.828691]}},{"properties":{"pct":0.0169,"zip":77026,"id":"a6395kqph4rw","lat":29.79604,"long":-95.332119},"type":"Feature","geometry":{"type":"Point","coordinates":[-95.332119,29.79604]}},{"properties":{"pct":0.0173,"zip":77076,"id":"a6395ke4n85k","lat":29.85931,"long":-95.383049},"type":"Feature","geometry":{"type":"Point","coordinates":[-95.383049,29.85931]}},{"properties":{"pct":0.0203,"zip":77018,"id":"a6395knq1xmc","lat":29.826949,"long":-95.426219},"type":"Feature","geometry":{"type":"Point","coordinates":[-95.426219,29.826949]}},{"properties":{"pct":0.0228,"zip":77093,"id":"a6395kjwxzs8","lat":29.859517,"long":-95.339159},"type":"Feature","geometry":{"type":"Point","coordinates":[-95.339159,29.859517]}},{"properties":{"pct":0.0233,"zip":77036,"id":"a6395kmb1cn6","lat":29.70186,"long":-95.532934},"type":"Feature","geometry":{"type":"Point","coordinates":[-95.532934,29.70186]}},{"properties":{"pct":0.0249,"zip":77053,"id":"a6395kdsq9ps","lat":29.59478,"long":-95.457044},"type":"Feature","geometry":{"type":"Point","coordinates":[-95.457044,29.59478]}},{"properties":{"pct":0.0262,"zip":77033,"id":"a6395kh27nau","lat":29.66962,"long":-95.337399},"type":"Feature","geometry":{"type":"Point","coordinates":[-95.337399,29.66962]}},{"properties":{"pct":0.0266,"zip":77087,"id":"a6395kd8adgr","lat":29.687835,"long":-95.301789},"type":"Feature","geometry":{"type":"Point","coordinates":[-95.301789,29.687835]}},{"properties":{"pct":0.0266,"zip":77020,"id":"a6395kr4l9sq","lat":29.77465,"long":-95.316519},"type":"Feature","geometry":{"type":"Point","coordinates":[-95.316519,29.77465]}},{"properties":{"pct":0.0292,"zip":77017,"id":"a6395knloyr7","lat":29.68536,"long":-95.255539},"type":"Feature","geometry":{"type":"Point","coordinates":[-95.255539,29.68536]}},{"properties":{"pct":0.0309,"zip":77085,"id":"a6395kdf23jf","lat":29.625107,"long":-95.485017},"type":"Feature","geometry":{"type":"Point","coordinates":[-95.485017,29.625107]}},{"properties":{"pct":0.0321,"zip":77045,"id":"a6395kef1qym","lat":29.63038,"long":-95.439029},"type":"Feature","geometry":{"type":"Point","coordinates":[-95.439029,29.63038]}},{"properties":{"pct":0.033,"zip":77077,"id":"a6395kcbs0b4","lat":29.751279,"long":-95.611789},"type":"Feature","geometry":{"type":"Point","coordinates":[-95.611789,29.751279]}},{"properties":{"pct":0.033,"zip":77075,"id":"a6395kjcrchu","lat":29.618499,"long":-95.258319},"type":"Feature","geometry":{"type":"Point","coordinates":[-95.258319,29.618499]}},{"properties":{"pct":0.0338,"zip":77061,"id":"a6395kjdnaoq","lat":29.66007,"long":-95.281199},"type":"Feature","geometry":{"type":"Point","coordinates":[-95.281199,29.66007]}},{"properties":{"pct":0.0338,"zip":77074,"id":"a6395krdqls2","lat":29.688345,"long":-95.515739},"type":"Feature","geometry":{"type":"Point","coordinates":[-95.515739,29.688345]}},{"properties":{"pct":0.0372,"zip":77013,"id":"a6395kgkvvtm","lat":29.79471,"long":-95.238659},"type":"Feature","geometry":{"type":"Point","coordinates":[-95.238659,29.79471]}},{"properties":{"pct":0.0406,"zip":77048,"id":"a6395kl73rae","lat":29.62574,"long":-95.336149},"type":"Feature","geometry":{"type":"Point","coordinates":[-95.336149,29.62574]}},{"properties":{"pct":0.0448,"zip":77035,"id":"a6395kmiedby","lat":29.65295,"long":-95.480419},"type":"Feature","geometry":{"type":"Point","coordinates":[-95.480419,29.65295]}},{"properties":{"pct":0.0474,"zip":77031,"id":"a6395kpakdd7","lat":29.653522,"long":-95.54566},"type":"Feature","geometry":{"type":"Point","coordinates":[-95.54566,29.653522]}},{"properties":{"pct":0.0748,"zip":77047,"id":"a6395kcj20ul","lat":29.61516,"long":-95.38023},"type":"Feature","geometry":{"type":"Point","coordinates":[-95.38023,29.61516]}},{"properties":{"pct":0.0901,"zip":77071,"id":"a6395kma0lmv","lat":29.64868,"long":-95.519615},"type":"Feature","geometry":{"type":"Point","coordinates":[-95.519615,29.64868]}}],"is_temporal":false,"author":{"url":"","metadata":"","contact_name":"","contact_address":"","source":"","contact_phone":""},"source":"","pagination":{"sort":null,"start":0,"total":65,"limit":1000000},"state":"complete","tags":"2008,houston,houstonisd,magnet,transportation","published":"2014-08-11T09:47:14-04:00","id":8271}