{"type":"FeatureCollection","data_type":"Dataset","url_type":null,"permissions":[{"permissions":{"download":true,"view":true},"group_id":"everyone"}],"classification":null,"title":"Bank Locations, Washington DC, 2007","count":223,"stream_id":8281,"contributor":{"url":"http://geocommons.com/users/955","name":"williambenjaminiv"},"data_attributes":null,"calculation_params":null,"icon_link":null,"link":"http://geocommons.com/overlays/8281.json","extent":[-77.1048,38.8212,-76.9375,38.9817],"geometry_types":["point"],"unique_name":null,"name":"Bank Locations, Washington DC, 2007","feature_count":223,"description":"Bank Branch locations. The dataset contains locations and attributes of Bank Branches, created as part of the DC Geographic Information System (DC GIS) for the D.C. Office of the Chief Technology Officer (OCTO) and participating D.C. government agencies.\n\nA database provided by the Department of Insurance, Securities and Banking (DISB) identified Bank Branch locations. ","next_feature":null,"is_raster":false,"short_classification":"Y","stats":{"ZIPCODE":{"max":20520,"mean":20019.331838565,"variance":2701.0965943522,"stdev":51.9720751399461,"min":20001,"median":20008},"ADDRESS_ID":{"max":303666,"mean":246134.860986547,"variance":4583422574.66978,"stdev":67700.9791263744,"min":0,"median":266053}},"features":[{"properties":{"NAME":"Adams Bank","ZIPCODE":20001,"ADDRESS_ID":243178,"id":"a63nwhobeghe","ADDRESS":"802 7th Street, NW"},"type":"Feature","geometry":{"type":"Point","coordinates":[-77.0221401373084,38.9000206807086]}},{"properties":{"NAME":"Adams Bank","ZIPCODE":20002,"ADDRESS_ID":293243,"id":"a63nwhjol3r2","ADDRESS":"50 Massachusetts, Avenue, SE"},"type":"Feature","geometry":{"type":"Point","coordinates":[-77.0061791229438,38.8975384697842]}},{"properties":{"NAME":"Adams Bank","ZIPCODE":20006,"ADDRESS_ID":279201,"id":"a63nwhjge4ks","ADDRESS":"1501 K Street, NW"},"type":"Feature","geometry":{"type":"Point","coordinates":[-77.0351181683022,38.9029520625693]}},{"properties":{"NAME":"Adams Bank","ZIPCODE":20007,"ADDRESS_ID":275259,"id":"a63nwhgdc322","ADDRESS":"1729 Wisconsin Ave, NW"},"type":"Feature","geometry":{"type":"Point","coordinates":[-77.0668994099031,38.9145339105086]}},{"properties":{"NAME":"Adams Bank","ZIPCODE":20036,"ADDRESS_ID":241787,"id":"a63nwhipn19n","ADDRESS":"1130 Connecticut Ave, NW"},"type":"Feature","geometry":{"type":"Point","coordinates":[-77.0411290497968,38.9046409689983]}},{"properties":{"NAME":"Adams Bank","ZIPCODE":20009,"ADDRESS_ID":241674,"id":"a63nwhn33qg5","ADDRESS":"1604 17th Street, NW"},"type":"Feature","geometry":{"type":"Point","coordinates":[-77.0387420597683,38.9113857031776]}},{"properties":{"NAME":"Amalgamated Bank","ZIPCODE":20006,"ADDRESS_ID":240969,"id":"a63nwhgy35dr","ADDRESS":"1825 K Street, NW"},"type":"Feature","geometry":{"type":"Point","coordinates":[-77.0424339785822,38.9028617128719]}},{"properties":{"NAME":"American Bank","ZIPCODE":20015,"ADDRESS_ID":263862,"id":"a63nwhp8w6na","ADDRESS":"5600 Connecticut Avenue NW"},"type":"Feature","geometry":{"type":"Point","coordinates":[-77.075959604848,38.9650593212994]}},{"properties":{"NAME":"Bank of America, NA","ZIPCODE":20007,"ADDRESS_ID":223694,"id":"a63nwhfaa70m","ADDRESS":"1339 Wisconsin Avenue, NW"},"type":"Feature","geometry":{"type":"Point","coordinates":[-77.0632984386967,38.9077984873085]}},{"properties":{"NAME":"Bank of America, NA","ZIPCODE":20002,"ADDRESS_ID":149093,"id":"a63nwhuixec0","ADDRESS":"722 H Street, NE"},"type":"Feature","geometry":{"type":"Point","coordinates":[-76.9951840648386,38.9003975171929]}},{"properties":{"NAME":"Bank of America, NA","ZIPCODE":20003,"ADDRESS_ID":52920,"id":"a63nwhnca4ly","ADDRESS":"201 Pennsylvania Avenue, SE"},"type":"Feature","geometry":{"type":"Point","coordinates":[-77.0032746854055,38.8872848995311]}},{"properties":{"NAME":"Bank of America, NA","ZIPCODE":20004,"ADDRESS_ID":239376,"id":"a63nwht5lngl","ADDRESS":"1001 Pennsylvania Avenue, NW"},"type":"Feature","geometry":{"type":"Point","coordinates":[-77.0265051584809,38.8950466151406]}},{"properties":{"NAME":"Bank of America, NA","ZIPCODE":20005,"ADDRESS_ID":279202,"id":"a63nwhh7xast","ADDRESS":"1501 Pennsylvania Avenue, NW"},"type":"Feature","geometry":{"type":"Point","coordinates":[-77.0339094236686,38.8991243181792]}},{"properties":{"NAME":"Bank of America, NA","ZIPCODE":20005,"ADDRESS_ID":240259,"id":"a63nwhijnrxw","ADDRESS":"1090 Vermont Avenue, NW"},"type":"Feature","geometry":{"type":"Point","coordinates":[-77.0336501089131,38.9034196678715]}},{"properties":{"NAME":"Bank of America, NA","ZIPCODE":20005,"ADDRESS_ID":240654,"id":"a63nwhtq9yg6","ADDRESS":"700 13th Street, NW"},"type":"Feature","geometry":{"type":"Point","coordinates":[-77.0299996243052,38.8987337041073]}},{"properties":{"NAME":"Bank of America, NA","ZIPCODE":20006,"ADDRESS_ID":218778,"id":"a63nwhfgy5yt","ADDRESS":"888 17th Street, NW"},"type":"Feature","geometry":{"type":"Point","coordinates":[-77.039770563237,38.9010907062566]}},{"properties":{"NAME":"Bank of America, NA","ZIPCODE":20006,"ADDRESS_ID":279398,"id":"a63nwhq8e6fe","ADDRESS":"1801 K Street, NW"},"type":"Feature","geometry":{"type":"Point","coordinates":[-77.0420403662642,38.9029970705787]}},{"properties":{"NAME":"Bank of America, NA","ZIPCODE":20006,"ADDRESS_ID":243321,"id":"a63nwhrxreeu","ADDRESS":"2001 Pennsylvania Avenue, NW"},"type":"Feature","geometry":{"type":"Point","coordinates":[-77.0453316426977,38.901672962817]}},{"properties":{"NAME":"Bank of America, NA","ZIPCODE":20001,"ADDRESS_ID":279868,"id":"a63nwhfjg7o4","ADDRESS":"635 Massachusetts Avenue, NW"},"type":"Feature","geometry":{"type":"Point","coordinates":[-77.0208595240628,38.9021768864503]}},{"properties":{"NAME":"Bank of America, NA","ZIPCODE":20008,"ADDRESS_ID":275650,"id":"a63nwhjgotsh","ADDRESS":"3401 Connecticut Avenue, NW"},"type":"Feature","geometry":{"type":"Point","coordinates":[-77.057563117959,38.9346795038165]}},{"properties":{"NAME":"Bank of America, NA","ZIPCODE":20008,"ADDRESS_ID":284444,"id":"a63nwhk3y3wy","ADDRESS":"2631 Connecticut Avenue, NW"},"type":"Feature","geometry":{"type":"Point","coordinates":[-77.0516434441564,38.9245416137039]}},{"properties":{"NAME":"Bank of America, NA","ZIPCODE":20008,"ADDRESS_ID":220631,"id":"a63nwhepahfa","ADDRESS":"4201 Connecticut Avenue, NW"},"type":"Feature","geometry":{"type":"Point","coordinates":[-77.0626346517282,38.9434692626978]}},{"properties":{"NAME":"Bank of America, NA","ZIPCODE":20009,"ADDRESS_ID":295012,"id":"a63nwhojh7qc","ADDRESS":"1835 Columbia Road, NW"},"type":"Feature","geometry":{"type":"Point","coordinates":[-77.0437661999271,38.9216022610103]}},{"properties":{"NAME":"Bank of America, NA","ZIPCODE":20010,"ADDRESS_ID":284590,"id":"a63nwhrylo2x","ADDRESS":"3131 Mt. Pleasant Street, NW"},"type":"Feature","geometry":{"type":"Point","coordinates":[-77.0373944386225,38.9296342171503]}},{"properties":{"NAME":"Bank of America, NA","ZIPCODE":20010,"ADDRESS_ID":232241,"id":"a63nwhiu0si2","ADDRESS":"3500 Georgia Avenue, NW"},"type":"Feature","geometry":{"type":"Point","coordinates":[-77.024135209614,38.9331132022622]}},{"properties":{"NAME":"Bank of America, NA","ZIPCODE":20011,"ADDRESS_ID":245610,"id":"a63nwhl5togw","ADDRESS":"5911 Blair Road, NW"},"type":"Feature","geometry":{"type":"Point","coordinates":[-77.0097122570038,38.9616585628064]}},{"properties":{"NAME":"Bank of America, NA","ZIPCODE":20016,"ADDRESS_ID":274083,"id":"a63nwhufvr49","ADDRESS":"5201 Wisconsin Avenue, NW"},"type":"Feature","geometry":{"type":"Point","coordinates":[-77.0835781171785,38.9572392797221]}},{"properties":{"NAME":"Bank of America, NA","ZIPCODE":20016,"ADDRESS_ID":266468,"id":"a63nwhr3n8wc","ADDRESS":"4301 49th Street, NW"},"type":"Feature","geometry":{"type":"Point","coordinates":[-77.09640433573,38.9445588143816]}},{"properties":{"NAME":"Bank of America, NA","ZIPCODE":20018,"ADDRESS_ID":239706,"id":"a63nwhq4dzr8","ADDRESS":"915 Rhode Island Avenue, NW"},"type":"Feature","geometry":{"type":"Point","coordinates":[-77.0247255572884,38.9116697594347]}},{"properties":{"NAME":"Bank of America, NA","ZIPCODE":20019,"ADDRESS_ID":30095,"id":"a63nwhrwki1t","ADDRESS":"3821 Minnesota Avenue, NE"},"type":"Feature","geometry":{"type":"Point","coordinates":[-76.9506662701651,38.8924601084987]}},{"properties":{"NAME":"Bank of America, NA","ZIPCODE":20020,"ADDRESS_ID":51883,"id":"a63nwhiuzdml","ADDRESS":"2100 Martin Luther King Jr., SE"},"type":"Feature","geometry":{"type":"Point","coordinates":[-76.9892377611748,38.8654379186061]}},{"properties":{"NAME":"Bank of America, NA","ZIPCODE":20024,"ADDRESS_ID":28161,"id":"a63nwhq1rsai","ADDRESS":"401 M Street, SW"},"type":"Feature","geometry":{"type":"Point","coordinates":[-77.0181621270172,38.8775225861723]}},{"properties":{"NAME":"Bank of America, NA","ZIPCODE":20032,"ADDRESS_ID":276659,"id":"a63nwhri39pq","ADDRESS":"4675 South Capitol Street, SW"},"type":"Feature","geometry":{"type":"Point","coordinates":[-77.0017839709227,38.8211882870952]}},{"properties":{"NAME":"Bank of America, NA","ZIPCODE":20036,"ADDRESS_ID":302539,"id":"a63nwholwry1","ADDRESS":"3 Dupont Circle, NW"},"type":"Feature","geometry":{"type":"Point","coordinates":[-77.0444513211984,38.9092268031414]}},{"properties":{"NAME":"Bank of America, NA","ZIPCODE":20317,"ADDRESS_ID":291848,"id":"a63nwhu6kiop","ADDRESS":"3700 North Capitol Street, NW"},"type":"Feature","geometry":{"type":"Point","coordinates":[-77.006954019844,38.9365478300245]}},{"properties":{"NAME":"Bank of America, NA","ZIPCODE":20520,"ADDRESS_ID":243360,"id":"a63nwhuhpwie","ADDRESS":"2201 C Street, NW"},"type":"Feature","geometry":{"type":"Point","coordinates":[-77.0483084968368,38.8941273557835]}},{"properties":{"NAME":"Bank of America, NA","ZIPCODE":20374,"ADDRESS_ID":0,"id":"a63nwhh1ybx8","ADDRESS":"1244 Patterson Avenue SE, Bldg 22"},"type":"Feature","geometry":{"type":"Point","coordinates":[-76.9964466857946,38.8742428250839]}},{"properties":{"NAME":"Bank of America, NA","ZIPCODE":20332,"ADDRESS_ID":0,"id":"a63nwhtw40tr","ADDRESS":"185 Chappie James Boulevard, SE"},"type":"Feature","geometry":{"type":"Point","coordinates":[-77.0161815521674,38.8419554775071]}},{"properties":{"NAME":"Bank of Georgetown","ZIPCODE":20015,"ADDRESS_ID":267737,"id":"a63nwhosuaez","ADDRESS":"5236 44th Street, NW"},"type":"Feature","geometry":{"type":"Point","coordinates":[-77.0864796020837,38.9582372671832]}},{"properties":{"NAME":"Bank of Georgetown","ZIPCODE":20007,"ADDRESS_ID":295206,"id":"a63nwhm8wwhj","ADDRESS":"1001 Wisconsin Avenue, NW"},"type":"Feature","geometry":{"type":"Point","coordinates":[-77.0624513375045,38.9027712017498]}},{"properties":{"NAME":"Branch Banking and Trust Company","ZIPCODE":20005,"ADDRESS_ID":240933,"id":"a63nwhjeql4r","ADDRESS":"601 13th Street, NW"},"type":"Feature","geometry":{"type":"Point","coordinates":[-77.0292605445326,38.8978408025862]}},{"properties":{"NAME":"Branch Banking and Trust Company","ZIPCODE":20006,"ADDRESS_ID":243209,"id":"a63nwhlzga5y","ADDRESS":"1909 K Street, NW"},"type":"Feature","geometry":{"type":"Point","coordinates":[-77.0440840545667,38.9028096641791]}},{"properties":{"NAME":"Branch Banking and Trust Company","ZIPCODE":20006,"ADDRESS_ID":218768,"id":"a63nwhfhva9a","ADDRESS":"815 Connecticut Avenue, NW"},"type":"Feature","geometry":{"type":"Point","coordinates":[-77.0379774983712,38.9009611321361]}},{"properties":{"NAME":"Branch Banking and Trust Company","ZIPCODE":20003,"ADDRESS_ID":278338,"id":"a63nwhr52kcl","ADDRESS":"317 Pennsylvania Avenue, SE"},"type":"Feature","geometry":{"type":"Point","coordinates":[-77.0014542317199,38.8865296738579]}},{"properties":{"NAME":"Branch Banking and Trust Company","ZIPCODE":20009,"ADDRESS_ID":279046,"id":"a63nwhn39wlq","ADDRESS":"1316 U Street, NW"},"type":"Feature","geometry":{"type":"Point","coordinates":[-77.030356957932,38.9167766989122]}},{"properties":{"NAME":"Branch Banking and Trust Company","ZIPCODE":20009,"ADDRESS_ID":218493,"id":"a63nwhi0w92w","ADDRESS":"1801 Adams Mill Road, NW"},"type":"Feature","geometry":{"type":"Point","coordinates":[-77.042443344262,38.9230583137434]}},{"properties":{"NAME":"Branch Banking and Trust Company","ZIPCODE":20015,"ADDRESS_ID":265898,"id":"a63nwhrvkh5n","ADDRESS":"5200 Wisconsin Avenue, NW"},"type":"Feature","geometry":{"type":"Point","coordinates":[-77.0842889450657,38.9572437239804]}},{"properties":{"NAME":"Branch Banking and Trust Company","ZIPCODE":20036,"ADDRESS_ID":241782,"id":"a63nwhp9rb0t","ADDRESS":"1730 Rhode Island Avenue, NW"},"type":"Feature","geometry":{"type":"Point","coordinates":[-77.0396187758085,38.9059389636659]}},{"properties":{"NAME":"Branch Banking and Trust Company","ZIPCODE":20007,"ADDRESS_ID":223699,"id":"a63nwhkcpvnr","ADDRESS":"1365 Wisconsin Avenue, NW"},"type":"Feature","geometry":{"type":"Point","coordinates":[-77.0635576980802,38.9082862386675]}},{"properties":{"NAME":"Branch Banking and Trust Company","ZIPCODE":20001,"ADDRESS_ID":295092,"id":"a63nwhunkkh8","ADDRESS":"614 H Street, NW"},"type":"Feature","geometry":{"type":"Point","coordinates":[-77.0207398888352,38.8995478186711]}},{"properties":{"NAME":"Cardinal Bank","ZIPCODE":20006,"ADDRESS_ID":236718,"id":"a63nwhgjsc1x","ADDRESS":"1776 K Street, NW"},"type":"Feature","geometry":{"type":"Point","coordinates":[-77.0412357691985,38.9021810201911]}},{"properties":{"NAME":"Chevy Chase Bank, F.S.B.","ZIPCODE":20008,"ADDRESS_ID":295765,"id":"a63nwhmmbsd6","ADDRESS":"3519 Connecticut Avenue, NW"},"type":"Feature","geometry":{"type":"Point","coordinates":[-77.0582331082453,38.9362227443721]}},{"properties":{"NAME":"Chevy Chase Bank, F.S.B.","ZIPCODE":20004,"ADDRESS_ID":302652,"id":"a63nwhqcdm4s","ADDRESS":"650 F Street, NW"},"type":"Feature","geometry":{"type":"Point","coordinates":[-77.0209771200732,38.8971362379747]}},{"properties":{"NAME":"Chevy Chase Bank, F.S.B.","ZIPCODE":20004,"ADDRESS_ID":300895,"id":"a63nwhk5aw81","ADDRESS":"1200 F Street, NW"},"type":"Feature","geometry":{"type":"Point","coordinates":[-77.0284223298367,38.897199073591]}},{"properties":{"NAME":"Chevy Chase Bank, F.S.B.","ZIPCODE":20004,"ADDRESS_ID":279889,"id":"a63nwho3j7tp","ADDRESS":"701 Pennsylvania Avenue NW"},"type":"Feature","geometry":{"type":"Point","coordinates":[-77.0223800053584,38.8944381523342]}},{"properties":{"NAME":"Chevy Chase Bank, F.S.B.","ZIPCODE":20004,"ADDRESS_ID":285503,"id":"a63nwhh5p97c","ADDRESS":"1299 Pennsylvania Avenue NW"},"type":"Feature","geometry":{"type":"Point","coordinates":[-77.0293180327451,38.8963233293203]}},{"properties":{"NAME":"Chevy Chase Bank, F.S.B.","ZIPCODE":20001,"ADDRESS_ID":300397,"id":"a63nwhofpak0","ADDRESS":"901 New York Avenue, NW"},"type":"Feature","geometry":{"type":"Point","coordinates":[-77.0252644086968,38.9020155781078]}},{"properties":{"NAME":"Chevy Chase Bank, F.S.B.","ZIPCODE":20006,"ADDRESS_ID":279332,"id":"a63nwhpab5dj","ADDRESS":"1717 Pennsylvania Avenue NW"},"type":"Feature","geometry":{"type":"Point","coordinates":[-77.040391135688,38.8994624126452]}},{"properties":{"NAME":"Chevy Chase Bank, F.S.B.","ZIPCODE":20006,"ADDRESS_ID":300932,"id":"a63nwhi3x1ac","ADDRESS":"1850 K Street NW"},"type":"Feature","geometry":{"type":"Point","coordinates":[-77.0431271818544,38.9022651059106]}},{"properties":{"NAME":"Chevy Chase Bank, F.S.B.","ZIPCODE":20006,"ADDRESS_ID":243334,"id":"a63nwhnqbscy","ADDRESS":"1700 K Street, NW"},"type":"Feature","geometry":{"type":"Point","coordinates":[-77.0398332032892,38.9021757414778]}},{"properties":{"NAME":"Chevy Chase Bank, F.S.B.","ZIPCODE":20007,"ADDRESS_ID":223930,"id":"a63nwheuap9k","ADDRESS":"1545 Wisconsin Avenue NW"},"type":"Feature","geometry":{"type":"Point","coordinates":[-77.064606075233,38.9101917395303]}},{"properties":{"NAME":"Chevy Chase Bank, F.S.B.","ZIPCODE":20008,"ADDRESS_ID":284922,"id":"a63nwhju5k6q","ADDRESS":"4455 Connecticut Avenue NW"},"type":"Feature","geometry":{"type":"Point","coordinates":[-77.0643782843238,38.946767780018]}},{"properties":{"NAME":"Chevy Chase Bank, F.S.B.","ZIPCODE":20003,"ADDRESS_ID":300706,"id":"a63nwhuiyjhq","ADDRESS":"336 Pennsylvania Avenue, SE"},"type":"Feature","geometry":{"type":"Point","coordinates":[-77.0007586398899,38.8868359653571]}},{"properties":{"NAME":"Chevy Chase Bank, F.S.B.","ZIPCODE":20015,"ADDRESS_ID":285262,"id":"a63nwhkyehp5","ADDRESS":"5714 Connecticut Avenue NW"},"type":"Feature","geometry":{"type":"Point","coordinates":[-77.0767481941207,38.9662687043971]}},{"properties":{"NAME":"Chevy Chase Bank, F.S.B.","ZIPCODE":20016,"ADDRESS_ID":223994,"id":"a63nwhtwx47j","ADDRESS":"4400 Massachusetts Avenue NW"},"type":"Feature","geometry":{"type":"Point","coordinates":[-77.0884148120589,38.9390814220626]}},{"properties":{"NAME":"Chevy Chase Bank, F.S.B.","ZIPCODE":20016,"ADDRESS_ID":266470,"id":"a63nwhj1dk4l","ADDRESS":"4860 Massachusetts Avenue NW"},"type":"Feature","geometry":{"type":"Point","coordinates":[-77.0961353227407,38.9449725163654]}},{"properties":{"NAME":"Chevy Chase Bank, F.S.B.","ZIPCODE":20016,"ADDRESS_ID":222230,"id":"a63nwhiym48z","ADDRESS":"4000 Wisconsin Avenue NW"},"type":"Feature","geometry":{"type":"Point","coordinates":[-77.0768969609713,38.9416893604368]}},{"properties":{"NAME":"Chevy Chase Bank, F.S.B.","ZIPCODE":20017,"ADDRESS_ID":286613,"id":"a63nwhfgngzj","ADDRESS":"210 Michigan Avenue NE"},"type":"Feature","geometry":{"type":"Point","coordinates":[-77.0044526566951,38.9297626276571]}},{"properties":{"NAME":"Chevy Chase Bank, F.S.B.","ZIPCODE":20020,"ADDRESS_ID":278276,"id":"a63nwhmlpdxz","ADDRESS":"2831 Alabama Avenue SE"},"type":"Feature","geometry":{"type":"Point","coordinates":[-76.9675673078782,38.858606340049]}},{"properties":{"NAME":"Chevy Chase Bank, F.S.B.","ZIPCODE":20036,"ADDRESS_ID":241793,"id":"a63nwhivd0kf","ADDRESS":"1100 17th Street NW"},"type":"Feature","geometry":{"type":"Point","coordinates":[-77.038885182557,38.904048086962]}},{"properties":{"NAME":"Chevy Chase Bank, F.S.B.","ZIPCODE":20036,"ADDRESS_ID":241302,"id":"a63nwhgz9u6b","ADDRESS":"1800 M Street NW"},"type":"Feature","geometry":{"type":"Point","coordinates":[-77.0422373892651,38.9053298926098]}},{"properties":{"NAME":"Chevy Chase Bank, F.S.B.","ZIPCODE":20037,"ADDRESS_ID":301450,"id":"a63nwhndq7fy","ADDRESS":"2400 M Street, NW"},"type":"Feature","geometry":{"type":"Point","coordinates":[-77.051708431609,38.9050646623913]}},{"properties":{"NAME":"Chevy Chase Bank, F.S.B.","ZIPCODE":20057,"ADDRESS_ID":291547,"id":"a63nwhiwskfw","ADDRESS":"3800 Reservoir Road, NW"},"type":"Feature","geometry":{"type":"Point","coordinates":[-77.0752819509666,38.9122032175628]}},{"properties":{"NAME":"Chevy Chase Bank, F.S.B.","ZIPCODE":20003,"ADDRESS_ID":285822,"id":"a63nwhqrgf0f","ADDRESS":"1100 New Jersey Avenue, SE"},"type":"Feature","geometry":{"type":"Point","coordinates":[-77.0039421694207,38.8769512682461]}},{"properties":{"NAME":"Chevy Chase Bank, F.S.B.","ZIPCODE":20005,"ADDRESS_ID":218798,"id":"a63nwhobgcus","ADDRESS":"925 15th Street, NW"},"type":"Feature","geometry":{"type":"Point","coordinates":[-77.0332905443006,38.9019986128481]}},{"properties":{"NAME":"Chevy Chase Bank, F.S.B.","ZIPCODE":20001,"ADDRESS_ID":0,"id":"a63nwhqh3byg","ADDRESS":"Ronald Reagan Nat. Airport, NW"},"type":"Feature","geometry":{"type":"Point","coordinates":[-77.0376490042998,38.8523070002621]}},{"properties":{"NAME":"Citibank, NA","ZIPCODE":20006,"ADDRESS_ID":279383,"id":"a63nwhgmbtcz","ADDRESS":"1775 Pennsylvania Ave NW"},"type":"Feature","geometry":{"type":"Point","coordinates":[-77.0413629721935,38.899869610797]}},{"properties":{"NAME":"Citibank, NA","ZIPCODE":20005,"ADDRESS_ID":301002,"id":"a63nwhubp1ek","ADDRESS":"1400 G Street NW"},"type":"Feature","geometry":{"type":"Point","coordinates":[-77.0325133641418,38.898110643837]}},{"properties":{"NAME":"Citibank, NA","ZIPCODE":20009,"ADDRESS_ID":302977,"id":"a63nwhox0lzs","ADDRESS":"1749 1/2 Columbia Rd. NW"},"type":"Feature","geometry":{"type":"Point","coordinates":[-77.0412178214056,38.9239917441884]}},{"properties":{"NAME":"Citibank, NA","ZIPCODE":20015,"ADDRESS_ID":274635,"id":"a63nwhr38pvq","ADDRESS":"5700 Connecticut Ave. NW"},"type":"Feature","geometry":{"type":"Point","coordinates":[-77.0766320948205,38.9661341072201]}},{"properties":{"NAME":"Citibank, NA","ZIPCODE":20016,"ADDRESS_ID":285144,"id":"a63nwhutbmh8","ADDRESS":"5250 Mac Arthur Blvd. NW"},"type":"Feature","geometry":{"type":"Point","coordinates":[-77.1041499573037,38.92699093021]}},{"properties":{"NAME":"Citibank, NA","ZIPCODE":20016,"ADDRESS_ID":266053,"id":"a63nwhh2na6r","ADDRESS":"5001 Wisconsin Ave. NW"},"type":"Feature","geometry":{"type":"Point","coordinates":[-77.0824425936385,38.9549488331325]}},{"properties":{"NAME":"Citibank, NA","ZIPCODE":20017,"ADDRESS_ID":30632,"id":"a63nwhuncwhl","ADDRESS":"3800 12th Street NE"},"type":"Feature","geometry":{"type":"Point","coordinates":[-76.9911501300994,38.936371589633]}},{"properties":{"NAME":"Citibank, NA","ZIPCODE":20019,"ADDRESS_ID":29135,"id":"a63nwhfaz88d","ADDRESS":"3917 Minnesota Ave. NE"},"type":"Feature","geometry":{"type":"Point","coordinates":[-76.9497066169783,38.8938141978993]}},{"properties":{"NAME":"Citibank, NA","ZIPCODE":20036,"ADDRESS_ID":241767,"id":"a63nwhn8jwbv","ADDRESS":"1225 Connecticut Ave. NW"},"type":"Feature","geometry":{"type":"Point","coordinates":[-77.0414390982703,38.9069042974673]}},{"properties":{"NAME":"Citibank, NA","ZIPCODE":20036,"ADDRESS_ID":243406,"id":"a63nwhuijejq","ADDRESS":"1000 Connecticut Ave. NW"},"type":"Feature","geometry":{"type":"Point","coordinates":[-77.040004782024,38.902853021083]}},{"properties":{"NAME":"Citibank, NA","ZIPCODE":20004,"ADDRESS_ID":242893,"id":"a63nwhi3movn","ADDRESS":"1101 Pennsylvania Ave. NW"},"type":"Feature","geometry":{"type":"Point","coordinates":[-77.0274048096461,38.8951556790365]}},{"properties":{"NAME":"Citibank, NA","ZIPCODE":20003,"ADDRESS_ID":5839,"id":"a63nwho2s0i8","ADDRESS":"600 Pennsylvania Ave. SE"},"type":"Feature","geometry":{"type":"Point","coordinates":[-76.9977061139689,38.8856741344779]}},{"properties":{"NAME":"Citibank, NA","ZIPCODE":20005,"ADDRESS_ID":240261,"id":"a63nwhqzzs20","ADDRESS":"1000 Vermont Ave. NW"},"type":"Feature","geometry":{"type":"Point","coordinates":[-77.0339362296851,38.9028872814736]}},{"properties":{"NAME":"Citibank, NA","ZIPCODE":20007,"ADDRESS_ID":279450,"id":"a63nwhu5l2rj","ADDRESS":"1901 Wisconsin Ave. NW"},"type":"Feature","geometry":{"type":"Point","coordinates":[-77.0678216085171,38.9163375683574]}},{"properties":{"NAME":"City First Bank of D.C., NA","ZIPCODE":20009,"ADDRESS_ID":279168,"id":"a63nwhrurjrv","ADDRESS":"1432 U Street, NW"},"type":"Feature","geometry":{"type":"Point","coordinates":[-77.0333283498808,38.916786248775]}},{"properties":{"NAME":"Commerce Bank, NA","ZIPCODE":20009,"ADDRESS_ID":300676,"id":"a63nwhpp4msb","ADDRESS":"1753 Connecticut Ave, NW"},"type":"Feature","geometry":{"type":"Point","coordinates":[-77.0456161852078,38.9139451031937]}},{"properties":{"NAME":"E*Trade Bank","ZIPCODE":20006,"ADDRESS_ID":300932,"id":"a63nwhmgl2we","ADDRESS":"1850 K Street, NW"},"type":"Feature","geometry":{"type":"Point","coordinates":[-77.0431271818544,38.9022651059106]}},{"properties":{"NAME":"EagleBank","ZIPCODE":20036,"ADDRESS_ID":302357,"id":"a63nwhrn95kh","ADDRESS":"1228 Connecticut Avenue NW"},"type":"Feature","geometry":{"type":"Point","coordinates":[-77.042134167901,38.906829820083]}},{"properties":{"NAME":"EagleBank","ZIPCODE":20005,"ADDRESS_ID":240264,"id":"a63nwhhibrbz","ADDRESS":"1425 K Street, NW"},"type":"Feature","geometry":{"type":"Point","coordinates":[-77.0330714637412,38.9029096900208]}},{"properties":{"NAME":"EagleBank","ZIPCODE":20006,"ADDRESS_ID":242788,"id":"a63nwhiotnrq","ADDRESS":"2001 K Street NW"},"type":"Feature","geometry":{"type":"Point","coordinates":[-77.045257898904,38.9029872204363]}},{"properties":{"NAME":"Fidelity &amp; Trust Bank","ZIPCODE":20007,"ADDRESS_ID":278800,"id":"a63nwhniojhu","ADDRESS":"1044 Wisconsin Avenue NW"},"type":"Feature","geometry":{"type":"Point","coordinates":[-77.0629636448193,38.9037870692476]}},{"properties":{"NAME":"Fidelity &amp; Trust Bank","ZIPCODE":20006,"ADDRESS_ID":279349,"id":"a63nwhsp79ra","ADDRESS":"1725 Eye Street NW"},"type":"Feature","geometry":{"type":"Point","coordinates":[-77.040354209379,38.9016193867586]}},{"properties":{"NAME":"HSBC Bank USA, NA","ZIPCODE":20008,"ADDRESS_ID":284577,"id":"a63nwhp0e2nt","ADDRESS":"3100 Massachuesetts Avenue, NW"},"type":"Feature","geometry":{"type":"Point","coordinates":[-77.0624726910136,38.9196364286052]}},{"properties":{"NAME":"HSBC Bank USA, NA","ZIPCODE":20036,"ADDRESS_ID":241787,"id":"a63nwhuaafcd","ADDRESS":"1130 Connecticut Avenue, NW"},"type":"Feature","geometry":{"type":"Point","coordinates":[-77.0411290497968,38.9046409689983]}},{"properties":{"NAME":"Independence Federal Savings Bank","ZIPCODE":20036,"ADDRESS_ID":242546,"id":"a63nwhusry7c","ADDRESS":"1020-19th St. NW"},"type":"Feature","geometry":{"type":"Point","coordinates":[-77.0438083987516,38.9031755971526]}},{"properties":{"NAME":"Independence Federal Savings Bank","ZIPCODE":20004,"ADDRESS_ID":298260,"id":"a63nwhicpiye","ADDRESS":"1006-E Street NW"},"type":"Feature","geometry":{"type":"Point","coordinates":[-77.0264879956584,38.8959819576808]}},{"properties":{"NAME":"Independence Federal Savings Bank","ZIPCODE":20036,"ADDRESS_ID":278975,"id":"a63nwhnwfpti","ADDRESS":"1229 Connecticut Ave. NW"},"type":"Feature","geometry":{"type":"Point","coordinates":[-77.0414374716209,38.9070613135509]}},{"properties":{"NAME":"Industrial Bank, National Association","ZIPCODE":20018,"ADDRESS_ID":286592,"id":"a63nwhmyiu9o","ADDRESS":"2012 Rhode Island Avenue, NW"},"type":"Feature","geometry":{"type":"Point","coordinates":[-76.975642553768,38.9296598217511]}},{"properties":{"NAME":"Industrial Bank, National Association","ZIPCODE":20009,"ADDRESS_ID":239976,"id":"a63nwhl6fq04","ADDRESS":"2000 14th Street, NW"},"type":"Feature","geometry":{"type":"Point","coordinates":[-77.0324035240765,38.917444026974]}},{"properties":{"NAME":"Industrial Bank, National Association","ZIPCODE":20019,"ADDRESS_ID":285981,"id":"a63nwhnkh6hi","ADDRESS":"125 45th Street, NE"},"type":"Feature","geometry":{"type":"Point","coordinates":[-76.9374688620111,38.8916049302028]}},{"properties":{"NAME":"Industrial Bank, National Association","ZIPCODE":20005,"ADDRESS_ID":240661,"id":"a63nwhsne1o0","ADDRESS":"1317 F Street, NW"},"type":"Feature","geometry":{"type":"Point","coordinates":[-77.0306141691362,38.8976038060085]}},{"properties":{"NAME":"Industrial Bank, National Association","ZIPCODE":20001,"ADDRESS_ID":218578,"id":"a63nwhgh631r","ADDRESS":"2000 11th Street, NW"},"type":"Feature","geometry":{"type":"Point","coordinates":[-77.0273845538734,38.9171621791302]}},{"properties":{"NAME":"Industrial Bank, National Association","ZIPCODE":20011,"ADDRESS_ID":252851,"id":"a63nwhpfn9np","ADDRESS":"4812 Georgia Avenue, NW"},"type":"Feature","geometry":{"type":"Point","coordinates":[-77.0274221644486,38.9493010951338]}},{"properties":{"NAME":"J. P. Morgan Trust Company, National Association","ZIPCODE":20006,"ADDRESS_ID":301059,"id":"a63nwhg6itpp","ADDRESS":"800 Connecticut Avenue, NW"},"type":"Feature","geometry":{"type":"Point","coordinates":[-77.0384438646672,38.900402101059]}},{"properties":{"NAME":"Manufacturers and Traders Trust Company","ZIPCODE":20024,"ADDRESS_ID":276666,"id":"a63nwhtcoim0","ADDRESS":"500 C Street, SW"},"type":"Feature","geometry":{"type":"Point","coordinates":[-77.0186720048387,38.8855695185541]}},{"properties":{"NAME":"Manufacturers and Traders Trust Company","ZIPCODE":20004,"ADDRESS_ID":239135,"id":"a63nwhjir1tz","ADDRESS":"555 12th Street NW"},"type":"Feature","geometry":{"type":"Point","coordinates":[-77.0275828146161,38.89673246142]}},{"properties":{"NAME":"Manufacturers and Traders Trust Company","ZIPCODE":20020,"ADDRESS_ID":278292,"id":"a63nwhsexapc","ADDRESS":"2865 Alabama Avenue, SE"},"type":"Feature","geometry":{"type":"Point","coordinates":[-76.9650523224025,38.8601626300661]}},{"properties":{"NAME":"Manufacturers and Traders Trust Company","ZIPCODE":20012,"ADDRESS_ID":253291,"id":"a63nwhl6lfas","ADDRESS":"6434 Georgia Avenue, NW"},"type":"Feature","geometry":{"type":"Point","coordinates":[-77.02762887087,38.9685918726933]}},{"properties":{"NAME":"Manufacturers and Traders Trust Company","ZIPCODE":20036,"ADDRESS_ID":241298,"id":"a63nwhs7fwr8","ADDRESS":"1899 L Street, NW"},"type":"Feature","geometry":{"type":"Point","coordinates":[-77.0430387337557,38.9039449263806]}},{"properties":{"NAME":"Manufacturers and Traders Trust Company","ZIPCODE":20008,"ADDRESS_ID":219094,"id":"a63nwhr170p2","ADDRESS":"2620 Connecticut Avenue, NW"},"type":"Feature","geometry":{"type":"Point","coordinates":[-77.0523199754685,38.9243017815594]}},{"properties":{"NAME":"Manufacturers and Traders Trust Company","ZIPCODE":20006,"ADDRESS_ID":300674,"id":"a63nwhrieu2a","ADDRESS":"1680 K Street, NW"},"type":"Feature","geometry":{"type":"Point","coordinates":[-77.0382374494428,38.9022269016228]}},{"properties":{"NAME":"Manufacturers and Traders Trust Company","ZIPCODE":20015,"ADDRESS_ID":263863,"id":"a63nwhnu58r6","ADDRESS":"5630 Connecticut Avenue, NW"},"type":"Feature","geometry":{"type":"Point","coordinates":[-77.0764149066175,38.9656899624958]}},{"properties":{"NAME":"Mercantile-Safe Deposit and Trust Company","ZIPCODE":20005,"ADDRESS_ID":239128,"id":"a63nwhfbu6v6","ADDRESS":"1100 H Street, NW"},"type":"Feature","geometry":{"type":"Point","coordinates":[-77.0273812411865,38.8995238398541]}},{"properties":{"NAME":"Mercantile-Safe Deposit and Trust Company","ZIPCODE":20006,"ADDRESS_ID":242031,"id":"a63nwhq0kgrd","ADDRESS":"1629 K Street NW"},"type":"Feature","geometry":{"type":"Point","coordinates":[-77.0378958705301,38.9029224579335]}},{"properties":{"NAME":"NCB FSB","ZIPCODE":20006,"ADDRESS_ID":279349,"id":"a63nwhup6nqv","ADDRESS":"1725 Eye Street, NW"},"type":"Feature","geometry":{"type":"Point","coordinates":[-77.040354209379,38.9016193867586]}},{"properties":{"NAME":"OBA Federal Savings Bank","ZIPCODE":20004,"ADDRESS_ID":238713,"id":"a63nwhk75tut","ADDRESS":"600 F Street NW"},"type":"Feature","geometry":{"type":"Point","coordinates":[-77.0201231358906,38.8971010754183]}},{"properties":{"NAME":"PNC Bank, National Association","ZIPCODE":20009,"ADDRESS_ID":235934,"id":"a63nwhux8rrp","ADDRESS":"1779 Columbia Road, NW"},"type":"Feature","geometry":{"type":"Point","coordinates":[-77.0422782376624,38.9233043007634]}},{"properties":{"NAME":"PNC Bank, National Association","ZIPCODE":20002,"ADDRESS_ID":151153,"id":"a63nwhjtt89j","ADDRESS":"800 H Street, NE"},"type":"Feature","geometry":{"type":"Point","coordinates":[-76.9947564907565,38.9004322710454]}},{"properties":{"NAME":"PNC Bank, National Association","ZIPCODE":20003,"ADDRESS_ID":280033,"id":"a63nwhkb0ejj","ADDRESS":"650 Pennsylvania Avenue, SE"},"type":"Feature","geometry":{"type":"Point","coordinates":[-76.9969429989051,38.8853630575831]}},{"properties":{"NAME":"PNC Bank, National Association","ZIPCODE":20004,"ADDRESS_ID":293231,"id":"a63nwhmu87ud","ADDRESS":"301 7th Street, NW"},"type":"Feature","geometry":{"type":"Point","coordinates":[-77.021229848794,38.8937485962732]}},{"properties":{"NAME":"PNC Bank, National Association","ZIPCODE":20004,"ADDRESS_ID":279081,"id":"a63nwhrby27e","ADDRESS":"1331 Pennsylvania Avenue NW"},"type":"Feature","geometry":{"type":"Point","coordinates":[-77.0313717976889,38.8963673872346]}},{"properties":{"NAME":"PNC Bank, National Association","ZIPCODE":20005,"ADDRESS_ID":240269,"id":"a63nwhnxqn3k","ADDRESS":"1400 K Street, NW"},"type":"Feature","geometry":{"type":"Point","coordinates":[-77.0324088161209,38.9021670467743]}},{"properties":{"NAME":"PNC Bank, National Association","ZIPCODE":20005,"ADDRESS_ID":243359,"id":"a63nwhjlv0cf","ADDRESS":"1503 Pennsylvania Avenue, NW"},"type":"Feature","geometry":{"type":"Point","coordinates":[-77.0341607195536,38.8990916347015]}},{"properties":{"NAME":"PNC Bank, National Association","ZIPCODE":20005,"ADDRESS_ID":243422,"id":"a63nwhtmg4fi","ADDRESS":"1101 15th Street, NW"},"type":"Feature","geometry":{"type":"Point","coordinates":[-77.0342152637444,38.9039330699374]}},{"properties":{"NAME":"PNC Bank, National Association","ZIPCODE":20001,"ADDRESS_ID":300518,"id":"a63nwhm9nzza","ADDRESS":"833 7th Street, NW"},"type":"Feature","geometry":{"type":"Point","coordinates":[-77.0216367935368,38.9007059507359]}},{"properties":{"NAME":"PNC Bank, National Association","ZIPCODE":20006,"ADDRESS_ID":241082,"id":"a63nwhpz7vac","ADDRESS":"1919 Pennsylvania Avenue, NW"},"type":"Feature","geometry":{"type":"Point","coordinates":[-77.0443080195057,38.9009131402398]}},{"properties":{"NAME":"PNC Bank, National Association","ZIPCODE":20007,"ADDRESS_ID":272025,"id":"a63nwhq6kh0d","ADDRESS":"1201 Wisconsin Ave, NW"},"type":"Feature","geometry":{"type":"Point","coordinates":[-77.0625374346461,38.9053762815822]}},{"properties":{"NAME":"PNC Bank, National Association","ZIPCODE":20006,"ADDRESS_ID":218758,"id":"a63nwhst7wei","ADDRESS":"800 17th Street, NW"},"type":"Feature","geometry":{"type":"Point","coordinates":[-77.0397424398915,38.9004804896529]}},{"properties":{"NAME":"PNC Bank, National Association","ZIPCODE":20002,"ADDRESS_ID":286090,"id":"a63nwht8rksj","ADDRESS":"1348 Fourth Street, NE"},"type":"Feature","geometry":{"type":"Point","coordinates":[-76.9988246441011,38.9100843793411]}},{"properties":{"NAME":"PNC Bank, National Association","ZIPCODE":20009,"ADDRESS_ID":242828,"id":"a63nwhmk8tz5","ADDRESS":"1875 Connecticut Ave, NW"},"type":"Feature","geometry":{"type":"Point","coordinates":[-77.0458985255139,38.9156740525271]}},{"properties":{"NAME":"PNC Bank, National Association","ZIPCODE":20010,"ADDRESS_ID":234465,"id":"a63nwhf8zphv","ADDRESS":"3300 14th Street, NW"},"type":"Feature","geometry":{"type":"Point","coordinates":[-77.0329824112233,38.9304498066155]}},{"properties":{"NAME":"PNC Bank, National Association","ZIPCODE":20012,"ADDRESS_ID":253715,"id":"a63nwhmh4d83","ADDRESS":"7601 Georgia Avenue, NW"},"type":"Feature","geometry":{"type":"Point","coordinates":[-77.0262752886536,38.9817040234996]}},{"properties":{"NAME":"PNC Bank, National Association","ZIPCODE":20015,"ADDRESS_ID":265899,"id":"a63nwhgk6zv9","ADDRESS":"5252 Wisconsin Avenue, NW"},"type":"Feature","geometry":{"type":"Point","coordinates":[-77.0851462317702,38.9587373936701]}},{"properties":{"NAME":"PNC Bank, National Association","ZIPCODE":20015,"ADDRESS_ID":277177,"id":"a63nwhgrv7jm","ADDRESS":"2550 M Street, NW"},"type":"Feature","geometry":{"type":"Point","coordinates":[-77.0542079533301,38.9049697524547]}},{"properties":{"NAME":"PNC Bank, National Association","ZIPCODE":20015,"ADDRESS_ID":263837,"id":"a63nwhlu396g","ADDRESS":"5530 Connecticut Avenue, NW"},"type":"Feature","geometry":{"type":"Point","coordinates":[-77.0754216132607,38.9638066217073]}},{"properties":{"NAME":"PNC Bank, National Association","ZIPCODE":20016,"ADDRESS_ID":303170,"id":"a63nwhnkbr70","ADDRESS":"4249 Wisconsin Avenue, NW"},"type":"Feature","geometry":{"type":"Point","coordinates":[-77.0775290142923,38.9446135742182]}},{"properties":{"NAME":"PNC Bank, National Association","ZIPCODE":20016,"ADDRESS_ID":269570,"id":"a63nwhuqhoss","ADDRESS":"4835 Massachusetts Avenue, NW"},"type":"Feature","geometry":{"type":"Point","coordinates":[-77.0954927585901,38.9452883331054]}},{"properties":{"NAME":"PNC Bank, National Association","ZIPCODE":20017,"ADDRESS_ID":156248,"id":"a63nwhhvn9td","ADDRESS":"3806 12th Street, NE"},"type":"Feature","geometry":{"type":"Point","coordinates":[-76.9911077737924,38.9365821103386]}},{"properties":{"NAME":"PNC Bank, National Association","ZIPCODE":20020,"ADDRESS_ID":151471,"id":"a63nwhl7fcwv","ADDRESS":"2000 Martin Luther King, Jr., SE"},"type":"Feature","geometry":{"type":"Point","coordinates":[-76.9888566840372,38.8664061069738]}},{"properties":{"NAME":"PNC Bank, National Association","ZIPCODE":20024,"ADDRESS_ID":303666,"id":"a63nwhqqc66z","ADDRESS":"935 L'enfant Plaza North, SW"},"type":"Feature","geometry":{"type":"Point","coordinates":[-77.0247672917505,38.8844301759465]}},{"properties":{"NAME":"PNC Bank, National Association","ZIPCODE":20032,"ADDRESS_ID":27051,"id":"a63nwhm9hpbe","ADDRESS":"4100 South Capitol Street, SW"},"type":"Feature","geometry":{"type":"Point","coordinates":[-77.0073591788357,38.8299473653447]}},{"properties":{"NAME":"PNC Bank, National Association","ZIPCODE":20036,"ADDRESS_ID":242545,"id":"a63nwhh35n4l","ADDRESS":"1920 L Street, NW"},"type":"Feature","geometry":{"type":"Point","coordinates":[-77.0444799059764,38.9034997342544]}},{"properties":{"NAME":"PNC Bank, National Association","ZIPCODE":20036,"ADDRESS_ID":241302,"id":"a63nwhn7v4b1","ADDRESS":"1800 M Street, NW"},"type":"Feature","geometry":{"type":"Point","coordinates":[-77.0422373892651,38.9053298926098]}},{"properties":{"NAME":"PNC Bank, National Association","ZIPCODE":20036,"ADDRESS_ID":300942,"id":"a63nwhnt2d1n","ADDRESS":"1913 Massachusetts Avenue, NW"},"type":"Feature","geometry":{"type":"Point","coordinates":[-77.0442825527805,38.9102160734499]}},{"properties":{"NAME":"PNC Bank, National Association","ZIPCODE":20037,"ADDRESS_ID":279603,"id":"a63nwhuc4ow5","ADDRESS":"2600 Virginia Avenue, NW"},"type":"Feature","geometry":{"type":"Point","coordinates":[-77.0554945963341,38.899643768424]}},{"properties":{"NAME":"PNC Bank, National Association","ZIPCODE":20008,"ADDRESS_ID":301239,"id":"a63nwhmcqkqt","ADDRESS":"3400 International Drive, NW"},"type":"Feature","geometry":{"type":"Point","coordinates":[-77.064399517561,38.9417831230284]}},{"properties":{"NAME":"Presidential Bank, FSB","ZIPCODE":20006,"ADDRESS_ID":279290,"id":"a63nwhmjxpnf","ADDRESS":"1660 K Street NW"},"type":"Feature","geometry":{"type":"Point","coordinates":[-77.0378109875901,38.902187944161]}},{"properties":{"NAME":"Provident Bank of Maryland","ZIPCODE":20007,"ADDRESS_ID":278803,"id":"a63nwhr3twhq","ADDRESS":"1055 Thomas Jefferson St NW"},"type":"Feature","geometry":{"type":"Point","coordinates":[-77.0597617389573,38.9037611854203]}},{"properties":{"NAME":"SunTrust Bank","ZIPCODE":20007,"ADDRESS_ID":272083,"id":"a63nwhjzg137","ADDRESS":"2929 M Street, NW"},"type":"Feature","geometry":{"type":"Point","coordinates":[-77.0589530896927,38.9054121066881]}},{"properties":{"NAME":"SunTrust Bank","ZIPCODE":20002,"ADDRESS_ID":288105,"id":"a63nwhkvfckj","ADDRESS":"410 Rhode Island Avenue, NE"},"type":"Feature","geometry":{"type":"Point","coordinates":[-76.9999993138778,38.9202437137163]}},{"properties":{"NAME":"SunTrust Bank","ZIPCODE":20002,"ADDRESS_ID":297814,"id":"a63nwho1merf","ADDRESS":"1601 Maryland Avenue, NE"},"type":"Feature","geometry":{"type":"Point","coordinates":[-76.9797700451167,38.9005672939462]}},{"properties":{"NAME":"SunTrust Bank","ZIPCODE":20003,"ADDRESS_ID":278302,"id":"a63nwht89a27","ADDRESS":"300 Pennsylvania Avenue, SE"},"type":"Feature","geometry":{"type":"Point","coordinates":[-77.0018006193546,38.8872951110246]}},{"properties":{"NAME":"SunTrust Bank","ZIPCODE":20003,"ADDRESS_ID":26239,"id":"a63nwhld76bm","ADDRESS":"415 14th Street SE"},"type":"Feature","geometry":{"type":"Point","coordinates":[-76.9865492469734,38.883541278401]}},{"properties":{"NAME":"SunTrust Bank","ZIPCODE":20005,"ADDRESS_ID":243281,"id":"a63nwhtvn2r4","ADDRESS":"1275 K Street, NW"},"type":"Feature","geometry":{"type":"Point","coordinates":[-77.0291490690774,38.9028878532938]}},{"properties":{"NAME":"SunTrust Bank","ZIPCODE":20005,"ADDRESS_ID":303213,"id":"a63nwhsojaj8","ADDRESS":"1100 G Street, NW"},"type":"Feature","geometry":{"type":"Point","coordinates":[-77.0272984011094,38.8981406254481]}},{"properties":{"NAME":"SunTrust Bank","ZIPCODE":20005,"ADDRESS_ID":218285,"id":"a63nwhenxk6s","ADDRESS":"1445 New York Avenue, NW"},"type":"Feature","geometry":{"type":"Point","coordinates":[-77.0329220358735,38.8993521517909]}},{"properties":{"NAME":"SunTrust Bank","ZIPCODE":20006,"ADDRESS_ID":279977,"id":"a63nwhen2p2f","ADDRESS":"900 17th St NW"},"type":"Feature","geometry":{"type":"Point","coordinates":[-77.0398297728387,38.9016066847822]}},{"properties":{"NAME":"SunTrust Bank","ZIPCODE":20006,"ADDRESS_ID":279376,"id":"a63nwhrxk2li","ADDRESS":"1750 New York Avenue, NW"},"type":"Feature","geometry":{"type":"Point","coordinates":[-77.0410046856705,38.8956738218049]}},{"properties":{"NAME":"SunTrust Bank","ZIPCODE":20006,"ADDRESS_ID":242548,"id":"a63nwhufdqe6","ADDRESS":"1925 K Street, NW"},"type":"Feature","geometry":{"type":"Point","coordinates":[-77.044582322584,38.9028278521444]}},{"properties":{"NAME":"SunTrust Bank","ZIPCODE":20001,"ADDRESS_ID":237154,"id":"a63nwhfb40j8","ADDRESS":"2 Massachusetts Avenue, NW"},"type":"Feature","geometry":{"type":"Point","coordinates":[-77.0098735501573,38.897534432439]}},{"properties":{"NAME":"SunTrust Bank","ZIPCODE":20009,"ADDRESS_ID":235413,"id":"a63nwhgzi354","ADDRESS":"1800 Columbia Road, NW"},"type":"Feature","geometry":{"type":"Point","coordinates":[-77.042864883795,38.9221593995699]}},{"properties":{"NAME":"SunTrust Bank","ZIPCODE":20009,"ADDRESS_ID":297746,"id":"a63nwhgdw6nb","ADDRESS":"1250 U Street NE"},"type":"Feature","geometry":{"type":"Point","coordinates":[-77.0290354767674,38.9167082110951]}},{"properties":{"NAME":"SunTrust Bank","ZIPCODE":20011,"ADDRESS_ID":301560,"id":"a63nwhnciecn","ADDRESS":"5601 Third Street, NE"},"type":"Feature","geometry":{"type":"Point","coordinates":[-77.0024963708743,38.9574368593049]}},{"properties":{"NAME":"SunTrust Bank","ZIPCODE":20012,"ADDRESS_ID":285336,"id":"a63nwhq2fqi9","ADDRESS":"6422 Georgia Avenue, NW"},"type":"Feature","geometry":{"type":"Point","coordinates":[-77.0277054166913,38.9681019863724]}},{"properties":{"NAME":"SunTrust Bank","ZIPCODE":20001,"ADDRESS_ID":242976,"id":"a63nwheuuq5n","ADDRESS":"624 H Street, NW"},"type":"Feature","geometry":{"type":"Point","coordinates":[-77.0212822852965,38.8995424962705]}},{"properties":{"NAME":"SunTrust Bank","ZIPCODE":20016,"ADDRESS_ID":223997,"id":"a63nwhoos240","ADDRESS":"3301 New Mexico Avenue, NW"},"type":"Feature","geometry":{"type":"Point","coordinates":[-77.0851817725288,38.933640646487]}},{"properties":{"NAME":"SunTrust Bank","ZIPCODE":20016,"ADDRESS_ID":221505,"id":"a63nwhrya6te","ADDRESS":"3440 Wisconsin Avenue, NW"},"type":"Feature","geometry":{"type":"Point","coordinates":[-77.073236638536,38.9354591405363]}},{"properties":{"NAME":"SunTrust Bank","ZIPCODE":20020,"ADDRESS_ID":66569,"id":"a63nwhjz02xt","ADDRESS":"1340 Good Hope Road, SE"},"type":"Feature","geometry":{"type":"Point","coordinates":[-76.9856851143158,38.867139856621]}},{"properties":{"NAME":"SunTrust Bank","ZIPCODE":20020,"ADDRESS_ID":277958,"id":"a63nwhmlddgq","ADDRESS":"1571 Alabama Avenue, SE"},"type":"Feature","geometry":{"type":"Point","coordinates":[-76.9803912080793,38.8464395268842]}},{"properties":{"NAME":"SunTrust Bank","ZIPCODE":20020,"ADDRESS_ID":278282,"id":"a63nwhrwfs14","ADDRESS":"2845 Alabama Ave SE"},"type":"Feature","geometry":{"type":"Point","coordinates":[-76.9666709582366,38.8590244387898]}},{"properties":{"NAME":"SunTrust Bank","ZIPCODE":20024,"ADDRESS_ID":301847,"id":"a63nwhsk7pxo","ADDRESS":"965 L'enfant Plaza North, SE"},"type":"Feature","geometry":{"type":"Point","coordinates":[-77.0253227219529,38.8833804629515]}},{"properties":{"NAME":"SunTrust Bank","ZIPCODE":20036,"ADDRESS_ID":303362,"id":"a63nwhsltc4d","ADDRESS":"1111 Connecticut Avenue, NW"},"type":"Feature","geometry":{"type":"Point","coordinates":[-77.0399193631794,38.904104220546]}},{"properties":{"NAME":"SunTrust Bank","ZIPCODE":20036,"ADDRESS_ID":241264,"id":"a63nwhguy47w","ADDRESS":"1369 Connecticut Avenue, NW"},"type":"Feature","geometry":{"type":"Point","coordinates":[-77.0428190773919,38.9090768832874]}},{"properties":{"NAME":"SunTrust Bank","ZIPCODE":20015,"ADDRESS_ID":285038,"id":"a63nwhswuks1","ADDRESS":"5000 Connecticut Avenue, NW"},"type":"Feature","geometry":{"type":"Point","coordinates":[-77.0702060218199,38.9549426784063]}},{"properties":{"NAME":"The National Capital Bank of Washington","ZIPCODE":20015,"ADDRESS_ID":267740,"id":"a63nwhlvfswt","ADDRESS":"5228 44th Street, NW"},"type":"Feature","geometry":{"type":"Point","coordinates":[-77.0864367399095,38.9579994807059]}},{"properties":{"NAME":"The National Capital Bank of Washington","ZIPCODE":20003,"ADDRESS_ID":39317,"id":"a63nwhmq8sai","ADDRESS":"316 Pennsylvania Avenue, SE"},"type":"Feature","geometry":{"type":"Point","coordinates":[-77.0011388994394,38.8870309035966]}},{"properties":{"NAME":"United Bank","ZIPCODE":20016,"ADDRESS_ID":269772,"id":"a63nwhlhss0y","ADDRESS":"4900 Massachusetts Avenue, NW"},"type":"Feature","geometry":{"type":"Point","coordinates":[-77.0971701128593,38.9457007915901]}},{"properties":{"NAME":"United Bank","ZIPCODE":20015,"ADDRESS_ID":274717,"id":"a63nwho2fr5k","ADDRESS":"3050 Military Road, NW"},"type":"Feature","geometry":{"type":"Point","coordinates":[-77.0615538969973,38.9604136775834]}},{"properties":{"NAME":"United Bank","ZIPCODE":20006,"ADDRESS_ID":279291,"id":"a63nwhgzcbeo","ADDRESS":"1667 K Street, NW"},"type":"Feature","geometry":{"type":"Point","coordinates":[-77.0381794124114,38.9029980357941]}},{"properties":{"NAME":"United Bank","ZIPCODE":20037,"ADDRESS_ID":242336,"id":"a63nwhirlh4m","ADDRESS":"2301 M Street, NW"},"type":"Feature","geometry":{"type":"Point","coordinates":[-77.0503518714842,38.9054746844776]}},{"properties":{"NAME":"United Bank","ZIPCODE":20004,"ADDRESS_ID":300418,"id":"a63nwhgurd23","ADDRESS":"1275 Pennsylvania Avenue, NW"},"type":"Feature","geometry":{"type":"Point","coordinates":[-77.0289088795496,38.8956873506133]}},{"properties":{"NAME":"United Bank","ZIPCODE":20001,"ADDRESS_ID":239369,"id":"a63nwhkc0hwz","ADDRESS":"1001 G Street, NW"},"type":"Feature","geometry":{"type":"Point","coordinates":[-77.0264854238673,38.8987112220363]}},{"properties":{"NAME":"United Bank","ZIPCODE":20004,"ADDRESS_ID":279443,"id":"a63nwhenj03b","ADDRESS":"1875 Eye Street, NW"},"type":"Feature","geometry":{"type":"Point","coordinates":[-77.0428641177551,38.9015270580023]}},{"properties":{"NAME":"United States Trust Company , National Association","ZIPCODE":20005,"ADDRESS_ID":300970,"id":"a63nwhjnyzkk","ADDRESS":"600 14th Street, NW"},"type":"Feature","geometry":{"type":"Point","coordinates":[-77.0322737495447,38.8976865064945]}},{"properties":{"NAME":"Urban Trust Bank","ZIPCODE":20005,"ADDRESS_ID":240651,"id":"a63nwhqa9rww","ADDRESS":"1350 I Street, NW"},"type":"Feature","geometry":{"type":"Point","coordinates":[-77.0312976562795,38.9010276124809]}},{"properties":{"NAME":"Wachovia Bank, National Association","ZIPCODE":20005,"ADDRESS_ID":242332,"id":"a63nwhib8a3n","ADDRESS":"1510 K Street, NW"},"type":"Feature","geometry":{"type":"Point","coordinates":[-77.0351764283643,38.9021687415504]}},{"properties":{"NAME":"Wachovia Bank, National Association","ZIPCODE":20036,"ADDRESS_ID":243349,"id":"a63nwhgxfw9p","ADDRESS":"2000 L Street, NW"},"type":"Feature","geometry":{"type":"Point","coordinates":[-77.0457847871189,38.9034075251234]}},{"properties":{"NAME":"Wachovia Bank, National Association","ZIPCODE":20036,"ADDRESS_ID":241300,"id":"a63nwhmhykng","ADDRESS":"1850 M Street, NW"},"type":"Feature","geometry":{"type":"Point","coordinates":[-77.0429480478709,38.9053617032598]}},{"properties":{"NAME":"Wachovia Bank, National Association","ZIPCODE":20037,"ADDRESS_ID":298794,"id":"a63nwhswqs3t","ADDRESS":"502 23rd Street, NW"},"type":"Feature","geometry":{"type":"Point","coordinates":[-77.0506650992075,38.8965230335764]}},{"properties":{"NAME":"Wachovia Bank, National Association","ZIPCODE":20004,"ADDRESS_ID":279023,"id":"a63nwhoaa3b6","ADDRESS":"1301 Pennsylvania Avenue, NW"},"type":"Feature","geometry":{"type":"Point","coordinates":[-77.0299533295013,38.8963764075869]}},{"properties":{"NAME":"Wachovia Bank, National Association","ZIPCODE":20024,"ADDRESS_ID":5831,"id":"a63nwhl57zzu","ADDRESS":"600 Maryland Avenue, SW"},"type":"Feature","geometry":{"type":"Point","coordinates":[-77.0210610974721,38.8859617875372]}},{"properties":{"NAME":"Wachovia Bank, National Association","ZIPCODE":20036,"ADDRESS_ID":218073,"id":"a63nwhnu07vy","ADDRESS":"1300 Connecticut Avenue, NW"},"type":"Feature","geometry":{"type":"Point","coordinates":[-77.0426712641328,38.9075108364173]}},{"properties":{"NAME":"Wachovia Bank, National Association","ZIPCODE":20001,"ADDRESS_ID":279785,"id":"a63nwhkdclib","ADDRESS":"444 North Capitol Street, NW"},"type":"Feature","geometry":{"type":"Point","coordinates":[-77.0098252549341,38.8958220366248]}},{"properties":{"NAME":"Wachovia Bank, National Association","ZIPCODE":20003,"ADDRESS_ID":278073,"id":"a63nwhjbqpze","ADDRESS":"215 Pennsylvania Avenue, SE"},"type":"Feature","geometry":{"type":"Point","coordinates":[-77.0028597365716,38.8870889781862]}},{"properties":{"NAME":"Wachovia Bank, National Association","ZIPCODE":20004,"ADDRESS_ID":279946,"id":"a63nwhencb2h","ADDRESS":"801 Pennsylvania Avenue, NW"},"type":"Feature","geometry":{"type":"Point","coordinates":[-77.0235061150304,38.8944282922065]}},{"properties":{"NAME":"Wachovia Bank, National Association","ZIPCODE":20001,"ADDRESS_ID":243383,"id":"a63nwhjeh3er","ADDRESS":"2801 Georgia Avenue, NW"},"type":"Feature","geometry":{"type":"Point","coordinates":[-77.0225964588188,38.9259719019818]}},{"properties":{"NAME":"Wachovia Bank, National Association","ZIPCODE":20005,"ADDRESS_ID":293256,"id":"a63nwhheckou","ADDRESS":"740 15th Street, NW"},"type":"Feature","geometry":{"type":"Point","coordinates":[-77.033929053373,38.8999187597355]}},{"properties":{"NAME":"Wachovia Bank, National Association","ZIPCODE":20005,"ADDRESS_ID":240663,"id":"a63nwhqc8qju","ADDRESS":"1310 G Street, NW"},"type":"Feature","geometry":{"type":"Point","coordinates":[-77.0306228019919,38.8981106142156]}},{"properties":{"NAME":"Wachovia Bank, National Association","ZIPCODE":20036,"ADDRESS_ID":243303,"id":"a63nwhn07pt7","ADDRESS":"1100 Connecticut Avenue, NW"},"type":"Feature","geometry":{"type":"Point","coordinates":[-77.0406379386979,38.9040723534911]}},{"properties":{"NAME":"Wachovia Bank, National Association","ZIPCODE":20005,"ADDRESS_ID":297788,"id":"a63nwhnlz0bb","ADDRESS":"1445 P Street, NW"},"type":"Feature","geometry":{"type":"Point","coordinates":[-77.033705844983,38.9098980955455]}},{"properties":{"NAME":"Wachovia Bank, National Association","ZIPCODE":20020,"ADDRESS_ID":287751,"id":"a63nwhr0xhvb","ADDRESS":"3200 Pennsylvania Avenue, SE"},"type":"Feature","geometry":{"type":"Point","coordinates":[-76.9601921660182,38.8699578144981]}},{"properties":{"NAME":"Wachovia Bank, National Association","ZIPCODE":20006,"ADDRESS_ID":218408,"id":"a63nwhtyu4bp","ADDRESS":"1700 Pennsylvania Avenue, NW"},"type":"Feature","geometry":{"type":"Point","coordinates":[-77.0399556094364,38.898649197514]}},{"properties":{"NAME":"Wachovia Bank, National Association","ZIPCODE":20006,"ADDRESS_ID":300930,"id":"a63nwhers8lz","ADDRESS":"1800 K Street, NW"},"type":"Feature","geometry":{"type":"Point","coordinates":[-77.0420875156874,38.9022301723249]}},{"properties":{"NAME":"Wachovia Bank, National Association","ZIPCODE":20007,"ADDRESS_ID":272085,"id":"a63nwhk9t5bm","ADDRESS":"2901 M Street, NW"},"type":"Feature","geometry":{"type":"Point","coordinates":[-77.0582529979383,38.9053691276813]}},{"properties":{"NAME":"Wachovia Bank, National Association","ZIPCODE":20007,"ADDRESS_ID":271794,"id":"a63nwhequabs","ADDRESS":"3700 Calvert Street, NW"},"type":"Feature","geometry":{"type":"Point","coordinates":[-77.0734415477817,38.9223220981567]}},{"properties":{"NAME":"Wachovia Bank, National Association","ZIPCODE":20008,"ADDRESS_ID":223153,"id":"a63nwhil100n","ADDRESS":"4340 Connecticut Ave, NW"},"type":"Feature","geometry":{"type":"Point","coordinates":[-77.0652009914346,38.9462252956793]}},{"properties":{"NAME":"Wachovia Bank, National Association","ZIPCODE":20010,"ADDRESS_ID":300784,"id":"a63nwhezgebr","ADDRESS":"3325 14th Street, NW"},"type":"Feature","geometry":{"type":"Point","coordinates":[-77.032439031346,38.9308618185508]}},{"properties":{"NAME":"Wachovia Bank, National Association","ZIPCODE":20015,"ADDRESS_ID":265883,"id":"a63nwhqnzmu7","ADDRESS":"5100 Wisconsin Avenue, NW"},"type":"Feature","geometry":{"type":"Point","coordinates":[-77.0838620527789,38.956365544837]}},{"properties":{"NAME":"Wachovia Bank, National Association","ZIPCODE":20015,"ADDRESS_ID":263948,"id":"a63nwhkau9kw","ADDRESS":"5701 Connecticut Ave NW"},"type":"Feature","geometry":{"type":"Point","coordinates":[-77.0759927670526,38.9662928894662]}},{"properties":{"NAME":"Wachovia Bank, National Association","ZIPCODE":20016,"ADDRESS_ID":284990,"id":"a63nwho7vfv8","ADDRESS":"4841 Massachusetts Avenue, NW"},"type":"Feature","geometry":{"type":"Point","coordinates":[-77.0957431386899,38.9455042371196]}},{"properties":{"NAME":"Wachovia Bank, National Association","ZIPCODE":20016,"ADDRESS_ID":268708,"id":"a63nwhiz6vhw","ADDRESS":"5201 Macarthur Boulevard, NW"},"type":"Feature","geometry":{"type":"Point","coordinates":[-77.1047898057864,38.9284105196795]}},{"properties":{"NAME":"Wachovia Bank, National Association","ZIPCODE":20018,"ADDRESS_ID":51509,"id":"a63nwhjw8pw1","ADDRESS":"2119 Bladensburg Road, NE"},"type":"Feature","geometry":{"type":"Point","coordinates":[-76.9702666278934,38.9195834041981]}},{"properties":{"NAME":"Wachovia Bank, National Association","ZIPCODE":20019,"ADDRESS_ID":300610,"id":"a63nwhnpjrqp","ADDRESS":"3915 B Dix St NE"},"type":"Feature","geometry":{"type":"Point","coordinates":[-76.9489633288594,38.893206170857]}},{"properties":{"NAME":"Wachovia Bank, National Association","ZIPCODE":20005,"ADDRESS_ID":240649,"id":"a63nwhkfbkdx","ADDRESS":"1300 Eye Street, NW"},"type":"Feature","geometry":{"type":"Point","coordinates":[-77.0303477047646,38.9009930908521]}},{"properties":{"NAME":"WashingtonFirst Bank","ZIPCODE":20036,"ADDRESS_ID":241070,"id":"a63nwhf5xacm","ADDRESS":"1146 19th Street NW"},"type":"Feature","geometry":{"type":"Point","coordinates":[-77.0438412980545,38.9051204881779]}},{"properties":{"NAME":"WashingtonFirst Bank","ZIPCODE":20036,"ADDRESS_ID":241803,"id":"a63nwhra8x5z","ADDRESS":"1025 Connecticut Avenue, NW"},"type":"Feature","geometry":{"type":"Point","coordinates":[-77.0393367187777,38.9033115930005]}},{"properties":{"NAME":"WashingtonFirst Bank","ZIPCODE":20006,"ADDRESS_ID":242333,"id":"a63nwhjtc6d0","ADDRESS":"1500 K Street, NW"},"type":"Feature","geometry":{"type":"Point","coordinates":[-77.0349357684955,38.9021891996733]}}],"is_temporal":false,"author":{"url":"http://data.octo.dc.gov","metadata":"http://data.octo.dc.gov/Metadata.aspx?id=300","contact_name":"","contact_address":"","source":" D.C. Office of the Chief Technology Officer (OCTO) ","contact_phone":""},"source":"http://data.octo.dc.gov","pagination":{"sort":null,"start":0,"total":223,"limit":1000000},"state":"complete","tags":"baks,infrastructure,retail","published":"2007-04-09T12:00:00Z","id":8281}