{"type":"FeatureCollection","data_type":"Dataset","url_type":null,"permissions":[{"permissions":{"download":true,"view":true},"group_id":"everyone"}],"classification":null,"title":"Agencies2","count":59,"stream_id":9091,"contributor":{"url":"http://geocommons.com/users/3718","name":"anpaly"},"data_attributes":null,"calculation_params":null,"icon_link":null,"link":"http://geocommons.com/overlays/9091.json","extent":[-86.4235,41.2304,-85.8273,42.1089],"geometry_types":["point"],"unique_name":null,"name":"Agencies2","feature_count":59,"description":"","next_feature":null,"is_raster":false,"short_classification":"Y","stats":{"zip":{"max":49120,"mean":46720.3050847458,"variance":299398.698421975,"stdev":547.173371448187,"min":46507,"median":46615},"latitude":{"max":42.10889,"mean":41.6822717457627,"variance":0.00862026430733083,"stdev":0.0928453784920436,"min":41.230379,"median":41.675362},"longitude":{"max":-85.827264,"mean":-86.1836699152542,"variance":0.0203586369534926,"stdev":0.142683695471811,"min":-86.423548,"median":-86.243845}},"features":[{"properties":{"address1":"818 E. Jefferson Blvd.","address2":"","zip":46617,"latitude":41.686344,"agency":"Alcohol and Addictions Resource Center","longitude":-86.236439,"id":"a78ctpxz3fky","citystate":"South Bend, IN  46617"},"type":"Feature","geometry":{"type":"Point","coordinates":[-86.236439,41.686344]}},{"properties":{"address1":"922 E Colfax Avenue","address2":"","zip":46617,"latitude":41.686344,"agency":"Alzheimer's Disease &amp; Milton Day Services","longitude":-86.236439,"id":"a78ctq4niayg","citystate":"South Bend, IN  46617"},"type":"Feature","geometry":{"type":"Point","coordinates":[-86.236439,41.686344]}},{"properties":{"address1":"721 Riverview Ave.","address2":"","zip":46516,"latitude":41.675362,"agency":"American Red Cross - Elkhart Co.","longitude":-85.955839,"id":"a78ctprhqnz4","citystate":"Elkhart, IN 46516"},"type":"Feature","geometry":{"type":"Point","coordinates":[-85.955839,41.675362]}},{"properties":{"address1":"3220 E. Jefferson Blvd.","address2":"","zip":46615,"latitude":41.674806,"agency":"American Red Cross - St. Joseph Co.","longitude":-86.210056,"id":"a78ctpsc5do5","citystate":"South Bend, IN  46615"},"type":"Feature","geometry":{"type":"Point","coordinates":[-86.210056,41.674806]}},{"properties":{"address1":"325 North Lafayete Blvd.","address2":"","zip":46601,"latitude":41.672986,"agency":"Beds and Britches, Etc.","longitude":-86.253664,"id":"a78ctptd6hi0","citystate":"South Bend, IN  46601"},"type":"Feature","geometry":{"type":"Point","coordinates":[-86.253664,41.672986]}},{"properties":{"address1":"1200 East Main St.","address2":"","zip":49022,"latitude":42.10889,"agency":"Boys and Girls Club of Benton Harbor","longitude":-86.423548,"id":"a78ctq07vic3","citystate":"Benton Harbor, MI  49022"},"type":"Feature","geometry":{"type":"Point","coordinates":[-86.423548,42.10889]}},{"properties":{"address1":"306 Crescent Street","address2":"","zip":46526,"latitude":41.567198,"agency":"Boys and Girls Club of Goshen","longitude":-85.844665,"id":"a78ctpxfyyln","citystate":"Goshen, IN  46526"},"type":"Feature","geometry":{"type":"Point","coordinates":[-85.844665,41.567198]}},{"properties":{"address1":"921 E. LaSalle St.","address2":"Suite 100","zip":46617,"latitude":41.686344,"agency":"CASIE Center","longitude":-86.236439,"id":"a78ctq2gocdk","citystate":"South Bend, IN  46617"},"type":"Feature","geometry":{"type":"Point","coordinates":[-86.236439,41.686344]}},{"properties":{"address1":"504 North Bay Dr.","address2":"","zip":46580,"latitude":41.230379,"agency":"Cardinal Center","longitude":-85.856863,"id":"a78ctpxwmy40","citystate":"Warsaw, IN  46580"},"type":"Feature","geometry":{"type":"Point","coordinates":[-85.856863,41.230379]}},{"properties":{"address1":"110 N. Broadway","address2":"","zip":49031,"latitude":41.907166,"agency":"Cass County CASA","longitude":-85.98521,"id":"a78ctppvnb6l","citystate":"Cassopolis, MI  49031"},"type":"Feature","geometry":{"type":"Point","coordinates":[-85.98521,41.907166]}},{"properties":{"address1":"1817 Miami","address2":"","zip":46613,"latitude":41.655202,"agency":"Catholic Charities","longitude":-86.249649,"id":"a78ctpt53ns7","citystate":"South Bend, IN  46613"},"type":"Feature","geometry":{"type":"Point","coordinates":[-86.249649,41.655202]}},{"properties":{"address1":"813 S. Michigan St.","address2":"","zip":46601,"latitude":41.672986,"agency":"Center for the Homeless","longitude":-86.253664,"id":"a78ctpq7u356","citystate":"South Bend, IN  46601"},"type":"Feature","geometry":{"type":"Point","coordinates":[-86.253664,41.672986]}},{"properties":{"address1":"1105 West Jefferson","address2":"","zip":46601,"latitude":41.672986,"agency":"Chiara Home","longitude":-86.253664,"id":"a78ctprzkslj","citystate":"South Bend, IN  46601"},"type":"Feature","geometry":{"type":"Point","coordinates":[-86.253664,41.672986]}},{"properties":{"address1":"2015 W. Western Ave.","address2":"Suite 233","zip":46629,"latitude":41.672291,"agency":"Children's Dispensary","longitude":-86.251907,"id":"a78ctpus8jcs","citystate":"South Bend, IN  46629"},"type":"Feature","geometry":{"type":"Point","coordinates":[-86.251907,41.672291]}},{"properties":{"address1":"2015 W. Western Ave.","address2":"Suite 233","zip":46629,"latitude":41.672291,"agency":"Children's Dispensary","longitude":-86.251907,"id":"a78ctpzebd70","citystate":"South Bend, IN  46629"},"type":"Feature","geometry":{"type":"Point","coordinates":[-86.251907,41.672291]}},{"properties":{"address1":"629 South Third Street","address2":"","zip":46516,"latitude":41.675362,"agency":"Church Community Services, Inc.","longitude":-85.955839,"id":"a78ctpr1bl13","citystate":"Elkhart, IN  46516"},"type":"Feature","geometry":{"type":"Point","coordinates":[-85.955839,41.675362]}},{"properties":{"address1":"P. O. Box 656","address2":"","zip":46507,"latitude":41.719791,"agency":"Computers for All","longitude":-85.827264,"id":"a78ctpzbln1b","citystate":"Bristol, IN  46507"},"type":"Feature","geometry":{"type":"Point","coordinates":[-85.827264,41.719791]}},{"properties":{"address1":"3231 Sugar Maple Business Ct.","address2":"","zip":46628,"latitude":41.70794,"agency":"Corvilla, Inc.","longitude":-86.307375,"id":"a78ctprvlw97","citystate":"South Bend, IN  46628"},"type":"Feature","geometry":{"type":"Point","coordinates":[-86.307375,41.70794]}},{"properties":{"address1":"521 S. St. Joseph St.","address2":"","zip":46634,"latitude":41.67905,"agency":"Dismas of Michiana","longitude":-86.254028,"id":"a78ctq10dxx7","citystate":"South Bend, IN  46634"},"type":"Feature","geometry":{"type":"Point","coordinates":[-86.254028,41.67905]}},{"properties":{"address1":"50622 Rush Creek Ct.","address2":"","zip":46530,"latitude":41.743199,"agency":"Downs Syndrome Family Support and Advocacy Group","longitude":-86.144852,"id":"a78ctpv1gs34","citystate":"Granger, IN  46530"},"type":"Feature","geometry":{"type":"Point","coordinates":[-86.144852,41.743199]}},{"properties":{"address1":"1411 W. Lincolnway West","address2":"","zip":46544,"latitude":41.65109,"agency":"Family &amp; Children's Center","longitude":-86.158399,"id":"a78ctpyulier","citystate":"Mishawaka, IN  46544"},"type":"Feature","geometry":{"type":"Point","coordinates":[-86.158399,41.65109]}},{"properties":{"address1":"702 Chapin St.","address2":"","zip":46601,"latitude":41.672986,"agency":"Food Bank of Northern Indiana","longitude":-86.253664,"id":"a78ctpxx8cly","citystate":"South Bend, IN  46601"},"type":"Feature","geometry":{"type":"Point","coordinates":[-86.253664,41.672986]}},{"properties":{"address1":"2811 Beechwood Lane","address2":"","zip":46615,"latitude":41.674806,"agency":"Foundation for Music and Healing","longitude":-86.210056,"id":"a78ctpzemtjp","citystate":"South Bend, IN  46615"},"type":"Feature","geometry":{"type":"Point","coordinates":[-86.210056,41.674806]}},{"properties":{"address1":"3620 Deahl Court","address2":"","zip":46628,"latitude":41.70794,"agency":"Girls Scouts of Singing Sands Council, Inc.","longitude":-86.307375,"id":"a78ctq0xv286","citystate":"South Bend, IN  46628"},"type":"Feature","geometry":{"type":"Point","coordinates":[-86.307375,41.70794]}},{"properties":{"address1":"1805 Western Ave.","address2":"P. O. Box 3128","zip":46619,"latitude":41.668015,"agency":"Good Will Industries - St. Joseph Co.","longitude":-86.323287,"id":"a78ctpqksz0r","citystate":"South Bend, IN  46619"},"type":"Feature","geometry":{"type":"Point","coordinates":[-86.323287,41.668015]}},{"properties":{"address1":"3609 Mishawaka Ave.","address2":"","zip":46615,"latitude":41.674806,"agency":"Grandparents as Parents","longitude":-86.210056,"id":"a78ctpw91ygi","citystate":"South Bend, IN  46615"},"type":"Feature","geometry":{"type":"Point","coordinates":[-86.210056,41.674806]}},{"properties":{"address1":"216 N. Second Street","address2":"","zip":46516,"latitude":41.675362,"agency":"Guidance Ministries","longitude":-85.955839,"id":"a78ctq3pdt69","citystate":"Elkhart, IN  46516"},"type":"Feature","geometry":{"type":"Point","coordinates":[-85.955839,41.675362]}},{"properties":{"address1":"518 W. Fourth St.","address2":"","zip":46544,"latitude":41.65109,"agency":"Hannah's House","longitude":-86.158399,"id":"a78ctq52vizt","citystate":"Mishawaka, IN  46544"},"type":"Feature","geometry":{"type":"Point","coordinates":[-86.158399,41.65109]}},{"properties":{"address1":"1201 Northside Blvd.","address2":"","zip":46615,"latitude":41.674806,"agency":"Home Management Resources","longitude":-86.210056,"id":"a78ctq5q9ymy","citystate":"South Bend, IN  46615"},"type":"Feature","geometry":{"type":"Point","coordinates":[-86.210056,41.674806]}},{"properties":{"address1":"532 S. Michigan St.","address2":"P. O. Box 4488","zip":46634,"latitude":41.67905,"agency":"Hope Rescue Mission","longitude":-86.254028,"id":"a78ctpyr5rr1","citystate":"South Bend, IN  46634-4488"},"type":"Feature","geometry":{"type":"Point","coordinates":[-86.254028,41.67905]}},{"properties":{"address1":"2004 Ironwood Circle","address2":"Ste. 140","zip":46635,"latitude":41.713443,"agency":"Juvenile Diabetes Assoc.","longitude":-86.209233,"id":"a78ctptfwo59","citystate":"South Bend, IN  46635"},"type":"Feature","geometry":{"type":"Point","coordinates":[-86.209233,41.713443]}},{"properties":{"address1":"401 E. Colfax","address2":"Suite 303","zip":46617,"latitude":41.686344,"agency":"KidsPeace","longitude":-86.236439,"id":"a78ctq0aw3yw","citystate":"South Bend, IN  46617"},"type":"Feature","geometry":{"type":"Point","coordinates":[-86.236439,41.686344]}},{"properties":{"address1":"202 N. Cottage Ave.","address2":"","zip":46528,"latitude":41.615232,"agency":"La Casa of Goshen","longitude":-85.830174,"id":"a78ctq0g36bq","citystate":"Goshen, IN  46528"},"type":"Feature","geometry":{"type":"Point","coordinates":[-85.830174,41.615232]}},{"properties":{"address1":"1402 S. Michigan St.","address2":"","zip":46613,"latitude":41.655202,"agency":"Life Treatment Centers","longitude":-86.249649,"id":"a78ctq4538si","citystate":"South Bend, IN  46613"},"type":"Feature","geometry":{"type":"Point","coordinates":[-86.249649,41.655202]}},{"properties":{"address1":"123 Lincolnway West","address2":"","zip":46544,"latitude":41.65109,"agency":"Literacy Council","longitude":-86.158399,"id":"a78ctpxrbkop","citystate":"Mishawaka, IN  46544"},"type":"Feature","geometry":{"type":"Point","coordinates":[-86.158399,41.65109]}},{"properties":{"address1":"2505 E. Jefferson Blvd.","address2":"","zip":46615,"latitude":41.674806,"agency":"Logan Center","longitude":-86.210056,"id":"a78ctpyq8rxr","citystate":"South Bend, IN  46615"},"type":"Feature","geometry":{"type":"Point","coordinates":[-86.210056,41.674806]}},{"properties":{"address1":"402 East Madison St.","address2":"","zip":46617,"latitude":41.686344,"agency":"Madison Center","longitude":-86.236439,"id":"a78ctpxnzq1f","citystate":"South Bend, IN  46617"},"type":"Feature","geometry":{"type":"Point","coordinates":[-86.236439,41.686344]}},{"properties":{"address1":"P. O. Box 4073","address2":"","zip":46634,"latitude":41.67905,"agency":"Make a Difference Michiana","longitude":-86.254028,"id":"a78ctprjx0df","citystate":"South Bend, IN  46634"},"type":"Feature","geometry":{"type":"Point","coordinates":[-86.254028,41.67905]}},{"properties":{"address1":"2012 Ironwood Circle","address2":"","zip":46635,"latitude":41.713443,"agency":"March of Dimes","longitude":-86.209233,"id":"a78ctpuno5z7","citystate":"South Bend, IN  46635"},"type":"Feature","geometry":{"type":"Point","coordinates":[-86.209233,41.713443]}},{"properties":{"address1":"922 E. Colfax Ave.","address2":"","zip":46617,"latitude":41.686344,"agency":"Milton Day Services (see Alz. Services)","longitude":-86.236439,"id":"a78ctpz93esb","citystate":"South Bend, IN  46617"},"type":"Feature","geometry":{"type":"Point","coordinates":[-86.236439,41.686344]}},{"properties":{"address1":"227 W. Jefferson Blvd.","address2":"1200 Count City Bldg.","zip":46601,"latitude":41.672986,"agency":"Neighborhood Resources Corp.","longitude":-86.253664,"id":"a78ctq44ae55","citystate":"South Bend, IN  46601"},"type":"Feature","geometry":{"type":"Point","coordinates":[-86.253664,41.672986]}},{"properties":{"address1":"P. O. Box 186","address2":"","zip":46624,"latitude":41.67905,"agency":"O'Hana Heritage Foundation","longitude":-86.254028,"id":"a78ctprryuvz","citystate":"South Bend, IN  46624"},"type":"Feature","geometry":{"type":"Point","coordinates":[-86.254028,41.67905]}},{"properties":{"address1":"1151 South Michigan St.","address2":"","zip":46634,"latitude":41.67905,"agency":"REAL Services","longitude":-86.254028,"id":"a78ctq2e702r","citystate":"South Bend, IN  46634-4488"},"type":"Feature","geometry":{"type":"Point","coordinates":[-86.254028,41.67905]}},{"properties":{"address1":"55200 Quince Road","address2":"","zip":46619,"latitude":41.668015,"agency":"Reins of Life, Inc.","longitude":-86.323287,"id":"a78ctq1z9z70","citystate":"South Bend, IN   46619"},"type":"Feature","geometry":{"type":"Point","coordinates":[-86.323287,41.668015]}},{"properties":{"address1":"P. O. Box 73","address2":"","zip":46527,"latitude":41.58918,"agency":"Ryan's Place","longitude":-85.836967,"id":"a78ctq3ppbbl","citystate":"Goshen, IN  46527"},"type":"Feature","geometry":{"type":"Point","coordinates":[-85.836967,41.58918]}},{"properties":{"address1":"P. O. Box 80","address2":"403 E. Madison","zip":46624,"latitude":41.67905,"agency":"SOS Madison Center","longitude":-86.254028,"id":"a78ctpvduut3","citystate":"South Bend, IN 46624"},"type":"Feature","geometry":{"type":"Point","coordinates":[-86.254028,41.67905]}},{"properties":{"address1":"326 South Chapin","address2":"","zip":46601,"latitude":41.672986,"agency":"Saint Joseph Health Center","longitude":-86.253664,"id":"a78ctpwf36bg","citystate":"South Bend, IN  46601"},"type":"Feature","geometry":{"type":"Point","coordinates":[-86.253664,41.672986]}},{"properties":{"address1":"P. O. Box 1146","address2":"","zip":46624,"latitude":41.67905,"agency":"South Bend Civic Theatre","longitude":-86.254028,"id":"a78ctpqzx91t","citystate":"South Bend, IN  46624"},"type":"Feature","geometry":{"type":"Point","coordinates":[-86.254028,41.67905]}},{"properties":{"address1":"117 N. Lafayette Blvd.","address2":"","zip":46601,"latitude":41.672986,"agency":"St. Margaret's House","longitude":-86.253664,"id":"a78ctpr98eyd","citystate":"South Bend, IN  46601"},"type":"Feature","geometry":{"type":"Point","coordinates":[-86.253664,41.672986]}},{"properties":{"address1":"3408 Ardmore Trail","address2":"","zip":46628,"latitude":41.70794,"agency":"St. Vincent de Paul Society","longitude":-86.307375,"id":"a78ctq5cafht","citystate":"South Bend, IN  46628"},"type":"Feature","geometry":{"type":"Point","coordinates":[-86.307375,41.70794]}},{"properties":{"address1":"c/o Food Bank of No. IN","address2":"702 Chapin St.","zip":46601,"latitude":41.67299,"agency":"Stone Soup Community","longitude":-86.253484,"id":"a78ctq30oidg","citystate":"South Bend, IN 46601"},"type":"Feature","geometry":{"type":"Point","coordinates":[-86.253484,41.67299]}},{"properties":{"address1":"921 N. Eddy St.","address2":"","zip":46617,"latitude":41.686344,"agency":"Take Ten - Robinson Community Learning Center","longitude":-86.236439,"id":"a78ctpzp3xu5","citystate":"South Bend, 46617"},"type":"Feature","geometry":{"type":"Point","coordinates":[-86.236439,41.686344]}},{"properties":{"address1":"3132 Old US 20 West","address2":"","zip":46514,"latitude":41.711594,"agency":"Villages (The)","longitude":-85.973259,"id":"a78ctq3f7fzg","citystate":"Elkhart, IN  46514"},"type":"Feature","geometry":{"type":"Point","coordinates":[-85.973259,41.711594]}},{"properties":{"address1":"1213 Oak Street","address2":"","zip":49120,"latitude":41.822386,"agency":"Volunteer Center of Southwestern Michigan","longitude":-86.243845,"id":"a78ctpq67ajx","citystate":"Niles, MI  49120"},"type":"Feature","geometry":{"type":"Point","coordinates":[-86.243845,41.822386]}},{"properties":{"address1":"217 South Michigan St.","address2":"","zip":46601,"latitude":41.672986,"agency":"Volunteer Center of St. Joseph County","longitude":-86.253664,"id":"a78ctpstgc2r","citystate":"South Bend, IN   46601"},"type":"Feature","geometry":{"type":"Point","coordinates":[-86.253664,41.672986]}},{"properties":{"address1":"1201 Richmond","address2":"","zip":46516,"latitude":41.675362,"agency":"WheelchairHelp.org, Inc.","longitude":-85.955839,"id":"a78ctq3f5y0z","citystate":"Elkhart, IN  46516"},"type":"Feature","geometry":{"type":"Point","coordinates":[-85.955839,41.675362]}},{"properties":{"address1":"615 N. Michigan Street","address2":"","zip":46601,"latitude":41.672986,"agency":"Women In Touch","longitude":-86.253664,"id":"a78ctpv9batk","citystate":"South Bend, IN  46601"},"type":"Feature","geometry":{"type":"Point","coordinates":[-86.253664,41.672986]}},{"properties":{"address1":"1102 S. Fellows St.","address2":"","zip":46601,"latitude":41.672986,"agency":"YWCA of St. Joseph County","longitude":-86.253664,"id":"a78ctpxqvt1l","citystate":"South Bend, IN  46601"},"type":"Feature","geometry":{"type":"Point","coordinates":[-86.253664,41.672986]}},{"properties":{"address1":"2222 Lincolnway West","address2":"","zip":46628,"latitude":41.70794,"agency":"Youth Services Bureau","longitude":-86.307375,"id":"a78ctpq3sfi7","citystate":"South Bend, IN  46628"},"type":"Feature","geometry":{"type":"Point","coordinates":[-86.307375,41.70794]}}],"is_temporal":false,"author":{"url":"","metadata":"","contact_name":"","contact_address":"","source":"","contact_phone":""},"source":"","pagination":{"sort":null,"start":0,"total":59,"limit":1000000},"state":"complete","tags":"","published":"2014-08-11T10:26:38-04:00","id":9091}