{"type":"FeatureCollection","data_type":"Dataset","url_type":null,"permissions":[{"permissions":{"download":true,"view":true},"group_id":"everyone"}],"classification":null,"title":"Comunity profile2","count":139,"stream_id":101732,"contributor":{"url":"http://geocommons.com/users/22017","name":"swiafe"},"data_attributes":null,"calculation_params":null,"icon_link":null,"link":"http://geocommons.com/overlays/101732.json","extent":[-117.758,0.0,0.0,35.7591],"geometry_types":["point"],"unique_name":null,"name":"Comunity profile2","feature_count":139,"description":"","next_feature":null,"is_raster":false,"short_classification":"Y","stats":{"zip_code":{"max":93562.0,"mean":81044.3381294964,"variance":921930305.080492,"stdev":30363.3052397214,"min":0.0,"median":92346.0},"point_x":{"max":0.0,"mean":-105.347937366906,"variance":1252.24578703068,"stdev":35.3870850315575,"min":-117.757782,"median":-117.261173},"point_y":{"max":35.759125,"mean":30.6074248201439,"variance":105.774406285767,"stdev":10.2846685063626,"min":0.0,"median":33.996436}},"features":[{"properties":{"city":"Anza","name":"Chauilla/Santa Rosa Outreach Ofiice","fid_":null,"zip_code":92539.0,"type_of_fa":"Indian Clinics","id":"a6anpk5a1cle","point_x":-116.674773,"point_y":33.553732},"type":"Feature","geometry":{"type":"Point","coordinates":[-116.674773,33.553732]}},{"properties":{"city":"Apple Valley","name":"St. Mary Medical Center","fid_":null,"zip_code":92307.0,"type_of_fa":"Mammography Center","id":"a6anpk6frhzy","point_x":-117.2626,"point_y":34.53994},"type":"Feature","geometry":{"type":"Point","coordinates":[-117.2626,34.53994]}},{"properties":{"city":"Apple Valley","name":"Valley Imaging Center- Apple Valley","fid_":null,"zip_code":92307.0,"type_of_fa":"Mammography Center","id":"a6anpkbfhdj9","point_x":-117.259999,"point_y":34.540969},"type":"Feature","geometry":{"type":"Point","coordinates":[-117.259999,34.540969]}},{"properties":{"city":"Apple Valley","name":"St Mary Medical Center","fid_":null,"zip_code":0.0,"type_of_fa":"Cancer Hospital","id":"a6anpk9k53pf","point_x":-117.2626,"point_y":34.53994},"type":"Feature","geometry":{"type":"Point","coordinates":[-117.2626,34.53994]}},{"properties":{"city":"Banning","name":"Morongo Health Care Center","fid_":null,"zip_code":92220.0,"type_of_fa":"Indian Clinics","id":"a6anpka0cvmh","point_x":-116.831352,"point_y":33.970242},"type":"Feature","geometry":{"type":"Point","coordinates":[-116.831352,33.970242]}},{"properties":{"city":"Banning","name":"San Gorgonio","fid_":null,"zip_code":92220.0,"type_of_fa":"Mammography Center","id":"a6anpk6gc3nk","point_x":-116.94685,"point_y":33.931985},"type":"Feature","geometry":{"type":"Point","coordinates":[-116.94685,33.931985]}},{"properties":{"city":"Banning","name":"Banning Family Care Center","fid_":null,"zip_code":92220.0,"type_of_fa":"Health Center","id":"a6anpk9y0ets","point_x":-116.91076,"point_y":33.925814},"type":"Feature","geometry":{"type":"Point","coordinates":[-116.91076,33.925814]}},{"properties":{"city":"Barstow","name":"Barstow Outreach Office","fid_":null,"zip_code":92311.0,"type_of_fa":"Indian Clinics","id":"a6anpk5u4ehw","point_x":-117.017383,"point_y":34.888095},"type":"Feature","geometry":{"type":"Point","coordinates":[-117.017383,34.888095]}},{"properties":{"city":"Barstow","name":"Barstow Community Hospital","fid_":null,"zip_code":92311.0,"type_of_fa":"Mammography Center","id":"a6anpk7yodg0","point_x":-117.019574,"point_y":34.893919},"type":"Feature","geometry":{"type":"Point","coordinates":[-117.019574,34.893919]}},{"properties":{"city":"Barstow","name":"Barstow Community College","fid_":null,"zip_code":92311.0,"type_of_fa":"Community College","id":"a6anpk9ydjwd","point_x":-117.015632,"point_y":34.855271},"type":"Feature","geometry":{"type":"Point","coordinates":[-117.015632,34.855271]}},{"properties":{"city":"Barstow","name":"Barstow Public Health Clinic","fid_":null,"zip_code":92311.0,"type_of_fa":"Public Health Clinic","id":"a6anpkb1b8pg","point_x":0.0,"point_y":0.0},"type":"Feature","geometry":{"type":"Point","coordinates":[0.0,0.0]}},{"properties":{"city":"Big Bear","name":"Big Bear Public Health Clinic","fid_":null,"zip_code":92315.0,"type_of_fa":"Public Health Clinic","id":"a6anpk79e0a3","point_x":-116.888316,"point_y":34.243863},"type":"Feature","geometry":{"type":"Point","coordinates":[-116.888316,34.243863]}},{"properties":{"city":"Bloomington","name":"Inland Empire community hlth ctr","fid_":null,"zip_code":0.0,"type_of_fa":"Health Center","id":"a6anpk4l81he","point_x":-117.39829,"point_y":34.070438},"type":"Feature","geometry":{"type":"Point","coordinates":[-117.39829,34.070438]}},{"properties":{"city":"Blythe","name":"Palo Verde Hospital","fid_":null,"zip_code":92225.0,"type_of_fa":"Mammography Center","id":"a6anpkh50rrf","point_x":-114.595427,"point_y":33.613163},"type":"Feature","geometry":{"type":"Point","coordinates":[-114.595427,33.613163]}},{"properties":{"city":"Cathedral City","name":"Centro Medico Cathedral City","fid_":null,"zip_code":92234.0,"type_of_fa":"Health Center","id":"a6anpkak1t7m","point_x":0.0,"point_y":0.0},"type":"Feature","geometry":{"type":"Point","coordinates":[0.0,0.0]}},{"properties":{"city":"Chino","name":"Chino Medical Group, Inc.","fid_":null,"zip_code":91710.0,"type_of_fa":"Mammography Center","id":"a6anpkengzbe","point_x":-117.685504,"point_y":34.026282},"type":"Feature","geometry":{"type":"Point","coordinates":[-117.685504,34.026282]}},{"properties":{"city":"Chino","name":"Chino Valley Medical Center","fid_":null,"zip_code":91710.0,"type_of_fa":"Mammography Center","id":"a6anpk61yifg","point_x":-117.685929,"point_y":34.026283},"type":"Feature","geometry":{"type":"Point","coordinates":[-117.685929,34.026283]}},{"properties":{"city":"Chino Hills","name":"Pomona Valley Imaging Center at Chino Hills","fid_":null,"zip_code":91709.0,"type_of_fa":"Mammography Center","id":"a6anpkitjl84","point_x":-117.757782,"point_y":33.996436},"type":"Feature","geometry":{"type":"Point","coordinates":[-117.757782,33.996436]}},{"properties":{"city":"Coachella","name":"Coachella Health Clinic","fid_":null,"zip_code":92236.0,"type_of_fa":"Health Center","id":"a6anpk7oxmo5","point_x":0.0,"point_y":0.0},"type":"Feature","geometry":{"type":"Point","coordinates":[0.0,0.0]}},{"properties":{"city":"Colton","name":"Arrowhead Regional Medical Center","fid_":null,"zip_code":92324.0,"type_of_fa":"Mammography Center","id":"a6anpkgncoh1","point_x":-117.352766,"point_y":34.071746},"type":"Feature","geometry":{"type":"Point","coordinates":[-117.352766,34.071746]}},{"properties":{"city":"Corona","name":"Corona Regional Medical Center","fid_":null,"zip_code":0.0,"type_of_fa":"Cancer Hospital","id":"a6anpkdnfkaj","point_x":-117.566831,"point_y":33.873339},"type":"Feature","geometry":{"type":"Point","coordinates":[-117.566831,33.873339]}},{"properties":{"city":"Corona","name":"Corona Family Care Center","fid_":null,"zip_code":92882.0,"type_of_fa":"Health Center","id":"a6anpk8lmju5","point_x":-117.577645,"point_y":33.876189},"type":"Feature","geometry":{"type":"Point","coordinates":[-117.577645,33.876189]}},{"properties":{"city":"Fontana","name":"Kaiser Foundation Hospital","fid_":null,"zip_code":92335.0,"type_of_fa":"Mammography Center","id":"a6anpkbtqogp","point_x":-117.43554,"point_y":34.072546},"type":"Feature","geometry":{"type":"Point","coordinates":[-117.43554,34.072546]}},{"properties":{"city":"Fontana","name":"Sierra San Antonio Medical Plaza","fid_":null,"zip_code":92336.0,"type_of_fa":"Mammography Center","id":"a6anpke4354s","point_x":-117.442955,"point_y":34.138756},"type":"Feature","geometry":{"type":"Point","coordinates":[-117.442955,34.138756]}},{"properties":{"city":"Fontana","name":"Kaiser Foundation Hospital","fid_":null,"zip_code":0.0,"type_of_fa":"Cancer Hospital","id":"a6anpkf2ctps","point_x":-117.43554,"point_y":34.072546},"type":"Feature","geometry":{"type":"Point","coordinates":[-117.43554,34.072546]}},{"properties":{"city":"Fontana","name":"Fontana Public Health Clinic","fid_":null,"zip_code":92335.0,"type_of_fa":"Public Health Clinic","id":"a6anpk8tiylt","point_x":-117.415147,"point_y":34.099539},"type":"Feature","geometry":{"type":"Point","coordinates":[-117.415147,34.099539]}},{"properties":{"city":"Hemet","name":"Centrelake Imaging &amp; Diagnostic","fid_":null,"zip_code":92592.0,"type_of_fa":"Mammography Center","id":"a6anpk5vtrld","point_x":-116.958617,"point_y":33.755593},"type":"Feature","geometry":{"type":"Point","coordinates":[-116.958617,33.755593]}},{"properties":{"city":"Hemet","name":"Hemet Valley Imaging Medical Group, Inc.","fid_":null,"zip_code":92543.0,"type_of_fa":"Mammography Center","id":"a6anpkemcni3","point_x":-116.961922,"point_y":33.749338},"type":"Feature","geometry":{"type":"Point","coordinates":[-116.961922,33.749338]}},{"properties":{"city":"Hemet","name":"Hemet Valley Meidcal Center","fid_":null,"zip_code":92543.0,"type_of_fa":"Mammography Center","id":"a6anpkgkz9vk","point_x":-116.95993,"point_y":33.751168},"type":"Feature","geometry":{"type":"Point","coordinates":[-116.95993,33.751168]}},{"properties":{"city":"Hemet","name":"Hemet Family Care Center","fid_":null,"zip_code":92543.0,"type_of_fa":"Health Center","id":"a6anpkepj45u","point_x":-116.97174,"point_y":33.761685},"type":"Feature","geometry":{"type":"Point","coordinates":[-116.97174,33.761685]}},{"properties":{"city":"Hesperia","name":"California Baptist University","fid_":null,"zip_code":92345.0,"type_of_fa":"University","id":"a6anpkek4a0x","point_x":-117.346477,"point_y":34.419178},"type":"Feature","geometry":{"type":"Point","coordinates":[-117.346477,34.419178]}},{"properties":{"city":"Hesperia","name":"Victor Valley Public Health Clinic","fid_":null,"zip_code":92345.0,"type_of_fa":"Public Health Clinic","id":"a6anpk59buod","point_x":-117.304683,"point_y":34.470721},"type":"Feature","geometry":{"type":"Point","coordinates":[-117.304683,34.470721]}},{"properties":{"city":"Highland","name":"L.P. Highland","fid_":null,"zip_code":92346.0,"type_of_fa":"Mammography Center","id":"a6anpk5rvsv4","point_x":-117.195668,"point_y":34.125486},"type":"Feature","geometry":{"type":"Point","coordinates":[-117.195668,34.125486]}},{"properties":{"city":"Indio","name":"The Breast Health Center","fid_":null,"zip_code":92201.0,"type_of_fa":"Mammography Center","id":"a6anpk74fjbt","point_x":0.0,"point_y":0.0},"type":"Feature","geometry":{"type":"Point","coordinates":[0.0,0.0]}},{"properties":{"city":"Joshua Tree","name":"Joshua Tree Public Health Clinic","fid_":null,"zip_code":92252.0,"type_of_fa":"Public Health Clinic","id":"a6anpkfpaour","point_x":-116.279179,"point_y":34.135154},"type":"Feature","geometry":{"type":"Point","coordinates":[-116.279179,34.135154]}},{"properties":{"city":"Lake Arrowhead","name":"Mountains Community Hospital","fid_":null,"zip_code":92352.0,"type_of_fa":"Mammography Center","id":"a6anpkghfoio","point_x":-117.167179,"point_y":34.26591},"type":"Feature","geometry":{"type":"Point","coordinates":[-117.167179,34.26591]}},{"properties":{"city":"Lake Elsinore","name":"Inland Valley Women's Clinic","fid_":null,"zip_code":92530.0,"type_of_fa":"Health Center","id":"a6anpkiy6t9f","point_x":-117.328018,"point_y":33.667338},"type":"Feature","geometry":{"type":"Point","coordinates":[-117.328018,33.667338]}},{"properties":{"city":"Lake Elsinore","name":"Lake Elsinore Family Care Center","fid_":null,"zip_code":92530.0,"type_of_fa":"Health Center","id":"a6anpkev8h2b","point_x":-117.301408,"point_y":33.660363},"type":"Feature","geometry":{"type":"Point","coordinates":[-117.301408,33.660363]}},{"properties":{"city":"Loma Linda","name":"LLU Medical Center Faculty Medical Office","fid_":null,"zip_code":92354.0,"type_of_fa":"Mammography Center","id":"a6anpkbzrnig","point_x":-117.261173,"point_y":34.047533},"type":"Feature","geometry":{"type":"Point","coordinates":[-117.261173,34.047533]}},{"properties":{"city":"Loma Linda","name":"LLU Medical Center","fid_":null,"zip_code":92354.0,"type_of_fa":"Mammography Center","id":"a6anpki08k78","point_x":-117.261174,"point_y":34.049507},"type":"Feature","geometry":{"type":"Point","coordinates":[-117.261174,34.049507]}},{"properties":{"city":"Loma Linda","name":"Loma Linda University Med Ctr","fid_":null,"zip_code":0.0,"type_of_fa":"Cancer Hospital","id":"a6anpk6pkvco","point_x":-117.261174,"point_y":34.049507},"type":"Feature","geometry":{"type":"Point","coordinates":[-117.261174,34.049507]}},{"properties":{"city":"Loma Linda","name":"Loma Linda University","fid_":null,"zip_code":92354.0,"type_of_fa":"University","id":"a6anpk8ngff5","point_x":-117.261174,"point_y":34.049507},"type":"Feature","geometry":{"type":"Point","coordinates":[-117.261174,34.049507]}},{"properties":{"city":"Mecca","name":"Mecca Health Clinic","fid_":null,"zip_code":92254.0,"type_of_fa":"Health Center","id":"a6anpki3hokg","point_x":-116.07368,"point_y":33.569256},"type":"Feature","geometry":{"type":"Point","coordinates":[-116.07368,33.569256]}},{"properties":{"city":"Montclair","name":"Doctor's Hopsital Medical Center of Montclair","fid_":null,"zip_code":91763.0,"type_of_fa":"Mammography Center","id":"a6anpkh5qqt9","point_x":-117.696118,"point_y":34.077718},"type":"Feature","geometry":{"type":"Point","coordinates":[-117.696118,34.077718]}},{"properties":{"city":"Montclair","name":"Central Avenue Urgent Care Center","fid_":null,"zip_code":91763.0,"type_of_fa":"Health Center","id":"a6anpkb57esj","point_x":-117.689462,"point_y":34.092421},"type":"Feature","geometry":{"type":"Point","coordinates":[-117.689462,34.092421]}},{"properties":{"city":"Montclair","name":"Sac West End/Montclair","fid_":null,"zip_code":91763.0,"type_of_fa":"Health Center","id":"a6anpkj54iy8","point_x":-117.693658,"point_y":34.073974},"type":"Feature","geometry":{"type":"Point","coordinates":[-117.693658,34.073974]}},{"properties":{"city":"Moreno Valley","name":"Kaiser Permanente Medical Offices Moreno Valley","fid_":null,"zip_code":92553.0,"type_of_fa":"Mammography Center","id":"a6anpkgi6myc","point_x":-117.2439,"point_y":33.933893},"type":"Feature","geometry":{"type":"Point","coordinates":[-117.2439,33.933893]}},{"properties":{"city":"Moreno Valley","name":"Moreno Valley Community Hospital","fid_":null,"zip_code":92555.0,"type_of_fa":"Mammography Center","id":"a6anpk3lud5j","point_x":-117.180889,"point_y":33.895217},"type":"Feature","geometry":{"type":"Point","coordinates":[-117.180889,33.895217]}},{"properties":{"city":"Moreno Valley","name":"Riverside County Regional Medical Center","fid_":null,"zip_code":92555.0,"type_of_fa":"Mammography Center","id":"a6anpkgqrilr","point_x":-117.200313,"point_y":33.910088},"type":"Feature","geometry":{"type":"Point","coordinates":[-117.200313,33.910088]}},{"properties":{"city":"Needles","name":"Needles Public Health Clinic","fid_":null,"zip_code":92363.0,"type_of_fa":"Public Health Clinic","id":"a6anpk875i30","point_x":-114.618381,"point_y":34.83242},"type":"Feature","geometry":{"type":"Point","coordinates":[-114.618381,34.83242]}},{"properties":{"city":"Ontario","name":"Kaiser Permanente","fid_":null,"zip_code":91761.0,"type_of_fa":"Mammography Center","id":"a6anpkjcu9vs","point_x":-117.610963,"point_y":34.03272},"type":"Feature","geometry":{"type":"Point","coordinates":[-117.610963,34.03272]}},{"properties":{"city":"Ontario","name":"Ontario Public Health Clinic","fid_":null,"zip_code":0.0,"type_of_fa":"Public Health Clinic","id":"a6anpkgcfelv","point_x":-117.618357,"point_y":34.063496},"type":"Feature","geometry":{"type":"Point","coordinates":[-117.618357,34.063496]}},{"properties":{"city":"Palm Springs","name":"Agua Caliente Outreach Office","fid_":null,"zip_code":92262.0,"type_of_fa":"Indian Clinics","id":"a6anpk3h5pvf","point_x":-116.538203,"point_y":33.823001},"type":"Feature","geometry":{"type":"Point","coordinates":[-116.538203,33.823001]}},{"properties":{"city":"Palm Springs","name":"Desert Advanced Imaging Center","fid_":null,"zip_code":92262.0,"type_of_fa":"Mammography Center","id":"a6anpk60iy4t","point_x":-116.51795,"point_y":33.823027},"type":"Feature","geometry":{"type":"Point","coordinates":[-116.51795,33.823027]}},{"properties":{"city":"Palm Springs","name":"Desert Comprehesive Breast Center","fid_":null,"zip_code":92262.0,"type_of_fa":"Mammography Center","id":"a6anpk7agvcx","point_x":-116.545535,"point_y":33.839611},"type":"Feature","geometry":{"type":"Point","coordinates":[-116.545535,33.839611]}},{"properties":{"city":"Palm Springs","name":"Desert Aids Project","fid_":null,"zip_code":92262.0,"type_of_fa":"Health Center","id":"a6anpkhiv10p","point_x":-116.528299,"point_y":33.844703},"type":"Feature","geometry":{"type":"Point","coordinates":[-116.528299,33.844703]}},{"properties":{"city":"Palm Springs","name":"Desert Regional Medical Center","fid_":null,"zip_code":0.0,"type_of_fa":"Cancer Hospital","id":"a6anpkg38qy9","point_x":-116.545534,"point_y":33.838878},"type":"Feature","geometry":{"type":"Point","coordinates":[-116.545534,33.838878]}},{"properties":{"city":"Palm Springs","name":"Palm Springs Family Care Center","fid_":null,"zip_code":92262.0,"type_of_fa":"Health Center","id":"a6anpkjnrgj5","point_x":-116.528297,"point_y":33.843122},"type":"Feature","geometry":{"type":"Point","coordinates":[-116.528297,33.843122]}},{"properties":{"city":"Perris","name":"Perris Family Care Center","fid_":null,"zip_code":92570.0,"type_of_fa":"Health Center","id":"a6anpk76etf5","point_x":-117.221622,"point_y":33.786647},"type":"Feature","geometry":{"type":"Point","coordinates":[-117.221622,33.786647]}},{"properties":{"city":"Phelan","name":"Community Health Projects, Inc","fid_":null,"zip_code":92371.0,"type_of_fa":null,"id":"a6anpk50fcki","point_x":-117.579521,"point_y":34.426285},"type":"Feature","geometry":{"type":"Point","coordinates":[-117.579521,34.426285]}},{"properties":{"city":"Rancho Cucamonga","name":"Grove Diagnostic Imaging","fid_":null,"zip_code":91730.0,"type_of_fa":"Mammography Center","id":"a6anpk5ssdku","point_x":-117.628468,"point_y":34.103563},"type":"Feature","geometry":{"type":"Point","coordinates":[-117.628468,34.103563]}},{"properties":{"city":"Rancho Cucamonga","name":"Grove/Haven Imaging Medical Group","fid_":null,"zip_code":91730.0,"type_of_fa":"Mammography Center","id":"a6anpke2e4uq","point_x":-117.575647,"point_y":34.097276},"type":"Feature","geometry":{"type":"Point","coordinates":[-117.575647,34.097276]}},{"properties":{"city":"Rancho Cucamonga","name":"Kaiser Permanente Medical Offices- RC","fid_":null,"zip_code":91710.0,"type_of_fa":"Mammography Center","id":"a6anpki3t9ts","point_x":-117.568287,"point_y":34.099201},"type":"Feature","geometry":{"type":"Point","coordinates":[-117.568287,34.099201]}},{"properties":{"city":"Rancho Cucamonga","name":"Rancho San Antonio Medical Center","fid_":null,"zip_code":91730.0,"type_of_fa":"Mammography Center","id":"a6anpk7juvr8","point_x":-117.558348,"point_y":34.112844},"type":"Feature","geometry":{"type":"Point","coordinates":[-117.558348,34.112844]}},{"properties":{"city":"Rancho Mirage","name":"Eisenhower Memorial Hospital","fid_":null,"zip_code":0.0,"type_of_fa":"Cancer Hospital","id":"a6anpk7hm0n8","point_x":-116.408012,"point_y":33.76335},"type":"Feature","geometry":{"type":"Point","coordinates":[-116.408012,33.76335]}},{"properties":{"city":"Rancho Mirage","name":"Eisenhower Medical Center- Breast Cancer","fid_":null,"zip_code":92270.0,"type_of_fa":"Mammography Center","id":"a6anpk8o43vf","point_x":-116.408012,"point_y":33.76335},"type":"Feature","geometry":{"type":"Point","coordinates":[-116.408012,33.76335]}},{"properties":{"city":"Redlands","name":"Beaver medical group","fid_":null,"zip_code":92373.0,"type_of_fa":"Mammography Center","id":"a6anpk8crp5k","point_x":-117.178949,"point_y":34.05045},"type":"Feature","geometry":{"type":"Point","coordinates":[-117.178949,34.05045]}},{"properties":{"city":"Redlands","name":"Kaiser Permanente Loma Linda Medical offices","fid_":null,"zip_code":92373.0,"type_of_fa":"Mammography Center","id":"a6anpkecxfee","point_x":-117.24143,"point_y":34.06309},"type":"Feature","geometry":{"type":"Point","coordinates":[-117.24143,34.06309]}},{"properties":{"city":"Redlands","name":"Redlands Community Hospital Outpatient Imaging","fid_":null,"zip_code":92373.0,"type_of_fa":"Mammography Center","id":"a6anpkdp8z10","point_x":-117.204373,"point_y":34.037023},"type":"Feature","geometry":{"type":"Point","coordinates":[-117.204373,34.037023]}},{"properties":{"city":"Redlands","name":"University of Redlands","fid_":null,"zip_code":92374.0,"type_of_fa":"University","id":"a6anpkeuhsjj","point_x":-117.164583,"point_y":34.062717},"type":"Feature","geometry":{"type":"Point","coordinates":[-117.164583,34.062717]}},{"properties":{"city":"Redlands","name":"Redlands Public Health Clinic","fid_":null,"zip_code":92374.0,"type_of_fa":"Public Health Clinic","id":"a6anpk9ahyir","point_x":-117.173707,"point_y":34.069994},"type":"Feature","geometry":{"type":"Point","coordinates":[-117.173707,34.069994]}},{"properties":{"city":"Rialto","name":"United Family Care","fid_":null,"zip_code":92376.0,"type_of_fa":"Mammography Center","id":"a6anpkhugvax","point_x":-117.370359,"point_y":34.133141},"type":"Feature","geometry":{"type":"Point","coordinates":[-117.370359,34.133141]}},{"properties":{"city":"Riverside","name":"Health Care Imaging","fid_":null,"zip_code":92506.0,"type_of_fa":"Mammography Center","id":"a6anpk3mgahg","point_x":-117.399341,"point_y":33.953429},"type":"Feature","geometry":{"type":"Point","coordinates":[-117.399341,33.953429]}},{"properties":{"city":"Riverside","name":"Kaiser Permanente Medical Offices Riverside","fid_":null,"zip_code":92505.0,"type_of_fa":"Mammography Center","id":"a6anpk4tbk5r","point_x":-117.470683,"point_y":33.906454},"type":"Feature","geometry":{"type":"Point","coordinates":[-117.470683,33.906454]}},{"properties":{"city":"Riverside","name":"Renaissance Radiology Medical Group, Inc","fid_":null,"zip_code":92503.0,"type_of_fa":"Mammography Center","id":"a6anpk44m30t","point_x":-117.438074,"point_y":33.925309},"type":"Feature","geometry":{"type":"Point","coordinates":[-117.438074,33.925309]}},{"properties":{"city":"Riverside","name":"Riverside Community Hospital Breast Imaging Cente","fid_":null,"zip_code":92501.0,"type_of_fa":"Mammography Center","id":"a6anpkdkpfq9","point_x":-117.384363,"point_y":33.977276},"type":"Feature","geometry":{"type":"Point","coordinates":[-117.384363,33.977276]}},{"properties":{"city":"Riverside","name":"Riverside Medical Clinic","fid_":null,"zip_code":92507.0,"type_of_fa":"Mammography Center","id":"a6anpk531url","point_x":-117.27898,"point_y":33.93446},"type":"Feature","geometry":{"type":"Point","coordinates":[-117.27898,33.93446]}},{"properties":{"city":"Riverside","name":"Riverside Medical Clinic","fid_":null,"zip_code":92506.0,"type_of_fa":"Mammography Center","id":"a6anpk41uv3b","point_x":-117.394884,"point_y":33.943654},"type":"Feature","geometry":{"type":"Point","coordinates":[-117.394884,33.943654]}},{"properties":{"city":"Riverside","name":"Community Health Systems, Inc","fid_":null,"zip_code":92503.0,"type_of_fa":null,"id":"a6anpk48ddqw","point_x":-117.45975,"point_y":33.94642},"type":"Feature","geometry":{"type":"Point","coordinates":[-117.45975,33.94642]}},{"properties":{"city":"Riverside","name":"Kaiser Foundation Hospital","fid_":null,"zip_code":0.0,"type_of_fa":"Cancer Hospital","id":"a6anpke5bsj2","point_x":-117.470683,"point_y":33.906454},"type":"Feature","geometry":{"type":"Point","coordinates":[-117.470683,33.906454]}},{"properties":{"city":"Riverside","name":"Eastside HLTH CTR Medical/Dental Cl","fid_":null,"zip_code":0.0,"type_of_fa":"Health Center","id":"a6anpka91yfw","point_x":-117.354511,"point_y":33.975572},"type":"Feature","geometry":{"type":"Point","coordinates":[-117.354511,33.975572]}},{"properties":{"city":"Riverside","name":"Arlanza Family Medical/Dental Clini","fid_":null,"zip_code":0.0,"type_of_fa":"Health Center","id":"a6anpk5rfe2i","point_x":-117.467779,"point_y":33.946446},"type":"Feature","geometry":{"type":"Point","coordinates":[-117.467779,33.946446]}},{"properties":{"city":"Riverside","name":"UC Riverside","fid_":null,"zip_code":92507.0,"type_of_fa":"University","id":"a6anpkan8uji","point_x":-117.331106,"point_y":33.975885},"type":"Feature","geometry":{"type":"Point","coordinates":[-117.331106,33.975885]}},{"properties":{"city":"Riverside","name":"La Sierra University","fid_":null,"zip_code":92515.0,"type_of_fa":"University","id":"a6anpki6ve30","point_x":-117.499384,"point_y":33.91036},"type":"Feature","geometry":{"type":"Point","coordinates":[-117.499384,33.91036]}},{"properties":{"city":"Riverside","name":"Riverside Community College","fid_":null,"zip_code":92501.0,"type_of_fa":"Community College","id":"a6anpkgy0tem","point_x":-117.376925,"point_y":33.969344},"type":"Feature","geometry":{"type":"Point","coordinates":[-117.376925,33.969344]}},{"properties":{"city":"Riverside","name":"Riverside Neighborhood Health Ctr","fid_":null,"zip_code":92504.0,"type_of_fa":"Health Center","id":"a6anpkem6d88","point_x":-117.397698,"point_y":33.938917},"type":"Feature","geometry":{"type":"Point","coordinates":[-117.397698,33.938917]}},{"properties":{"city":"Riverside","name":"Jurupa Family Care Center","fid_":null,"zip_code":92509.0,"type_of_fa":"Health Center","id":"a6anpkjugafr","point_x":-117.490323,"point_y":34.01184},"type":"Feature","geometry":{"type":"Point","coordinates":[-117.490323,34.01184]}},{"properties":{"city":"Riverside","name":"Rubidoux Family Care Center","fid_":null,"zip_code":92509.0,"type_of_fa":"Health Center","id":"a6anpkheorlx","point_x":-117.398658,"point_y":33.992589},"type":"Feature","geometry":{"type":"Point","coordinates":[-117.398658,33.992589]}},{"properties":{"city":"San bernardino","name":"San Manuel Health Care Center","fid_":null,"zip_code":92404.0,"type_of_fa":"Indian Clinics","id":"a6anpkao0ki4","point_x":-117.239151,"point_y":34.135913},"type":"Feature","geometry":{"type":"Point","coordinates":[-117.239151,34.135913]}},{"properties":{"city":"San bernardino","name":"Palm Imaging Institute","fid_":null,"zip_code":92404.0,"type_of_fa":"Mammography Center","id":"a6anpkf8nkwd","point_x":-117.276565,"point_y":34.13403},"type":"Feature","geometry":{"type":"Point","coordinates":[-117.276565,34.13403]}},{"properties":{"city":"San bernardino","name":"San Bernardino Medical Group, Inc.","fid_":null,"zip_code":92404.0,"type_of_fa":"Mammography Center","id":"a6anpkgx78ir","point_x":-117.278833,"point_y":34.130126},"type":"Feature","geometry":{"type":"Point","coordinates":[-117.278833,34.130126]}},{"properties":{"city":"San bernardino","name":"St. Bernadine Medical Center- Imaging Center","fid_":null,"zip_code":92404.0,"type_of_fa":"Mammography Center","id":"a6anpkh6h7i0","point_x":-117.277213,"point_y":34.135862},"type":"Feature","geometry":{"type":"Point","coordinates":[-117.277213,34.135862]}},{"properties":{"city":"San bernardino","name":"United Family Care","fid_":null,"zip_code":92404.0,"type_of_fa":"Mammography Center","id":"a6anpk6fwxsd","point_x":-117.278824,"point_y":34.135029},"type":"Feature","geometry":{"type":"Point","coordinates":[-117.278824,34.135029]}},{"properties":{"city":"San bernardino","name":"Women's Diag Ctr- Community Hosp of San Bernardin","fid_":null,"zip_code":92411.0,"type_of_fa":"Mammography Center","id":"a6anpk3g6k6x","point_x":-117.322629,"point_y":34.131256},"type":"Feature","geometry":{"type":"Point","coordinates":[-117.322629,34.131256]}},{"properties":{"city":"San bernardino","name":"Ibs Community Health Care Clinic","fid_":null,"zip_code":92405.0,"type_of_fa":"Health Center","id":"a6anpk3zop7w","point_x":-117.294086,"point_y":34.133295},"type":"Feature","geometry":{"type":"Point","coordinates":[-117.294086,34.133295]}},{"properties":{"city":"San bernardino","name":"Sac Norton","fid_":null,"zip_code":92409.0,"type_of_fa":"Health Center","id":"a6anpkhjnqv9","point_x":-117.260396,"point_y":34.102746},"type":"Feature","geometry":{"type":"Point","coordinates":[-117.260396,34.102746]}},{"properties":{"city":"San bernardino","name":"Sac Arrowhead","fid_":null,"zip_code":92405.0,"type_of_fa":"Health Center","id":"a6anpkh13s7o","point_x":-117.291859,"point_y":34.123193},"type":"Feature","geometry":{"type":"Point","coordinates":[-117.291859,34.123193]}},{"properties":{"city":"San bernardino","name":"Sac Frazee","fid_":null,"zip_code":92410.0,"type_of_fa":"Health Center","id":"a6anpkhv14hd","point_x":0.0,"point_y":0.0},"type":"Feature","geometry":{"type":"Point","coordinates":[0.0,0.0]}},{"properties":{"city":"San bernardino","name":"Sac Redlands","fid_":null,"zip_code":92374.0,"type_of_fa":"Health Center","id":"a6anpkjmaqw5","point_x":-117.192883,"point_y":34.065236},"type":"Feature","geometry":{"type":"Point","coordinates":[-117.192883,34.065236]}},{"properties":{"city":"San Bernardino","name":"St Bernardine Medical Ctr","fid_":null,"zip_code":0.0,"type_of_fa":"Cancer Hospital","id":"a6anpk5pvdml","point_x":-117.278692,"point_y":34.134117},"type":"Feature","geometry":{"type":"Point","coordinates":[-117.278692,34.134117]}},{"properties":{"city":"San Bernardino","name":"Inland Behavioral and hlth serv,inc","fid_":null,"zip_code":92405.0,"type_of_fa":"Health Center","id":"a6anpkcvpvhl","point_x":0.0,"point_y":0.0},"type":"Feature","geometry":{"type":"Point","coordinates":[0.0,0.0]}},{"properties":{"city":"San Bernardino","name":"IBHS- San Bernardino Site","fid_":null,"zip_code":0.0,"type_of_fa":"Health Center","id":"a6anpk4l2ke5","point_x":-117.291841,"point_y":34.111394},"type":"Feature","geometry":{"type":"Point","coordinates":[-117.291841,34.111394]}},{"properties":{"city":"San Bernardino","name":"Whitney Young Family Hlth Clinic","fid_":null,"zip_code":0.0,"type_of_fa":"Health Center","id":"a6anpk41hnd6","point_x":-117.325056,"point_y":34.114356},"type":"Feature","geometry":{"type":"Point","coordinates":[-117.325056,34.114356]}},{"properties":{"city":"San Bernardino","name":"Azusa Pacfic University","fid_":null,"zip_code":92408.0,"type_of_fa":"University","id":"a6anpk3g2dsv","point_x":-117.270835,"point_y":34.069488},"type":"Feature","geometry":{"type":"Point","coordinates":[-117.270835,34.069488]}},{"properties":{"city":"San Bernardino","name":"CSU San Bernardino","fid_":null,"zip_code":92407.0,"type_of_fa":"University","id":"a6anpk8eyiyd","point_x":-117.328235,"point_y":34.177998},"type":"Feature","geometry":{"type":"Point","coordinates":[-117.328235,34.177998]}},{"properties":{"city":"San Bernardino","name":"San Bernardino Valley College","fid_":null,"zip_code":92410.0,"type_of_fa":"Community College","id":"a6anpkhslzas","point_x":-117.313768,"point_y":34.08874},"type":"Feature","geometry":{"type":"Point","coordinates":[-117.313768,34.08874]}},{"properties":{"city":"San Bernardino","name":"San Bernardino Public Health Clinic","fid_":null,"zip_code":92415.0,"type_of_fa":"Public Health Clinic","id":"a6anpk95ltbq","point_x":-117.26844,"point_y":34.101423},"type":"Feature","geometry":{"type":"Point","coordinates":[-117.26844,34.101423]}},{"properties":{"city":"San Jacinto","name":"Soboba health care center","fid_":null,"zip_code":92583.0,"type_of_fa":"Indian Clinics","id":"a6anpki2xh3k","point_x":-116.937368,"point_y":33.782236},"type":"Feature","geometry":{"type":"Point","coordinates":[-116.937368,33.782236]}},{"properties":{"city":"San Jacinto","name":"Soboba  Indian Health","fid_":null,"zip_code":92583.0,"type_of_fa":"Mammography Center","id":"a6anpkgm8ksr","point_x":-116.937368,"point_y":33.782236},"type":"Feature","geometry":{"type":"Point","coordinates":[-116.937368,33.782236]}},{"properties":{"city":"Sun City","name":"Menifee Valley Medical center","fid_":null,"zip_code":92585.0,"type_of_fa":"Mammography Center","id":"a6anpka497e9","point_x":-117.164252,"point_y":33.71958},"type":"Feature","geometry":{"type":"Point","coordinates":[-117.164252,33.71958]}},{"properties":{"city":"Temecula","name":"Pechanga Health Care Center","fid_":null,"zip_code":92390.0,"type_of_fa":"Indian Clinics","id":"a6anpk6256em","point_x":0.0,"point_y":0.0},"type":"Feature","geometry":{"type":"Point","coordinates":[0.0,0.0]}},{"properties":{"city":"Temecula","name":"California Imaging &amp; Diagnostic Medical group","fid_":null,"zip_code":92592.0,"type_of_fa":"Mammography Center","id":"a6anpkd9prla","point_x":-117.088559,"point_y":33.482581},"type":"Feature","geometry":{"type":"Point","coordinates":[-117.088559,33.482581]}},{"properties":{"city":"Temecula","name":"Temecula Valley Imaging","fid_":null,"zip_code":92590.0,"type_of_fa":"Mammography Center","id":"a6anpkgla4ep","point_x":-117.159165,"point_y":33.513883},"type":"Feature","geometry":{"type":"Point","coordinates":[-117.159165,33.513883]}},{"properties":{"city":"Temecula","name":"Neighborhood healthcare- Temecula","fid_":null,"zip_code":0.0,"type_of_fa":"Health Center","id":"a6anpke6ps4h","point_x":-117.161276,"point_y":33.527765},"type":"Feature","geometry":{"type":"Point","coordinates":[-117.161276,33.527765]}},{"properties":{"city":"Temecula","name":"Neighborhood Healthcare -Winchester","fid_":null,"zip_code":0.0,"type_of_fa":"Health Center","id":"a6anpkhetw31","point_x":-117.167681,"point_y":33.518979},"type":"Feature","geometry":{"type":"Point","coordinates":[-117.167681,33.518979]}},{"properties":{"city":"Thermal","name":"Torres-Martinez health Care Center","fid_":null,"zip_code":92274.0,"type_of_fa":"Indian Clinics","id":"a6anpkc4kk07","point_x":0.0,"point_y":0.0},"type":"Feature","geometry":{"type":"Point","coordinates":[0.0,0.0]}},{"properties":{"city":"Trona","name":"Trona Public Health Clinic","fid_":null,"zip_code":93562.0,"type_of_fa":"Public Health Clinic","id":"a6anpkgucby1","point_x":-117.376662,"point_y":35.759125},"type":"Feature","geometry":{"type":"Point","coordinates":[-117.376662,35.759125]}},{"properties":{"city":"Upland","name":"San Antonio Community Hospital","fid_":null,"zip_code":91786.0,"type_of_fa":"Mammography Center","id":"a6anpk4qbhqe","point_x":-117.638089,"point_y":34.100621},"type":"Feature","geometry":{"type":"Point","coordinates":[-117.638089,34.100621]}},{"properties":{"city":"Upland","name":"San Antonio Community Hospital","fid_":null,"zip_code":0.0,"type_of_fa":"Cancer Hospital","id":"a6anpkgt1hke","point_x":-117.638089,"point_y":34.100621},"type":"Feature","geometry":{"type":"Point","coordinates":[-117.638089,34.100621]}},{"properties":{"city":"Victorville","name":"Valley Imaging Center- Hesperia","fid_":null,"zip_code":92395.0,"type_of_fa":"Mammography Center","id":"a6anpkd0x1se","point_x":-117.290594,"point_y":34.481322},"type":"Feature","geometry":{"type":"Point","coordinates":[-117.290594,34.481322]}},{"properties":{"city":"Victorville","name":"Valley imaging Center, Inc.","fid_":null,"zip_code":92395.0,"type_of_fa":"Mammography Center","id":"a6anpkfz872c","point_x":-117.292469,"point_y":34.527885},"type":"Feature","geometry":{"type":"Point","coordinates":[-117.292469,34.527885]}},{"properties":{"city":"Victorville","name":"Victor Valley Community Hospital OP Imaging","fid_":null,"zip_code":92395.0,"type_of_fa":"Mammography Center","id":"a6anpkjvwo24","point_x":-117.292481,"point_y":34.527266},"type":"Feature","geometry":{"type":"Point","coordinates":[-117.292481,34.527266]}},{"properties":{"city":"Wildomar","name":"Inland Valley Reginoal Medical Center","fid_":null,"zip_code":92595.0,"type_of_fa":"Mammography Center","id":"a6anpkiuqthj","point_x":-117.236844,"point_y":33.591252},"type":"Feature","geometry":{"type":"Point","coordinates":[-117.236844,33.591252]}},{"properties":{"city":"Yucca Valley","name":"Airway Outpatient Center","fid_":null,"zip_code":92284.0,"type_of_fa":"Mammography Center","id":"a6anpkafkk7f","point_x":-116.410859,"point_y":34.124429},"type":"Feature","geometry":{"type":"Point","coordinates":[-116.410859,34.124429]}},{"properties":{"city":"Ontario","name":"Centrelake Imaging &amp; Oncology","fid_":null,"zip_code":91761.0,"type_of_fa":"Mammography Center","id":"a6anpk8tbgid","point_x":-117.58331,"point_y":34.066145},"type":"Feature","geometry":{"type":"Point","coordinates":[-117.58331,34.066145]}},{"properties":{"city":"Victorville","name":"Desert Valley Medical Group, Inc.","fid_":null,"zip_code":92392.0,"type_of_fa":"Mammography Center","id":"a6anpkgiwkw6","point_x":-117.291476,"point_y":34.475312},"type":"Feature","geometry":{"type":"Point","coordinates":[-117.291476,34.475312]}},{"properties":{"city":"Rancho Mirage","name":"Agua Calient Casino","fid_":null,"zip_code":92270.0,"type_of_fa":"Casino","id":"a6anpkgoma3j","point_x":0.0,"point_y":0.0},"type":"Feature","geometry":{"type":"Point","coordinates":[0.0,0.0]}},{"properties":{"city":"West Coachella","name":"Augustine Casino","fid_":null,"zip_code":92236.0,"type_of_fa":"Casino","id":"a6anpkdj49l0","point_x":0.0,"point_y":0.0},"type":"Feature","geometry":{"type":"Point","coordinates":[0.0,0.0]}},{"properties":{"city":"Anza","name":"Cahuilla Creek Casino","fid_":null,"zip_code":92539.0,"type_of_fa":"Casino","id":"a6anpk4kylql","point_x":-116.741328,"point_y":33.541741},"type":"Feature","geometry":{"type":"Point","coordinates":[-116.741328,33.541741]}},{"properties":{"city":"Indio","name":"Fantasy Springs Casino","fid_":null,"zip_code":92203.0,"type_of_fa":"Casino","id":"a6anpk9oj3bh","point_x":0.0,"point_y":0.0},"type":"Feature","geometry":{"type":"Point","coordinates":[0.0,0.0]}},{"properties":{"city":"Blythe","name":"Bruce's Casino","fid_":null,"zip_code":92225.0,"type_of_fa":"Casino","id":"a6anpkaf64a4","point_x":-114.599442,"point_y":33.609899},"type":"Feature","geometry":{"type":"Point","coordinates":[-114.599442,33.609899]}},{"properties":{"city":"Cabazon","name":"Morongo Casino Resort Spa","fid_":null,"zip_code":92230.0,"type_of_fa":"Casino","id":"a6anpkamd9yr","point_x":-116.790563,"point_y":33.91936},"type":"Feature","geometry":{"type":"Point","coordinates":[-116.790563,33.91936]}},{"properties":{"city":"Temecula","name":"Pechanga Resort &amp; Casino","fid_":null,"zip_code":92592.0,"type_of_fa":"Casino","id":"a6anpkb4h5dv","point_x":-117.104503,"point_y":33.456969},"type":"Feature","geometry":{"type":"Point","coordinates":[-117.104503,33.456969]}},{"properties":{"city":"Palm Springs","name":"Spa Resort Casino","fid_":null,"zip_code":92262.0,"type_of_fa":"Casino","id":"a6anpkf2h88s","point_x":-116.545488,"point_y":33.823866},"type":"Feature","geometry":{"type":"Point","coordinates":[-116.545488,33.823866]}},{"properties":{"city":"San Jacinto","name":"Soboba Casino","fid_":null,"zip_code":92581.0,"type_of_fa":"Casino","id":"a6anpkatn07y","point_x":-116.917281,"point_y":33.781318},"type":"Feature","geometry":{"type":"Point","coordinates":[-116.917281,33.781318]}},{"properties":{"city":"Coachella","name":"Spotlight 29 Casino","fid_":null,"zip_code":92236.0,"type_of_fa":"Casino","id":"a6anpk71tqah","point_x":0.0,"point_y":0.0},"type":"Feature","geometry":{"type":"Point","coordinates":[0.0,0.0]}},{"properties":{"city":"Havasu Lake","name":"Havasu Landing Resort and Casino","fid_":null,"zip_code":92363.0,"type_of_fa":"Casino","id":"a6anpk8xsicy","point_x":0.0,"point_y":0.0},"type":"Feature","geometry":{"type":"Point","coordinates":[0.0,0.0]}},{"properties":{"city":"Twentynine Palms","name":"Nuwu Casino Resort","fid_":null,"zip_code":92277.0,"type_of_fa":"Casino","id":"a6anpk6br0vj","point_x":0.0,"point_y":0.0},"type":"Feature","geometry":{"type":"Point","coordinates":[0.0,0.0]}},{"properties":{"city":"Highland","name":"San Manuel Indian Casino","fid_":null,"zip_code":92346.0,"type_of_fa":"Casino","id":"a6anpkc3dd82","point_x":-117.226131,"point_y":34.137551},"type":"Feature","geometry":{"type":"Point","coordinates":[-117.226131,34.137551]}}],"is_temporal":false,"author":{"url":"","metadata":"","contact_name":"","contact_address":"","source":"","contact_phone":""},"source":"","pagination":{"sort":null,"start":0,"total":139,"limit":1000000},"state":"complete","tags":"","published":"2014-08-12T23:46:43-04:00","id":101732}