{"type":"FeatureCollection","data_type":"Dataset","url_type":null,"permissions":[{"permissions":{"download":true,"view":true},"group_id":"everyone"}],"classification":null,"title":"PWC HGs - White","count":9,"stream_id":109832,"contributor":{"url":"http://geocommons.com/users/24568","name":"srfr"},"data_attributes":null,"calculation_params":null,"icon_link":null,"link":"http://geocommons.com/overlays/109832.json","extent":[-1.5797,50.8926,-1.3267,50.9336],"geometry_types":null,"unique_name":null,"name":"PWC HGs - White","feature_count":9,"description":"","next_feature":null,"is_raster":false,"short_classification":"Y","stats":{"latitude":{"max":50.9336,"variance":0.000185299444444434,"mean":50.9161777777778,"stdev":0.0136124738546832,"min":50.8926,"median":50.9197},"longitude":{"max":-1.3267,"variance":0.006443485,"mean":-1.40323333333333,"stdev":0.0802713211551922,"min":-1.5797,"median":-1.369},"hg":{"max":9,"variance":0.0,"mean":9.0,"stdev":0.0,"min":9,"median":9}},"features":[{"properties":{"latitude":50.9236,"postcode":"SO17 2FY","longitude":-1.3945,"id":"a68w3ftt29o1","hg":9},"type":"Feature","geometry":{"type":"Point","coordinates":[-1.3945,50.9236]}},{"properties":{"latitude":50.9324,"postcode":"SO17 3SF","longitude":-1.3867,"id":"a68w3ft7pcyc","hg":9},"type":"Feature","geometry":{"type":"Point","coordinates":[-1.3867,50.9324]}},{"properties":{"latitude":50.9336,"postcode":"SO18 2EA","longitude":-1.3622,"id":"a68w3fhbp5al","hg":9},"type":"Feature","geometry":{"type":"Point","coordinates":[-1.3622,50.9336]}},{"properties":{"latitude":50.9197,"postcode":"SO18 4ET","longitude":-1.3636,"id":"a68w3fi31a9x","hg":9},"type":"Feature","geometry":{"type":"Point","coordinates":[-1.3636,50.9197]}},{"properties":{"latitude":50.9026,"postcode":"SO19 6RQ","longitude":-1.3267,"id":"a68w3foqmkkz","hg":9},"type":"Feature","geometry":{"type":"Point","coordinates":[-1.3267,50.9026]}},{"properties":{"latitude":50.9111,"postcode":"SO19 7NL","longitude":-1.3564,"id":"a68w3foq4dzx","hg":9},"type":"Feature","geometry":{"type":"Point","coordinates":[-1.3564,50.9111]}},{"properties":{"latitude":50.8926,"postcode":"SO19 9EU","longitude":-1.369,"id":"a68w3fl79xkf","hg":9},"type":"Feature","geometry":{"type":"Point","coordinates":[-1.369,50.8926]}},{"properties":{"latitude":50.9213,"postcode":"SO40 2NJ","longitude":-1.5797,"id":"a68w3fwpi4pl","hg":9},"type":"Feature","geometry":{"type":"Point","coordinates":[-1.5797,50.9213]}},{"properties":{"latitude":50.9087,"postcode":"SO40 9FD","longitude":-1.4903,"id":"a68w3flrwh3c","hg":9},"type":"Feature","geometry":{"type":"Point","coordinates":[-1.4903,50.9087]}}],"is_temporal":false,"author":{"url":"","metadata":"","contact_name":"","contact_address":"","source":"","contact_phone":""},"source":"","pagination":{"sort":null,"start":0,"total":9,"limit":1000000},"state":"complete","tags":"","published":"2014-08-13T11:57:57-04:00","id":109832}