{"type":"FeatureCollection","data_type":"Dataset","url_type":null,"permissions":[{"permissions":{"download":true,"view":true},"group_id":"everyone"}],"classification":null,"title":"PWC HGs - Brown","count":11,"stream_id":109827,"contributor":{"url":"http://geocommons.com/users/24568","name":"srfr"},"data_attributes":null,"calculation_params":null,"icon_link":null,"link":"http://geocommons.com/overlays/109827.json","extent":[-1.4043,50.9053,-1.30139,50.9611],"geometry_types":null,"unique_name":null,"name":"PWC HGs - Brown","feature_count":11,"description":"","next_feature":null,"is_raster":false,"short_classification":"Y","stats":{"latitude":{"max":50.9611,"variance":0.000219346535563666,"mean":50.9236858181818,"stdev":0.0148103523105855,"min":50.9053,"median":50.9245},"longitude":{"max":-1.30139,"variance":0.00193879613409091,"mean":-1.36251390909091,"stdev":0.0440317627865489,"min":-1.4043,"median":-1.3964},"hg":{"max":4,"variance":0.0,"mean":4.0,"stdev":0.0,"min":4,"median":4}},"features":[{"properties":{"latitude":50.9231,"postcode":"SO17 1DL","longitude":-1.4021,"id":"a6nf8cj6pae9","hg":4},"type":"Feature","geometry":{"type":"Point","coordinates":[-1.4021,50.9231]}},{"properties":{"latitude":50.9245,"postcode":"SO17 1EX","longitude":-1.402,"id":"a6nf8cbh75rh","hg":4},"type":"Feature","geometry":{"type":"Point","coordinates":[-1.402,50.9245]}},{"properties":{"latitude":50.9249,"postcode":"SO17 1HR","longitude":-1.3964,"id":"a6nf8cepxjjm","hg":4},"type":"Feature","geometry":{"type":"Point","coordinates":[-1.3964,50.9249]}},{"properties":{"latitude":50.9249,"postcode":"SO17 1HR","longitude":-1.3964,"id":"a6nf8c631tsx","hg":4},"type":"Feature","geometry":{"type":"Point","coordinates":[-1.3964,50.9249]}},{"properties":{"latitude":50.9249,"postcode":"SO17 1HR","longitude":-1.3964,"id":"a6nf8cfepd6h","hg":4},"type":"Feature","geometry":{"type":"Point","coordinates":[-1.3964,50.9249]}},{"properties":{"latitude":50.9236,"postcode":"SO17 1UZ","longitude":-1.4043,"id":"a6nf8c4uefkn","hg":4},"type":"Feature","geometry":{"type":"Point","coordinates":[-1.4043,50.9236]}},{"properties":{"latitude":50.9053,"postcode":"SO19 8RU","longitude":-1.3409,"id":"a6nf8c4wq91w","hg":4},"type":"Feature","geometry":{"type":"Point","coordinates":[-1.3409,50.9053]}},{"properties":{"latitude":50.9296,"postcode":"SO30 3JU","longitude":-1.3291,"id":"a6nf8cf2tlc3","hg":4},"type":"Feature","geometry":{"type":"Point","coordinates":[-1.3291,50.9296]}},{"properties":{"latitude":50.910452,"postcode":"SO30 OJF","longitude":-1.302463,"id":"a6nf8cfwsga3","hg":4},"type":"Feature","geometry":{"type":"Point","coordinates":[-1.302463,50.910452]}},{"properties":{"latitude":50.908192,"postcode":"SO30 OLU","longitude":-1.30139,"id":"a6nf8cjyb2bb","hg":4},"type":"Feature","geometry":{"type":"Point","coordinates":[-1.30139,50.908192]}},{"properties":{"latitude":50.9611,"postcode":"SO50 8QH","longitude":-1.3162,"id":"a6nf8cfrt49r","hg":4},"type":"Feature","geometry":{"type":"Point","coordinates":[-1.3162,50.9611]}}],"is_temporal":false,"author":{"url":"","metadata":"","contact_name":"","contact_address":"","source":"","contact_phone":""},"source":"","pagination":{"sort":null,"start":0,"total":11,"limit":1000000},"state":"complete","tags":"","published":"2014-08-13T11:57:55-04:00","id":109827}