{"type":"FeatureCollection","data_type":"Dataset","url_type":null,"permissions":[{"permissions":{"download":true,"view":true},"group_id":"everyone"}],"classification":null,"title":"Sites - probable","count":39,"stream_id":118876,"contributor":{"url":"http://geocommons.com/users/11017","name":"trintoul"},"data_attributes":null,"calculation_params":null,"icon_link":null,"link":"http://geocommons.com/overlays/118876.json","extent":[-1.48892,53.3588,-1.13091,53.5753],"geometry_types":["point"],"unique_name":null,"name":"Sites - probable","feature_count":39,"description":"","next_feature":null,"is_raster":false,"short_classification":"Y","stats":{"lattitude":{"max":53.575349,"mean":53.4448082631579,"variance":0.00509182186544236,"stdev":0.0713570029180203,"median":53.427088,"min":53.358794},"longtitude":{"max":-1.130907,"mean":-1.39179892105263,"variance":0.0134378690623449,"stdev":0.115921823063412,"median":-1.447402,"min":-1.488921}},"features":[{"properties":{"lattitude":53.430718,"longtitude":-1.356033,"site flows":"864","postcode":"S65 1AA","sub-region":"South Yorkshire","id":"a65isk30r0hy","flows":"864"},"type":"Feature","geometry":{"type":"Point","coordinates":[-1.356033,53.430718]}},{"properties":{"lattitude":53.524408,"longtitude":-1.131744,"site flows":"330","postcode":"DN1 1NE","sub-region":"South Yorkshire","id":"a65isjum3lxp","flows":"991"},"type":"Feature","geometry":{"type":"Point","coordinates":[-1.131744,53.524408]}},{"properties":{"lattitude":53.493579,"longtitude":-1.269043,"site flows":"330","postcode":"S64 0HH","sub-region":"South Yorkshire","id":"a65isjr65ima","flows":"991"},"type":"Feature","geometry":{"type":"Point","coordinates":[-1.269043,53.493579]}},{"properties":{"lattitude":53.384864,"longtitude":-1.466928,"site flows":"1,052","postcode":"S3 8PQ","sub-region":"South Yorkshire","id":"a65isjufqzsm","flows":"1,052"},"type":"Feature","geometry":{"type":"Point","coordinates":[-1.466928,53.384864]}},{"properties":{"lattitude":53.528673,"longtitude":-1.470625,"site flows":"766","postcode":"S70 2TG","sub-region":"South Yorkshire","id":"a65isjyef46r","flows":"766"},"type":"Feature","geometry":{"type":"Point","coordinates":[-1.470625,53.528673]}},{"properties":{"lattitude":53.382643,"longtitude":-1.470685,"site flows":"859","postcode":"S1 2GN","sub-region":"South Yorkshire","id":"a65isjy0srp3","flows":"859"},"type":"Feature","geometry":{"type":"Point","coordinates":[-1.470685,53.382643]}},{"properties":{"lattitude":53.427088,"longtitude":-1.354733,"site flows":"716","postcode":"S60 2AF","sub-region":"South Yorkshire","id":"a65isk00d17q","flows":"716"},"type":"Feature","geometry":{"type":"Point","coordinates":[-1.354733,53.427088]}},{"properties":{"lattitude":53.554759,"longtitude":-1.485793,"site flows":"753","postcode":"S70 2JT","sub-region":"South Yorkshire","id":"a65isk1wb8y2","flows":"753"},"type":"Feature","geometry":{"type":"Point","coordinates":[-1.485793,53.554759]}},{"properties":{"lattitude":53.384864,"longtitude":-1.466928,"site flows":"716","postcode":"S3 8PQ","sub-region":"South Yorkshire","id":"a65isk076qwo","flows":"1,431"},"type":"Feature","geometry":{"type":"Point","coordinates":[-1.466928,53.384864]}},{"properties":{"lattitude":53.377661,"longtitude":-1.470265,"site flows":"716","postcode":"S1 4SL","sub-region":"South Yorkshire","id":"a65isjx96tdd","flows":"1,431"},"type":"Feature","geometry":{"type":"Point","coordinates":[-1.470265,53.377661]}},{"properties":{"lattitude":53.521303,"longtitude":-1.132396,"site flows":"1,339","postcode":"DN1 3XT","sub-region":"South Yorkshire","id":"a65isk13ryd7","flows":"1,339"},"type":"Feature","geometry":{"type":"Point","coordinates":[-1.132396,53.521303]}},{"properties":{"lattitude":53.429275,"longtitude":-1.356852,"site flows":"488","postcode":"S60 2HG","sub-region":"South Yorkshire","id":"a65isjvcnzkg","flows":"975"},"type":"Feature","geometry":{"type":"Point","coordinates":[-1.356852,53.429275]}},{"properties":{"lattitude":53.430718,"longtitude":-1.356033,"site flows":"488","postcode":"S65 1AA","sub-region":"South Yorkshire","id":"a65isk1ssij0","flows":"975"},"type":"Feature","geometry":{"type":"Point","coordinates":[-1.356033,53.430718]}},{"properties":{"lattitude":53.528673,"longtitude":-1.470625,"site flows":"1,124","postcode":"S70 2TG","sub-region":"South Yorkshire","id":"a65isk3rnsv9","flows":"1,124"},"type":"Feature","geometry":{"type":"Point","coordinates":[-1.470625,53.528673]}},{"properties":{"lattitude":53.553235,"longtitude":-1.488921,"site flows":"1,247","postcode":"S70 2NZ","sub-region":"South Yorkshire","id":"a65isk013nwc","flows":"1,247"},"type":"Feature","geometry":{"type":"Point","coordinates":[-1.488921,53.553235]}},{"properties":{"lattitude":53.43556,"longtitude":-1.355613,"site flows":"1,034","postcode":"S60 1RU","sub-region":"South Yorkshire","id":"a65isjxaavqj","flows":"1,034"},"type":"Feature","geometry":{"type":"Point","coordinates":[-1.355613,53.43556]}},{"properties":{"lattitude":53.384836,"longtitude":-1.472657,"site flows":"1,636","postcode":"S3 7AQ","sub-region":"South Yorkshire","id":"a65isjx69p1m","flows":"1,636"},"type":"Feature","geometry":{"type":"Point","coordinates":[-1.472657,53.384836]}},{"properties":{"lattitude":53.384836,"longtitude":-1.472657,"site flows":"318","postcode":"S3 7AT","sub-region":"South Yorkshire","id":"a65isjr5crpy","flows":"636"},"type":"Feature","geometry":{"type":"Point","coordinates":[-1.472657,53.384836]}},{"properties":{"lattitude":53.381175,"longtitude":-1.474175,"site flows":"318","postcode":"S1 4EQ","sub-region":"South Yorkshire","id":"a65isk5jyq4a","flows":"636"},"type":"Feature","geometry":{"type":"Point","coordinates":[-1.474175,53.381175]}},{"properties":{"lattitude":53.525355,"longtitude":-1.13091,"site flows":"984","postcode":"DN1 1LP","sub-region":"South Yorkshire","id":"a65isjuwez60","flows":"984"},"type":"Feature","geometry":{"type":"Point","coordinates":[-1.13091,53.525355]}},{"properties":{"lattitude":53.381089,"longtitude":-1.481107,"site flows":"64","postcode":"S1 4DP","sub-region":"South Yorkshire","id":"a65isk3793gs","flows":"191"},"type":"Feature","geometry":{"type":"Point","coordinates":[-1.481107,53.381089]}},{"properties":{"lattitude":53.390249,"longtitude":-1.471132,"site flows":"64","postcode":"S3 8EN","sub-region":"South Yorkshire","id":"a65isk43k4ol","flows":"191"},"type":"Feature","geometry":{"type":"Point","coordinates":[-1.471132,53.390249]}},{"properties":{"lattitude":53.358794,"longtitude":-1.472197,"site flows":"64","postcode":"S8 9TF","sub-region":"South Yorkshire","id":"a65isk6a67ph","flows":"191"},"type":"Feature","geometry":{"type":"Point","coordinates":[-1.472197,53.358794]}},{"properties":{"lattitude":53.427088,"longtitude":-1.354733,"site flows":"96","postcode":"S60 2AF","sub-region":"South Yorkshire","id":"a65isjt4sbry","flows":"96"},"type":"Feature","geometry":{"type":"Point","coordinates":[-1.354733,53.427088]}},{"properties":{"lattitude":53.575349,"longtitude":-1.382517,"site flows":"96","postcode":"S72 7BB","sub-region":"South Yorkshire","id":"a65isk2nlj8j","flows":"96"},"type":"Feature","geometry":{"type":"Point","coordinates":[-1.382517,53.575349]}},{"properties":{"lattitude":53.575349,"longtitude":-1.382517,"site flows":"318","postcode":"S72 7BB","sub-region":"South Yorkshire","id":"a65isjyevfog","flows":"318"},"type":"Feature","geometry":{"type":"Point","coordinates":[-1.382517,53.575349]}},{"properties":{"lattitude":53.413869,"longtitude":-1.405544,"site flows":"527","postcode":"S9 1EA","sub-region":"South Yorkshire","id":"a65isk0mwopz","flows":"527"},"type":"Feature","geometry":{"type":"Point","coordinates":[-1.405544,53.413869]}},{"properties":{"lattitude":53.367194,"longtitude":-1.447402,"site flows":"48","postcode":"S2 2PL","sub-region":"South Yorkshire","id":"a65isk53q8ez","flows":"48"},"type":"Feature","geometry":{"type":"Point","coordinates":[-1.447402,53.367194]}},{"properties":{"lattitude":53.375151,"longtitude":-1.477737,"site flows":"66","postcode":"S3 7UW","sub-region":"South Yorkshire","id":"a65isk74sbvr","flows":"66"},"type":"Feature","geometry":{"type":"Point","coordinates":[-1.477737,53.375151]}},{"properties":{"lattitude":53.429495,"longtitude":-1.354215,"site flows":"57","postcode":"S60 2LR","sub-region":"South Yorkshire","id":"a65isk4bm0s7","flows":"57"},"type":"Feature","geometry":{"type":"Point","coordinates":[-1.354215,53.429495]}},{"properties":{"lattitude":53.553253,"longtitude":-1.47834,"site flows":"69","postcode":"S70 2JN","sub-region":"South Yorkshire","id":"a65isk3ix3fc","flows":"69"},"type":"Feature","geometry":{"type":"Point","coordinates":[-1.47834,53.553253]}},{"properties":{"lattitude":53.52407,"longtitude":-1.130907,"site flows":"35","postcode":"DN1 1HT","sub-region":"South Yorkshire","id":"a65isk44r1of","flows":"71"},"type":"Feature","geometry":{"type":"Point","coordinates":[-1.130907,53.52407]}},{"properties":{"lattitude":53.525355,"longtitude":-1.13091,"site flows":"35","postcode":"DN1 1LP","sub-region":"South Yorkshire","id":"a65isk711hoh","flows":"71"},"type":"Feature","geometry":{"type":"Point","coordinates":[-1.13091,53.525355]}},{"properties":{"lattitude":53.390249,"longtitude":-1.471132,"site flows":"78","postcode":"S3 8EN","sub-region":"South Yorkshire","id":"a65isjrl97nm","flows":"235"},"type":"Feature","geometry":{"type":"Point","coordinates":[-1.471132,53.390249]}},{"properties":{"lattitude":53.394127,"longtitude":-1.446136,"site flows":"78","postcode":"s4 7uq","sub-region":"South Yorkshire","id":"a65isk5rbcz8","flows":"235"},"type":"Feature","geometry":{"type":"Point","coordinates":[-1.446136,53.394127]}},{"properties":{"lattitude":53.396934,"longtitude":-1.420142,"site flows":"78","postcode":"S9 5DL","sub-region":"South Yorkshire","id":"a65isk22awhb","flows":"235"},"type":"Feature","geometry":{"type":"Point","coordinates":[-1.420142,53.396934]}},{"properties":{"lattitude":53.384759,"longtitude":-1.463412,"site flows":"39","postcode":"S1 2AJ","sub-region":"South Yorkshire","id":"a65isk0maru4","flows":"39"},"type":"Feature","geometry":{"type":"Point","coordinates":[-1.463412,53.384759]}},{"properties":{"lattitude":53.376117,"longtitude":-1.464663,"site flows":"-","postcode":"S1 4SE","sub-region":"South Yorkshire","id":"a65isk38bta8","flows":"-"},"type":"Feature","geometry":{"type":"Point","coordinates":[-1.464663,53.376117]}},{"properties":{"lattitude":null,"longtitude":null,"site flows":null,"postcode":null,"sub-region":null,"id":"a65isjzl7eyu","flows":null},"type":"Feature","geometry":null}],"is_temporal":false,"author":{"url":"","metadata":"","contact_name":"","contact_address":"","source":"","contact_phone":""},"source":"","pagination":{"sort":null,"start":0,"total":39,"limit":1000000},"state":"complete","tags":"","published":"2011-05-31T16:00:00Z","id":118876}