{"type":"FeatureCollection","data_type":"Dataset","url_type":null,"permissions":[{"permissions":{"download":true,"view":true},"group_id":"everyone"}],"classification":null,"title":"pincode+cts employee data(more than 45)","count":20,"stream_id":120151,"contributor":{"url":"http://geocommons.com/users/26907","name":"rangarohini"},"data_attributes":null,"calculation_params":null,"icon_link":null,"link":"http://geocommons.com/overlays/120151.json","extent":[80.1386,12.8675,80.2757,13.0991],"geometry_types":["point"],"unique_name":null,"name":"pincode+cts employee data(more than 45)","feature_count":20,"description":"","next_feature":null,"is_raster":false,"short_classification":"Y","stats":{"latitude":{"max":13.099083,"mean":12.99974748,"variance":0.0030576531549238,"stdev":0.0552960500842854,"min":12.867452,"median":13.002091},"pincode":{"max":600119,"mean":600063.3,"variance":1215.8,"stdev":34.8683237337271,"min":600014,"median":600073},"number of employees (for all facilities)":{"max":454,"mean":128.2,"variance":13818.4842105263,"stdev":117.552048942272,"min":46,"median":83},"longitude":{"max":80.275726,"mean":80.2173,"variance":0.00142137380221059,"stdev":0.037701111418771,"min":80.138612,"median":80.223713}},"features":[{"properties":{"latitude":12.98181,"pincode":600042,"number of employees (for all facilities)":454,"longitude":80.223713,"id":"a64wcynhjmu1","location":"Velacheri"},"type":"Feature","geometry":{"type":"Point","coordinates":[80.223713,12.98181]}},{"properties":{"latitude":12.983733,"pincode":600041,"number of employees (for all facilities)":417,"longitude":80.263367,"id":"a64wcykhl9tm","location":"Tiruvanmiyur"},"type":"Feature","geometry":{"type":"Point","coordinates":[80.263367,12.983733]}},{"properties":{"latitude":12.961067,"pincode":600096,"number of employees (for all facilities)":255,"longitude":80.239699,"id":"a64wcyktnavh","location":"Perungudi"},"type":"Feature","geometry":{"type":"Point","coordinates":[80.239699,12.961067]}},{"properties":{"latitude":12.938733,"pincode":600100,"number of employees (for all facilities)":162,"longitude":80.21543,"id":"a64wcyxs7g1a","location":"Pallikaranai"},"type":"Feature","geometry":{"type":"Point","coordinates":[80.21543,12.938733]}},{"properties":{"latitude":12.984486,"pincode":600091,"number of employees (for all facilities)":154,"longitude":80.19556,"id":"a64wcytf776r","location":"Madipakkam"},"type":"Feature","geometry":{"type":"Point","coordinates":[80.19556,12.984486]}},{"properties":{"latitude":12.917777,"pincode":600073,"number of employees (for all facilities)":145,"longitude":80.138612,"id":"a64wcz0ei4b4","location":"Selaiyur"},"type":"Feature","geometry":{"type":"Point","coordinates":[80.138612,12.917777]}},{"properties":{"latitude":13.002091,"pincode":600020,"number of employees (for all facilities)":124,"longitude":80.256329,"id":"a64wcymm6x6a","location":"Adyar"},"type":"Feature","geometry":{"type":"Point","coordinates":[80.256329,13.002091]}},{"properties":{"latitude":12.992348,"pincode":600088,"number of employees (for all facilities)":105,"longitude":80.20144,"id":"a64wcynfd2wb","location":"Adambakkam"},"type":"Feature","geometry":{"type":"Point","coordinates":[80.20144,12.992348]}},{"properties":{"latitude":13.036669,"pincode":600097,"number of employees (for all facilities)":90,"longitude":80.198479,"id":"a64wcynkgi36","location":"Ekaduthangal"},"type":"Feature","geometry":{"type":"Point","coordinates":[80.198479,13.036669]}},{"properties":{"latitude":12.951866,"pincode":600044,"number of employees (for all facilities)":83,"longitude":80.140715,"id":"a64wcytuz9ii","location":"Chrompet"},"type":"Feature","geometry":{"type":"Point","coordinates":[80.140715,12.951866]}},{"properties":{"latitude":13.038425,"pincode":600033,"number of employees (for all facilities)":72,"longitude":80.224099,"id":"a64wcyqajvk5","location":"West Mambalam"},"type":"Feature","geometry":{"type":"Point","coordinates":[80.224099,13.038425]}},{"properties":{"latitude":12.975871,"pincode":600061,"number of employees (for all facilities)":67,"longitude":80.184402,"id":"a64wcysanrh6","location":"Nanganallur"},"type":"Feature","geometry":{"type":"Point","coordinates":[80.184402,12.975871]}},{"properties":{"latitude":13.043777,"pincode":600017,"number of employees (for all facilities)":64,"longitude":80.2356,"id":"a64wcylpw9kb","location":"Thygaraya Nagar"},"type":"Feature","geometry":{"type":"Point","coordinates":[80.2356,13.043777]}},{"properties":{"latitude":12.867452,"pincode":600119,"number of employees (for all facilities)":64,"longitude":80.244741,"id":"a64wcyloeb9i","location":"Uthandi"},"type":"Feature","geometry":{"type":"Point","coordinates":[80.244741,12.867452]}},{"properties":{"latitude":13.039763,"pincode":600083,"number of employees (for all facilities)":60,"longitude":80.211096,"id":"a64wcyqvyyz7","location":"Ashoknagar"},"type":"Feature","geometry":{"type":"Point","coordinates":[80.211096,13.039763]}},{"properties":{"latitude":13.0483766,"pincode":600117,"number of employees (for all facilities)":56,"longitude":80.17753,"id":"a64wcyoslwrf","location":"Keelkattalai"},"type":"Feature","geometry":{"type":"Point","coordinates":[80.17753,13.0483766]}},{"properties":{"latitude":13.026802,"pincode":600028,"number of employees (for all facilities)":53,"longitude":80.275726,"id":"a64wcyq4o9me","location":"Foreshore Estate"},"type":"Feature","geometry":{"type":"Point","coordinates":[80.275726,13.026802]}},{"properties":{"latitude":13.054772,"pincode":600014,"number of employees (for all facilities)":47,"longitude":80.263968,"id":"a64wcyn3yukf","location":"Royapettah"},"type":"Feature","geometry":{"type":"Point","coordinates":[80.263968,13.054772]}},{"properties":{"latitude":13.050048,"pincode":600024,"number of employees (for all facilities)":46,"longitude":80.223713,"id":"a64wcyoausmz","location":"Kodambakkam"},"type":"Feature","geometry":{"type":"Point","coordinates":[80.223713,13.050048]}},{"properties":{"latitude":13.099083,"pincode":600078,"number of employees (for all facilities)":46,"longitude":80.231781,"id":"a64wcyqft7tm","location":"Kalaignar Karunanidhi nagar"},"type":"Feature","geometry":{"type":"Point","coordinates":[80.231781,13.099083]}}],"is_temporal":false,"author":{"url":null,"metadata":null,"contact_name":null,"contact_address":null,"source":null,"contact_phone":null},"source":null,"pagination":{"sort":null,"start":0,"total":20,"limit":1000000},"state":"complete","tags":"","published":"2014-08-12T21:11:19-04:00","id":120151}