{"type":"FeatureCollection","data_type":"Dataset","url_type":null,"permissions":[{"permissions":{"download":true,"view":true},"group_id":"everyone"}],"classification":null,"title":"Geoloc salaries Massy et Ulis","count":103,"stream_id":128292,"contributor":{"url":"http://geocommons.com/users/27193","name":"WPS France"},"data_attributes":null,"calculation_params":null,"icon_link":null,"link":"http://geocommons.com/overlays/128292.json","extent":[0.995607,47.3984,4.62587,49.0309],"geometry_types":["point"],"unique_name":null,"name":"Geoloc salaries Massy et Ulis","feature_count":103,"description":"","next_feature":null,"is_raster":false,"short_classification":"Y","stats":{"latitude":{"max":49.03089,"mean":48.7186831165049,"variance":0.0412772334567117,"stdev":0.203167993189655,"min":47.398384,"median":48.752471},"nombre":{"max":10,"mean":1.73529411764706,"variance":2.39458357600466,"stdev":1.54744420771951,"min":1,"median":1},"code_postal":{"max":94800,"mean":85926.0291262136,"variance":100961272.146202,"stdev":10047.9486536408,"min":37400,"median":91310},"longitude":{"max":4.625874,"mean":2.2635317184466,"variance":0.111025534810361,"stdev":0.333204944156537,"min":0.995607,"median":2.269163}},"features":[{"properties":{"latitude":47.398384,"nombre":1,"code_postal":37400,"longitude":0.995607,"id":"a65u3a4gyfqo"},"type":"Feature","geometry":{"type":"Point","coordinates":[0.995607,47.398384]}},{"properties":{"latitude":47.821984,"nombre":1,"code_postal":45590,"longitude":1.967182,"id":"a65u3acbp1wy"},"type":"Feature","geometry":{"type":"Point","coordinates":[1.967182,47.821984]}},{"properties":{"latitude":49.014523,"nombre":1,"code_postal":51460,"longitude":4.625874,"id":"a65u3a3xsh9c"},"type":"Feature","geometry":{"type":"Point","coordinates":[4.625874,49.014523]}},{"properties":{"latitude":48.864695,"nombre":1,"code_postal":75001,"longitude":2.331069,"id":"a65u3acw7286"},"type":"Feature","geometry":{"type":"Point","coordinates":[2.331069,48.864695]}},{"properties":{"latitude":48.867909,"nombre":1,"code_postal":75002,"longitude":2.343947,"id":"a65u3a1woisq"},"type":"Feature","geometry":{"type":"Point","coordinates":[2.343947,48.867909]}},{"properties":{"latitude":48.854107,"nombre":1,"code_postal":75004,"longitude":2.35832,"id":"a65u3a5kj6hn"},"type":"Feature","geometry":{"type":"Point","coordinates":[2.35832,48.854107]}},{"properties":{"latitude":48.859424,"nombre":1,"code_postal":75011,"longitude":2.380929,"id":"a65u3a32dshu"},"type":"Feature","geometry":{"type":"Point","coordinates":[2.380929,48.859424]}},{"properties":{"latitude":48.83073,"nombre":1,"code_postal":75012,"longitude":2.426248,"id":"a65u3a9axxoz"},"type":"Feature","geometry":{"type":"Point","coordinates":[2.426248,48.83073]}},{"properties":{"latitude":48.832029,"nombre":4,"code_postal":75013,"longitude":2.359471,"id":"a65u3a60wjcg"},"type":"Feature","geometry":{"type":"Point","coordinates":[2.359471,48.832029]}},{"properties":{"latitude":48.832707,"nombre":2,"code_postal":75014,"longitude":2.325654,"id":"a65u3a06kz6j"},"type":"Feature","geometry":{"type":"Point","coordinates":[2.325654,48.832707]}},{"properties":{"latitude":48.843384,"nombre":2,"code_postal":75015,"longitude":2.292523,"id":"a65u3aa7oa17"},"type":"Feature","geometry":{"type":"Point","coordinates":[2.292523,48.843384]}},{"properties":{"latitude":48.854398,"nombre":1,"code_postal":75016,"longitude":2.249179,"id":"a65u3a9l125f"},"type":"Feature","geometry":{"type":"Point","coordinates":[2.249179,48.854398]}},{"properties":{"latitude":48.860892,"nombre":1,"code_postal":75020,"longitude":2.40685,"id":"a65u3a1jyyxs"},"type":"Feature","geometry":{"type":"Point","coordinates":[2.40685,48.860892]}},{"properties":{"latitude":49.03089,"nombre":null,"code_postal":77230,"longitude":2.676544,"id":"a65u3a66gxt6"},"type":"Feature","geometry":{"type":"Point","coordinates":[2.676544,49.03089]}},{"properties":{"latitude":48.881346,"nombre":1,"code_postal":77400,"longitude":2.695398,"id":"a65u3adwl7ne"},"type":"Feature","geometry":{"type":"Point","coordinates":[2.695398,48.881346]}},{"properties":{"latitude":48.315465,"nombre":1,"code_postal":77760,"longitude":2.56628,"id":"a65u3a9gd13r"},"type":"Feature","geometry":{"type":"Point","coordinates":[2.56628,48.315465]}},{"properties":{"latitude":48.472614,"nombre":1,"code_postal":77930,"longitude":2.535238,"id":"a65u3a34mwxw"},"type":"Feature","geometry":{"type":"Point","coordinates":[2.535238,48.472614]}},{"properties":{"latitude":48.741995,"nombre":1,"code_postal":78113,"longitude":1.656818,"id":"a65u3a2vqp5s"},"type":"Feature","geometry":{"type":"Point","coordinates":[1.656818,48.741995]}},{"properties":{"latitude":48.738112,"nombre":1,"code_postal":78114,"longitude":2.072439,"id":"a65u3a1dl5zo"},"type":"Feature","geometry":{"type":"Point","coordinates":[2.072439,48.738112]}},{"properties":{"latitude":48.60665,"nombre":1,"code_postal":78120,"longitude":1.880321,"id":"a65u3a5ntikf"},"type":"Feature","geometry":{"type":"Point","coordinates":[1.880321,48.60665]}},{"properties":{"latitude":48.650445,"nombre":2,"code_postal":78125,"longitude":1.706944,"id":"a65u3a10jx3o"},"type":"Feature","geometry":{"type":"Point","coordinates":[1.706944,48.650445]}},{"properties":{"latitude":48.78449,"nombre":1,"code_postal":78140,"longitude":2.19871,"id":"a65u3a820eh5"},"type":"Feature","geometry":{"type":"Point","coordinates":[2.19871,48.78449]}},{"properties":{"latitude":48.837266,"nombre":1,"code_postal":78150,"longitude":2.110662,"id":"a65u3a0s6cdg"},"type":"Feature","geometry":{"type":"Point","coordinates":[2.110662,48.837266]}},{"properties":{"latitude":48.777817,"nombre":4,"code_postal":78180,"longitude":2.030654,"id":"a65u3aetbwvi"},"type":"Feature","geometry":{"type":"Point","coordinates":[2.030654,48.777817]}},{"properties":{"latitude":48.802867,"nombre":1,"code_postal":78220,"longitude":2.169271,"id":"a65u3a4sx55m"},"type":"Feature","geometry":{"type":"Point","coordinates":[2.169271,48.802867]}},{"properties":{"latitude":49.016324,"nombre":1,"code_postal":78270,"longitude":1.507473,"id":"a65u3a9k8rjk"},"type":"Feature","geometry":{"type":"Point","coordinates":[1.507473,49.016324]}},{"properties":{"latitude":48.771934,"nombre":2,"code_postal":78280,"longitude":2.080436,"id":"a65u3a43ifhy"},"type":"Feature","geometry":{"type":"Point","coordinates":[2.080436,48.771934]}},{"properties":{"latitude":48.739697,"nombre":1,"code_postal":78320,"longitude":1.950731,"id":"a65u3a1rzrha"},"type":"Feature","geometry":{"type":"Point","coordinates":[1.950731,48.739697]}},{"properties":{"latitude":48.821236,"nombre":1,"code_postal":78340,"longitude":1.986451,"id":"a65u3a7t5tju"},"type":"Feature","geometry":{"type":"Point","coordinates":[1.986451,48.821236]}},{"properties":{"latitude":48.765145,"nombre":1,"code_postal":78350,"longitude":2.163606,"id":"a65u3a1gil8g"},"type":"Feature","geometry":{"type":"Point","coordinates":[2.163606,48.765145]}},{"properties":{"latitude":48.698246,"nombre":1,"code_postal":78460,"longitude":2.03639,"id":"a65u3ae778tr"},"type":"Feature","geometry":{"type":"Point","coordinates":[2.03639,48.698246]}},{"properties":{"latitude":48.707989,"nombre":1,"code_postal":78470,"longitude":2.069864,"id":"a65u3a7l05bc"},"type":"Feature","geometry":{"type":"Point","coordinates":[2.069864,48.707989]}},{"properties":{"latitude":48.974262,"nombre":1,"code_postal":78711,"longitude":1.709304,"id":"a65u3a4nf6vp"},"type":"Feature","geometry":{"type":"Point","coordinates":[1.709304,48.974262]}},{"properties":{"latitude":48.576675,"nombre":2,"code_postal":78730,"longitude":1.955509,"id":"a65u3a60sln4"},"type":"Feature","geometry":{"type":"Point","coordinates":[1.955509,48.576675]}},{"properties":{"latitude":48.633623,"nombre":3,"code_postal":78830,"longitude":2.00429,"id":"a65u3abkrb3t"},"type":"Feature","geometry":{"type":"Point","coordinates":[2.00429,48.633623]}},{"properties":{"latitude":48.759309,"nombre":3,"code_postal":78960,"longitude":2.0486,"id":"a65u3ablcgqz"},"type":"Feature","geometry":{"type":"Point","coordinates":[2.0486,48.759309]}},{"properties":{"latitude":48.620048,"nombre":2,"code_postal":91080,"longitude":2.408652,"id":"a65u3ac8inm3"},"type":"Feature","geometry":{"type":"Point","coordinates":[2.408652,48.620048]}},{"properties":{"latitude":48.599919,"nombre":2,"code_postal":91100,"longitude":2.461939,"id":"a65u3ac936br"},"type":"Feature","geometry":{"type":"Point","coordinates":[2.461939,48.599919]}},{"properties":{"latitude":48.713749,"nombre":3,"code_postal":91120,"longitude":2.226605,"id":"a65u3a3ihdvv"},"type":"Feature","geometry":{"type":"Point","coordinates":[2.226605,48.713749]}},{"properties":{"latitude":48.649883,"nombre":1,"code_postal":91130,"longitude":2.411141,"id":"a65u3a373xjy"},"type":"Feature","geometry":{"type":"Point","coordinates":[2.411141,48.649883]}},{"properties":{"latitude":48.688938,"nombre":4,"code_postal":91140,"longitude":2.229867,"id":"a65u3a1av9p6"},"type":"Feature","geometry":{"type":"Point","coordinates":[2.229867,48.688938]}},{"properties":{"latitude":48.445737,"nombre":1,"code_postal":91150,"longitude":2.177925,"id":"a65u3a433jbd"},"type":"Feature","geometry":{"type":"Point","coordinates":[2.177925,48.445737]}},{"properties":{"latitude":48.693827,"nombre":1,"code_postal":91160,"longitude":2.281179,"id":"a65u3a423bo5"},"type":"Feature","geometry":{"type":"Point","coordinates":[2.281179,48.693827]}},{"properties":{"latitude":48.600356,"nombre":1,"code_postal":91180,"longitude":2.265058,"id":"a65u3a5orzjl"},"type":"Feature","geometry":{"type":"Point","coordinates":[2.265058,48.600356]}},{"properties":{"latitude":48.717164,"nombre":10,"code_postal":91190,"longitude":2.126513,"id":"a65u3a2rk60k"},"type":"Feature","geometry":{"type":"Point","coordinates":[2.126513,48.717164]}},{"properties":{"latitude":48.607751,"nombre":4,"code_postal":91220,"longitude":2.312078,"id":"a65u3ac79oi7"},"type":"Feature","geometry":{"type":"Point","coordinates":[2.312078,48.607751]}},{"properties":{"latitude":48.631564,"nombre":3,"code_postal":91240,"longitude":2.309175,"id":"a65u3af2qlc2"},"type":"Feature","geometry":{"type":"Point","coordinates":[2.309175,48.631564]}},{"properties":{"latitude":48.630027,"nombre":1,"code_postal":91250,"longitude":2.499332,"id":"a65u3ac51ko1"},"type":"Feature","geometry":{"type":"Point","coordinates":[2.499332,48.630027]}},{"properties":{"latitude":48.607337,"nombre":1,"code_postal":91280,"longitude":2.519288,"id":"a65u3a90h3s2"},"type":"Feature","geometry":{"type":"Point","coordinates":[2.519288,48.607337]}},{"properties":{"latitude":48.582189,"nombre":3,"code_postal":91290,"longitude":2.260594,"id":"a65u3ag8zpfc"},"type":"Feature","geometry":{"type":"Point","coordinates":[2.260594,48.582189]}},{"properties":{"latitude":48.722696,"nombre":3,"code_postal":91300,"longitude":2.28291,"id":"a65u3a1lxmjg"},"type":"Feature","geometry":{"type":"Point","coordinates":[2.28291,48.722696]}},{"properties":{"latitude":48.628518,"nombre":1,"code_postal":91310,"longitude":2.269163,"id":"a65u3aey52n8"},"type":"Feature","geometry":{"type":"Point","coordinates":[2.269163,48.628518]}},{"properties":{"latitude":48.718863,"nombre":1,"code_postal":91330,"longitude":2.495756,"id":"a65u3afjjb5n"},"type":"Feature","geometry":{"type":"Point","coordinates":[2.495756,48.718863]}},{"properties":{"latitude":48.67154,"nombre":1,"code_postal":91360,"longitude":2.312436,"id":"a65u3a9i9ukk"},"type":"Feature","geometry":{"type":"Point","coordinates":[2.312436,48.67154]}},{"properties":{"latitude":48.753603,"nombre":3,"code_postal":91370,"longitude":2.251754,"id":"a65u3ad3ppxv"},"type":"Feature","geometry":{"type":"Point","coordinates":[2.251754,48.753603]}},{"properties":{"latitude":48.709898,"nombre":1,"code_postal":91380,"longitude":2.312951,"id":"a65u3a4xxwwa"},"type":"Feature","geometry":{"type":"Point","coordinates":[2.312951,48.709898]}},{"properties":{"latitude":48.658161,"nombre":1,"code_postal":91390,"longitude":2.353292,"id":"a65u3ab9ilim"},"type":"Feature","geometry":{"type":"Point","coordinates":[2.353292,48.658161]}},{"properties":{"latitude":48.716178,"nombre":10,"code_postal":91400,"longitude":2.181759,"id":"a65u3ag5ouxl"},"type":"Feature","geometry":{"type":"Point","coordinates":[2.181759,48.716178]}},{"properties":{"latitude":48.488988,"nombre":1,"code_postal":91410,"longitude":1.962318,"id":"a65u3a4usp2t"},"type":"Feature","geometry":{"type":"Point","coordinates":[1.962318,48.488988]}},{"properties":{"latitude":48.736623,"nombre":1,"code_postal":91430,"longitude":2.214074,"id":"a65u3afp44ns"},"type":"Feature","geometry":{"type":"Point","coordinates":[2.214074,48.736623]}},{"properties":{"latitude":48.692394,"nombre":2,"code_postal":91440,"longitude":2.155194,"id":"a65u3a3jdzc9"},"type":"Feature","geometry":{"type":"Point","coordinates":[2.155194,48.692394]}},{"properties":{"latitude":48.644173,"nombre":1,"code_postal":91450,"longitude":2.471724,"id":"a65u3afo5aw9"},"type":"Feature","geometry":{"type":"Point","coordinates":[2.471724,48.644173]}},{"properties":{"latitude":48.648919,"nombre":6,"code_postal":91460,"longitude":2.204719,"id":"a65u3a3ioaqy"},"type":"Feature","geometry":{"type":"Point","coordinates":[2.204719,48.648919]}},{"properties":{"latitude":48.634792,"nombre":4,"code_postal":91470,"longitude":2.070866,"id":"a65u3a4ncqe5"},"type":"Feature","geometry":{"type":"Point","coordinates":[2.070866,48.634792]}},{"properties":{"latitude":48.551194,"nombre":2,"code_postal":91530,"longitude":2.108488,"id":"a65u3abb3ckq"},"type":"Feature","geometry":{"type":"Point","coordinates":[2.108488,48.551194]}},{"properties":{"latitude":48.56426,"nombre":2,"code_postal":91540,"longitude":2.443056,"id":"a65u3a995exm"},"type":"Feature","geometry":{"type":"Point","coordinates":[2.443056,48.56426]}},{"properties":{"latitude":48.720989,"nombre":1,"code_postal":91560,"longitude":2.464964,"id":"a65u3acls4u5"},"type":"Feature","geometry":{"type":"Point","coordinates":[2.464964,48.720989]}},{"properties":{"latitude":48.754169,"nombre":1,"code_postal":91570,"longitude":2.207122,"id":"a65u3a7elz79"},"type":"Feature","geometry":{"type":"Point","coordinates":[2.207122,48.754169]}},{"properties":{"latitude":48.477997,"nombre":1,"code_postal":91590,"longitude":2.313595,"id":"a65u3abkd74b"},"type":"Feature","geometry":{"type":"Point","coordinates":[2.313595,48.477997]}},{"properties":{"latitude":48.681061,"nombre":1,"code_postal":91600,"longitude":2.346511,"id":"a65u3ad0l5wu"},"type":"Feature","geometry":{"type":"Point","coordinates":[2.346511,48.681061]}},{"properties":{"latitude":48.662867,"nombre":1,"code_postal":91620,"longitude":2.244802,"id":"a65u3aexyhcl"},"type":"Feature","geometry":{"type":"Point","coordinates":[2.244802,48.662867]}},{"properties":{"latitude":48.631581,"nombre":4,"code_postal":91640,"longitude":2.136297,"id":"a65u3a7r32xj"},"type":"Feature","geometry":{"type":"Point","coordinates":[2.136297,48.631581]}},{"properties":{"latitude":48.605367,"nombre":2,"code_postal":91680,"longitude":2.184534,"id":"a65u3acb59ue"},"type":"Feature","geometry":{"type":"Point","coordinates":[2.184534,48.605367]}},{"properties":{"latitude":48.641904,"nombre":2,"code_postal":91700,"longitude":2.332506,"id":"a65u3a32g2os"},"type":"Feature","geometry":{"type":"Point","coordinates":[2.332506,48.641904]}},{"properties":{"latitude":48.700552,"nombre":1,"code_postal":91800,"longitude":2.508044,"id":"a65u3a2rejab"},"type":"Feature","geometry":{"type":"Point","coordinates":[2.508044,48.700552]}},{"properties":{"latitude":48.675808,"nombre":3,"code_postal":91940,"longitude":2.146082,"id":"a65u3a2etjui"},"type":"Feature","geometry":{"type":"Point","coordinates":[2.146082,48.675808]}},{"properties":{"latitude":48.896132,"nombre":1,"code_postal":92000,"longitude":2.207537,"id":"a65u3a3v4oln"},"type":"Feature","geometry":{"type":"Point","coordinates":[2.207537,48.896132]}},{"properties":{"latitude":48.905134,"nombre":1,"code_postal":92110,"longitude":2.306178,"id":"a65u3ad0zc7q"},"type":"Feature","geometry":{"type":"Point","coordinates":[2.306178,48.905134]}},{"properties":{"latitude":48.814842,"nombre":1,"code_postal":92120,"longitude":2.315705,"id":"a65u3a2oelwu"},"type":"Feature","geometry":{"type":"Point","coordinates":[2.315705,48.814842]}},{"properties":{"latitude":48.823036,"nombre":1,"code_postal":92130,"longitude":2.268755,"id":"a65u3aazz7go"},"type":"Feature","geometry":{"type":"Point","coordinates":[2.268755,48.823036]}},{"properties":{"latitude":48.793368,"nombre":1,"code_postal":92140,"longitude":2.255359,"id":"a65u3a907l47"},"type":"Feature","geometry":{"type":"Point","coordinates":[2.255359,48.793368]}},{"properties":{"latitude":48.752471,"nombre":1,"code_postal":92160,"longitude":2.296729,"id":"a65u3aeb1zxx"},"type":"Feature","geometry":{"type":"Point","coordinates":[2.296729,48.752471]}},{"properties":{"latitude":48.81504,"nombre":1,"code_postal":92240,"longitude":2.293346,"id":"a65u3acnak84"},"type":"Feature","geometry":{"type":"Point","coordinates":[2.293346,48.81504]}},{"properties":{"latitude":48.770633,"nombre":1,"code_postal":92290,"longitude":2.261624,"id":"a65u3a9g13ps"},"type":"Feature","geometry":{"type":"Point","coordinates":[2.261624,48.770633]}},{"properties":{"latitude":48.804893,"nombre":2,"code_postal":92320,"longitude":2.286909,"id":"a65u3aao626q"},"type":"Feature","geometry":{"type":"Point","coordinates":[2.286909,48.804893]}},{"properties":{"latitude":48.779137,"nombre":1,"code_postal":92340,"longitude":2.318408,"id":"a65u3aeikkou"},"type":"Feature","geometry":{"type":"Point","coordinates":[2.318408,48.779137]}},{"properties":{"latitude":48.780325,"nombre":1,"code_postal":92350,"longitude":2.262447,"id":"a65u3a85xqy2"},"type":"Feature","geometry":{"type":"Point","coordinates":[2.262447,48.780325]}},{"properties":{"latitude":48.807389,"nombre":1,"code_postal":92370,"longitude":2.19193,"id":"a65u3a5nlm91"},"type":"Feature","geometry":{"type":"Point","coordinates":[2.19193,48.807389]}},{"properties":{"latitude":48.901532,"nombre":2,"code_postal":92400,"longitude":2.255616,"id":"a65u3a72x0mx"},"type":"Feature","geometry":{"type":"Point","coordinates":[2.255616,48.901532]}},{"properties":{"latitude":48.822189,"nombre":1,"code_postal":92410,"longitude":2.181809,"id":"a65u3abqa0ib"},"type":"Feature","geometry":{"type":"Point","coordinates":[2.181809,48.822189]}},{"properties":{"latitude":48.87175,"nombre":4,"code_postal":92500,"longitude":2.176123,"id":"a65u3a566ffl"},"type":"Feature","geometry":{"type":"Point","coordinates":[2.176123,48.87175]}},{"properties":{"latitude":48.924659,"nombre":1,"code_postal":92700,"longitude":2.243342,"id":"a65u3a8rhavn"},"type":"Feature","geometry":{"type":"Point","coordinates":[2.243342,48.924659]}},{"properties":{"latitude":48.863981,"nombre":1,"code_postal":93100,"longitude":2.448492,"id":"a65u3a58llti"},"type":"Feature","geometry":{"type":"Point","coordinates":[2.448492,48.863981]}},{"properties":{"latitude":48.886522,"nombre":1,"code_postal":93250,"longitude":2.507529,"id":"a65u3aeps4pu"},"type":"Feature","geometry":{"type":"Point","coordinates":[2.507529,48.886522]}},{"properties":{"latitude":48.984194,"nombre":1,"code_postal":93290,"longitude":2.547255,"id":"a65u3a0aj4bt"},"type":"Feature","geometry":{"type":"Point","coordinates":[2.547255,48.984194]}},{"properties":{"latitude":48.798909,"nombre":1,"code_postal":94100,"longitude":2.480149,"id":"a65u3a76nt90"},"type":"Feature","geometry":{"type":"Point","coordinates":[2.480149,48.798909]}},{"properties":{"latitude":48.802471,"nombre":1,"code_postal":94140,"longitude":2.421441,"id":"a65u3a0tqmr1"},"type":"Feature","geometry":{"type":"Point","coordinates":[2.421441,48.802471]}},{"properties":{"latitude":48.779174,"nombre":1,"code_postal":94240,"longitude":2.334924,"id":"a65u3a6x9s7x"},"type":"Feature","geometry":{"type":"Point","coordinates":[2.334924,48.779174]}},{"properties":{"latitude":48.758828,"nombre":1,"code_postal":94260,"longitude":2.327979,"id":"a65u3acksfko"},"type":"Feature","geometry":{"type":"Point","coordinates":[2.327979,48.758828]}},{"properties":{"latitude":48.760732,"nombre":2,"code_postal":94320,"longitude":2.386851,"id":"a65u3a2ffbeh"},"type":"Feature","geometry":{"type":"Point","coordinates":[2.386851,48.760732]}},{"properties":{"latitude":48.821285,"nombre":1,"code_postal":94340,"longitude":2.473633,"id":"a65u3a8jme9a"},"type":"Feature","geometry":{"type":"Point","coordinates":[2.473633,48.821285]}},{"properties":{"latitude":48.793255,"nombre":1,"code_postal":94400,"longitude":2.398524,"id":"a65u3af313ub"},"type":"Feature","geometry":{"type":"Point","coordinates":[2.398524,48.793255]}},{"properties":{"latitude":48.791333,"nombre":1,"code_postal":94800,"longitude":2.356124,"id":"a65u3a38s5ri"},"type":"Feature","geometry":{"type":"Point","coordinates":[2.356124,48.791333]}}],"is_temporal":false,"author":{"url":"","metadata":"","contact_name":"","contact_address":"","source":"","contact_phone":""},"source":"","pagination":{"sort":null,"start":0,"total":103,"limit":1000000},"state":"complete","tags":"","published":"2014-08-13T10:22:12-04:00","id":128292}