{"type":"FeatureCollection","data_type":"Dataset","url_type":null,"permissions":[{"permissions":{"download":true,"view":true},"group_id":"everyone"}],"classification":null,"title":"Untitled","count":59,"stream_id":13062,"contributor":{"url":"http://geocommons.com/users/6870","name":"andypoole"},"data_attributes":null,"calculation_params":null,"icon_link":null,"link":"http://geocommons.com/overlays/13062.json","extent":[-3.18256,53.3223,-2.97185,53.4333],"geometry_types":["point"],"unique_name":null,"name":"Untitled","feature_count":59,"description":"","next_feature":null,"is_raster":false,"short_classification":"Y","stats":{"latitude":{"max":53.43328,"mean":53.3855095932203,"variance":0.000875467093245467,"stdev":0.0295882931789833,"min":53.322301,"median":53.3852},"cumulative":{"max":699.0,"mean":297.101694915254,"variance":17658.023962595,"stdev":132.883497706054,"min":0.0,"median":259.0},"weighted rate":{"max":442.0,"mean":248.661016949153,"variance":3620.81414377557,"stdev":60.1732012093055,"min":0.0,"median":239.0},"longitude":{"max":-2.971848,"mean":-3.06260308474576,"variance":0.00260021763300994,"stdev":0.0509923291585111,"min":-3.182558,"median":-3.04986}},"features":[{"properties":{"name":"(Heswall and) Pensby Surgery","latitude":53.345499,"cumulative":0.0,"postcode":"CH61 9NL","weighted rate":0.0,"longitude":-3.094663,"id":"a6moiz3g5nl4"},"type":"Feature","geometry":{"type":"Point","coordinates":[-3.094663,53.345499]}},{"properties":{"name":"Allport Surgery","latitude":53.322301,"cumulative":478.0,"postcode":"CH62 6EE","weighted rate":239.0,"longitude":-2.971848,"id":"a6moiywxadde"},"type":"Feature","geometry":{"type":"Point","coordinates":[-2.971848,53.322301]}},{"properties":{"name":"Blackheath Medical Centre","latitude":53.41221,"cumulative":224.0,"postcode":"CH46 1SG","weighted rate":224.0,"longitude":-3.10471,"id":"a6moiz0dxk9p"},"type":"Feature","geometry":{"type":"Point","coordinates":[-3.10471,53.41221]}},{"properties":{"name":"Cavendish Medical Centre","latitude":53.39796,"cumulative":259.0,"postcode":"CH41 8BU","weighted rate":259.0,"longitude":-3.04412,"id":"a6moiyzwc3s0"},"type":"Feature","geometry":{"type":"Point","coordinates":[-3.04412,53.39796]}},{"properties":{"name":"Central Park Medical Centre","latitude":53.41761,"cumulative":230.0,"postcode":"CH44 0AF","weighted rate":230.0,"longitude":-3.03806,"id":"a6moiz4xwqpb"},"type":"Feature","geometry":{"type":"Point","coordinates":[-3.03806,53.41761]}},{"properties":{"name":"Church Road Medical Centre","latitude":53.346233,"cumulative":251.0,"postcode":"CH63 3EB","weighted rate":251.0,"longitude":-3.004072,"id":"a6moiz3zxsjj"},"type":"Feature","geometry":{"type":"Point","coordinates":[-3.004072,53.346233]}},{"properties":{"name":"Civic Medical Centre","latitude":53.350333,"cumulative":234.0,"postcode":"CH63 7RX","weighted rate":234.0,"longitude":-3.004965,"id":"a6moiyvplv2n"},"type":"Feature","geometry":{"type":"Point","coordinates":[-3.004965,53.350333]}},{"properties":{"name":"Claughton Medical Centre","latitude":53.39678,"cumulative":260.0,"postcode":"CH41 0DD","weighted rate":260.0,"longitude":-3.05157,"id":"a6moiyy3fjyp"},"type":"Feature","geometry":{"type":"Point","coordinates":[-3.05157,53.39678]}},{"properties":{"name":"Commonfield Road Surgery","latitude":53.3702,"cumulative":321.0,"postcode":"CH49 7LP","weighted rate":321.0,"longitude":-3.08637,"id":"a6moiyumskzw"},"type":"Feature","geometry":{"type":"Point","coordinates":[-3.08637,53.3702]}},{"properties":{"name":"Devaney Medical Centre","latitude":53.3852,"cumulative":252.0,"postcode":"CH43 5RE","weighted rate":252.0,"longitude":-3.03756,"id":"a6moiz13cwae"},"type":"Feature","geometry":{"type":"Point","coordinates":[-3.03756,53.3852]}},{"properties":{"name":"Earlston Road Surgery","latitude":53.42861,"cumulative":155.0,"postcode":"CH45 5DX","weighted rate":155.0,"longitude":-3.04331,"id":"a6moiyvtjp5n"},"type":"Feature","geometry":{"type":"Point","coordinates":[-3.04331,53.42861]}},{"properties":{"name":"Eastham Group Practice","latitude":53.322301,"cumulative":478.0,"postcode":"CH62 6EE","weighted rate":239.0,"longitude":-2.971848,"id":"a6moiz3k0kt3"},"type":"Feature","geometry":{"type":"Point","coordinates":[-2.971848,53.322301]}},{"properties":{"name":"Egremont Medical Centre","latitude":53.41901,"cumulative":205.0,"postcode":"CH44 8AT","weighted rate":205.0,"longitude":-3.02763,"id":"a6moiz7jxnd7"},"type":"Feature","geometry":{"type":"Point","coordinates":[-3.02763,53.41901]}},{"properties":{"name":"Fender Way Health Centre","latitude":53.38904,"cumulative":323.0,"postcode":"CH43 9QS","weighted rate":323.0,"longitude":-3.08225,"id":"a6moiyvxvylj"},"type":"Feature","geometry":{"type":"Point","coordinates":[-3.08225,53.38904]}},{"properties":{"name":"Field Road Health Centre","latitude":53.43328,"cumulative":219.0,"postcode":"CH45 5BG","weighted rate":219.0,"longitude":-3.04497,"id":"a6moiyvjgier"},"type":"Feature","geometry":{"type":"Point","coordinates":[-3.04497,53.43328]}},{"properties":{"name":"Gladstone Medical Centre","latitude":53.37564,"cumulative":308.0,"postcode":"CH42 3TD","weighted rate":308.0,"longitude":-3.0149,"id":"a6moiz0ts43t"},"type":"Feature","geometry":{"type":"Point","coordinates":[-3.0149,53.37564]}},{"properties":{"name":"Greasby Group Practice","latitude":53.377612,"cumulative":274.0,"postcode":"CH49 3AT","weighted rate":274.0,"longitude":-3.121343,"id":"a6moiz5d6rs5"},"type":"Feature","geometry":{"type":"Point","coordinates":[-3.121343,53.377612]}},{"properties":{"name":"Greenway Road Surgery","latitude":53.37606,"cumulative":272.0,"postcode":"CH42 7LX","weighted rate":272.0,"longitude":-3.0264,"id":"a6moiyy75vk5"},"type":"Feature","geometry":{"type":"Point","coordinates":[-3.0264,53.37606]}},{"properties":{"name":"Grove Medical Centre","latitude":53.42908,"cumulative":166.0,"postcode":"CH45 3HE","weighted rate":166.0,"longitude":-3.06636,"id":"a6moiz4v7fvm"},"type":"Feature","geometry":{"type":"Point","coordinates":[-3.06636,53.42908]}},{"properties":{"name":"Hamilton Medical Centre","latitude":53.39258,"cumulative":326.0,"postcode":"CH41 6AJ","weighted rate":326.0,"longitude":-3.01735,"id":"a6moiz2q1zfn"},"type":"Feature","geometry":{"type":"Point","coordinates":[-3.01735,53.39258]}},{"properties":{"name":"Heatherlands Medical Centre","latitude":53.38147,"cumulative":442.0,"postcode":"CH49 9DA","weighted rate":442.0,"longitude":-3.0896,"id":"a6moiyykypm1"},"type":"Feature","geometry":{"type":"Point","coordinates":[-3.0896,53.38147]}},{"properties":{"name":"Heswall (and Pensby) Medical Centre","latitude":53.32914,"cumulative":279.0,"postcode":"CH60 7SG","weighted rate":279.0,"longitude":-3.099859,"id":"a6moiyyvq172"},"type":"Feature","geometry":{"type":"Point","coordinates":[-3.099859,53.32914]}},{"properties":{"name":"Holmlands Medical Centre","latitude":53.37241,"cumulative":326.0,"postcode":"CH43 0TX","weighted rate":326.0,"longitude":-3.06032,"id":"a6moiz6vadtc"},"type":"Feature","geometry":{"type":"Point","coordinates":[-3.06032,53.37241]}},{"properties":{"name":"Hoylake &amp; Meols Medical Centre","latitude":53.399938,"cumulative":338.0,"postcode":"CH47 8XA","weighted rate":338.0,"longitude":-3.155576,"id":"a6moiz1votla"},"type":"Feature","geometry":{"type":"Point","coordinates":[-3.155576,53.399938]}},{"properties":{"name":"Hoylake Road Medical Centre","latitude":53.39933,"cumulative":254.0,"postcode":"CH46 6DE","weighted rate":254.0,"longitude":-3.11662,"id":"a6moiz7actht"},"type":"Feature","geometry":{"type":"Point","coordinates":[-3.11662,53.39933]}},{"properties":{"name":"Kings Lane Medical Centre","latitude":53.36175,"cumulative":216.0,"postcode":"CH63 5LY","weighted rate":216.0,"longitude":-3.025986,"id":"a6moiyvsm6ew"},"type":"Feature","geometry":{"type":"Point","coordinates":[-3.025986,53.36175]}},{"properties":{"name":"Leasowe Primary Care Centre","latitude":53.41662,"cumulative":377.0,"postcode":"CH46 2QQ","weighted rate":377.0,"longitude":-3.09444,"id":"a6moiz269ems"},"type":"Feature","geometry":{"type":"Point","coordinates":[-3.09444,53.41662]}},{"properties":{"name":"Leasowe Surgery","latitude":53.41413,"cumulative":266.0,"postcode":"CH46 1PF","weighted rate":266.0,"longitude":-3.09561,"id":"a6moiz67jsug"},"type":"Feature","geometry":{"type":"Point","coordinates":[-3.09561,53.41413]}},{"properties":{"name":"Liscard Group Practice","latitude":53.41795,"cumulative":197.0,"postcode":"CH44 5UL","weighted rate":197.0,"longitude":-3.04231,"id":"a6moiyydmtkt"},"type":"Feature","geometry":{"type":"Point","coordinates":[-3.04231,53.41795]}},{"properties":{"name":"Manor Health Centre","latitude":53.42113,"cumulative":184.0,"postcode":"CH45 4JG","weighted rate":184.0,"longitude":-3.04451,"id":"a6moiyuuo0sf"},"type":"Feature","geometry":{"type":"Point","coordinates":[-3.04451,53.42113]}},{"properties":{"name":"Miriam Medical Centre","latitude":53.40136,"cumulative":338.0,"postcode":"CH41 8FG","weighted rate":338.0,"longitude":-3.05604,"id":"a6moiz384te6"},"type":"Feature","geometry":{"type":"Point","coordinates":[-3.05604,53.40136]}},{"properties":{"name":"Moreton Cross Group Practice","latitude":53.40322,"cumulative":266.0,"postcode":"CH46 8SA","weighted rate":266.0,"longitude":-3.11204,"id":"a6moiyz942fg"},"type":"Feature","geometry":{"type":"Point","coordinates":[-3.11204,53.40322]}},{"properties":{"name":"Moreton Health Clinic","latitude":53.40049,"cumulative":271.0,"postcode":"CH46 7XA","weighted rate":271.0,"longitude":-3.11268,"id":"a6moiys9agrr"},"type":"Feature","geometry":{"type":"Point","coordinates":[-3.11268,53.40049]}},{"properties":{"name":"Moreton Medical Centre","latitude":53.39888,"cumulative":301.0,"postcode":"CH46 0PE","weighted rate":301.0,"longitude":-3.10996,"id":"a6moiz3n8mqo"},"type":"Feature","geometry":{"type":"Point","coordinates":[-3.10996,53.39888]}},{"properties":{"name":"Park Medical Centre","latitude":53.370594,"cumulative":231.0,"postcode":"CH48 4DW","weighted rate":231.0,"longitude":-3.182558,"id":"a6moiz5cqgg0"},"type":"Feature","geometry":{"type":"Point","coordinates":[-3.182558,53.370594]}},{"properties":{"name":"Parkfield Medical Centre (C)","latitude":53.36312,"cumulative":450.0,"postcode":"CH62 5HS","weighted rate":225.0,"longitude":-3.00017,"id":"a6moiz2nbr2c"},"type":"Feature","geometry":{"type":"Point","coordinates":[-3.00017,53.36312]}},{"properties":{"name":"Parkfield Medical Centre (H)","latitude":53.36312,"cumulative":450.0,"postcode":"CH62 5HS","weighted rate":225.0,"longitude":-3.00017,"id":"a6moiyuf7p00"},"type":"Feature","geometry":{"type":"Point","coordinates":[-3.00017,53.36312]}},{"properties":{"name":"Prenton Medical Centre","latitude":53.37105,"cumulative":219.0,"postcode":"CH43 0TS","weighted rate":219.0,"longitude":-3.06102,"id":"a6moiz649kpd"},"type":"Feature","geometry":{"type":"Point","coordinates":[-3.06102,53.37105]}},{"properties":{"name":"Riverside Surgery","latitude":53.372,"cumulative":263.0,"postcode":"CH42 2AG","weighted rate":263.0,"longitude":-3.00618,"id":"a6moiz8dibdh"},"type":"Feature","geometry":{"type":"Point","coordinates":[-3.00618,53.372]}},{"properties":{"name":"Seabank Medical Centre","latitude":53.43172,"cumulative":235.0,"postcode":"CH45 1HE","weighted rate":235.0,"longitude":-3.0401,"id":"a6moiz4a2fqb"},"type":"Feature","geometry":{"type":"Point","coordinates":[-3.0401,53.43172]}},{"properties":{"name":"Silverdale Medical Centre","latitude":53.326567,"cumulative":254.0,"postcode":"CH60 4RH","weighted rate":254.0,"longitude":-3.099644,"id":"a6moiyu7zudh"},"type":"Feature","geometry":{"type":"Point","coordinates":[-3.099644,53.326567]}},{"properties":{"name":"Somerville Medical Centre","latitude":53.41005,"cumulative":229.0,"postcode":"CH44 4AA","weighted rate":229.0,"longitude":-3.04194,"id":"a6moiz27y4yj"},"type":"Feature","geometry":{"type":"Point","coordinates":[-3.04194,53.41005]}},{"properties":{"name":"Spital Surgery","latitude":53.340961,"cumulative":211.0,"postcode":"CH63 9JP","weighted rate":211.0,"longitude":-3.003528,"id":"a6moiyzvyu3i"},"type":"Feature","geometry":{"type":"Point","coordinates":[-3.003528,53.340961]}},{"properties":{"name":"St. George's Medical Centre","latitude":53.43122,"cumulative":222.0,"postcode":"CH45 5JN","weighted rate":222.0,"longitude":-3.04986,"id":"a6moiz4ep3mz"},"type":"Feature","geometry":{"type":"Point","coordinates":[-3.04986,53.43122]}},{"properties":{"name":"St. Hilary Brow Group Practice","latitude":53.41957,"cumulative":175.0,"postcode":"CH44 2AG","weighted rate":175.0,"longitude":-3.05621,"id":"a6moiz89awmp"},"type":"Feature","geometry":{"type":"Point","coordinates":[-3.05621,53.41957]}},{"properties":{"name":"Teehey Lane Medical Centre","latitude":53.34973,"cumulative":232.0,"postcode":"CH63 2JW","weighted rate":232.0,"longitude":-3.020965,"id":"a6moiyrzmih8"},"type":"Feature","geometry":{"type":"Point","coordinates":[-3.020965,53.34973]}},{"properties":{"name":"The Surgery - Martins Lane","latitude":53.41817,"cumulative":196.0,"postcode":"CH44 1BA","weighted rate":196.0,"longitude":-3.03902,"id":"a6moiyzen545"},"type":"Feature","geometry":{"type":"Point","coordinates":[-3.03902,53.41817]}},{"properties":{"name":"Upton Group Practice","latitude":53.3852,"cumulative":225.0,"postcode":"CH49 0TF","weighted rate":225.0,"longitude":-3.08958,"id":"a6moiyusgpbh"},"type":"Feature","geometry":{"type":"Point","coordinates":[-3.08958,53.3852]}},{"properties":{"name":"Victoria Park Health Centre","latitude":53.37197,"cumulative":271.0,"postcode":"CH42 4QJ","weighted rate":271.0,"longitude":-3.02007,"id":"a6moiyudgabf"},"type":"Feature","geometry":{"type":"Point","coordinates":[-3.02007,53.37197]}},{"properties":{"name":"Villa Medical Centre","latitude":53.36422,"cumulative":253.0,"postcode":"CH43 3DB","weighted rate":253.0,"longitude":-3.05216,"id":"a6moiz65gonw"},"type":"Feature","geometry":{"type":"Point","coordinates":[-3.05216,53.36422]}},{"properties":{"name":"Vittoria Medical Centre (E)","latitude":53.39637,"cumulative":532.0,"postcode":"CH41 3RH","weighted rate":266.0,"longitude":-3.03022,"id":"a6moiz7k6tyk"},"type":"Feature","geometry":{"type":"Point","coordinates":[-3.03022,53.39637]}},{"properties":{"name":"Vittoria Medical Centre (M)","latitude":53.39637,"cumulative":532.0,"postcode":"CH41 3RH","weighted rate":266.0,"longitude":-3.03022,"id":"a6moiz58vbwg"},"type":"Feature","geometry":{"type":"Point","coordinates":[-3.03022,53.39637]}},{"properties":{"name":"Wallasey Village Group Practice","latitude":53.42245,"cumulative":210.0,"postcode":"CH45 3NL","weighted rate":210.0,"longitude":-3.06358,"id":"a6moiz6grf9a"},"type":"Feature","geometry":{"type":"Point","coordinates":[-3.06358,53.42245]}},{"properties":{"name":"West Kirby Health Centre","latitude":53.373579,"cumulative":699.0,"postcode":"CH48 4HZ","weighted rate":233.0,"longitude":-3.182415,"id":"a6moiyy7023w"},"type":"Feature","geometry":{"type":"Point","coordinates":[-3.182415,53.373579]}},{"properties":{"name":"West Kirby Health Centre","latitude":53.373579,"cumulative":699.0,"postcode":"CH48 4HZ","weighted rate":233.0,"longitude":-3.182415,"id":"a6moiyxestsf"},"type":"Feature","geometry":{"type":"Point","coordinates":[-3.182415,53.373579]}},{"properties":{"name":"West Kirby Health Centre","latitude":53.373579,"cumulative":699.0,"postcode":"CH48 4HZ","weighted rate":233.0,"longitude":-3.182415,"id":"a6moiz5jcogk"},"type":"Feature","geometry":{"type":"Point","coordinates":[-3.182415,53.373579]}},{"properties":{"name":"West Wirral Group Practice","latitude":53.35279,"cumulative":244.0,"postcode":"CH61 3UF","weighted rate":244.0,"longitude":-3.117852,"id":"a6moiyyz1pw6"},"type":"Feature","geometry":{"type":"Point","coordinates":[-3.117852,53.35279]}},{"properties":{"name":"Whetstone Medical Centre","latitude":53.38723,"cumulative":270.0,"postcode":"CH41 2TF","weighted rate":270.0,"longitude":-3.02973,"id":"a6moiz671lic"},"type":"Feature","geometry":{"type":"Point","coordinates":[-3.02973,53.38723]}},{"properties":{"name":"Woodchurch Road Surgery (The)","latitude":53.3745,"cumulative":238.0,"postcode":"CH43 5UU","weighted rate":238.0,"longitude":-3.04171,"id":"a6moiywmk59f"},"type":"Feature","geometry":{"type":"Point","coordinates":[-3.04171,53.3745]}}],"is_temporal":false,"author":{"url":null,"metadata":null,"contact_name":null,"contact_address":null,"source":null,"contact_phone":null},"source":null,"pagination":{"sort":null,"start":0,"total":59,"limit":1000000},"state":"complete","tags":"","published":"2014-08-10T15:43:38-04:00","id":13062}