{"type":"FeatureCollection","data_type":"Dataset","url_type":null,"permissions":[{"permissions":{"download":true,"view":true},"group_id":"everyone"}],"classification":null,"title":"Senior Students","count":662,"stream_id":14239,"contributor":{"url":"http://geocommons.com/users/7442","name":"trg9"},"data_attributes":null,"calculation_params":null,"icon_link":null,"link":"http://geocommons.com/overlays/14239.json","extent":[-149.897,-31.5746,152.811,61.1194],"geometry_types":["point"],"unique_name":null,"name":"Senior Students","feature_count":662,"description":"","next_feature":null,"is_raster":false,"short_classification":"Y","stats":{"zip":{"max":99515.0,"mean":40596.2160120846,"variance":555713958.30879,"stdev":23573.5860298935,"min":105.0,"median":44114.0},"latitude":{"max":61.119381,"mean":40.1420279244713,"variance":17.8446653624454,"stdev":4.22429465857265,"min":-31.574551,"median":40.878978},"longitude":{"max":152.811356,"mean":-83.7502244169184,"variance":377.953665297321,"stdev":19.4410304587314,"min":-149.897401,"median":-81.861756},"sr":{"max":30.0,"mean":1.65105740181269,"variance":3.99454502241864,"stdev":1.99863579033766,"min":1.0,"median":1.0}},"features":[{"properties":{"zip":105.0,"latitude":25.05991,"longitude":121.557762,"id":"a674wjxa31z4","sr":1.0},"type":"Feature","geometry":{"type":"Point","coordinates":[121.557762,25.05991]}},{"properties":{"zip":1532.0,"latitude":42.318242,"longitude":-71.646372,"id":"a674wjws0bwu","sr":1.0},"type":"Feature","geometry":{"type":"Point","coordinates":[-71.646372,42.318242]}},{"properties":{"zip":1569.0,"latitude":42.074426,"longitude":-71.632869,"id":"a674wjzy5136","sr":1.0},"type":"Feature","geometry":{"type":"Point","coordinates":[-71.632869,42.074426]}},{"properties":{"zip":1701.0,"latitude":42.300665,"longitude":-71.425486,"id":"a674wk5ykg2f","sr":1.0},"type":"Feature","geometry":{"type":"Point","coordinates":[-71.425486,42.300665]}},{"properties":{"zip":1741.0,"latitude":42.528562,"longitude":-71.351892,"id":"a674wk0c4rox","sr":2.0},"type":"Feature","geometry":{"type":"Point","coordinates":[-71.351892,42.528562]}},{"properties":{"zip":1772.0,"latitude":42.293919,"longitude":-71.531997,"id":"a674wju55x1s","sr":1.0},"type":"Feature","geometry":{"type":"Point","coordinates":[-71.531997,42.293919]}},{"properties":{"zip":1776.0,"latitude":42.383655,"longitude":-71.428159,"id":"a674wjvkwm4a","sr":1.0},"type":"Feature","geometry":{"type":"Point","coordinates":[-71.428159,42.383655]}},{"properties":{"zip":1845.0,"latitude":42.682583,"longitude":-71.109004,"id":"a674wk34jcsb","sr":2.0},"type":"Feature","geometry":{"type":"Point","coordinates":[-71.109004,42.682583]}},{"properties":{"zip":1886.0,"latitude":42.589959,"longitude":-71.438143,"id":"a674wk819lgo","sr":2.0},"type":"Feature","geometry":{"type":"Point","coordinates":[-71.438143,42.589959]}},{"properties":{"zip":2445.0,"latitude":-31.574551,"longitude":152.811356,"id":"a674wk5mznef","sr":1.0},"type":"Feature","geometry":{"type":"Point","coordinates":[152.811356,-31.574551]}},{"properties":{"zip":2446.0,"latitude":42.344437,"longitude":-71.120482,"id":"a674wk3drdtg","sr":1.0},"type":"Feature","geometry":{"type":"Point","coordinates":[-71.120482,42.344437]}},{"properties":{"zip":2461.0,"latitude":42.31862,"longitude":-71.208159,"id":"a674wjzuyfb8","sr":1.0},"type":"Feature","geometry":{"type":"Point","coordinates":[-71.208159,42.31862]}},{"properties":{"zip":2482.0,"latitude":42.298389,"longitude":-71.300539,"id":"a674wjygt3gv","sr":1.0},"type":"Feature","geometry":{"type":"Point","coordinates":[-71.300539,42.298389]}},{"properties":{"zip":2492.0,"latitude":42.278581,"longitude":-71.235572,"id":"a674wk7o4mry","sr":1.0},"type":"Feature","geometry":{"type":"Point","coordinates":[-71.235572,42.278581]}},{"properties":{"zip":2494.0,"latitude":42.6628,"longitude":22.57325,"id":"a674wjw51yjl","sr":1.0},"type":"Feature","geometry":{"type":"Point","coordinates":[22.57325,42.6628]}},{"properties":{"zip":2892.0,"latitude":41.506716,"longitude":-71.599076,"id":"a674wk8dqnwh","sr":1.0},"type":"Feature","geometry":{"type":"Point","coordinates":[-71.599076,41.506716]}},{"properties":{"zip":2906.0,"latitude":41.835104,"longitude":-71.397065,"id":"a674wjvpk6pp","sr":1.0},"type":"Feature","geometry":{"type":"Point","coordinates":[-71.397065,41.835104]}},{"properties":{"zip":3431.0,"latitude":42.943127,"longitude":-72.28954,"id":"a674wk07cyic","sr":1.0},"type":"Feature","geometry":{"type":"Point","coordinates":[-72.28954,42.943127]}},{"properties":{"zip":3820.0,"latitude":43.190006,"longitude":-70.884881,"id":"a674wk7muq9w","sr":1.0},"type":"Feature","geometry":{"type":"Point","coordinates":[-70.884881,43.190006]}},{"properties":{"zip":3908.0,"latitude":43.229201,"longitude":-70.785949,"id":"a674wk9tyh52","sr":1.0},"type":"Feature","geometry":{"type":"Point","coordinates":[-70.785949,43.229201]}},{"properties":{"zip":5049.0,"latitude":43.545879,"longitude":-72.425591,"id":"a674wk8koebz","sr":1.0},"type":"Feature","geometry":{"type":"Point","coordinates":[-72.425591,43.545879]}},{"properties":{"zip":6360.0,"latitude":41.537055,"longitude":-72.08494,"id":"a674wjx2zakq","sr":1.0},"type":"Feature","geometry":{"type":"Point","coordinates":[-72.08494,41.537055]}},{"properties":{"zip":6460.0,"latitude":41.217466,"longitude":-73.054948,"id":"a674wk9s4hgi","sr":1.0},"type":"Feature","geometry":{"type":"Point","coordinates":[-73.054948,41.217466]}},{"properties":{"zip":6468.0,"latitude":41.331171,"longitude":-73.224333,"id":"a674wk0rvc5c","sr":1.0},"type":"Feature","geometry":{"type":"Point","coordinates":[-73.224333,41.331171]}},{"properties":{"zip":6473.0,"latitude":41.382156,"longitude":-72.85852,"id":"a674wjyrvt0x","sr":1.0},"type":"Feature","geometry":{"type":"Point","coordinates":[-72.85852,41.382156]}},{"properties":{"zip":6488.0,"latitude":41.476695,"longitude":-73.224077,"id":"a674wk5ic2ms","sr":1.0},"type":"Feature","geometry":{"type":"Point","coordinates":[-73.224077,41.476695]}},{"properties":{"zip":6492.0,"latitude":41.459997,"longitude":-72.822179,"id":"a674wjzjlqgs","sr":1.0},"type":"Feature","geometry":{"type":"Point","coordinates":[-72.822179,41.459997]}},{"properties":{"zip":6776.0,"latitude":41.581745,"longitude":-73.412752,"id":"a674wk95e9kg","sr":1.0},"type":"Feature","geometry":{"type":"Point","coordinates":[-73.412752,41.581745]}},{"properties":{"zip":6801.0,"latitude":41.381298,"longitude":-73.400827,"id":"a674wjwyopkh","sr":1.0},"type":"Feature","geometry":{"type":"Point","coordinates":[-73.400827,41.381298]}},{"properties":{"zip":6883.0,"latitude":41.219499,"longitude":-73.371474,"id":"a674wk14qe7n","sr":1.0},"type":"Feature","geometry":{"type":"Point","coordinates":[-73.371474,41.219499]}},{"properties":{"zip":7028.0,"latitude":40.804015,"longitude":-74.205477,"id":"a674wk80fqnu","sr":1.0},"type":"Feature","geometry":{"type":"Point","coordinates":[-74.205477,40.804015]}},{"properties":{"zip":7035.0,"latitude":40.920769,"longitude":-74.299512,"id":"a674wjv20jat","sr":1.0},"type":"Feature","geometry":{"type":"Point","coordinates":[-74.299512,40.920769]}},{"properties":{"zip":7040.0,"latitude":40.727906,"longitude":-74.265573,"id":"a674wjyv7xpf","sr":1.0},"type":"Feature","geometry":{"type":"Point","coordinates":[-74.265573,40.727906]}},{"properties":{"zip":7050.0,"latitude":40.769223,"longitude":-74.2355,"id":"a674wjxceow7","sr":1.0},"type":"Feature","geometry":{"type":"Point","coordinates":[-74.2355,40.769223]}},{"properties":{"zip":7078.0,"latitude":40.73678,"longitude":-74.327085,"id":"a674wjz843nn","sr":2.0},"type":"Feature","geometry":{"type":"Point","coordinates":[-74.327085,40.73678]}},{"properties":{"zip":7079.0,"latitude":40.746453,"longitude":-74.257532,"id":"a674wjw6say5","sr":1.0},"type":"Feature","geometry":{"type":"Point","coordinates":[-74.257532,40.746453]}},{"properties":{"zip":7405.0,"latitude":40.992118,"longitude":-74.364065,"id":"a674wjv4adeg","sr":1.0},"type":"Feature","geometry":{"type":"Point","coordinates":[-74.364065,40.992118]}},{"properties":{"zip":7424.0,"latitude":40.885353,"longitude":-74.21145,"id":"a674wk791rnd","sr":1.0},"type":"Feature","geometry":{"type":"Point","coordinates":[-74.21145,40.885353]}},{"properties":{"zip":7632.0,"latitude":40.882043,"longitude":-73.954449,"id":"a674wk1b9twr","sr":1.0},"type":"Feature","geometry":{"type":"Point","coordinates":[-73.954449,40.882043]}},{"properties":{"zip":7847.0,"latitude":40.881901,"longitude":-74.620984,"id":"a674wjxinl6a","sr":1.0},"type":"Feature","geometry":{"type":"Point","coordinates":[-74.620984,40.881901]}},{"properties":{"zip":7922.0,"latitude":40.67522,"longitude":-74.434599,"id":"a674wju21ynm","sr":1.0},"type":"Feature","geometry":{"type":"Point","coordinates":[-74.434599,40.67522]}},{"properties":{"zip":7974.0,"latitude":40.700403,"longitude":-74.402291,"id":"a674wk5fxssd","sr":1.0},"type":"Feature","geometry":{"type":"Point","coordinates":[-74.402291,40.700403]}},{"properties":{"zip":8002.0,"latitude":39.930808,"longitude":-75.017538,"id":"a674wjynwee3","sr":1.0},"type":"Feature","geometry":{"type":"Point","coordinates":[-75.017538,39.930808]}},{"properties":{"zip":8055.0,"latitude":39.868099,"longitude":-74.823384,"id":"a674wk4s0uyo","sr":1.0},"type":"Feature","geometry":{"type":"Point","coordinates":[-74.823384,39.868099]}},{"properties":{"zip":8536.0,"latitude":40.332432,"longitude":-74.568836,"id":"a674wjvacfqv","sr":2.0},"type":"Feature","geometry":{"type":"Point","coordinates":[-74.568836,40.332432]}},{"properties":{"zip":8550.0,"latitude":40.297684,"longitude":-74.614596,"id":"a674wjufjoy9","sr":3.0},"type":"Feature","geometry":{"type":"Point","coordinates":[-74.614596,40.297684]}},{"properties":{"zip":8648.0,"latitude":40.277646,"longitude":-74.723956,"id":"a674wk18oii4","sr":2.0},"type":"Feature","geometry":{"type":"Point","coordinates":[-74.723956,40.277646]}},{"properties":{"zip":8830.0,"latitude":40.571593,"longitude":-74.316677,"id":"a674wjwp3rct","sr":1.0},"type":"Feature","geometry":{"type":"Point","coordinates":[-74.316677,40.571593]}},{"properties":{"zip":8902.0,"latitude":40.453767,"longitude":-74.482285,"id":"a674wk1432i0","sr":1.0},"type":"Feature","geometry":{"type":"Point","coordinates":[-74.482285,40.453767]}},{"properties":{"zip":10023.0,"latitude":40.77638,"longitude":-73.982652,"id":"a674wjzirnu2","sr":1.0},"type":"Feature","geometry":{"type":"Point","coordinates":[-73.982652,40.77638]}},{"properties":{"zip":10028.0,"latitude":40.776267,"longitude":-73.952866,"id":"a674wjyjce88","sr":1.0},"type":"Feature","geometry":{"type":"Point","coordinates":[-73.952866,40.776267]}},{"properties":{"zip":10040.0,"latitude":40.858308,"longitude":-73.929601,"id":"a674wjx4wko1","sr":1.0},"type":"Feature","geometry":{"type":"Point","coordinates":[-73.929601,40.858308]}},{"properties":{"zip":10128.0,"latitude":40.781618,"longitude":-73.951112,"id":"a674wk79q87t","sr":1.0},"type":"Feature","geometry":{"type":"Point","coordinates":[-73.951112,40.781618]}},{"properties":{"zip":10463.0,"latitude":40.879812,"longitude":-73.906737,"id":"a674wk7gge7a","sr":2.0},"type":"Feature","geometry":{"type":"Point","coordinates":[-73.906737,40.879812]}},{"properties":{"zip":10509.0,"latitude":41.409704,"longitude":-73.599179,"id":"a674wjwxtjzy","sr":1.0},"type":"Feature","geometry":{"type":"Point","coordinates":[-73.599179,41.409704]}},{"properties":{"zip":10570.0,"latitude":41.134977,"longitude":-73.784484,"id":"a674wjydhu5r","sr":1.0},"type":"Feature","geometry":{"type":"Point","coordinates":[-73.784484,41.134977]}},{"properties":{"zip":10583.0,"latitude":40.988365,"longitude":-73.797566,"id":"a674wjwkruos","sr":2.0},"type":"Feature","geometry":{"type":"Point","coordinates":[-73.797566,40.988365]}},{"properties":{"zip":10710.0,"latitude":40.965574,"longitude":-73.843435,"id":"a674wk3tmr3y","sr":1.0},"type":"Feature","geometry":{"type":"Point","coordinates":[-73.843435,40.965574]}},{"properties":{"zip":10956.0,"latitude":41.147247,"longitude":-73.996206,"id":"a674wjz4dg27","sr":1.0},"type":"Feature","geometry":{"type":"Point","coordinates":[-73.996206,41.147247]}},{"properties":{"zip":10960.0,"latitude":41.091351,"longitude":-73.925226,"id":"a674wjzaohea","sr":1.0},"type":"Feature","geometry":{"type":"Point","coordinates":[-73.925226,41.091351]}},{"properties":{"zip":11050.0,"latitude":40.834995,"longitude":-73.696356,"id":"a674wk8zwkk8","sr":1.0},"type":"Feature","geometry":{"type":"Point","coordinates":[-73.696356,40.834995]}},{"properties":{"zip":11204.0,"latitude":40.617871,"longitude":-73.985623,"id":"a674wk0098fp","sr":1.0},"type":"Feature","geometry":{"type":"Point","coordinates":[-73.985623,40.617871]}},{"properties":{"zip":11228.0,"latitude":40.617441,"longitude":-74.012067,"id":"a674wk7vcy5w","sr":1.0},"type":"Feature","geometry":{"type":"Point","coordinates":[-74.012067,40.617441]}},{"properties":{"zip":11229.0,"latitude":40.601094,"longitude":-73.94749,"id":"a674wk5v7891","sr":2.0},"type":"Feature","geometry":{"type":"Point","coordinates":[-73.94749,40.601094]}},{"properties":{"zip":11236.0,"latitude":40.640685,"longitude":-73.902764,"id":"a674wk8siygc","sr":1.0},"type":"Feature","geometry":{"type":"Point","coordinates":[-73.902764,40.640685]}},{"properties":{"zip":11377.0,"latitude":40.744972,"longitude":-73.906911,"id":"a674wk9brwi2","sr":1.0},"type":"Feature","geometry":{"type":"Point","coordinates":[-73.906911,40.744972]}},{"properties":{"zip":11590.0,"latitude":40.755749,"longitude":-73.57226,"id":"a674wk6z8omv","sr":1.0},"type":"Feature","geometry":{"type":"Point","coordinates":[-73.57226,40.755749]}},{"properties":{"zip":11733.0,"latitude":40.930004,"longitude":-73.101467,"id":"a674wk438rs2","sr":1.0},"type":"Feature","geometry":{"type":"Point","coordinates":[-73.101467,40.930004]}},{"properties":{"zip":11741.0,"latitude":40.796426,"longitude":-73.071789,"id":"a674wk1kkwl1","sr":1.0},"type":"Feature","geometry":{"type":"Point","coordinates":[-73.071789,40.796426]}},{"properties":{"zip":11756.0,"latitude":40.725428,"longitude":-73.516578,"id":"a674wjzg0cz0","sr":1.0},"type":"Feature","geometry":{"type":"Point","coordinates":[-73.516578,40.725428]}},{"properties":{"zip":11764.0,"latitude":40.943572,"longitude":-72.991349,"id":"a674wk9vdyg7","sr":1.0},"type":"Feature","geometry":{"type":"Point","coordinates":[-72.991349,40.943572]}},{"properties":{"zip":11788.0,"latitude":40.823069,"longitude":-73.195762,"id":"a674wjxdzhxv","sr":1.0},"type":"Feature","geometry":{"type":"Point","coordinates":[-73.195762,40.823069]}},{"properties":{"zip":11797.0,"latitude":40.815441,"longitude":-73.471612,"id":"a674wk7y0euh","sr":1.0},"type":"Feature","geometry":{"type":"Point","coordinates":[-73.471612,40.815441]}},{"properties":{"zip":12019.0,"latitude":42.919176,"longitude":-73.855171,"id":"a674wk7g8rka","sr":1.0},"type":"Feature","geometry":{"type":"Point","coordinates":[-73.855171,42.919176]}},{"properties":{"zip":12077.0,"latitude":42.597147,"longitude":-73.795884,"id":"a674wk5y0k1w","sr":1.0},"type":"Feature","geometry":{"type":"Point","coordinates":[-73.795884,42.597147]}},{"properties":{"zip":12084.0,"latitude":42.697273,"longitude":-73.897454,"id":"a674wjyhwtyk","sr":1.0},"type":"Feature","geometry":{"type":"Point","coordinates":[-73.897454,42.697273]}},{"properties":{"zip":12550.0,"latitude":41.517833,"longitude":-74.03598,"id":"a674wk046mlf","sr":1.0},"type":"Feature","geometry":{"type":"Point","coordinates":[-74.03598,41.517833]}},{"properties":{"zip":12571.0,"latitude":42.006439,"longitude":-73.854577,"id":"a674wk2mdpmj","sr":1.0},"type":"Feature","geometry":{"type":"Point","coordinates":[-73.854577,42.006439]}},{"properties":{"zip":12901.0,"latitude":44.692715,"longitude":-73.465969,"id":"a674wk0hh5ab","sr":1.0},"type":"Feature","geometry":{"type":"Point","coordinates":[-73.465969,44.692715]}},{"properties":{"zip":13126.0,"latitude":43.443836,"longitude":-76.497489,"id":"a674wk60a2fc","sr":1.0},"type":"Feature","geometry":{"type":"Point","coordinates":[-76.497489,43.443836]}},{"properties":{"zip":13850.0,"latitude":42.077106,"longitude":-76.011757,"id":"a674wjwqy24r","sr":1.0},"type":"Feature","geometry":{"type":"Point","coordinates":[-76.011757,42.077106]}},{"properties":{"zip":14004.0,"latitude":42.89839,"longitude":-78.525707,"id":"a674wjuvemo4","sr":2.0},"type":"Feature","geometry":{"type":"Point","coordinates":[-78.525707,42.89839]}},{"properties":{"zip":14031.0,"latitude":42.980965,"longitude":-78.616228,"id":"a674wk5oargn","sr":1.0},"type":"Feature","geometry":{"type":"Point","coordinates":[-78.616228,42.980965]}},{"properties":{"zip":14032.0,"latitude":43.0362,"longitude":-78.63903,"id":"a674wk4vy3ki","sr":1.0},"type":"Feature","geometry":{"type":"Point","coordinates":[-78.63903,43.0362]}},{"properties":{"zip":14051.0,"latitude":43.029168,"longitude":-78.705035,"id":"a674wk1eltpi","sr":1.0},"type":"Feature","geometry":{"type":"Point","coordinates":[-78.705035,43.029168]}},{"properties":{"zip":14072.0,"latitude":43.018266,"longitude":-78.959059,"id":"a674wjx7io5n","sr":2.0},"type":"Feature","geometry":{"type":"Point","coordinates":[-78.959059,43.018266]}},{"properties":{"zip":14075.0,"latitude":42.733404,"longitude":-78.838853,"id":"a674wk077nep","sr":1.0},"type":"Feature","geometry":{"type":"Point","coordinates":[-78.838853,42.733404]}},{"properties":{"zip":14150.0,"latitude":43.002837,"longitude":-78.85472,"id":"a674wk5dog1i","sr":1.0},"type":"Feature","geometry":{"type":"Point","coordinates":[-78.85472,43.002837]}},{"properties":{"zip":14174.0,"latitude":43.246075,"longitude":-79.024545,"id":"a674wk2ira8k","sr":1.0},"type":"Feature","geometry":{"type":"Point","coordinates":[-79.024545,43.246075]}},{"properties":{"zip":14221.0,"latitude":42.985621,"longitude":-78.738044,"id":"a674wk553ym8","sr":1.0},"type":"Feature","geometry":{"type":"Point","coordinates":[-78.738044,42.985621]}},{"properties":{"zip":14223.0,"latitude":42.973088,"longitude":-78.845,"id":"a674wjyxh1yv","sr":1.0},"type":"Feature","geometry":{"type":"Point","coordinates":[-78.845,42.973088]}},{"properties":{"zip":14227.0,"latitude":42.877467,"longitude":-78.741936,"id":"a674wk7kn9cg","sr":1.0},"type":"Feature","geometry":{"type":"Point","coordinates":[-78.741936,42.877467]}},{"properties":{"zip":14420.0,"latitude":43.21284,"longitude":-77.936797,"id":"a674wk6hmuux","sr":1.0},"type":"Feature","geometry":{"type":"Point","coordinates":[-77.936797,43.21284]}},{"properties":{"zip":14456.0,"latitude":42.86372,"longitude":-76.991349,"id":"a674wk7ofrhf","sr":1.0},"type":"Feature","geometry":{"type":"Point","coordinates":[-76.991349,42.86372]}},{"properties":{"zip":14510.0,"latitude":42.705431,"longitude":-77.861083,"id":"a674wk8agyho","sr":1.0},"type":"Feature","geometry":{"type":"Point","coordinates":[-77.861083,42.705431]}},{"properties":{"zip":14526.0,"latitude":43.139638,"longitude":-77.456043,"id":"a674wk7s9suu","sr":1.0},"type":"Feature","geometry":{"type":"Point","coordinates":[-77.456043,43.139638]}},{"properties":{"zip":14534.0,"latitude":43.069511,"longitude":-77.514067,"id":"a674wk9fv0f9","sr":1.0},"type":"Feature","geometry":{"type":"Point","coordinates":[-77.514067,43.069511]}},{"properties":{"zip":14546.0,"latitude":43.02462,"longitude":-77.774256,"id":"a674wk6nw1ew","sr":1.0},"type":"Feature","geometry":{"type":"Point","coordinates":[-77.774256,43.02462]}},{"properties":{"zip":14580.0,"latitude":43.219563,"longitude":-77.461587,"id":"a674wk4f008b","sr":2.0},"type":"Feature","geometry":{"type":"Point","coordinates":[-77.461587,43.219563]}},{"properties":{"zip":14610.0,"latitude":43.14524,"longitude":-77.549501,"id":"a674wjy3q0o4","sr":1.0},"type":"Feature","geometry":{"type":"Point","coordinates":[-77.549501,43.14524]}},{"properties":{"zip":14616.0,"latitude":43.232359,"longitude":-77.651238,"id":"a674wk8815uw","sr":1.0},"type":"Feature","geometry":{"type":"Point","coordinates":[-77.651238,43.232359]}},{"properties":{"zip":14618.0,"latitude":43.115416,"longitude":-77.558801,"id":"a674wk8iidd9","sr":1.0},"type":"Feature","geometry":{"type":"Point","coordinates":[-77.558801,43.115416]}},{"properties":{"zip":14620.0,"latitude":43.131711,"longitude":-77.606239,"id":"a674wjvvu0bg","sr":2.0},"type":"Feature","geometry":{"type":"Point","coordinates":[-77.606239,43.131711]}},{"properties":{"zip":14624.0,"latitude":43.12589,"longitude":-77.733552,"id":"a674wk2mtwbg","sr":1.0},"type":"Feature","geometry":{"type":"Point","coordinates":[-77.733552,43.12589]}},{"properties":{"zip":14701.0,"latitude":42.092845,"longitude":-79.243989,"id":"a674wjyis1yy","sr":2.0},"type":"Feature","geometry":{"type":"Point","coordinates":[-79.243989,42.092845]}},{"properties":{"zip":14830.0,"latitude":42.138331,"longitude":-77.047546,"id":"a674wk2nhrvw","sr":1.0},"type":"Feature","geometry":{"type":"Point","coordinates":[-77.047546,42.138331]}},{"properties":{"zip":15001.0,"latitude":40.604424,"longitude":-80.281567,"id":"a674wjz0d015","sr":2.0},"type":"Feature","geometry":{"type":"Point","coordinates":[-80.281567,40.604424]}},{"properties":{"zip":15017.0,"latitude":40.347195,"longitude":-80.115293,"id":"a674wk9ki87u","sr":1.0},"type":"Feature","geometry":{"type":"Point","coordinates":[-80.115293,40.347195]}},{"properties":{"zip":15022.0,"latitude":40.140402,"longitude":-79.92002,"id":"a674wjwc8oaq","sr":1.0},"type":"Feature","geometry":{"type":"Point","coordinates":[-79.92002,40.140402]}},{"properties":{"zip":15025.0,"latitude":40.298917,"longitude":-79.910096,"id":"a674wk3ywtus","sr":1.0},"type":"Feature","geometry":{"type":"Point","coordinates":[-79.910096,40.298917]}},{"properties":{"zip":15026.0,"latitude":40.513148,"longitude":-80.342282,"id":"a674wk3ce1tp","sr":1.0},"type":"Feature","geometry":{"type":"Point","coordinates":[-80.342282,40.513148]}},{"properties":{"zip":15037.0,"latitude":40.265575,"longitude":-79.856842,"id":"a674wk6o34sh","sr":1.0},"type":"Feature","geometry":{"type":"Point","coordinates":[-79.856842,40.265575]}},{"properties":{"zip":15044.0,"latitude":40.625233,"longitude":-79.944307,"id":"a674wk994lz7","sr":1.0},"type":"Feature","geometry":{"type":"Point","coordinates":[-79.944307,40.625233]}},{"properties":{"zip":15063.0,"latitude":40.193728,"longitude":-79.924127,"id":"a674wk490vv2","sr":1.0},"type":"Feature","geometry":{"type":"Point","coordinates":[-79.924127,40.193728]}},{"properties":{"zip":15065.0,"latitude":40.628862,"longitude":-79.725621,"id":"a674wk7v4iui","sr":1.0},"type":"Feature","geometry":{"type":"Point","coordinates":[-79.725621,40.628862]}},{"properties":{"zip":15066.0,"latitude":40.739333,"longitude":-80.29722,"id":"a674wjxbqyy2","sr":1.0},"type":"Feature","geometry":{"type":"Point","coordinates":[-80.29722,40.739333]}},{"properties":{"zip":15068.0,"latitude":40.571179,"longitude":-79.741547,"id":"a674wjz3d0mh","sr":1.0},"type":"Feature","geometry":{"type":"Point","coordinates":[-79.741547,40.571179]}},{"properties":{"zip":15090.0,"latitude":40.612044,"longitude":-80.064879,"id":"a674wk6xpr84","sr":2.0},"type":"Feature","geometry":{"type":"Point","coordinates":[-80.064879,40.612044]}},{"properties":{"zip":15102.0,"latitude":40.320984,"longitude":-80.039793,"id":"a674wjw3sgt4","sr":5.0},"type":"Feature","geometry":{"type":"Point","coordinates":[-80.039793,40.320984]}},{"properties":{"zip":15106.0,"latitude":40.402941,"longitude":-80.091532,"id":"a674wk6mjuug","sr":1.0},"type":"Feature","geometry":{"type":"Point","coordinates":[-80.091532,40.402941]}},{"properties":{"zip":15108.0,"latitude":40.513245,"longitude":-80.18969,"id":"a674wk3pbj3t","sr":1.0},"type":"Feature","geometry":{"type":"Point","coordinates":[-80.18969,40.513245]}},{"properties":{"zip":15122.0,"latitude":40.366535,"longitude":-79.89429,"id":"a674wjyjk1f8","sr":2.0},"type":"Feature","geometry":{"type":"Point","coordinates":[-79.89429,40.366535]}},{"properties":{"zip":15135.0,"latitude":40.304412,"longitude":-79.812844,"id":"a674wjule78g","sr":2.0},"type":"Feature","geometry":{"type":"Point","coordinates":[-79.812844,40.304412]}},{"properties":{"zip":15139.0,"latitude":40.519647,"longitude":-79.836865,"id":"a674wk5pgaj9","sr":1.0},"type":"Feature","geometry":{"type":"Point","coordinates":[-79.836865,40.519647]}},{"properties":{"zip":15146.0,"latitude":40.429026,"longitude":-79.762279,"id":"a674wjvcyf5b","sr":2.0},"type":"Feature","geometry":{"type":"Point","coordinates":[-79.762279,40.429026]}},{"properties":{"zip":15202.0,"latitude":40.501321,"longitude":-80.066966,"id":"a674wk0ckq64","sr":1.0},"type":"Feature","geometry":{"type":"Point","coordinates":[-80.066966,40.501321]}},{"properties":{"zip":15215.0,"latitude":40.499225,"longitude":-79.917513,"id":"a674wk3d5ho7","sr":2.0},"type":"Feature","geometry":{"type":"Point","coordinates":[-79.917513,40.499225]}},{"properties":{"zip":15216.0,"latitude":40.399584,"longitude":-80.035727,"id":"a674wk80cjo2","sr":1.0},"type":"Feature","geometry":{"type":"Point","coordinates":[-80.035727,40.399584]}},{"properties":{"zip":15217.0,"latitude":40.431852,"longitude":-79.924973,"id":"a674wjv0rpe1","sr":3.0},"type":"Feature","geometry":{"type":"Point","coordinates":[-79.924973,40.431852]}},{"properties":{"zip":15220.0,"latitude":40.417405,"longitude":-80.051202,"id":"a674wjv6ajen","sr":1.0},"type":"Feature","geometry":{"type":"Point","coordinates":[-80.051202,40.417405]}},{"properties":{"zip":15228.0,"latitude":40.371326,"longitude":-80.043186,"id":"a674wjxjno19","sr":2.0},"type":"Feature","geometry":{"type":"Point","coordinates":[-80.043186,40.371326]}},{"properties":{"zip":15237.0,"latitude":40.552238,"longitude":-80.034939,"id":"a674wk699c26","sr":2.0},"type":"Feature","geometry":{"type":"Point","coordinates":[-80.034939,40.552238]}},{"properties":{"zip":15238.0,"latitude":40.515077,"longitude":-79.877423,"id":"a674wjvn80fg","sr":3.0},"type":"Feature","geometry":{"type":"Point","coordinates":[-79.877423,40.515077]}},{"properties":{"zip":15241.0,"latitude":40.332174,"longitude":-80.07921,"id":"a674wk34nt6q","sr":2.0},"type":"Feature","geometry":{"type":"Point","coordinates":[-80.07921,40.332174]}},{"properties":{"zip":15243.0,"latitude":40.373797,"longitude":-80.072425,"id":"a674wjwyrkmh","sr":1.0},"type":"Feature","geometry":{"type":"Point","coordinates":[-80.072425,40.373797]}},{"properties":{"zip":15301.0,"latitude":40.171687,"longitude":-80.255957,"id":"a674wjvolhkr","sr":3.0},"type":"Feature","geometry":{"type":"Point","coordinates":[-80.255957,40.171687]}},{"properties":{"zip":15330.0,"latitude":40.186821,"longitude":-80.062695,"id":"a674wk9ngfov","sr":1.0},"type":"Feature","geometry":{"type":"Point","coordinates":[-80.062695,40.186821]}},{"properties":{"zip":15427.0,"latitude":40.074349,"longitude":-79.967036,"id":"a674wjz2l7hl","sr":1.0},"type":"Feature","geometry":{"type":"Point","coordinates":[-79.967036,40.074349]}},{"properties":{"zip":15601.0,"latitude":40.307359,"longitude":-79.542439,"id":"a674wjz9gzv7","sr":2.0},"type":"Feature","geometry":{"type":"Point","coordinates":[-79.542439,40.307359]}},{"properties":{"zip":15626.0,"latitude":40.413901,"longitude":-79.57638,"id":"a674wjzi8bia","sr":1.0},"type":"Feature","geometry":{"type":"Point","coordinates":[-79.57638,40.413901]}},{"properties":{"zip":15632.0,"latitude":40.425185,"longitude":-79.611021,"id":"a674wk7192r5","sr":1.0},"type":"Feature","geometry":{"type":"Point","coordinates":[-79.611021,40.425185]}},{"properties":{"zip":15642.0,"latitude":40.319227,"longitude":-79.723855,"id":"a674wjxm0aak","sr":2.0},"type":"Feature","geometry":{"type":"Point","coordinates":[-79.723855,40.319227]}},{"properties":{"zip":15668.0,"latitude":40.446674,"longitude":-79.684154,"id":"a674wk7w4mel","sr":2.0},"type":"Feature","geometry":{"type":"Point","coordinates":[-79.684154,40.446674]}},{"properties":{"zip":15690.0,"latitude":40.605883,"longitude":-79.565531,"id":"a674wk62iyye","sr":2.0},"type":"Feature","geometry":{"type":"Point","coordinates":[-79.565531,40.605883]}},{"properties":{"zip":16051.0,"latitude":40.948651,"longitude":-80.172965,"id":"a674wk4pfzv8","sr":1.0},"type":"Feature","geometry":{"type":"Point","coordinates":[-80.172965,40.948651]}},{"properties":{"zip":16057.0,"latitude":41.045412,"longitude":-80.046847,"id":"a674wjyv4j9z","sr":1.0},"type":"Feature","geometry":{"type":"Point","coordinates":[-80.046847,41.045412]}},{"properties":{"zip":16063.0,"latitude":40.73136,"longitude":-80.128564,"id":"a674wk9j265t","sr":1.0},"type":"Feature","geometry":{"type":"Point","coordinates":[-80.128564,40.73136]}},{"properties":{"zip":16148.0,"latitude":41.232601,"longitude":-80.45303,"id":"a674wk43dxez","sr":2.0},"type":"Feature","geometry":{"type":"Point","coordinates":[-80.45303,41.232601]}},{"properties":{"zip":16229.0,"latitude":40.703277,"longitude":-79.662991,"id":"a674wk2mp5tu","sr":1.0},"type":"Feature","geometry":{"type":"Point","coordinates":[-79.662991,40.703277]}},{"properties":{"zip":16406.0,"latitude":41.745455,"longitude":-80.344516,"id":"a674wk260ec0","sr":1.0},"type":"Feature","geometry":{"type":"Point","coordinates":[-80.344516,41.745455]}},{"properties":{"zip":16412.0,"latitude":41.875629,"longitude":-80.135604,"id":"a674wjzzq9uv","sr":1.0},"type":"Feature","geometry":{"type":"Point","coordinates":[-80.135604,41.875629]}},{"properties":{"zip":16415.0,"latitude":42.040741,"longitude":-80.239508,"id":"a674wjwvejqo","sr":1.0},"type":"Feature","geometry":{"type":"Point","coordinates":[-80.239508,42.040741]}},{"properties":{"zip":16417.0,"latitude":41.989573,"longitude":-80.317756,"id":"a674wjznhfwl","sr":1.0},"type":"Feature","geometry":{"type":"Point","coordinates":[-80.317756,41.989573]}},{"properties":{"zip":16421.0,"latitude":42.176719,"longitude":-79.941648,"id":"a674wjzkf93j","sr":1.0},"type":"Feature","geometry":{"type":"Point","coordinates":[-79.941648,42.176719]}},{"properties":{"zip":16433.0,"latitude":41.726753,"longitude":-80.147857,"id":"a674wk0qycrh","sr":1.0},"type":"Feature","geometry":{"type":"Point","coordinates":[-80.147857,41.726753]}},{"properties":{"zip":16505.0,"latitude":42.097526,"longitude":-80.161902,"id":"a674wjxzkf67","sr":2.0},"type":"Feature","geometry":{"type":"Point","coordinates":[-80.161902,42.097526]}},{"properties":{"zip":16506.0,"latitude":42.073801,"longitude":-80.14844,"id":"a674wk9b7r76","sr":1.0},"type":"Feature","geometry":{"type":"Point","coordinates":[-80.14844,42.073801]}},{"properties":{"zip":16509.0,"latitude":42.076326,"longitude":-80.066827,"id":"a674wjus4j18","sr":2.0},"type":"Feature","geometry":{"type":"Point","coordinates":[-80.066827,42.076326]}},{"properties":{"zip":16510.0,"latitude":42.123673,"longitude":-80.003752,"id":"a674wk7y1o03","sr":1.0},"type":"Feature","geometry":{"type":"Point","coordinates":[-80.003752,42.123673]}},{"properties":{"zip":16648.0,"latitude":40.438727,"longitude":-78.368627,"id":"a674wjxntwdb","sr":1.0},"type":"Feature","geometry":{"type":"Point","coordinates":[-78.368627,40.438727]}},{"properties":{"zip":16652.0,"latitude":40.502274,"longitude":-78.005028,"id":"a674wk4e8jjq","sr":1.0},"type":"Feature","geometry":{"type":"Point","coordinates":[-78.005028,40.502274]}},{"properties":{"zip":16743.0,"latitude":41.816919,"longitude":-78.279909,"id":"a674wjwvvqjn","sr":1.0},"type":"Feature","geometry":{"type":"Point","coordinates":[-78.279909,41.816919]}},{"properties":{"zip":16875.0,"latitude":40.857753,"longitude":-77.574031,"id":"a674wk99p766","sr":1.0},"type":"Feature","geometry":{"type":"Point","coordinates":[-77.574031,40.857753]}},{"properties":{"zip":17019.0,"latitude":40.096373,"longitude":-77.03387,"id":"a674wjx7ti9q","sr":1.0},"type":"Feature","geometry":{"type":"Point","coordinates":[-77.03387,40.096373]}},{"properties":{"zip":17111.0,"latitude":40.266058,"longitude":-76.793918,"id":"a674wk6efr9x","sr":1.0},"type":"Feature","geometry":{"type":"Point","coordinates":[-76.793918,40.266058]}},{"properties":{"zip":17319.0,"latitude":40.154506,"longitude":-76.801861,"id":"a674wjxak8kl","sr":1.0},"type":"Feature","geometry":{"type":"Point","coordinates":[-76.801861,40.154506]}},{"properties":{"zip":17601.0,"latitude":40.075381,"longitude":-76.319888,"id":"a674wk7i8z7u","sr":1.0},"type":"Feature","geometry":{"type":"Point","coordinates":[-76.319888,40.075381]}},{"properties":{"zip":17815.0,"latitude":41.011528,"longitude":-76.438379,"id":"a674wk1auk1m","sr":1.0},"type":"Feature","geometry":{"type":"Point","coordinates":[-76.438379,41.011528]}},{"properties":{"zip":17961.0,"latitude":40.643071,"longitude":-76.083999,"id":"a674wjz93zxn","sr":1.0},"type":"Feature","geometry":{"type":"Point","coordinates":[-76.083999,40.643071]}},{"properties":{"zip":18020.0,"latitude":40.660581,"longitude":-75.32684,"id":"a674wjw9ftis","sr":1.0},"type":"Feature","geometry":{"type":"Point","coordinates":[-75.32684,40.660581]}},{"properties":{"zip":18055.0,"latitude":40.581715,"longitude":-75.325513,"id":"a674wk5hdyxq","sr":1.0},"type":"Feature","geometry":{"type":"Point","coordinates":[-75.325513,40.581715]}},{"properties":{"zip":18080.0,"latitude":40.740695,"longitude":-75.621612,"id":"a674wjxijf89","sr":1.0},"type":"Feature","geometry":{"type":"Point","coordinates":[-75.621612,40.740695]}},{"properties":{"zip":18104.0,"latitude":40.601849,"longitude":-75.522499,"id":"a674wk6qy391","sr":1.0},"type":"Feature","geometry":{"type":"Point","coordinates":[-75.522499,40.601849]}},{"properties":{"zip":18954.0,"latitude":40.216672,"longitude":-75.002936,"id":"a674wk9syb6b","sr":1.0},"type":"Feature","geometry":{"type":"Point","coordinates":[-75.002936,40.216672]}},{"properties":{"zip":18966.0,"latitude":40.190212,"longitude":-75.005994,"id":"a674wk4g90cr","sr":3.0},"type":"Feature","geometry":{"type":"Point","coordinates":[-75.005994,40.190212]}},{"properties":{"zip":19044.0,"latitude":40.182057,"longitude":-75.147932,"id":"a674wk4lw0u4","sr":1.0},"type":"Feature","geometry":{"type":"Point","coordinates":[-75.147932,40.182057]}},{"properties":{"zip":19067.0,"latitude":40.212064,"longitude":-74.822153,"id":"a674wk8nxygi","sr":1.0},"type":"Feature","geometry":{"type":"Point","coordinates":[-74.822153,40.212064]}},{"properties":{"zip":19096.0,"latitude":40.0,"longitude":-75.275984,"id":"a674wju3fota","sr":1.0},"type":"Feature","geometry":{"type":"Point","coordinates":[-75.275984,40.0]}},{"properties":{"zip":19129.0,"latitude":40.011816,"longitude":-75.186149,"id":"a674wjzke8ik","sr":1.0},"type":"Feature","geometry":{"type":"Point","coordinates":[-75.186149,40.011816]}},{"properties":{"zip":19320.0,"latitude":39.984313,"longitude":-75.825299,"id":"a674wk8bl3mg","sr":1.0},"type":"Feature","geometry":{"type":"Point","coordinates":[-75.825299,39.984313]}},{"properties":{"zip":19440.0,"latitude":40.277826,"longitude":-75.297507,"id":"a674wjwq5sra","sr":1.0},"type":"Feature","geometry":{"type":"Point","coordinates":[-75.297507,40.277826]}},{"properties":{"zip":19711.0,"latitude":39.701129,"longitude":-75.737534,"id":"a674wjxlaz9x","sr":1.0},"type":"Feature","geometry":{"type":"Point","coordinates":[-75.737534,39.701129]}},{"properties":{"zip":19807.0,"latitude":39.782206,"longitude":-75.607205,"id":"a674wk0nnuea","sr":1.0},"type":"Feature","geometry":{"type":"Point","coordinates":[-75.607205,39.782206]}},{"properties":{"zip":19808.0,"latitude":39.734737,"longitude":-75.663891,"id":"a674wk8cb6dm","sr":1.0},"type":"Feature","geometry":{"type":"Point","coordinates":[-75.663891,39.734737]}},{"properties":{"zip":20112.0,"latitude":38.68066,"longitude":-77.430172,"id":"a674wjwf13hb","sr":1.0},"type":"Feature","geometry":{"type":"Point","coordinates":[-77.430172,38.68066]}},{"properties":{"zip":20124.0,"latitude":38.803309,"longitude":-77.401099,"id":"a674wk1cvrs7","sr":1.0},"type":"Feature","geometry":{"type":"Point","coordinates":[-77.401099,38.803309]}},{"properties":{"zip":20735.0,"latitude":38.754892,"longitude":-76.902577,"id":"a674wk1wl8hu","sr":1.0},"type":"Feature","geometry":{"type":"Point","coordinates":[-76.902577,38.754892]}},{"properties":{"zip":20777.0,"latitude":39.184252,"longitude":-76.968643,"id":"a674wk0qxtx8","sr":1.0},"type":"Feature","geometry":{"type":"Point","coordinates":[-76.968643,39.184252]}},{"properties":{"zip":20832.0,"latitude":39.152591,"longitude":-77.074949,"id":"a674wk3x47ba","sr":1.0},"type":"Feature","geometry":{"type":"Point","coordinates":[-77.074949,39.152591]}},{"properties":{"zip":20837.0,"latitude":39.138597,"longitude":-77.406717,"id":"a674wk536pdl","sr":1.0},"type":"Feature","geometry":{"type":"Point","coordinates":[-77.406717,39.138597]}},{"properties":{"zip":20850.0,"latitude":39.087037,"longitude":-77.167973,"id":"a674wjyqkobd","sr":3.0},"type":"Feature","geometry":{"type":"Point","coordinates":[-77.167973,39.087037]}},{"properties":{"zip":20874.0,"latitude":39.17039,"longitude":-77.269935,"id":"a674wk6m86gn","sr":1.0},"type":"Feature","geometry":{"type":"Point","coordinates":[-77.269935,39.17039]}},{"properties":{"zip":20902.0,"latitude":39.04158,"longitude":-77.046348,"id":"a674wk3tnog2","sr":1.0},"type":"Feature","geometry":{"type":"Point","coordinates":[-77.046348,39.04158]}},{"properties":{"zip":21012.0,"latitude":39.047587,"longitude":-76.49406,"id":"a674wk80u8vt","sr":1.0},"type":"Feature","geometry":{"type":"Point","coordinates":[-76.49406,39.047587]}},{"properties":{"zip":21043.0,"latitude":39.258216,"longitude":-76.803929,"id":"a674wjwcibrz","sr":1.0},"type":"Feature","geometry":{"type":"Point","coordinates":[-76.803929,39.258216]}},{"properties":{"zip":21044.0,"latitude":39.214103,"longitude":-76.878807,"id":"a674wk9kmyap","sr":2.0},"type":"Feature","geometry":{"type":"Point","coordinates":[-76.878807,39.214103]}},{"properties":{"zip":21146.0,"latitude":39.081078,"longitude":-76.557746,"id":"a674wjusllys","sr":1.0},"type":"Feature","geometry":{"type":"Point","coordinates":[-76.557746,39.081078]}},{"properties":{"zip":21158.0,"latitude":39.655464,"longitude":-77.036946,"id":"a674wjttpk3c","sr":1.0},"type":"Feature","geometry":{"type":"Point","coordinates":[-77.036946,39.655464]}},{"properties":{"zip":21204.0,"latitude":39.402517,"longitude":-76.603224,"id":"a674wk0xqhni","sr":1.0},"type":"Feature","geometry":{"type":"Point","coordinates":[-76.603224,39.402517]}},{"properties":{"zip":21212.0,"latitude":39.362571,"longitude":-76.609989,"id":"a674wk8zja5e","sr":1.0},"type":"Feature","geometry":{"type":"Point","coordinates":[-76.609989,39.362571]}},{"properties":{"zip":21401.0,"latitude":38.999645,"longitude":-76.503139,"id":"a674wk3p99o3","sr":1.0},"type":"Feature","geometry":{"type":"Point","coordinates":[-76.503139,38.999645]}},{"properties":{"zip":21601.0,"latitude":38.77682,"longitude":-76.075775,"id":"a674wk41xgwj","sr":1.0},"type":"Feature","geometry":{"type":"Point","coordinates":[-76.075775,38.77682]}},{"properties":{"zip":21769.0,"latitude":39.441586,"longitude":-77.550241,"id":"a674wk65wx0n","sr":1.0},"type":"Feature","geometry":{"type":"Point","coordinates":[-77.550241,39.441586]}},{"properties":{"zip":21801.0,"latitude":38.362996,"longitude":-75.592238,"id":"a674wk0tjcvl","sr":1.0},"type":"Feature","geometry":{"type":"Point","coordinates":[-75.592238,38.362996]}},{"properties":{"zip":21911.0,"latitude":39.688176,"longitude":-76.049164,"id":"a674wk97kc1i","sr":1.0},"type":"Feature","geometry":{"type":"Point","coordinates":[-76.049164,39.688176]}},{"properties":{"zip":22003.0,"latitude":38.830699,"longitude":-77.214245,"id":"a674wjus5avw","sr":1.0},"type":"Feature","geometry":{"type":"Point","coordinates":[-77.214245,38.830699]}},{"properties":{"zip":22032.0,"latitude":38.817729,"longitude":-77.292527,"id":"a674wk9uiv1q","sr":1.0},"type":"Feature","geometry":{"type":"Point","coordinates":[-77.292527,38.817729]}},{"properties":{"zip":22124.0,"latitude":38.885187,"longitude":-77.323345,"id":"a674wk821e48","sr":1.0},"type":"Feature","geometry":{"type":"Point","coordinates":[-77.323345,38.885187]}},{"properties":{"zip":22301.0,"latitude":38.820042,"longitude":-77.058901,"id":"a674wjvktjtk","sr":1.0},"type":"Feature","geometry":{"type":"Point","coordinates":[-77.058901,38.820042]}},{"properties":{"zip":23112.0,"latitude":37.431027,"longitude":-77.654458,"id":"a674wk5xntrv","sr":1.0},"type":"Feature","geometry":{"type":"Point","coordinates":[-77.654458,37.431027]}},{"properties":{"zip":25314.0,"latitude":38.327442,"longitude":-81.668988,"id":"a674wk8f1nzp","sr":1.0},"type":"Feature","geometry":{"type":"Point","coordinates":[-81.668988,38.327442]}},{"properties":{"zip":26003.0,"latitude":40.072736,"longitude":-80.685126,"id":"a674wjyvhq6x","sr":1.0},"type":"Feature","geometry":{"type":"Point","coordinates":[-80.685126,40.072736]}},{"properties":{"zip":26187.0,"latitude":39.38243,"longitude":-81.456608,"id":"a674wjvcdcv0","sr":1.0},"type":"Feature","geometry":{"type":"Point","coordinates":[-81.456608,39.38243]}},{"properties":{"zip":26505.0,"latitude":39.633858,"longitude":-79.954225,"id":"a674wk1q7jvg","sr":1.0},"type":"Feature","geometry":{"type":"Point","coordinates":[-79.954225,39.633858]}},{"properties":{"zip":27511.0,"latitude":35.764119,"longitude":-78.778568,"id":"a674wk66f583","sr":1.0},"type":"Feature","geometry":{"type":"Point","coordinates":[-78.778568,35.764119]}},{"properties":{"zip":27519.0,"latitude":35.80257,"longitude":-78.878349,"id":"a674wjzcmtbs","sr":1.0},"type":"Feature","geometry":{"type":"Point","coordinates":[-78.878349,35.80257]}},{"properties":{"zip":27613.0,"latitude":35.894932,"longitude":-78.705059,"id":"a674wk8jtigq","sr":1.0},"type":"Feature","geometry":{"type":"Point","coordinates":[-78.705059,35.894932]}},{"properties":{"zip":27705.0,"latitude":36.021846,"longitude":-78.947776,"id":"a674wk0kt6ii","sr":1.0},"type":"Feature","geometry":{"type":"Point","coordinates":[-78.947776,36.021846]}},{"properties":{"zip":27858.0,"latitude":35.586567,"longitude":-77.348505,"id":"a674wk9g3ygb","sr":1.0},"type":"Feature","geometry":{"type":"Point","coordinates":[-77.348505,35.586567]}},{"properties":{"zip":28115.0,"latitude":35.577358,"longitude":-80.822629,"id":"a674wjy36jeu","sr":1.0},"type":"Feature","geometry":{"type":"Point","coordinates":[-80.822629,35.577358]}},{"properties":{"zip":28173.0,"latitude":34.955334,"longitude":-80.727901,"id":"a674wk592u34","sr":1.0},"type":"Feature","geometry":{"type":"Point","coordinates":[-80.727901,34.955334]}},{"properties":{"zip":28411.0,"latitude":34.284632,"longitude":-77.803887,"id":"a674wjxfmlik","sr":1.0},"type":"Feature","geometry":{"type":"Point","coordinates":[-77.803887,34.284632]}},{"properties":{"zip":29579.0,"latitude":33.746778,"longitude":-78.924808,"id":"a674wk1eopl9","sr":1.0},"type":"Feature","geometry":{"type":"Point","coordinates":[-78.924808,33.746778]}},{"properties":{"zip":30033.0,"latitude":33.812305,"longitude":-84.281918,"id":"a674wk58ousk","sr":1.0},"type":"Feature","geometry":{"type":"Point","coordinates":[-84.281918,33.812305]}},{"properties":{"zip":30043.0,"latitude":33.99811,"longitude":-84.020275,"id":"a674wjtrw40l","sr":2.0},"type":"Feature","geometry":{"type":"Point","coordinates":[-84.020275,33.99811]}},{"properties":{"zip":30047.0,"latitude":33.872449,"longitude":-84.116842,"id":"a674wk0t6cc8","sr":1.0},"type":"Feature","geometry":{"type":"Point","coordinates":[-84.116842,33.872449]}},{"properties":{"zip":30096.0,"latitude":33.976321,"longitude":-84.149299,"id":"a674wjyez1db","sr":1.0},"type":"Feature","geometry":{"type":"Point","coordinates":[-84.149299,33.976321]}},{"properties":{"zip":30152.0,"latitude":33.99895,"longitude":-84.644509,"id":"a674wk6m9wf2","sr":1.0},"type":"Feature","geometry":{"type":"Point","coordinates":[-84.644509,33.99895]}},{"properties":{"zip":30327.0,"latitude":33.862723,"longitude":-84.419966,"id":"a674wjvb3ngt","sr":1.0},"type":"Feature","geometry":{"type":"Point","coordinates":[-84.419966,33.862723]}},{"properties":{"zip":30622.0,"latitude":33.934038,"longitude":-83.50546,"id":"a674wjv66775","sr":1.0},"type":"Feature","geometry":{"type":"Point","coordinates":[-83.50546,33.934038]}},{"properties":{"zip":30720.0,"latitude":34.76352,"longitude":-84.987477,"id":"a674wjtvrevg","sr":1.0},"type":"Feature","geometry":{"type":"Point","coordinates":[-84.987477,34.76352]}},{"properties":{"zip":32257.0,"latitude":30.192703,"longitude":-81.605042,"id":"a674wk61fz9s","sr":1.0},"type":"Feature","geometry":{"type":"Point","coordinates":[-81.605042,30.192703]}},{"properties":{"zip":32259.0,"latitude":30.095578,"longitude":-81.621701,"id":"a674wk2yvhc6","sr":1.0},"type":"Feature","geometry":{"type":"Point","coordinates":[-81.621701,30.095578]}},{"properties":{"zip":32714.0,"latitude":28.664983,"longitude":-81.408533,"id":"a674wk965h5f","sr":1.0},"type":"Feature","geometry":{"type":"Point","coordinates":[-81.408533,28.664983]}},{"properties":{"zip":33306.0,"latitude":26.165091,"longitude":-80.112572,"id":"a674wk575der","sr":1.0},"type":"Feature","geometry":{"type":"Point","coordinates":[-80.112572,26.165091]}},{"properties":{"zip":33594.0,"latitude":27.912435,"longitude":-82.246557,"id":"a674wk474xpd","sr":1.0},"type":"Feature","geometry":{"type":"Point","coordinates":[-82.246557,27.912435]}},{"properties":{"zip":37027.0,"latitude":36.006272,"longitude":-86.790947,"id":"a674wjzosh4m","sr":1.0},"type":"Feature","geometry":{"type":"Point","coordinates":[-86.790947,36.006272]}},{"properties":{"zip":37215.0,"latitude":36.098584,"longitude":-86.821917,"id":"a674wjys35bp","sr":1.0},"type":"Feature","geometry":{"type":"Point","coordinates":[-86.821917,36.098584]}},{"properties":{"zip":37221.0,"latitude":36.071512,"longitude":-86.943674,"id":"a674wk3kclp2","sr":1.0},"type":"Feature","geometry":{"type":"Point","coordinates":[-86.943674,36.071512]}},{"properties":{"zip":37919.0,"latitude":35.924385,"longitude":-84.001468,"id":"a674wjvjnxe8","sr":1.0},"type":"Feature","geometry":{"type":"Point","coordinates":[-84.001468,35.924385]}},{"properties":{"zip":38016.0,"latitude":35.177428,"longitude":-89.770221,"id":"a674wjyculf8","sr":1.0},"type":"Feature","geometry":{"type":"Point","coordinates":[-89.770221,35.177428]}},{"properties":{"zip":38138.0,"latitude":35.088344,"longitude":-89.80526,"id":"a674wk7k6ipa","sr":1.0},"type":"Feature","geometry":{"type":"Point","coordinates":[-89.80526,35.088344]}},{"properties":{"zip":40242.0,"latitude":38.276858,"longitude":-85.590224,"id":"a674wk86bzop","sr":1.0},"type":"Feature","geometry":{"type":"Point","coordinates":[-85.590224,38.276858]}},{"properties":{"zip":40502.0,"latitude":38.017394,"longitude":-84.485423,"id":"a674wjvx219n","sr":1.0},"type":"Feature","geometry":{"type":"Point","coordinates":[-84.485423,38.017394]}},{"properties":{"zip":40513.0,"latitude":38.01388,"longitude":-84.581522,"id":"a674wjuh51tj","sr":2.0},"type":"Feature","geometry":{"type":"Point","coordinates":[-84.581522,38.01388]}},{"properties":{"zip":40514.0,"latitude":37.983291,"longitude":-84.576667,"id":"a674wk8vvh1f","sr":1.0},"type":"Feature","geometry":{"type":"Point","coordinates":[-84.576667,37.983291]}},{"properties":{"zip":41017.0,"latitude":39.032378,"longitude":-84.569611,"id":"a674wjzn0vpe","sr":1.0},"type":"Feature","geometry":{"type":"Point","coordinates":[-84.569611,39.032378]}},{"properties":{"zip":41169.0,"latitude":38.522575,"longitude":-82.715632,"id":"a674wjyewkxq","sr":1.0},"type":"Feature","geometry":{"type":"Point","coordinates":[-82.715632,38.522575]}},{"properties":{"zip":43015.0,"latitude":40.293186,"longitude":-83.072312,"id":"a674wk8f9s3g","sr":3.0},"type":"Feature","geometry":{"type":"Point","coordinates":[-83.072312,40.293186]}},{"properties":{"zip":43016.0,"latitude":40.09368,"longitude":-83.141452,"id":"a674wk47idbu","sr":3.0},"type":"Feature","geometry":{"type":"Point","coordinates":[-83.141452,40.09368]}},{"properties":{"zip":43017.0,"latitude":40.109297,"longitude":-83.114633,"id":"a674wk9u5cy1","sr":8.0},"type":"Feature","geometry":{"type":"Point","coordinates":[-83.114633,40.109297]}},{"properties":{"zip":43021.0,"latitude":40.191546,"longitude":-82.895937,"id":"a674wjud8his","sr":1.0},"type":"Feature","geometry":{"type":"Point","coordinates":[-82.895937,40.191546]}},{"properties":{"zip":43026.0,"latitude":40.032187,"longitude":-83.138333,"id":"a674wk1whbhs","sr":1.0},"type":"Feature","geometry":{"type":"Point","coordinates":[-83.138333,40.032187]}},{"properties":{"zip":43044.0,"latitude":40.064659,"longitude":-83.572352,"id":"a674wk5iet84","sr":1.0},"type":"Feature","geometry":{"type":"Point","coordinates":[-83.572352,40.064659]}},{"properties":{"zip":43054.0,"latitude":40.084686,"longitude":-82.798793,"id":"a674wk4gil7k","sr":1.0},"type":"Feature","geometry":{"type":"Point","coordinates":[-82.798793,40.084686]}},{"properties":{"zip":43065.0,"latitude":40.152652,"longitude":-83.074921,"id":"a674wk6sxnxm","sr":2.0},"type":"Feature","geometry":{"type":"Point","coordinates":[-83.074921,40.152652]}},{"properties":{"zip":43074.0,"latitude":40.265499,"longitude":-82.851051,"id":"a674wk9ttzjh","sr":1.0},"type":"Feature","geometry":{"type":"Point","coordinates":[-82.851051,40.265499]}},{"properties":{"zip":43081.0,"latitude":40.114569,"longitude":-82.910504,"id":"a674wk59m583","sr":4.0},"type":"Feature","geometry":{"type":"Point","coordinates":[-82.910504,40.114569]}},{"properties":{"zip":43082.0,"latitude":40.154803,"longitude":-82.912782,"id":"a674wjvr5vie","sr":2.0},"type":"Feature","geometry":{"type":"Point","coordinates":[-82.912782,40.154803]}},{"properties":{"zip":43085.0,"latitude":40.105155,"longitude":-83.010069,"id":"a674wjtyz10b","sr":4.0},"type":"Feature","geometry":{"type":"Point","coordinates":[-83.010069,40.105155]}},{"properties":{"zip":43110.0,"latitude":39.83486,"longitude":-82.804369,"id":"a674wk0i3lba","sr":1.0},"type":"Feature","geometry":{"type":"Point","coordinates":[-82.804369,39.83486]}},{"properties":{"zip":43138.0,"latitude":39.537175,"longitude":-82.412594,"id":"a674wjvi2ooq","sr":1.0},"type":"Feature","geometry":{"type":"Point","coordinates":[-82.412594,39.537175]}},{"properties":{"zip":43162.0,"latitude":39.942409,"longitude":-83.285306,"id":"a674wjxxs588","sr":1.0},"type":"Feature","geometry":{"type":"Point","coordinates":[-83.285306,39.942409]}},{"properties":{"zip":43201.0,"latitude":39.995157,"longitude":-83.004732,"id":"a674wk2gms3b","sr":1.0},"type":"Feature","geometry":{"type":"Point","coordinates":[-83.004732,39.995157]}},{"properties":{"zip":43209.0,"latitude":39.958999,"longitude":-82.926595,"id":"a674wjvd6dra","sr":1.0},"type":"Feature","geometry":{"type":"Point","coordinates":[-82.926595,39.958999]}},{"properties":{"zip":43213.0,"latitude":39.967146,"longitude":-82.878275,"id":"a674wjvwgmxn","sr":2.0},"type":"Feature","geometry":{"type":"Point","coordinates":[-82.878275,39.967146]}},{"properties":{"zip":43220.0,"latitude":40.049484,"longitude":-83.066911,"id":"a674wjzynciq","sr":1.0},"type":"Feature","geometry":{"type":"Point","coordinates":[-83.066911,40.049484]}},{"properties":{"zip":43221.0,"latitude":40.015431,"longitude":-83.064592,"id":"a674wjx22v67","sr":1.0},"type":"Feature","geometry":{"type":"Point","coordinates":[-83.064592,40.015431]}},{"properties":{"zip":43228.0,"latitude":39.947876,"longitude":-83.123858,"id":"a674wju6o9k5","sr":1.0},"type":"Feature","geometry":{"type":"Point","coordinates":[-83.123858,39.947876]}},{"properties":{"zip":43230.0,"latitude":40.038458,"longitude":-82.882429,"id":"a674wjtwntoy","sr":2.0},"type":"Feature","geometry":{"type":"Point","coordinates":[-82.882429,40.038458]}},{"properties":{"zip":43231.0,"latitude":40.080984,"longitude":-82.938275,"id":"a674wk4tt9gw","sr":1.0},"type":"Feature","geometry":{"type":"Point","coordinates":[-82.938275,40.080984]}},{"properties":{"zip":43234.0,"latitude":39.962051,"longitude":-83.003021,"id":"a674wk3vk2s8","sr":1.0},"type":"Feature","geometry":{"type":"Point","coordinates":[-83.003021,39.962051]}},{"properties":{"zip":43235.0,"latitude":40.101271,"longitude":-83.059287,"id":"a674wk4dwd25","sr":1.0},"type":"Feature","geometry":{"type":"Point","coordinates":[-83.059287,40.101271]}},{"properties":{"zip":43260.0,"latitude":39.962051,"longitude":-83.003021,"id":"a674wk6t2v19","sr":1.0},"type":"Feature","geometry":{"type":"Point","coordinates":[-83.003021,39.962051]}},{"properties":{"zip":43302.0,"latitude":40.587648,"longitude":-83.127056,"id":"a674wjxczi6q","sr":1.0},"type":"Feature","geometry":{"type":"Point","coordinates":[-83.127056,40.587648]}},{"properties":{"zip":43402.0,"latitude":41.381513,"longitude":-83.650749,"id":"a674wk8sx5ar","sr":2.0},"type":"Feature","geometry":{"type":"Point","coordinates":[-83.650749,41.381513]}},{"properties":{"zip":43440.0,"latitude":41.52913,"longitude":-82.771392,"id":"a674wk1fc8d0","sr":1.0},"type":"Feature","geometry":{"type":"Point","coordinates":[-82.771392,41.52913]}},{"properties":{"zip":43452.0,"latitude":41.521535,"longitude":-82.909368,"id":"a674wjtsnm5g","sr":1.0},"type":"Feature","geometry":{"type":"Point","coordinates":[-82.909368,41.521535]}},{"properties":{"zip":43537.0,"latitude":41.581682,"longitude":-83.66283,"id":"a674wjx9x0tg","sr":2.0},"type":"Feature","geometry":{"type":"Point","coordinates":[-83.66283,41.581682]}},{"properties":{"zip":43545.0,"latitude":41.390969,"longitude":-84.143271,"id":"a674wjvdgp1q","sr":1.0},"type":"Feature","geometry":{"type":"Point","coordinates":[-84.143271,41.390969]}},{"properties":{"zip":43549.0,"latitude":41.378083,"longitude":-84.526921,"id":"a674wk29gl04","sr":1.0},"type":"Feature","geometry":{"type":"Point","coordinates":[-84.526921,41.378083]}},{"properties":{"zip":43551.0,"latitude":41.542926,"longitude":-83.592727,"id":"a674wjtvqbhc","sr":3.0},"type":"Feature","geometry":{"type":"Point","coordinates":[-83.592727,41.542926]}},{"properties":{"zip":43560.0,"latitude":41.707985,"longitude":-83.706825,"id":"a674wk9ykh95","sr":1.0},"type":"Feature","geometry":{"type":"Point","coordinates":[-83.706825,41.707985]}},{"properties":{"zip":43614.0,"latitude":41.60279,"longitude":-83.62917,"id":"a674wk5r09yz","sr":1.0},"type":"Feature","geometry":{"type":"Point","coordinates":[-83.62917,41.60279]}},{"properties":{"zip":43616.0,"latitude":41.641842,"longitude":-83.471366,"id":"a674wjzf1xzy","sr":1.0},"type":"Feature","geometry":{"type":"Point","coordinates":[-83.471366,41.641842]}},{"properties":{"zip":43617.0,"latitude":41.666765,"longitude":-83.716967,"id":"a674wjuw8ifq","sr":3.0},"type":"Feature","geometry":{"type":"Point","coordinates":[-83.716967,41.666765]}},{"properties":{"zip":43701.0,"latitude":39.944265,"longitude":-82.008898,"id":"a674wjw0h16u","sr":1.0},"type":"Feature","geometry":{"type":"Point","coordinates":[-82.008898,39.944265]}},{"properties":{"zip":43719.0,"latitude":40.019221,"longitude":-81.076742,"id":"a674wjyaiqzr","sr":1.0},"type":"Feature","geometry":{"type":"Point","coordinates":[-81.076742,40.019221]}},{"properties":{"zip":43724.0,"latitude":39.746651,"longitude":-81.51528,"id":"a674wjy0l16f","sr":1.0},"type":"Feature","geometry":{"type":"Point","coordinates":[-81.51528,39.746651]}},{"properties":{"zip":43910.0,"latitude":40.3742,"longitude":-80.807214,"id":"a674wk16me4l","sr":1.0},"type":"Feature","geometry":{"type":"Point","coordinates":[-80.807214,40.3742]}},{"properties":{"zip":44001.0,"latitude":41.390506,"longitude":-82.228165,"id":"a674wjvor02m","sr":4.0},"type":"Feature","geometry":{"type":"Point","coordinates":[-82.228165,41.390506]}},{"properties":{"zip":44010.0,"latitude":41.75536,"longitude":-80.858422,"id":"a674wjvybxfb","sr":1.0},"type":"Feature","geometry":{"type":"Point","coordinates":[-80.858422,41.75536]}},{"properties":{"zip":44011.0,"latitude":41.446713,"longitude":-82.020359,"id":"a674wk85r080","sr":2.0},"type":"Feature","geometry":{"type":"Point","coordinates":[-82.020359,41.446713]}},{"properties":{"zip":44012.0,"latitude":41.501904,"longitude":-82.011094,"id":"a674wjw0qe89","sr":1.0},"type":"Feature","geometry":{"type":"Point","coordinates":[-82.011094,41.501904]}},{"properties":{"zip":44017.0,"latitude":41.367557,"longitude":-81.861756,"id":"a674wjyitexf","sr":4.0},"type":"Feature","geometry":{"type":"Point","coordinates":[-81.861756,41.367557]}},{"properties":{"zip":44022.0,"latitude":41.418577,"longitude":-81.361437,"id":"a674wjtx9xv3","sr":4.0},"type":"Feature","geometry":{"type":"Point","coordinates":[-81.361437,41.418577]}},{"properties":{"zip":44023.0,"latitude":41.391439,"longitude":-81.317789,"id":"a674wjww8nku","sr":4.0},"type":"Feature","geometry":{"type":"Point","coordinates":[-81.317789,41.391439]}},{"properties":{"zip":44024.0,"latitude":41.571862,"longitude":-81.205629,"id":"a674wjxlm41c","sr":4.0},"type":"Feature","geometry":{"type":"Point","coordinates":[-81.205629,41.571862]}},{"properties":{"zip":44026.0,"latitude":41.534378,"longitude":-81.342102,"id":"a674wjvzszkw","sr":5.0},"type":"Feature","geometry":{"type":"Point","coordinates":[-81.342102,41.534378]}},{"properties":{"zip":44028.0,"latitude":41.318708,"longitude":-81.934398,"id":"a674wju6fiy9","sr":1.0},"type":"Feature","geometry":{"type":"Point","coordinates":[-81.934398,41.318708]}},{"properties":{"zip":44035.0,"latitude":41.372353,"longitude":-82.105088,"id":"a674wk98onb4","sr":7.0},"type":"Feature","geometry":{"type":"Point","coordinates":[-82.105088,41.372353]}},{"properties":{"zip":44039.0,"latitude":41.396432,"longitude":-82.003323,"id":"a674wk171ox7","sr":3.0},"type":"Feature","geometry":{"type":"Point","coordinates":[-82.003323,41.396432]}},{"properties":{"zip":44041.0,"latitude":41.802864,"longitude":-80.947363,"id":"a674wk3ink40","sr":1.0},"type":"Feature","geometry":{"type":"Point","coordinates":[-80.947363,41.802864]}},{"properties":{"zip":44044.0,"latitude":41.28537,"longitude":-82.043098,"id":"a674wk6erz0o","sr":2.0},"type":"Feature","geometry":{"type":"Point","coordinates":[-82.043098,41.28537]}},{"properties":{"zip":44047.0,"latitude":41.733513,"longitude":-80.756166,"id":"a674wk10ji13","sr":2.0},"type":"Feature","geometry":{"type":"Point","coordinates":[-80.756166,41.733513]}},{"properties":{"zip":44052.0,"latitude":41.457796,"longitude":-82.171039,"id":"a674wk8vgjp0","sr":1.0},"type":"Feature","geometry":{"type":"Point","coordinates":[-82.171039,41.457796]}},{"properties":{"zip":44053.0,"latitude":41.432002,"longitude":-82.203833,"id":"a674wk5bef22","sr":1.0},"type":"Feature","geometry":{"type":"Point","coordinates":[-82.203833,41.432002]}},{"properties":{"zip":44054.0,"latitude":41.482276,"longitude":-82.096497,"id":"a674wk1y86w4","sr":2.0},"type":"Feature","geometry":{"type":"Point","coordinates":[-82.096497,41.482276]}},{"properties":{"zip":44057.0,"latitude":41.805367,"longitude":-81.058819,"id":"a674wk3j908e","sr":2.0},"type":"Feature","geometry":{"type":"Point","coordinates":[-81.058819,41.805367]}},{"properties":{"zip":44060.0,"latitude":41.689468,"longitude":-81.342133,"id":"a674wjw6h86a","sr":10.0},"type":"Feature","geometry":{"type":"Point","coordinates":[-81.342133,41.689468]}},{"properties":{"zip":44065.0,"latitude":41.475022,"longitude":-81.23452,"id":"a674wk4w3xyf","sr":1.0},"type":"Feature","geometry":{"type":"Point","coordinates":[-81.23452,41.475022]}},{"properties":{"zip":44067.0,"latitude":41.320821,"longitude":-81.542943,"id":"a674wjwtys37","sr":2.0},"type":"Feature","geometry":{"type":"Point","coordinates":[-81.542943,41.320821]}},{"properties":{"zip":44070.0,"latitude":41.420129,"longitude":-81.913056,"id":"a674wk1j32e0","sr":4.0},"type":"Feature","geometry":{"type":"Point","coordinates":[-81.913056,41.420129]}},{"properties":{"zip":44072.0,"latitude":41.476288,"longitude":-81.334228,"id":"a674wjw23vn5","sr":3.0},"type":"Feature","geometry":{"type":"Point","coordinates":[-81.334228,41.476288]}},{"properties":{"zip":44074.0,"latitude":41.28987,"longitude":-82.222863,"id":"a674wk8c4zxa","sr":1.0},"type":"Feature","geometry":{"type":"Point","coordinates":[-82.222863,41.28987]}},{"properties":{"zip":44076.0,"latitude":41.533456,"longitude":-80.839671,"id":"a674wjwqjo1i","sr":1.0},"type":"Feature","geometry":{"type":"Point","coordinates":[-80.839671,41.533456]}},{"properties":{"zip":44077.0,"latitude":41.714014,"longitude":-81.243665,"id":"a674wk26vjql","sr":2.0},"type":"Feature","geometry":{"type":"Point","coordinates":[-81.243665,41.714014]}},{"properties":{"zip":44081.0,"latitude":41.767916,"longitude":-81.143312,"id":"a674wk3aprdw","sr":3.0},"type":"Feature","geometry":{"type":"Point","coordinates":[-81.143312,41.767916]}},{"properties":{"zip":44087.0,"latitude":41.328851,"longitude":-81.455912,"id":"a674wk1cprek","sr":3.0},"type":"Feature","geometry":{"type":"Point","coordinates":[-81.455912,41.328851]}},{"properties":{"zip":44089.0,"latitude":41.409989,"longitude":-82.355417,"id":"a674wk868mzn","sr":1.0},"type":"Feature","geometry":{"type":"Point","coordinates":[-82.355417,41.409989]}},{"properties":{"zip":44094.0,"latitude":41.630229,"longitude":-81.407619,"id":"a674wk8pvnf6","sr":4.0},"type":"Feature","geometry":{"type":"Point","coordinates":[-81.407619,41.630229]}},{"properties":{"zip":44095.0,"latitude":41.649822,"longitude":-81.447887,"id":"a674wk1rge4s","sr":6.0},"type":"Feature","geometry":{"type":"Point","coordinates":[-81.447887,41.649822]}},{"properties":{"zip":44102.0,"latitude":41.473508,"longitude":-81.739791,"id":"a674wjyv95z6","sr":1.0},"type":"Feature","geometry":{"type":"Point","coordinates":[-81.739791,41.473508]}},{"properties":{"zip":44105.0,"latitude":41.450912,"longitude":-81.619002,"id":"a674wk9c9q0u","sr":2.0},"type":"Feature","geometry":{"type":"Point","coordinates":[-81.619002,41.450912]}},{"properties":{"zip":44106.0,"latitude":41.508359,"longitude":-81.60757,"id":"a674wjxy2uqn","sr":30.0},"type":"Feature","geometry":{"type":"Point","coordinates":[-81.60757,41.508359]}},{"properties":{"zip":44107.0,"latitude":41.482654,"longitude":-81.797143,"id":"a674wk007381","sr":9.0},"type":"Feature","geometry":{"type":"Point","coordinates":[-81.797143,41.482654]}},{"properties":{"zip":44108.0,"latitude":41.53492,"longitude":-81.608974,"id":"a674wk932qr3","sr":1.0},"type":"Feature","geometry":{"type":"Point","coordinates":[-81.608974,41.53492]}},{"properties":{"zip":44109.0,"latitude":41.445768,"longitude":-81.703315,"id":"a674wjx6kdcm","sr":3.0},"type":"Feature","geometry":{"type":"Point","coordinates":[-81.703315,41.445768]}},{"properties":{"zip":44111.0,"latitude":41.457066,"longitude":-81.78435,"id":"a674wjuxogig","sr":4.0},"type":"Feature","geometry":{"type":"Point","coordinates":[-81.78435,41.457066]}},{"properties":{"zip":44112.0,"latitude":41.535517,"longitude":-81.576262,"id":"a674wjukc08u","sr":1.0},"type":"Feature","geometry":{"type":"Point","coordinates":[-81.576262,41.535517]}},{"properties":{"zip":44113.0,"latitude":41.481648,"longitude":-81.701848,"id":"a674wk0tan2n","sr":2.0},"type":"Feature","geometry":{"type":"Point","coordinates":[-81.701848,41.481648]}},{"properties":{"zip":44114.0,"latitude":41.506351,"longitude":-81.67425,"id":"a674wjwua7p9","sr":2.0},"type":"Feature","geometry":{"type":"Point","coordinates":[-81.67425,41.506351]}},{"properties":{"zip":44116.0,"latitude":41.469401,"longitude":-81.851246,"id":"a674wjvoe5zt","sr":4.0},"type":"Feature","geometry":{"type":"Point","coordinates":[-81.851246,41.469401]}},{"properties":{"zip":44117.0,"latitude":41.569615,"longitude":-81.525686,"id":"a674wk8v59zv","sr":2.0},"type":"Feature","geometry":{"type":"Point","coordinates":[-81.525686,41.569615]}},{"properties":{"zip":44118.0,"latitude":41.501213,"longitude":-81.553945,"id":"a674wk67f9mb","sr":18.0},"type":"Feature","geometry":{"type":"Point","coordinates":[-81.553945,41.501213]}},{"properties":{"zip":44119.0,"latitude":41.588238,"longitude":-81.546759,"id":"a674wk9slwwp","sr":1.0},"type":"Feature","geometry":{"type":"Point","coordinates":[-81.546759,41.588238]}},{"properties":{"zip":44120.0,"latitude":41.471433,"longitude":-81.583911,"id":"a674wk2kphzp","sr":7.0},"type":"Feature","geometry":{"type":"Point","coordinates":[-81.583911,41.471433]}},{"properties":{"zip":44121.0,"latitude":41.526019,"longitude":-81.533758,"id":"a674wk4kefcd","sr":8.0},"type":"Feature","geometry":{"type":"Point","coordinates":[-81.533758,41.526019]}},{"properties":{"zip":44122.0,"latitude":41.470109,"longitude":-81.523172,"id":"a674wk2eitja","sr":11.0},"type":"Feature","geometry":{"type":"Point","coordinates":[-81.523172,41.470109]}},{"properties":{"zip":44124.0,"latitude":41.514349,"longitude":-81.46801,"id":"a674wjxjil0p","sr":14.0},"type":"Feature","geometry":{"type":"Point","coordinates":[-81.46801,41.514349]}},{"properties":{"zip":44125.0,"latitude":41.415792,"longitude":-81.605385,"id":"a674wk39ry80","sr":3.0},"type":"Feature","geometry":{"type":"Point","coordinates":[-81.605385,41.415792]}},{"properties":{"zip":44126.0,"latitude":41.4433,"longitude":-81.856381,"id":"a674wk78ognz","sr":4.0},"type":"Feature","geometry":{"type":"Point","coordinates":[-81.856381,41.4433]}},{"properties":{"zip":44127.0,"latitude":41.470125,"longitude":-81.648999,"id":"a674wjxpo1k6","sr":1.0},"type":"Feature","geometry":{"type":"Point","coordinates":[-81.648999,41.470125]}},{"properties":{"zip":44128.0,"latitude":41.441565,"longitude":-81.548574,"id":"a674wk7qy9wh","sr":1.0},"type":"Feature","geometry":{"type":"Point","coordinates":[-81.548574,41.441565]}},{"properties":{"zip":44130.0,"latitude":41.377178,"longitude":-81.774858,"id":"a674wk8vx6d7","sr":8.0},"type":"Feature","geometry":{"type":"Point","coordinates":[-81.774858,41.377178]}},{"properties":{"zip":44131.0,"latitude":41.380905,"longitude":-81.66421,"id":"a674wk9708x8","sr":10.0},"type":"Feature","geometry":{"type":"Point","coordinates":[-81.66421,41.380905]}},{"properties":{"zip":44132.0,"latitude":41.608516,"longitude":-81.499056,"id":"a674wjz04ncy","sr":1.0},"type":"Feature","geometry":{"type":"Point","coordinates":[-81.499056,41.608516]}},{"properties":{"zip":44133.0,"latitude":41.323164,"longitude":-81.745657,"id":"a674wk9ywmkv","sr":5.0},"type":"Feature","geometry":{"type":"Point","coordinates":[-81.745657,41.323164]}},{"properties":{"zip":44134.0,"latitude":41.390764,"longitude":-81.705726,"id":"a674wjull58m","sr":4.0},"type":"Feature","geometry":{"type":"Point","coordinates":[-81.705726,41.390764]}},{"properties":{"zip":44135.0,"latitude":41.434177,"longitude":-81.804433,"id":"a674wjtvbh41","sr":3.0},"type":"Feature","geometry":{"type":"Point","coordinates":[-81.804433,41.434177]}},{"properties":{"zip":44136.0,"latitude":41.313218,"longitude":-81.828457,"id":"a674wjzsdabi","sr":12.0},"type":"Feature","geometry":{"type":"Point","coordinates":[-81.828457,41.313218]}},{"properties":{"zip":44138.0,"latitude":41.373351,"longitude":-81.915769,"id":"a674wk1d099f","sr":2.0},"type":"Feature","geometry":{"type":"Point","coordinates":[-81.915769,41.373351]}},{"properties":{"zip":44139.0,"latitude":41.386597,"longitude":-81.442082,"id":"a674wjxq1f9e","sr":16.0},"type":"Feature","geometry":{"type":"Point","coordinates":[-81.442082,41.386597]}},{"properties":{"zip":44140.0,"latitude":41.484137,"longitude":-81.928868,"id":"a674wk30mdox","sr":4.0},"type":"Feature","geometry":{"type":"Point","coordinates":[-81.928868,41.484137]}},{"properties":{"zip":44141.0,"latitude":41.316554,"longitude":-81.626083,"id":"a674wk5cazg8","sr":5.0},"type":"Feature","geometry":{"type":"Point","coordinates":[-81.626083,41.316554]}},{"properties":{"zip":44142.0,"latitude":41.397944,"longitude":-81.811811,"id":"a674wk2ythvt","sr":1.0},"type":"Feature","geometry":{"type":"Point","coordinates":[-81.811811,41.397944]}},{"properties":{"zip":44143.0,"latitude":41.552195,"longitude":-81.484715,"id":"a674wk6oyjbq","sr":8.0},"type":"Feature","geometry":{"type":"Point","coordinates":[-81.484715,41.552195]}},{"properties":{"zip":44144.0,"latitude":41.434419,"longitude":-81.735222,"id":"a674wk373tpf","sr":1.0},"type":"Feature","geometry":{"type":"Point","coordinates":[-81.735222,41.434419]}},{"properties":{"zip":44145.0,"latitude":41.453459,"longitude":-81.921771,"id":"a674wk4ue3wu","sr":5.0},"type":"Feature","geometry":{"type":"Point","coordinates":[-81.921771,41.453459]}},{"properties":{"zip":44146.0,"latitude":41.392067,"longitude":-81.52315,"id":"a674wk3p6avg","sr":3.0},"type":"Feature","geometry":{"type":"Point","coordinates":[-81.52315,41.392067]}},{"properties":{"zip":44147.0,"latitude":41.32907,"longitude":-81.680879,"id":"a674wjvh95y3","sr":9.0},"type":"Feature","geometry":{"type":"Point","coordinates":[-81.680879,41.32907]}},{"properties":{"zip":44149.0,"latitude":41.31657,"longitude":-81.854344,"id":"a674wjuc973z","sr":5.0},"type":"Feature","geometry":{"type":"Point","coordinates":[-81.854344,41.31657]}},{"properties":{"zip":44201.0,"latitude":41.033487,"longitude":-81.198456,"id":"a674wjz1ayep","sr":1.0},"type":"Feature","geometry":{"type":"Point","coordinates":[-81.198456,41.033487]}},{"properties":{"zip":44202.0,"latitude":41.320935,"longitude":-81.360424,"id":"a674wk6lu9ju","sr":2.0},"type":"Feature","geometry":{"type":"Point","coordinates":[-81.360424,41.320935]}},{"properties":{"zip":44212.0,"latitude":41.247053,"longitude":-81.827968,"id":"a674wjxefo21","sr":7.0},"type":"Feature","geometry":{"type":"Point","coordinates":[-81.827968,41.247053]}},{"properties":{"zip":44223.0,"latitude":41.146448,"longitude":-81.510719,"id":"a674wk5zl9pl","sr":2.0},"type":"Feature","geometry":{"type":"Point","coordinates":[-81.510719,41.146448]}},{"properties":{"zip":44224.0,"latitude":41.174808,"longitude":-81.438017,"id":"a674wk5sa3w5","sr":3.0},"type":"Feature","geometry":{"type":"Point","coordinates":[-81.438017,41.174808]}},{"properties":{"zip":44230.0,"latitude":40.965042,"longitude":-81.684845,"id":"a674wk9iza6x","sr":1.0},"type":"Feature","geometry":{"type":"Point","coordinates":[-81.684845,40.965042]}},{"properties":{"zip":44233.0,"latitude":41.241872,"longitude":-81.74527,"id":"a674wjy6t3mg","sr":2.0},"type":"Feature","geometry":{"type":"Point","coordinates":[-81.74527,41.241872]}},{"properties":{"zip":44234.0,"latitude":41.332253,"longitude":-81.14644,"id":"a674wka1c7t4","sr":1.0},"type":"Feature","geometry":{"type":"Point","coordinates":[-81.14644,41.332253]}},{"properties":{"zip":44236.0,"latitude":41.245836,"longitude":-81.436659,"id":"a674wk4lcyom","sr":8.0},"type":"Feature","geometry":{"type":"Point","coordinates":[-81.436659,41.245836]}},{"properties":{"zip":44240.0,"latitude":41.14492,"longitude":-81.34976,"id":"a674wjvvnk2q","sr":2.0},"type":"Feature","geometry":{"type":"Point","coordinates":[-81.34976,41.14492]}},{"properties":{"zip":44241.0,"latitude":41.249099,"longitude":-81.338298,"id":"a674wjusi1hu","sr":1.0},"type":"Feature","geometry":{"type":"Point","coordinates":[-81.338298,41.249099]}},{"properties":{"zip":44253.0,"latitude":41.166847,"longitude":-82.015674,"id":"a674wk6rnxud","sr":1.0},"type":"Feature","geometry":{"type":"Point","coordinates":[-82.015674,41.166847]}},{"properties":{"zip":44255.0,"latitude":41.294141,"longitude":-81.228259,"id":"a674wjv6z3hx","sr":1.0},"type":"Feature","geometry":{"type":"Point","coordinates":[-81.228259,41.294141]}},{"properties":{"zip":44256.0,"latitude":41.140415,"longitude":-81.858351,"id":"a674wk6a5i77","sr":2.0},"type":"Feature","geometry":{"type":"Point","coordinates":[-81.858351,41.140415]}},{"properties":{"zip":44260.0,"latitude":41.038196,"longitude":-81.358963,"id":"a674wk00g29x","sr":1.0},"type":"Feature","geometry":{"type":"Point","coordinates":[-81.358963,41.038196]}},{"properties":{"zip":44266.0,"latitude":41.164886,"longitude":-81.233656,"id":"a674wk7lx2nu","sr":1.0},"type":"Feature","geometry":{"type":"Point","coordinates":[-81.233656,41.164886]}},{"properties":{"zip":44280.0,"latitude":41.236806,"longitude":-81.924467,"id":"a674wjx8j74e","sr":2.0},"type":"Feature","geometry":{"type":"Point","coordinates":[-81.924467,41.236806]}},{"properties":{"zip":44281.0,"latitude":41.038375,"longitude":-81.737373,"id":"a674wjzdzlsh","sr":4.0},"type":"Feature","geometry":{"type":"Point","coordinates":[-81.737373,41.038375]}},{"properties":{"zip":44301.0,"latitude":41.044852,"longitude":-81.520048,"id":"a674wjytawwi","sr":1.0},"type":"Feature","geometry":{"type":"Point","coordinates":[-81.520048,41.044852]}},{"properties":{"zip":44306.0,"latitude":41.04791,"longitude":-81.491554,"id":"a674wjxl1rab","sr":1.0},"type":"Feature","geometry":{"type":"Point","coordinates":[-81.491554,41.04791]}},{"properties":{"zip":44313.0,"latitude":41.121995,"longitude":-81.568487,"id":"a674wk1484dm","sr":3.0},"type":"Feature","geometry":{"type":"Point","coordinates":[-81.568487,41.121995]}},{"properties":{"zip":44319.0,"latitude":40.97912,"longitude":-81.53468,"id":"a674wjwfky4b","sr":1.0},"type":"Feature","geometry":{"type":"Point","coordinates":[-81.53468,40.97912]}},{"properties":{"zip":44321.0,"latitude":41.103139,"longitude":-81.648045,"id":"a674wk216cph","sr":1.0},"type":"Feature","geometry":{"type":"Point","coordinates":[-81.648045,41.103139]}},{"properties":{"zip":44333.0,"latitude":41.146734,"longitude":-81.62385,"id":"a674wk60c46m","sr":3.0},"type":"Feature","geometry":{"type":"Point","coordinates":[-81.62385,41.146734]}},{"properties":{"zip":44408.0,"latitude":40.885279,"longitude":-80.697473,"id":"a674wjupzese","sr":1.0},"type":"Feature","geometry":{"type":"Point","coordinates":[-80.697473,40.885279]}},{"properties":{"zip":44410.0,"latitude":41.325125,"longitude":-80.732745,"id":"a674wk1itvvs","sr":1.0},"type":"Feature","geometry":{"type":"Point","coordinates":[-80.732745,41.325125]}},{"properties":{"zip":44438.0,"latitude":41.22552,"longitude":-80.532565,"id":"a674wk869tw3","sr":1.0},"type":"Feature","geometry":{"type":"Point","coordinates":[-80.532565,41.22552]}},{"properties":{"zip":44452.0,"latitude":40.964866,"longitude":-80.654911,"id":"a674wjyf918h","sr":1.0},"type":"Feature","geometry":{"type":"Point","coordinates":[-80.654911,40.964866]}},{"properties":{"zip":44460.0,"latitude":40.900024,"longitude":-80.861883,"id":"a674wjxdrdui","sr":1.0},"type":"Feature","geometry":{"type":"Point","coordinates":[-80.861883,40.900024]}},{"properties":{"zip":44484.0,"latitude":41.231819,"longitude":-80.764243,"id":"a674wju7irta","sr":3.0},"type":"Feature","geometry":{"type":"Point","coordinates":[-80.764243,41.231819]}},{"properties":{"zip":44502.0,"latitude":41.077366,"longitude":-80.640905,"id":"a674wjviz0co","sr":1.0},"type":"Feature","geometry":{"type":"Point","coordinates":[-80.640905,41.077366]}},{"properties":{"zip":44511.0,"latitude":41.070402,"longitude":-80.693098,"id":"a674wjxkfpd3","sr":1.0},"type":"Feature","geometry":{"type":"Point","coordinates":[-80.693098,41.070402]}},{"properties":{"zip":44512.0,"latitude":41.031985,"longitude":-80.666629,"id":"a674wk3s3d7q","sr":1.0},"type":"Feature","geometry":{"type":"Point","coordinates":[-80.666629,41.031985]}},{"properties":{"zip":44515.0,"latitude":41.093903,"longitude":-80.743966,"id":"a674wjzdg7hs","sr":2.0},"type":"Feature","geometry":{"type":"Point","coordinates":[-80.743966,41.093903]}},{"properties":{"zip":44601.0,"latitude":40.915842,"longitude":-81.118193,"id":"a674wjzosvku","sr":3.0},"type":"Feature","geometry":{"type":"Point","coordinates":[-81.118193,40.915842]}},{"properties":{"zip":44611.0,"latitude":40.618777,"longitude":-82.072048,"id":"a674wk84azgq","sr":1.0},"type":"Feature","geometry":{"type":"Point","coordinates":[-82.072048,40.618777]}},{"properties":{"zip":44614.0,"latitude":40.88871,"longitude":-81.577269,"id":"a674wk2umlyw","sr":2.0},"type":"Feature","geometry":{"type":"Point","coordinates":[-81.577269,40.88871]}},{"properties":{"zip":44632.0,"latitude":40.961798,"longitude":-81.323873,"id":"a674wjworgdh","sr":1.0},"type":"Feature","geometry":{"type":"Point","coordinates":[-81.323873,40.961798]}},{"properties":{"zip":44641.0,"latitude":40.847729,"longitude":-81.259464,"id":"a674wk1mdy4z","sr":1.0},"type":"Feature","geometry":{"type":"Point","coordinates":[-81.259464,40.847729]}},{"properties":{"zip":44644.0,"latitude":40.684532,"longitude":-81.18378,"id":"a674wjv1h7fl","sr":1.0},"type":"Feature","geometry":{"type":"Point","coordinates":[-81.18378,40.684532]}},{"properties":{"zip":44646.0,"latitude":40.811605,"longitude":-81.497263,"id":"a674wk88dh3y","sr":2.0},"type":"Feature","geometry":{"type":"Point","coordinates":[-81.497263,40.811605]}},{"properties":{"zip":44663.0,"latitude":40.484539,"longitude":-81.435827,"id":"a674wk7slu1r","sr":2.0},"type":"Feature","geometry":{"type":"Point","coordinates":[-81.435827,40.484539]}},{"properties":{"zip":44685.0,"latitude":40.963694,"longitude":-81.421108,"id":"a674wjzetwkp","sr":1.0},"type":"Feature","geometry":{"type":"Point","coordinates":[-81.421108,40.963694]}},{"properties":{"zip":44691.0,"latitude":40.809354,"longitude":-81.948272,"id":"a674wjxi9117","sr":2.0},"type":"Feature","geometry":{"type":"Point","coordinates":[-81.948272,40.809354]}},{"properties":{"zip":44714.0,"latitude":40.827174,"longitude":-81.360963,"id":"a674wk6w4jkj","sr":1.0},"type":"Feature","geometry":{"type":"Point","coordinates":[-81.360963,40.827174]}},{"properties":{"zip":44718.0,"latitude":40.85479,"longitude":-81.448514,"id":"a674wjzlmf4f","sr":3.0},"type":"Feature","geometry":{"type":"Point","coordinates":[-81.448514,40.85479]}},{"properties":{"zip":44720.0,"latitude":40.889919,"longitude":-81.413464,"id":"a674wk6rgl0k","sr":3.0},"type":"Feature","geometry":{"type":"Point","coordinates":[-81.413464,40.889919]}},{"properties":{"zip":44721.0,"latitude":40.883446,"longitude":-81.33279,"id":"a674wk9qq5hm","sr":2.0},"type":"Feature","geometry":{"type":"Point","coordinates":[-81.33279,40.883446]}},{"properties":{"zip":44805.0,"latitude":40.855892,"longitude":-82.318931,"id":"a674wjtyq3hq","sr":1.0},"type":"Feature","geometry":{"type":"Point","coordinates":[-82.318931,40.855892]}},{"properties":{"zip":44811.0,"latitude":41.268432,"longitude":-82.85765,"id":"a674wk4knmh2","sr":1.0},"type":"Feature","geometry":{"type":"Point","coordinates":[-82.85765,41.268432]}},{"properties":{"zip":44830.0,"latitude":41.162346,"longitude":-83.413938,"id":"a674wk7tw0rv","sr":1.0},"type":"Feature","geometry":{"type":"Point","coordinates":[-83.413938,41.162346]}},{"properties":{"zip":44839.0,"latitude":41.390662,"longitude":-82.555491,"id":"a674wk75axyl","sr":1.0},"type":"Feature","geometry":{"type":"Point","coordinates":[-82.555491,41.390662]}},{"properties":{"zip":44842.0,"latitude":40.636059,"longitude":-82.23559,"id":"a674wk5zro7y","sr":2.0},"type":"Feature","geometry":{"type":"Point","coordinates":[-82.23559,40.636059]}},{"properties":{"zip":44857.0,"latitude":41.240314,"longitude":-82.60785,"id":"a674wk634own","sr":1.0},"type":"Feature","geometry":{"type":"Point","coordinates":[-82.60785,41.240314]}},{"properties":{"zip":44870.0,"latitude":41.434878,"longitude":-82.70633,"id":"a674wjvbp7ce","sr":1.0},"type":"Feature","geometry":{"type":"Point","coordinates":[-82.70633,41.434878]}},{"properties":{"zip":44883.0,"latitude":41.123822,"longitude":-83.184356,"id":"a674wju9fogf","sr":1.0},"type":"Feature","geometry":{"type":"Point","coordinates":[-83.184356,41.123822]}},{"properties":{"zip":45011.0,"latitude":39.405906,"longitude":-84.522117,"id":"a674wk7k5c3j","sr":1.0},"type":"Feature","geometry":{"type":"Point","coordinates":[-84.522117,39.405906]}},{"properties":{"zip":45013.0,"latitude":39.40619,"longitude":-84.606655,"id":"a674wk7honnn","sr":1.0},"type":"Feature","geometry":{"type":"Point","coordinates":[-84.606655,39.40619]}},{"properties":{"zip":45014.0,"latitude":39.326602,"longitude":-84.547881,"id":"a674wjweq027","sr":3.0},"type":"Feature","geometry":{"type":"Point","coordinates":[-84.547881,39.326602]}},{"properties":{"zip":45036.0,"latitude":39.442047,"longitude":-84.218754,"id":"a674wjvr4i4i","sr":2.0},"type":"Feature","geometry":{"type":"Point","coordinates":[-84.218754,39.442047]}},{"properties":{"zip":45039.0,"latitude":39.313878,"longitude":-84.252567,"id":"a674wk3ftuzp","sr":1.0},"type":"Feature","geometry":{"type":"Point","coordinates":[-84.252567,39.313878]}},{"properties":{"zip":45040.0,"latitude":39.335741,"longitude":-84.314935,"id":"a674wjxmk9dk","sr":5.0},"type":"Feature","geometry":{"type":"Point","coordinates":[-84.314935,39.335741]}},{"properties":{"zip":45066.0,"latitude":39.562975,"longitude":-84.228774,"id":"a674wk6z5iuq","sr":1.0},"type":"Feature","geometry":{"type":"Point","coordinates":[-84.228774,39.562975]}},{"properties":{"zip":45069.0,"latitude":39.340243,"longitude":-84.399786,"id":"a674wk6zgvl2","sr":3.0},"type":"Feature","geometry":{"type":"Point","coordinates":[-84.399786,39.340243]}},{"properties":{"zip":45140.0,"latitude":39.244484,"longitude":-84.258802,"id":"a674wjwsa4jb","sr":2.0},"type":"Feature","geometry":{"type":"Point","coordinates":[-84.258802,39.244484]}},{"properties":{"zip":45150.0,"latitude":39.179987,"longitude":-84.243814,"id":"a674wk1y8yfr","sr":1.0},"type":"Feature","geometry":{"type":"Point","coordinates":[-84.243814,39.179987]}},{"properties":{"zip":45152.0,"latitude":39.347619,"longitude":-84.118085,"id":"a674wk6e0kl6","sr":2.0},"type":"Feature","geometry":{"type":"Point","coordinates":[-84.118085,39.347619]}},{"properties":{"zip":45157.0,"latitude":38.953663,"longitude":-84.237903,"id":"a674wk7wsxwn","sr":2.0},"type":"Feature","geometry":{"type":"Point","coordinates":[-84.237903,38.953663]}},{"properties":{"zip":45205.0,"latitude":39.110439,"longitude":-84.575672,"id":"a674wju5psuk","sr":1.0},"type":"Feature","geometry":{"type":"Point","coordinates":[-84.575672,39.110439]}},{"properties":{"zip":45207.0,"latitude":39.139747,"longitude":-84.470621,"id":"a674wjzvi5k6","sr":1.0},"type":"Feature","geometry":{"type":"Point","coordinates":[-84.470621,39.139747]}},{"properties":{"zip":45208.0,"latitude":39.136082,"longitude":-84.435474,"id":"a674wka2mkyd","sr":1.0},"type":"Feature","geometry":{"type":"Point","coordinates":[-84.435474,39.136082]}},{"properties":{"zip":45211.0,"latitude":39.152401,"longitude":-84.596714,"id":"a674wjwdbakj","sr":1.0},"type":"Feature","geometry":{"type":"Point","coordinates":[-84.596714,39.152401]}},{"properties":{"zip":45213.0,"latitude":39.182905,"longitude":-84.418701,"id":"a674wk0ov6nn","sr":2.0},"type":"Feature","geometry":{"type":"Point","coordinates":[-84.418701,39.182905]}},{"properties":{"zip":45215.0,"latitude":39.230063,"longitude":-84.457168,"id":"a674wk8uxloe","sr":1.0},"type":"Feature","geometry":{"type":"Point","coordinates":[-84.457168,39.230063]}},{"properties":{"zip":45230.0,"latitude":39.080861,"longitude":-84.378727,"id":"a674wjyk5igp","sr":2.0},"type":"Feature","geometry":{"type":"Point","coordinates":[-84.378727,39.080861]}},{"properties":{"zip":45233.0,"latitude":39.11928,"longitude":-84.669411,"id":"a674wk3kf7wj","sr":2.0},"type":"Feature","geometry":{"type":"Point","coordinates":[-84.669411,39.11928]}},{"properties":{"zip":45236.0,"latitude":39.207302,"longitude":-84.394746,"id":"a674wk5hlnhf","sr":1.0},"type":"Feature","geometry":{"type":"Point","coordinates":[-84.394746,39.207302]}},{"properties":{"zip":45237.0,"latitude":39.18797,"longitude":-84.457997,"id":"a674wjutic5r","sr":1.0},"type":"Feature","geometry":{"type":"Point","coordinates":[-84.457997,39.18797]}},{"properties":{"zip":45238.0,"latitude":39.111667,"longitude":-84.608805,"id":"a674wk4vmmpr","sr":1.0},"type":"Feature","geometry":{"type":"Point","coordinates":[-84.608805,39.111667]}},{"properties":{"zip":45240.0,"latitude":39.286424,"longitude":-84.526299,"id":"a674wk51wzp1","sr":2.0},"type":"Feature","geometry":{"type":"Point","coordinates":[-84.526299,39.286424]}},{"properties":{"zip":45241.0,"latitude":39.276745,"longitude":-84.391161,"id":"a674wjyq5w7t","sr":3.0},"type":"Feature","geometry":{"type":"Point","coordinates":[-84.391161,39.276745]}},{"properties":{"zip":45242.0,"latitude":39.239881,"longitude":-84.359919,"id":"a674wjymd3dl","sr":5.0},"type":"Feature","geometry":{"type":"Point","coordinates":[-84.359919,39.239881]}},{"properties":{"zip":45244.0,"latitude":39.107091,"longitude":-84.347765,"id":"a674wk6qb39e","sr":4.0},"type":"Feature","geometry":{"type":"Point","coordinates":[-84.347765,39.107091]}},{"properties":{"zip":45246.0,"latitude":39.28751,"longitude":-84.472353,"id":"a674wk0mnhcs","sr":1.0},"type":"Feature","geometry":{"type":"Point","coordinates":[-84.472353,39.28751]}},{"properties":{"zip":45247.0,"latitude":39.207604,"longitude":-84.631608,"id":"a674wjz1je75","sr":1.0},"type":"Feature","geometry":{"type":"Point","coordinates":[-84.631608,39.207604]}},{"properties":{"zip":45248.0,"latitude":39.159056,"longitude":-84.651535,"id":"a674wk39hnyx","sr":3.0},"type":"Feature","geometry":{"type":"Point","coordinates":[-84.651535,39.159056]}},{"properties":{"zip":45249.0,"latitude":39.275946,"longitude":-84.326673,"id":"a674wjwhzz1l","sr":3.0},"type":"Feature","geometry":{"type":"Point","coordinates":[-84.326673,39.275946]}},{"properties":{"zip":45255.0,"latitude":39.070642,"longitude":-84.330774,"id":"a674wjwoij25","sr":3.0},"type":"Feature","geometry":{"type":"Point","coordinates":[-84.330774,39.070642]}},{"properties":{"zip":45309.0,"latitude":39.841393,"longitude":-84.416464,"id":"a674wjzxu5jf","sr":1.0},"type":"Feature","geometry":{"type":"Point","coordinates":[-84.416464,39.841393]}},{"properties":{"zip":45324.0,"latitude":39.805311,"longitude":-84.019789,"id":"a674wk2v30x9","sr":1.0},"type":"Feature","geometry":{"type":"Point","coordinates":[-84.019789,39.805311]}},{"properties":{"zip":45339.0,"latitude":39.987091,"longitude":-84.333391,"id":"a674wjwm8ziy","sr":1.0},"type":"Feature","geometry":{"type":"Point","coordinates":[-84.333391,39.987091]}},{"properties":{"zip":45342.0,"latitude":39.632095,"longitude":-84.267477,"id":"a674wjx7pruh","sr":1.0},"type":"Feature","geometry":{"type":"Point","coordinates":[-84.267477,39.632095]}},{"properties":{"zip":45371.0,"latitude":39.943577,"longitude":-84.171501,"id":"a674wk6d0itw","sr":1.0},"type":"Feature","geometry":{"type":"Point","coordinates":[-84.171501,39.943577]}},{"properties":{"zip":45380.0,"latitude":40.227284,"longitude":-84.495697,"id":"a674wk3ntcou","sr":1.0},"type":"Feature","geometry":{"type":"Point","coordinates":[-84.495697,40.227284]}},{"properties":{"zip":45385.0,"latitude":39.684204,"longitude":-83.936878,"id":"a674wk4yf6re","sr":2.0},"type":"Feature","geometry":{"type":"Point","coordinates":[-83.936878,39.684204]}},{"properties":{"zip":45387.0,"latitude":39.799569,"longitude":-83.889066,"id":"a674wk6w6slp","sr":1.0},"type":"Feature","geometry":{"type":"Point","coordinates":[-83.889066,39.799569]}},{"properties":{"zip":45419.0,"latitude":39.715486,"longitude":-84.163656,"id":"a674wjym1hvk","sr":2.0},"type":"Feature","geometry":{"type":"Point","coordinates":[-84.163656,39.715486]}},{"properties":{"zip":45424.0,"latitude":39.845339,"longitude":-84.123287,"id":"a674wjuvflmt","sr":3.0},"type":"Feature","geometry":{"type":"Point","coordinates":[-84.123287,39.845339]}},{"properties":{"zip":45426.0,"latitude":39.810548,"longitude":-84.298283,"id":"a674wjvo5qnm","sr":1.0},"type":"Feature","geometry":{"type":"Point","coordinates":[-84.298283,39.810548]}},{"properties":{"zip":45431.0,"latitude":39.765396,"longitude":-84.099802,"id":"a674wk8kyumj","sr":1.0},"type":"Feature","geometry":{"type":"Point","coordinates":[-84.099802,39.765396]}},{"properties":{"zip":45434.0,"latitude":39.716552,"longitude":-84.040385,"id":"a674wjuuutdl","sr":1.0},"type":"Feature","geometry":{"type":"Point","coordinates":[-84.040385,39.716552]}},{"properties":{"zip":45435.0,"latitude":39.778982,"longitude":-84.066419,"id":"a674wjwxqv8d","sr":1.0},"type":"Feature","geometry":{"type":"Point","coordinates":[-84.066419,39.778982]}},{"properties":{"zip":45458.0,"latitude":39.615755,"longitude":-84.162697,"id":"a674wk8gc9wh","sr":2.0},"type":"Feature","geometry":{"type":"Point","coordinates":[-84.162697,39.615755]}},{"properties":{"zip":45459.0,"latitude":39.645957,"longitude":-84.166422,"id":"a674wk937t9l","sr":3.0},"type":"Feature","geometry":{"type":"Point","coordinates":[-84.166422,39.645957]}},{"properties":{"zip":45701.0,"latitude":39.317824,"longitude":-82.102011,"id":"a674wk3m5zvj","sr":1.0},"type":"Feature","geometry":{"type":"Point","coordinates":[-82.102011,39.317824]}},{"properties":{"zip":45801.0,"latitude":40.764066,"longitude":-84.097296,"id":"a674wjye1aw5","sr":1.0},"type":"Feature","geometry":{"type":"Point","coordinates":[-84.097296,40.764066]}},{"properties":{"zip":45805.0,"latitude":40.739911,"longitude":-84.14591,"id":"a674wk5imw3s","sr":1.0},"type":"Feature","geometry":{"type":"Point","coordinates":[-84.14591,40.739911]}},{"properties":{"zip":45806.0,"latitude":40.675926,"longitude":-84.144049,"id":"a674wk1tdp6q","sr":2.0},"type":"Feature","geometry":{"type":"Point","coordinates":[-84.144049,40.675926]}},{"properties":{"zip":45817.0,"latitude":40.878978,"longitude":-83.891397,"id":"a674wjviypdr","sr":1.0},"type":"Feature","geometry":{"type":"Point","coordinates":[-83.891397,40.878978]}},{"properties":{"zip":45827.0,"latitude":41.037934,"longitude":-84.29382,"id":"a674wjzkhiah","sr":1.0},"type":"Feature","geometry":{"type":"Point","coordinates":[-84.29382,41.037934]}},{"properties":{"zip":45840.0,"latitude":41.044903,"longitude":-83.645656,"id":"a674wjvspe8l","sr":1.0},"type":"Feature","geometry":{"type":"Point","coordinates":[-83.645656,41.044903]}},{"properties":{"zip":45875.0,"latitude":41.029747,"longitude":-84.047293,"id":"a674wk7de8a2","sr":1.0},"type":"Feature","geometry":{"type":"Point","coordinates":[-84.047293,41.029747]}},{"properties":{"zip":45879.0,"latitude":41.141016,"longitude":-84.572227,"id":"a674wjvpmjlf","sr":1.0},"type":"Feature","geometry":{"type":"Point","coordinates":[-84.572227,41.141016]}},{"properties":{"zip":45891.0,"latitude":40.868927,"longitude":-84.590364,"id":"a674wjz3ifvs","sr":1.0},"type":"Feature","geometry":{"type":"Point","coordinates":[-84.590364,40.868927]}},{"properties":{"zip":46077.0,"latitude":39.956111,"longitude":-86.276737,"id":"a674wjuicti9","sr":1.0},"type":"Feature","geometry":{"type":"Point","coordinates":[-86.276737,39.956111]}},{"properties":{"zip":46237.0,"latitude":39.686777,"longitude":-86.07891,"id":"a674wk8793gd","sr":1.0},"type":"Feature","geometry":{"type":"Point","coordinates":[-86.07891,39.686777]}},{"properties":{"zip":46256.0,"latitude":39.90114,"longitude":-86.023877,"id":"a674wk18qjj7","sr":1.0},"type":"Feature","geometry":{"type":"Point","coordinates":[-86.023877,39.90114]}},{"properties":{"zip":46350.0,"latitude":41.599438,"longitude":-86.707654,"id":"a674wk40kqna","sr":1.0},"type":"Feature","geometry":{"type":"Point","coordinates":[-86.707654,41.599438]}},{"properties":{"zip":46516.0,"latitude":41.676333,"longitude":-85.962137,"id":"a674wk2kbyfa","sr":1.0},"type":"Feature","geometry":{"type":"Point","coordinates":[-85.962137,41.676333]}},{"properties":{"zip":46530.0,"latitude":41.742704,"longitude":-86.141104,"id":"a674wjx0v9ta","sr":1.0},"type":"Feature","geometry":{"type":"Point","coordinates":[-86.141104,41.742704]}},{"properties":{"zip":46804.0,"latitude":41.050843,"longitude":-85.256013,"id":"a674wk625npp","sr":1.0},"type":"Feature","geometry":{"type":"Point","coordinates":[-85.256013,41.050843]}},{"properties":{"zip":46819.0,"latitude":41.005167,"longitude":-85.152743,"id":"a674wk594f7x","sr":1.0},"type":"Feature","geometry":{"type":"Point","coordinates":[-85.152743,41.005167]}},{"properties":{"zip":47060.0,"latitude":39.266727,"longitude":-84.878027,"id":"a674wk6ch2cc","sr":1.0},"type":"Feature","geometry":{"type":"Point","coordinates":[-84.878027,39.266727]}},{"properties":{"zip":48047.0,"latitude":42.675344,"longitude":-82.780102,"id":"a674wk3acq1z","sr":1.0},"type":"Feature","geometry":{"type":"Point","coordinates":[-82.780102,42.675344]}},{"properties":{"zip":48085.0,"latitude":42.59809,"longitude":-83.117599,"id":"a674wk2fqih3","sr":1.0},"type":"Feature","geometry":{"type":"Point","coordinates":[-83.117599,42.59809]}},{"properties":{"zip":48103.0,"latitude":42.279379,"longitude":-83.783998,"id":"a674wk1xng96","sr":2.0},"type":"Feature","geometry":{"type":"Point","coordinates":[-83.783998,42.279379]}},{"properties":{"zip":48105.0,"latitude":42.304247,"longitude":-83.706756,"id":"a674wk2rrt71","sr":2.0},"type":"Feature","geometry":{"type":"Point","coordinates":[-83.706756,42.304247]}},{"properties":{"zip":48138.0,"latitude":42.13465,"longitude":-83.153828,"id":"a674wjx8ixvo","sr":1.0},"type":"Feature","geometry":{"type":"Point","coordinates":[-83.153828,42.13465]}},{"properties":{"zip":48152.0,"latitude":42.425793,"longitude":-83.363603,"id":"a674wjy8trw7","sr":1.0},"type":"Feature","geometry":{"type":"Point","coordinates":[-83.363603,42.425793]}},{"properties":{"zip":48161.0,"latitude":41.92751,"longitude":-83.404848,"id":"a674wk04fxny","sr":1.0},"type":"Feature","geometry":{"type":"Point","coordinates":[-83.404848,41.92751]}},{"properties":{"zip":48167.0,"latitude":42.426245,"longitude":-83.479355,"id":"a674wjyp4yee","sr":1.0},"type":"Feature","geometry":{"type":"Point","coordinates":[-83.479355,42.426245]}},{"properties":{"zip":48169.0,"latitude":42.459579,"longitude":-83.909918,"id":"a674wk76r1qk","sr":1.0},"type":"Feature","geometry":{"type":"Point","coordinates":[-83.909918,42.459579]}},{"properties":{"zip":48183.0,"latitude":42.134304,"longitude":-83.218142,"id":"a674wk3t5obz","sr":1.0},"type":"Feature","geometry":{"type":"Point","coordinates":[-83.218142,42.134304]}},{"properties":{"zip":48219.0,"latitude":42.426033,"longitude":-83.249495,"id":"a674wka1fqbx","sr":1.0},"type":"Feature","geometry":{"type":"Point","coordinates":[-83.249495,42.426033]}},{"properties":{"zip":48301.0,"latitude":42.545044,"longitude":-83.2771,"id":"a674wk80pt8x","sr":1.0},"type":"Feature","geometry":{"type":"Point","coordinates":[-83.2771,42.545044]}},{"properties":{"zip":48304.0,"latitude":42.593764,"longitude":-83.234011,"id":"a674wk4w64sl","sr":1.0},"type":"Feature","geometry":{"type":"Point","coordinates":[-83.234011,42.593764]}},{"properties":{"zip":48316.0,"latitude":42.682668,"longitude":-83.060928,"id":"a674wk3eb46q","sr":1.0},"type":"Feature","geometry":{"type":"Point","coordinates":[-83.060928,42.682668]}},{"properties":{"zip":48322.0,"latitude":42.542366,"longitude":-83.379313,"id":"a674wk6ruq4y","sr":1.0},"type":"Feature","geometry":{"type":"Point","coordinates":[-83.379313,42.542366]}},{"properties":{"zip":48335.0,"latitude":42.463055,"longitude":-83.400134,"id":"a674wju6pg18","sr":1.0},"type":"Feature","geometry":{"type":"Point","coordinates":[-83.400134,42.463055]}},{"properties":{"zip":48375.0,"latitude":42.460354,"longitude":-83.457741,"id":"a674wka1o2g2","sr":2.0},"type":"Feature","geometry":{"type":"Point","coordinates":[-83.457741,42.460354]}},{"properties":{"zip":48382.0,"latitude":42.589424,"longitude":-83.49467,"id":"a674wjzx8dnh","sr":1.0},"type":"Feature","geometry":{"type":"Point","coordinates":[-83.49467,42.589424]}},{"properties":{"zip":48640.0,"latitude":43.637562,"longitude":-84.26796,"id":"a674wk7f3eae","sr":2.0},"type":"Feature","geometry":{"type":"Point","coordinates":[-84.26796,43.637562]}},{"properties":{"zip":49008.0,"latitude":42.262432,"longitude":-85.609645,"id":"a674wk2o9nz9","sr":1.0},"type":"Feature","geometry":{"type":"Point","coordinates":[-85.609645,42.262432]}},{"properties":{"zip":49009.0,"latitude":42.280947,"longitude":-85.686333,"id":"a674wk8458p2","sr":1.0},"type":"Feature","geometry":{"type":"Point","coordinates":[-85.686333,42.280947]}},{"properties":{"zip":49010.0,"latitude":42.525609,"longitude":-85.86608,"id":"a674wjz7wdqh","sr":1.0},"type":"Feature","geometry":{"type":"Point","coordinates":[-85.86608,42.525609]}},{"properties":{"zip":49024.0,"latitude":42.21411,"longitude":-85.618169,"id":"a674wk85swir","sr":1.0},"type":"Feature","geometry":{"type":"Point","coordinates":[-85.618169,42.21411]}},{"properties":{"zip":49201.0,"latitude":42.254522,"longitude":-84.387476,"id":"a674wk0tlz5n","sr":1.0},"type":"Feature","geometry":{"type":"Point","coordinates":[-84.387476,42.254522]}},{"properties":{"zip":49240.0,"latitude":42.271071,"longitude":-84.194041,"id":"a674wjw6xxdf","sr":1.0},"type":"Feature","geometry":{"type":"Point","coordinates":[-84.194041,42.271071]}},{"properties":{"zip":49417.0,"latitude":43.037838,"longitude":-86.191227,"id":"a674wk8km62q","sr":1.0},"type":"Feature","geometry":{"type":"Point","coordinates":[-86.191227,43.037838]}},{"properties":{"zip":49506.0,"latitude":42.943978,"longitude":-85.621317,"id":"a674wjyazdvh","sr":1.0},"type":"Feature","geometry":{"type":"Point","coordinates":[-85.621317,42.943978]}},{"properties":{"zip":49690.0,"latitude":44.801952,"longitude":-85.434732,"id":"a674wjuwsdlh","sr":1.0},"type":"Feature","geometry":{"type":"Point","coordinates":[-85.434732,44.801952]}},{"properties":{"zip":49855.0,"latitude":46.53124,"longitude":-87.389443,"id":"a674wjy2qcwv","sr":1.0},"type":"Feature","geometry":{"type":"Point","coordinates":[-87.389443,46.53124]}},{"properties":{"zip":49892.0,"latitude":45.762257,"longitude":-87.816811,"id":"a674wk6z6qmp","sr":1.0},"type":"Feature","geometry":{"type":"Point","coordinates":[-87.816811,45.762257]}},{"properties":{"zip":50131.0,"latitude":41.673017,"longitude":-93.702792,"id":"a674wk8lb76h","sr":1.0},"type":"Feature","geometry":{"type":"Point","coordinates":[-93.702792,41.673017]}},{"properties":{"zip":50219.0,"latitude":41.408175,"longitude":-92.917207,"id":"a674wjx01r5p","sr":1.0},"type":"Feature","geometry":{"type":"Point","coordinates":[-92.917207,41.408175]}},{"properties":{"zip":50265.0,"latitude":41.580512,"longitude":-93.744711,"id":"a674wjtp1o7c","sr":1.0},"type":"Feature","geometry":{"type":"Point","coordinates":[-93.744711,41.580512]}},{"properties":{"zip":52722.0,"latitude":41.550865,"longitude":-90.494201,"id":"a674wk44k2n3","sr":1.0},"type":"Feature","geometry":{"type":"Point","coordinates":[-90.494201,41.550865]}},{"properties":{"zip":53072.0,"latitude":43.078777,"longitude":-88.272922,"id":"a674wk9v0apu","sr":1.0},"type":"Feature","geometry":{"type":"Point","coordinates":[-88.272922,43.078777]}},{"properties":{"zip":53092.0,"latitude":43.225145,"longitude":-87.959357,"id":"a674wk9fo7si","sr":1.0},"type":"Feature","geometry":{"type":"Point","coordinates":[-87.959357,43.225145]}},{"properties":{"zip":53122.0,"latitude":43.047943,"longitude":-88.085374,"id":"a674wk60bjg1","sr":1.0},"type":"Feature","geometry":{"type":"Point","coordinates":[-88.085374,43.047943]}},{"properties":{"zip":53575.0,"latitude":42.929485,"longitude":-89.387002,"id":"a674wk60n70c","sr":1.0},"type":"Feature","geometry":{"type":"Point","coordinates":[-89.387002,42.929485]}},{"properties":{"zip":53726.0,"latitude":43.069555,"longitude":-89.421909,"id":"a674wk4vua1j","sr":1.0},"type":"Feature","geometry":{"type":"Point","coordinates":[-89.421909,43.069555]}},{"properties":{"zip":54621.0,"latitude":43.679372,"longitude":-91.079934,"id":"a674wk6lul4w","sr":1.0},"type":"Feature","geometry":{"type":"Point","coordinates":[-91.079934,43.679372]}},{"properties":{"zip":55110.0,"latitude":45.074527,"longitude":-93.011299,"id":"a674wjyzd77m","sr":1.0},"type":"Feature","geometry":{"type":"Point","coordinates":[-93.011299,45.074527]}},{"properties":{"zip":55117.0,"latitude":44.992165,"longitude":-93.103659,"id":"a674wk99wy7l","sr":1.0},"type":"Feature","geometry":{"type":"Point","coordinates":[-93.103659,44.992165]}},{"properties":{"zip":55345.0,"latitude":44.913808,"longitude":-93.484997,"id":"a674wk0dmrq9","sr":1.0},"type":"Feature","geometry":{"type":"Point","coordinates":[-93.484997,44.913808]}},{"properties":{"zip":55347.0,"latitude":44.834217,"longitude":-93.438934,"id":"a674wk03xmfp","sr":1.0},"type":"Feature","geometry":{"type":"Point","coordinates":[-93.438934,44.834217]}},{"properties":{"zip":55401.0,"latitude":44.983473,"longitude":-93.268251,"id":"a674wk0ot3ec","sr":1.0},"type":"Feature","geometry":{"type":"Point","coordinates":[-93.268251,44.983473]}},{"properties":{"zip":55436.0,"latitude":44.902305,"longitude":-93.370997,"id":"a674wk23jdy8","sr":1.0},"type":"Feature","geometry":{"type":"Point","coordinates":[-93.370997,44.902305]}},{"properties":{"zip":55441.0,"latitude":45.009836,"longitude":-93.422782,"id":"a674wjyus0iq","sr":1.0},"type":"Feature","geometry":{"type":"Point","coordinates":[-93.422782,45.009836]}},{"properties":{"zip":55444.0,"latitude":45.100172,"longitude":-93.302455,"id":"a674wk0z488c","sr":1.0},"type":"Feature","geometry":{"type":"Point","coordinates":[-93.302455,45.100172]}},{"properties":{"zip":55449.0,"latitude":45.172279,"longitude":-93.206478,"id":"a674wk6by1w4","sr":1.0},"type":"Feature","geometry":{"type":"Point","coordinates":[-93.206478,45.172279]}},{"properties":{"zip":55804.0,"latitude":46.855131,"longitude":-92.007433,"id":"a674wk3snwfu","sr":1.0},"type":"Feature","geometry":{"type":"Point","coordinates":[-92.007433,46.855131]}},{"properties":{"zip":60010.0,"latitude":42.161387,"longitude":-88.138345,"id":"a674wk937n9g","sr":2.0},"type":"Feature","geometry":{"type":"Point","coordinates":[-88.138345,42.161387]}},{"properties":{"zip":60015.0,"latitude":42.170494,"longitude":-87.859033,"id":"a674wju4dnuc","sr":1.0},"type":"Feature","geometry":{"type":"Point","coordinates":[-87.859033,42.170494]}},{"properties":{"zip":60030.0,"latitude":42.34848,"longitude":-88.037789,"id":"a674wjwowb09","sr":1.0},"type":"Feature","geometry":{"type":"Point","coordinates":[-88.037789,42.34848]}},{"properties":{"zip":60031.0,"latitude":42.366906,"longitude":-87.945232,"id":"a674wjw69hzw","sr":1.0},"type":"Feature","geometry":{"type":"Point","coordinates":[-87.945232,42.366906]}},{"properties":{"zip":60047.0,"latitude":42.196721,"longitude":-88.070299,"id":"a674wjzpocc2","sr":1.0},"type":"Feature","geometry":{"type":"Point","coordinates":[-88.070299,42.196721]}},{"properties":{"zip":60053.0,"latitude":42.043133,"longitude":-87.789879,"id":"a674wk6wv0d5","sr":1.0},"type":"Feature","geometry":{"type":"Point","coordinates":[-87.789879,42.043133]}},{"properties":{"zip":60056.0,"latitude":42.062392,"longitude":-87.937667,"id":"a674wk7rlxux","sr":2.0},"type":"Feature","geometry":{"type":"Point","coordinates":[-87.937667,42.062392]}},{"properties":{"zip":60060.0,"latitude":42.263616,"longitude":-88.004762,"id":"a674wk7iqrwm","sr":1.0},"type":"Feature","geometry":{"type":"Point","coordinates":[-88.004762,42.263616]}},{"properties":{"zip":60062.0,"latitude":42.125443,"longitude":-87.846535,"id":"a674wk74j6pf","sr":1.0},"type":"Feature","geometry":{"type":"Point","coordinates":[-87.846535,42.125443]}},{"properties":{"zip":60067.0,"latitude":42.113888,"longitude":-88.042937,"id":"a674wk440oxm","sr":1.0},"type":"Feature","geometry":{"type":"Point","coordinates":[-88.042937,42.113888]}},{"properties":{"zip":60069.0,"latitude":42.192872,"longitude":-87.904823,"id":"a674wk4a4zxr","sr":1.0},"type":"Feature","geometry":{"type":"Point","coordinates":[-87.904823,42.192872]}},{"properties":{"zip":60077.0,"latitude":42.034525,"longitude":-87.754123,"id":"a674wk2psokc","sr":1.0},"type":"Feature","geometry":{"type":"Point","coordinates":[-87.754123,42.034525]}},{"properties":{"zip":60089.0,"latitude":42.159843,"longitude":-87.964364,"id":"a674wk35os5y","sr":4.0},"type":"Feature","geometry":{"type":"Point","coordinates":[-87.964364,42.159843]}},{"properties":{"zip":60090.0,"latitude":42.13404,"longitude":-87.934097,"id":"a674wk7ilrpe","sr":1.0},"type":"Feature","geometry":{"type":"Point","coordinates":[-87.934097,42.13404]}},{"properties":{"zip":60118.0,"latitude":42.096197,"longitude":-88.290202,"id":"a674wk3j24v1","sr":1.0},"type":"Feature","geometry":{"type":"Point","coordinates":[-88.290202,42.096197]}},{"properties":{"zip":60178.0,"latitude":41.991117,"longitude":-88.692809,"id":"a674wk1z0dll","sr":1.0},"type":"Feature","geometry":{"type":"Point","coordinates":[-88.692809,41.991117]}},{"properties":{"zip":60185.0,"latitude":41.888558,"longitude":-88.202168,"id":"a674wjuc4ce2","sr":1.0},"type":"Feature","geometry":{"type":"Point","coordinates":[-88.202168,41.888558]}},{"properties":{"zip":60194.0,"latitude":42.039025,"longitude":-88.109442,"id":"a674wk6855vd","sr":1.0},"type":"Feature","geometry":{"type":"Point","coordinates":[-88.109442,42.039025]}},{"properties":{"zip":60302.0,"latitude":41.892471,"longitude":-87.789543,"id":"a674wjx3ozlv","sr":1.0},"type":"Feature","geometry":{"type":"Point","coordinates":[-87.789543,41.892471]}},{"properties":{"zip":60304.0,"latitude":41.872458,"longitude":-87.787712,"id":"a674wk0i5lo7","sr":1.0},"type":"Feature","geometry":{"type":"Point","coordinates":[-87.787712,41.872458]}},{"properties":{"zip":60448.0,"latitude":41.53421,"longitude":-87.891121,"id":"a674wjxkqm74","sr":1.0},"type":"Feature","geometry":{"type":"Point","coordinates":[-87.891121,41.53421]}},{"properties":{"zip":60477.0,"latitude":41.582535,"longitude":-87.804963,"id":"a674wk3x44bw","sr":2.0},"type":"Feature","geometry":{"type":"Point","coordinates":[-87.804963,41.582535]}},{"properties":{"zip":60490.0,"latitude":41.68062,"longitude":-88.142219,"id":"a674wk6ijzed","sr":1.0},"type":"Feature","geometry":{"type":"Point","coordinates":[-88.142219,41.68062]}},{"properties":{"zip":60521.0,"latitude":41.7891,"longitude":-87.940089,"id":"a674wjx3sl4v","sr":1.0},"type":"Feature","geometry":{"type":"Point","coordinates":[-87.940089,41.7891]}},{"properties":{"zip":60523.0,"latitude":41.83991,"longitude":-87.958114,"id":"a674wk19xurg","sr":1.0},"type":"Feature","geometry":{"type":"Point","coordinates":[-87.958114,41.83991]}},{"properties":{"zip":60527.0,"latitude":41.74948,"longitude":-87.932799,"id":"a674wk8erjff","sr":1.0},"type":"Feature","geometry":{"type":"Point","coordinates":[-87.932799,41.74948]}},{"properties":{"zip":60558.0,"latitude":41.804864,"longitude":-87.899485,"id":"a674wk1ut1zm","sr":1.0},"type":"Feature","geometry":{"type":"Point","coordinates":[-87.899485,41.804864]}},{"properties":{"zip":60561.0,"latitude":41.747179,"longitude":-87.979688,"id":"a674wk2u94bt","sr":1.0},"type":"Feature","geometry":{"type":"Point","coordinates":[-87.979688,41.747179]}},{"properties":{"zip":60564.0,"latitude":41.704022,"longitude":-88.195248,"id":"a674wk5bcseq","sr":1.0},"type":"Feature","geometry":{"type":"Point","coordinates":[-88.195248,41.704022]}},{"properties":{"zip":60565.0,"latitude":41.732833,"longitude":-88.128245,"id":"a674wk0dqdpj","sr":1.0},"type":"Feature","geometry":{"type":"Point","coordinates":[-88.128245,41.732833]}},{"properties":{"zip":60601.0,"latitude":41.885847,"longitude":-87.618123,"id":"a674wk8jasbi","sr":2.0},"type":"Feature","geometry":{"type":"Point","coordinates":[-87.618123,41.885847]}},{"properties":{"zip":60632.0,"latitude":41.809274,"longitude":-87.70518,"id":"a674wk5uq4cr","sr":1.0},"type":"Feature","geometry":{"type":"Point","coordinates":[-87.70518,41.809274]}},{"properties":{"zip":60637.0,"latitude":41.781312,"longitude":-87.605097,"id":"a674wk2tyfql","sr":1.0},"type":"Feature","geometry":{"type":"Point","coordinates":[-87.605097,41.781312]}},{"properties":{"zip":60645.0,"latitude":42.007718,"longitude":-87.6962,"id":"a674wjy8z3wb","sr":1.0},"type":"Feature","geometry":{"type":"Point","coordinates":[-87.6962,42.007718]}},{"properties":{"zip":60657.0,"latitude":41.93992,"longitude":-87.652805,"id":"a674wjvupgor","sr":1.0},"type":"Feature","geometry":{"type":"Point","coordinates":[-87.652805,41.93992]}},{"properties":{"zip":61008.0,"latitude":42.259465,"longitude":-88.850943,"id":"a674wk1dl65h","sr":1.0},"type":"Feature","geometry":{"type":"Point","coordinates":[-88.850943,42.259465]}},{"properties":{"zip":61526.0,"latitude":40.945367,"longitude":-89.585812,"id":"a674wk9j3rw8","sr":1.0},"type":"Feature","geometry":{"type":"Point","coordinates":[-89.585812,40.945367]}},{"properties":{"zip":61704.0,"latitude":40.471618,"longitude":-88.962466,"id":"a674wju50k95","sr":1.0},"type":"Feature","geometry":{"type":"Point","coordinates":[-88.962466,40.471618]}},{"properties":{"zip":62025.0,"latitude":38.804967,"longitude":-89.963697,"id":"a674wk0h1jcq","sr":1.0},"type":"Feature","geometry":{"type":"Point","coordinates":[-89.963697,38.804967]}},{"properties":{"zip":63005.0,"latitude":38.631832,"longitude":-90.614185,"id":"a674wk0db2r0","sr":2.0},"type":"Feature","geometry":{"type":"Point","coordinates":[-90.614185,38.631832]}},{"properties":{"zip":63017.0,"latitude":38.647241,"longitude":-90.53969,"id":"a674wk6p2vvh","sr":2.0},"type":"Feature","geometry":{"type":"Point","coordinates":[-90.53969,38.647241]}},{"properties":{"zip":63021.0,"latitude":38.577032,"longitude":-90.525527,"id":"a674wjvlu15q","sr":1.0},"type":"Feature","geometry":{"type":"Point","coordinates":[-90.525527,38.577032]}},{"properties":{"zip":63122.0,"latitude":38.58486,"longitude":-90.410042,"id":"a674wjz4pso1","sr":2.0},"type":"Feature","geometry":{"type":"Point","coordinates":[-90.410042,38.58486]}},{"properties":{"zip":63124.0,"latitude":38.642383,"longitude":-90.375468,"id":"a674wk47rrg6","sr":1.0},"type":"Feature","geometry":{"type":"Point","coordinates":[-90.375468,38.642383]}},{"properties":{"zip":63130.0,"latitude":38.663941,"longitude":-90.321896,"id":"a674wk1wd244","sr":1.0},"type":"Feature","geometry":{"type":"Point","coordinates":[-90.321896,38.663941]}},{"properties":{"zip":63132.0,"latitude":38.672823,"longitude":-90.369642,"id":"a674wk4v7ax4","sr":1.0},"type":"Feature","geometry":{"type":"Point","coordinates":[-90.369642,38.672823]}},{"properties":{"zip":63141.0,"latitude":38.661741,"longitude":-90.457072,"id":"a674wjtw6qsm","sr":2.0},"type":"Feature","geometry":{"type":"Point","coordinates":[-90.457072,38.661741]}},{"properties":{"zip":65203.0,"latitude":38.93482,"longitude":-92.363865,"id":"a674wjvg8piw","sr":1.0},"type":"Feature","geometry":{"type":"Point","coordinates":[-92.363865,38.93482]}},{"properties":{"zip":65807.0,"latitude":37.166799,"longitude":-93.308457,"id":"a674wk05qe96","sr":1.0},"type":"Feature","geometry":{"type":"Point","coordinates":[-93.308457,37.166799]}},{"properties":{"zip":66206.0,"latitude":38.960567,"longitude":-94.619644,"id":"a674wk2cnz0x","sr":2.0},"type":"Feature","geometry":{"type":"Point","coordinates":[-94.619644,38.960567]}},{"properties":{"zip":66216.0,"latitude":39.009289,"longitude":-94.738234,"id":"a674wk1j7s5q","sr":2.0},"type":"Feature","geometry":{"type":"Point","coordinates":[-94.738234,39.009289]}},{"properties":{"zip":66614.0,"latitude":39.015403,"longitude":-95.746883,"id":"a674wjymu261","sr":1.0},"type":"Feature","geometry":{"type":"Point","coordinates":[-95.746883,39.015403]}},{"properties":{"zip":68046.0,"latitude":41.152257,"longitude":-96.037052,"id":"a674wk66smfo","sr":1.0},"type":"Feature","geometry":{"type":"Point","coordinates":[-96.037052,41.152257]}},{"properties":{"zip":68144.0,"latitude":41.235599,"longitude":-96.116772,"id":"a674wjyupiju","sr":1.0},"type":"Feature","geometry":{"type":"Point","coordinates":[-96.116772,41.235599]}},{"properties":{"zip":70601.0,"latitude":30.228453,"longitude":-93.187966,"id":"a674wjuxzdzc","sr":1.0},"type":"Feature","geometry":{"type":"Point","coordinates":[-93.187966,30.228453]}},{"properties":{"zip":75025.0,"latitude":33.078377,"longitude":-96.729142,"id":"a674wk3g07ha","sr":2.0},"type":"Feature","geometry":{"type":"Point","coordinates":[-96.729142,33.078377]}},{"properties":{"zip":75075.0,"latitude":33.024985,"longitude":-96.739743,"id":"a674wk21qvhq","sr":1.0},"type":"Feature","geometry":{"type":"Point","coordinates":[-96.739743,33.024985]}},{"properties":{"zip":75087.0,"latitude":32.90456,"longitude":-96.454497,"id":"a674wk283q1v","sr":1.0},"type":"Feature","geometry":{"type":"Point","coordinates":[-96.454497,32.90456]}},{"properties":{"zip":76107.0,"latitude":32.739175,"longitude":-97.385248,"id":"a674wk2vcu7k","sr":1.0},"type":"Feature","geometry":{"type":"Point","coordinates":[-97.385248,32.739175]}},{"properties":{"zip":76180.0,"latitude":32.853966,"longitude":-97.220714,"id":"a674wk8eveau","sr":1.0},"type":"Feature","geometry":{"type":"Point","coordinates":[-97.220714,32.853966]}},{"properties":{"zip":77019.0,"latitude":29.751651,"longitude":-95.40539,"id":"a674wjvnit9a","sr":1.0},"type":"Feature","geometry":{"type":"Point","coordinates":[-95.40539,29.751651]}},{"properties":{"zip":77055.0,"latitude":29.797064,"longitude":-95.495787,"id":"a674wjysrojv","sr":1.0},"type":"Feature","geometry":{"type":"Point","coordinates":[-95.495787,29.797064]}},{"properties":{"zip":77059.0,"latitude":29.597493,"longitude":-95.113354,"id":"a674wjwajdsu","sr":2.0},"type":"Feature","geometry":{"type":"Point","coordinates":[-95.113354,29.597493]}},{"properties":{"zip":77090.0,"latitude":30.016673,"longitude":-95.447002,"id":"a674wk5bsi5o","sr":1.0},"type":"Feature","geometry":{"type":"Point","coordinates":[-95.447002,30.016673]}},{"properties":{"zip":77379.0,"latitude":30.023377,"longitude":-95.528481,"id":"a674wk4ap0nc","sr":1.0},"type":"Feature","geometry":{"type":"Point","coordinates":[-95.528481,30.023377]}},{"properties":{"zip":77401.0,"latitude":29.702313,"longitude":-95.461106,"id":"a674wjv3tgtp","sr":1.0},"type":"Feature","geometry":{"type":"Point","coordinates":[-95.461106,29.702313]}},{"properties":{"zip":77479.0,"latitude":29.578537,"longitude":-95.606591,"id":"a674wk4c7e07","sr":1.0},"type":"Feature","geometry":{"type":"Point","coordinates":[-95.606591,29.578537]}},{"properties":{"zip":78727.0,"latitude":30.425422,"longitude":-97.719488,"id":"a674wk465bnc","sr":1.0},"type":"Feature","geometry":{"type":"Point","coordinates":[-97.719488,30.425422]}},{"properties":{"zip":78729.0,"latitude":30.45206,"longitude":-97.768787,"id":"a674wjx0o5dl","sr":1.0},"type":"Feature","geometry":{"type":"Point","coordinates":[-97.768787,30.45206]}},{"properties":{"zip":80015.0,"latitude":39.62552,"longitude":-104.787438,"id":"a674wk1vh4q1","sr":1.0},"type":"Feature","geometry":{"type":"Point","coordinates":[-104.787438,39.62552]}},{"properties":{"zip":80020.0,"latitude":39.924513,"longitude":-105.060902,"id":"a674wk40zm0x","sr":1.0},"type":"Feature","geometry":{"type":"Point","coordinates":[-105.060902,39.924513]}},{"properties":{"zip":80122.0,"latitude":39.581418,"longitude":-104.955673,"id":"a674wjv2y8kh","sr":2.0},"type":"Feature","geometry":{"type":"Point","coordinates":[-104.955673,39.581418]}},{"properties":{"zip":80129.0,"latitude":39.541902,"longitude":-105.009682,"id":"a674wjuck0vk","sr":1.0},"type":"Feature","geometry":{"type":"Point","coordinates":[-105.009682,39.541902]}},{"properties":{"zip":80222.0,"latitude":39.682803,"longitude":-104.927992,"id":"a674wjx0yu1e","sr":1.0},"type":"Feature","geometry":{"type":"Point","coordinates":[-104.927992,39.682803]}},{"properties":{"zip":80524.0,"latitude":40.59865,"longitude":-105.05811,"id":"a674wk54u5c5","sr":1.0},"type":"Feature","geometry":{"type":"Point","coordinates":[-105.05811,40.59865]}},{"properties":{"zip":80601.0,"latitude":39.980553,"longitude":-104.810278,"id":"a674wjz2603s","sr":1.0},"type":"Feature","geometry":{"type":"Point","coordinates":[-104.810278,39.980553]}},{"properties":{"zip":80921.0,"latitude":39.048674,"longitude":-104.814042,"id":"a674wjtx1hhd","sr":1.0},"type":"Feature","geometry":{"type":"Point","coordinates":[-104.814042,39.048674]}},{"properties":{"zip":83704.0,"latitude":43.633001,"longitude":-116.295099,"id":"a674wk0vxvsn","sr":1.0},"type":"Feature","geometry":{"type":"Point","coordinates":[-116.295099,43.633001]}},{"properties":{"zip":84414.0,"latitude":41.311201,"longitude":-111.968924,"id":"a674wju7omey","sr":1.0},"type":"Feature","geometry":{"type":"Point","coordinates":[-111.968924,41.311201]}},{"properties":{"zip":85208.0,"latitude":33.398416,"longitude":-111.651297,"id":"a674wk9fgzzu","sr":1.0},"type":"Feature","geometry":{"type":"Point","coordinates":[-111.651297,33.398416]}},{"properties":{"zip":85210.0,"latitude":33.38867,"longitude":-111.842757,"id":"a674wk2pws1w","sr":1.0},"type":"Feature","geometry":{"type":"Point","coordinates":[-111.842757,33.38867]}},{"properties":{"zip":85254.0,"latitude":33.616476,"longitude":-111.955422,"id":"a674wjvbt7dj","sr":1.0},"type":"Feature","geometry":{"type":"Point","coordinates":[-111.955422,33.616476]}},{"properties":{"zip":85304.0,"latitude":33.594289,"longitude":-112.174575,"id":"a674wk7lm5pi","sr":1.0},"type":"Feature","geometry":{"type":"Point","coordinates":[-112.174575,33.594289]}},{"properties":{"zip":85310.0,"latitude":33.704726,"longitude":-112.164131,"id":"a674wk7ydkkd","sr":1.0},"type":"Feature","geometry":{"type":"Point","coordinates":[-112.164131,33.704726]}},{"properties":{"zip":85718.0,"latitude":32.311154,"longitude":-110.917882,"id":"a674wjvjplot","sr":1.0},"type":"Feature","geometry":{"type":"Point","coordinates":[-110.917882,32.311154]}},{"properties":{"zip":85737.0,"latitude":32.431679,"longitude":-110.954463,"id":"a674wk9buo1b","sr":1.0},"type":"Feature","geometry":{"type":"Point","coordinates":[-110.954463,32.431679]}},{"properties":{"zip":85749.0,"latitude":32.273285,"longitude":-110.765829,"id":"a674wk0efv8n","sr":1.0},"type":"Feature","geometry":{"type":"Point","coordinates":[-110.765829,32.273285]}},{"properties":{"zip":87111.0,"latitude":35.134724,"longitude":-106.522164,"id":"a674wk9e5dgy","sr":1.0},"type":"Feature","geometry":{"type":"Point","coordinates":[-106.522164,35.134724]}},{"properties":{"zip":89511.0,"latitude":39.41512,"longitude":-119.766846,"id":"a674wjvc6zub","sr":1.0},"type":"Feature","geometry":{"type":"Point","coordinates":[-119.766846,39.41512]}},{"properties":{"zip":90062.0,"latitude":34.00324,"longitude":-118.307277,"id":"a674wk9cbcla","sr":1.0},"type":"Feature","geometry":{"type":"Point","coordinates":[-118.307277,34.00324]}},{"properties":{"zip":90501.0,"latitude":33.826817,"longitude":-118.31183,"id":"a674wk9nc8rz","sr":1.0},"type":"Feature","geometry":{"type":"Point","coordinates":[-118.31183,33.826817]}},{"properties":{"zip":90807.0,"latitude":33.830712,"longitude":-118.18092,"id":"a674wk1o9bnk","sr":1.0},"type":"Feature","geometry":{"type":"Point","coordinates":[-118.18092,33.830712]}},{"properties":{"zip":91711.0,"latitude":34.109167,"longitude":-117.718293,"id":"a674wk77wuyu","sr":1.0},"type":"Feature","geometry":{"type":"Point","coordinates":[-117.718293,34.109167]}},{"properties":{"zip":91748.0,"latitude":33.981777,"longitude":-117.896946,"id":"a674wk6286ij","sr":1.0},"type":"Feature","geometry":{"type":"Point","coordinates":[-117.896946,33.981777]}},{"properties":{"zip":92126.0,"latitude":32.916136,"longitude":-117.140227,"id":"a674wk7d1wjm","sr":1.0},"type":"Feature","geometry":{"type":"Point","coordinates":[-117.140227,32.916136]}},{"properties":{"zip":92129.0,"latitude":32.965185,"longitude":-117.121308,"id":"a674wk8posw6","sr":1.0},"type":"Feature","geometry":{"type":"Point","coordinates":[-117.121308,32.965185]}},{"properties":{"zip":93940.0,"latitude":36.595642,"longitude":-121.8848,"id":"a674wk3zwyz9","sr":1.0},"type":"Feature","geometry":{"type":"Point","coordinates":[-121.8848,36.595642]}},{"properties":{"zip":94002.0,"latitude":37.517433,"longitude":-122.292671,"id":"a674wk6xi6uz","sr":1.0},"type":"Feature","geometry":{"type":"Point","coordinates":[-122.292671,37.517433]}},{"properties":{"zip":94010.0,"latitude":37.575884,"longitude":-122.362952,"id":"a674wjuzhqz4","sr":1.0},"type":"Feature","geometry":{"type":"Point","coordinates":[-122.362952,37.575884]}},{"properties":{"zip":94089.0,"latitude":37.398255,"longitude":-122.000637,"id":"a674wk8vbvn5","sr":1.0},"type":"Feature","geometry":{"type":"Point","coordinates":[-122.000637,37.398255]}},{"properties":{"zip":94127.0,"latitude":37.735385,"longitude":-122.457116,"id":"a674wjuc3z8l","sr":1.0},"type":"Feature","geometry":{"type":"Point","coordinates":[-122.457116,37.735385]}},{"properties":{"zip":94536.0,"latitude":37.560493,"longitude":-121.999935,"id":"a674wk24p2x2","sr":1.0},"type":"Feature","geometry":{"type":"Point","coordinates":[-121.999935,37.560493]}},{"properties":{"zip":94542.0,"latitude":37.658566,"longitude":-122.047236,"id":"a674wjvz9p2x","sr":1.0},"type":"Feature","geometry":{"type":"Point","coordinates":[-122.047236,37.658566]}},{"properties":{"zip":94544.0,"latitude":37.637443,"longitude":-122.067029,"id":"a674wk4pfgp8","sr":1.0},"type":"Feature","geometry":{"type":"Point","coordinates":[-122.067029,37.637443]}},{"properties":{"zip":94568.0,"latitude":37.716597,"longitude":-121.922589,"id":"a674wk4uv9hn","sr":1.0},"type":"Feature","geometry":{"type":"Point","coordinates":[-121.922589,37.716597]}},{"properties":{"zip":94596.0,"latitude":37.905279,"longitude":-122.054909,"id":"a674wk6dlomr","sr":1.0},"type":"Feature","geometry":{"type":"Point","coordinates":[-122.054909,37.905279]}},{"properties":{"zip":94598.0,"latitude":37.919424,"longitude":-122.025879,"id":"a674wka3k294","sr":1.0},"type":"Feature","geometry":{"type":"Point","coordinates":[-122.025879,37.919424]}},{"properties":{"zip":94610.0,"latitude":37.812636,"longitude":-122.244322,"id":"a674wka1jsnv","sr":1.0},"type":"Feature","geometry":{"type":"Point","coordinates":[-122.244322,37.812636]}},{"properties":{"zip":94611.0,"latitude":37.828157,"longitude":-122.22683,"id":"a674wk0s247y","sr":1.0},"type":"Feature","geometry":{"type":"Point","coordinates":[-122.22683,37.828157]}},{"properties":{"zip":94952.0,"latitude":38.240349,"longitude":-122.677727,"id":"a674wjuct2j9","sr":1.0},"type":"Feature","geometry":{"type":"Point","coordinates":[-122.677727,38.240349]}},{"properties":{"zip":95035.0,"latitude":37.436491,"longitude":-121.892885,"id":"a674wk15why0","sr":1.0},"type":"Feature","geometry":{"type":"Point","coordinates":[-121.892885,37.436491]}},{"properties":{"zip":95066.0,"latitude":37.057841,"longitude":-122.014961,"id":"a674wk2obk55","sr":1.0},"type":"Feature","geometry":{"type":"Point","coordinates":[-122.014961,37.057841]}},{"properties":{"zip":95126.0,"latitude":37.322482,"longitude":-121.917398,"id":"a674wk9dm8ht","sr":1.0},"type":"Feature","geometry":{"type":"Point","coordinates":[-121.917398,37.322482]}},{"properties":{"zip":95864.0,"latitude":38.587768,"longitude":-121.376889,"id":"a674wk94r0uw","sr":1.0},"type":"Feature","geometry":{"type":"Point","coordinates":[-121.376889,38.587768]}},{"properties":{"zip":96025.0,"latitude":41.212439,"longitude":-122.273397,"id":"a674wka0f3ap","sr":1.0},"type":"Feature","geometry":{"type":"Point","coordinates":[-122.273397,41.212439]}},{"properties":{"zip":96161.0,"latitude":39.338546,"longitude":-120.172942,"id":"a674wk75ejyl","sr":1.0},"type":"Feature","geometry":{"type":"Point","coordinates":[-120.172942,39.338546]}},{"properties":{"zip":96932.0,"latitude":13.47777,"longitude":144.751877,"id":"a674wk0yjv1a","sr":1.0},"type":"Feature","geometry":{"type":"Point","coordinates":[144.751877,13.47777]}},{"properties":{"zip":97137.0,"latitude":45.195996,"longitude":-122.96737,"id":"a674wjv5imh9","sr":1.0},"type":"Feature","geometry":{"type":"Point","coordinates":[-122.96737,45.195996]}},{"properties":{"zip":97212.0,"latitude":45.544127,"longitude":-122.642319,"id":"a674wjwp7cxe","sr":1.0},"type":"Feature","geometry":{"type":"Point","coordinates":[-122.642319,45.544127]}},{"properties":{"zip":97219.0,"latitude":45.457956,"longitude":-122.70738,"id":"a674wk3ezqm7","sr":1.0},"type":"Feature","geometry":{"type":"Point","coordinates":[-122.70738,45.457956]}},{"properties":{"zip":97229.0,"latitude":45.541087,"longitude":-122.829924,"id":"a674wjullamp","sr":2.0},"type":"Feature","geometry":{"type":"Point","coordinates":[-122.829924,45.541087]}},{"properties":{"zip":97470.0,"latitude":43.222726,"longitude":-123.366437,"id":"a674wjwtdlv5","sr":1.0},"type":"Feature","geometry":{"type":"Point","coordinates":[-123.366437,43.222726]}},{"properties":{"zip":98001.0,"latitude":47.316339,"longitude":-122.270057,"id":"a674wjxz1372","sr":1.0},"type":"Feature","geometry":{"type":"Point","coordinates":[-122.270057,47.316339]}},{"properties":{"zip":98052.0,"latitude":47.671796,"longitude":-122.123242,"id":"a674wk6kjrnk","sr":2.0},"type":"Feature","geometry":{"type":"Point","coordinates":[-122.123242,47.671796]}},{"properties":{"zip":98058.0,"latitude":47.446507,"longitude":-122.121586,"id":"a674wk2ecag0","sr":1.0},"type":"Feature","geometry":{"type":"Point","coordinates":[-122.121586,47.446507]}},{"properties":{"zip":99354.0,"latitude":46.306718,"longitude":-119.286971,"id":"a674wju8h3aw","sr":1.0},"type":"Feature","geometry":{"type":"Point","coordinates":[-119.286971,46.306718]}},{"properties":{"zip":99515.0,"latitude":61.119381,"longitude":-149.897401,"id":"a674wk9nd8ml","sr":1.0},"type":"Feature","geometry":{"type":"Point","coordinates":[-149.897401,61.119381]}}],"is_temporal":false,"author":{"url":"","metadata":"","contact_name":"","contact_address":"","source":"","contact_phone":""},"source":"","pagination":{"sort":null,"start":0,"total":662,"limit":1000000},"state":"complete","tags":"college,cwru,university","published":"2014-08-10T18:07:21-04:00","id":14239}