{"type":"FeatureCollection","data_type":"Dataset","url_type":null,"permissions":[{"permissions":{"download":true,"view":true},"group_id":"everyone"}],"classification":null,"title":"first years","count":646,"stream_id":14236,"contributor":{"url":"http://geocommons.com/users/7442","name":"trg9"},"data_attributes":null,"calculation_params":null,"icon_link":null,"link":"http://geocommons.com/overlays/14236.json","extent":[-157.965,-45.9036,170.491,61.2037],"geometry_types":["point"],"unique_name":null,"name":"first years","feature_count":646,"description":"","next_feature":null,"is_raster":false,"short_classification":"Y","stats":{"zip":{"max":99801.0,"mean":37875.1625386997,"variance":556462531.547183,"stdev":23589.458059633,"min":333.0,"median":44040.0},"latitude":{"max":61.203696,"mean":39.8538323452013,"variance":39.1118135527402,"stdev":6.25394383990936,"min":-45.903599,"median":40.84364},"firstyear":{"max":13.0,"mean":1.58668730650155,"variance":2.21185350517198,"stdev":1.48723014532788,"min":1.0,"median":1.0},"longitude":{"max":170.491226,"mean":-80.5364864117647,"variance":847.242527782204,"stdev":29.107430800093,"min":-157.965164,"median":-81.591277}},"features":[{"properties":{"zip":333.0,"latitude":25.02187,"firstyear":1.0,"longitude":121.367188,"id":"a62ie5fhsvqw"},"type":"Feature","geometry":{"type":"Point","coordinates":[121.367188,25.02187]}},{"properties":{"zip":700.0,"latitude":35.86132,"firstyear":1.0,"longitude":128.592056,"id":"a62ie5dox7p3"},"type":"Feature","geometry":{"type":"Point","coordinates":[128.592056,35.86132]}},{"properties":{"zip":710.0,"latitude":23.026911,"firstyear":1.0,"longitude":120.253067,"id":"a62ie5di1lyc"},"type":"Feature","geometry":{"type":"Point","coordinates":[120.253067,23.026911]}},{"properties":{"zip":987.0,"latitude":22.581739,"firstyear":1.0,"longitude":-102.18573,"id":"a62ie56ncecx"},"type":"Feature","geometry":{"type":"Point","coordinates":[-102.18573,22.581739]}},{"properties":{"zip":1077.0,"latitude":42.051099,"firstyear":1.0,"longitude":-72.770588,"id":"a62ie536r63l"},"type":"Feature","geometry":{"type":"Point","coordinates":[-72.770588,42.051099]}},{"properties":{"zip":1106.0,"latitude":42.050658,"firstyear":1.0,"longitude":-72.5676,"id":"a62ie52nwjgw"},"type":"Feature","geometry":{"type":"Point","coordinates":[-72.5676,42.050658]}},{"properties":{"zip":1292.0,"latitude":-33.869629,"firstyear":1.0,"longitude":151.206955,"id":"a62ie530glkh"},"type":"Feature","geometry":{"type":"Point","coordinates":[151.206955,-33.869629]}},{"properties":{"zip":1523.0,"latitude":42.450984,"firstyear":1.0,"longitude":-71.686831,"id":"a62ie518nynl"},"type":"Feature","geometry":{"type":"Point","coordinates":[-71.686831,42.450984]}},{"properties":{"zip":1545.0,"latitude":42.284801,"firstyear":1.0,"longitude":-71.720503,"id":"a62ie5esna5y"},"type":"Feature","geometry":{"type":"Point","coordinates":[-71.720503,42.284801]}},{"properties":{"zip":1569.0,"latitude":42.074426,"firstyear":1.0,"longitude":-71.632869,"id":"a62ie5fkdr8j"},"type":"Feature","geometry":{"type":"Point","coordinates":[-71.632869,42.074426]}},{"properties":{"zip":1719.0,"latitude":42.486876,"firstyear":1.0,"longitude":-71.518229,"id":"a62ie5az319b"},"type":"Feature","geometry":{"type":"Point","coordinates":[-71.518229,42.486876]}},{"properties":{"zip":1720.0,"latitude":42.475076,"firstyear":1.0,"longitude":-71.448255,"id":"a62ie53njteg"},"type":"Feature","geometry":{"type":"Point","coordinates":[-71.448255,42.475076]}},{"properties":{"zip":1748.0,"latitude":42.219046,"firstyear":1.0,"longitude":-71.530178,"id":"a62ie51c2dux"},"type":"Feature","geometry":{"type":"Point","coordinates":[-71.530178,42.219046]}},{"properties":{"zip":1776.0,"latitude":42.383655,"firstyear":1.0,"longitude":-71.428159,"id":"a62ie54adgvr"},"type":"Feature","geometry":{"type":"Point","coordinates":[-71.428159,42.383655]}},{"properties":{"zip":1778.0,"latitude":42.348629,"firstyear":1.0,"longitude":-71.358781,"id":"a62ie561vb0b"},"type":"Feature","geometry":{"type":"Point","coordinates":[-71.358781,42.348629]}},{"properties":{"zip":1810.0,"latitude":42.64956,"firstyear":1.0,"longitude":-71.156481,"id":"a62ie52mx6tx"},"type":"Feature","geometry":{"type":"Point","coordinates":[-71.156481,42.64956]}},{"properties":{"zip":2030.0,"latitude":42.236233,"firstyear":1.0,"longitude":-71.285363,"id":"a62ie56g2mlu"},"type":"Feature","geometry":{"type":"Point","coordinates":[-71.285363,42.236233]}},{"properties":{"zip":2043.0,"latitude":42.224485,"firstyear":2.0,"longitude":-70.891051,"id":"a62ie5hkns21"},"type":"Feature","geometry":{"type":"Point","coordinates":[-70.891051,42.224485]}},{"properties":{"zip":2050.0,"latitude":42.106177,"firstyear":1.0,"longitude":-70.69931,"id":"a62ie537m4vu"},"type":"Feature","geometry":{"type":"Point","coordinates":[-70.69931,42.106177]}},{"properties":{"zip":2052.0,"latitude":42.184525,"firstyear":1.0,"longitude":-71.304813,"id":"a62ie5hb1fli"},"type":"Feature","geometry":{"type":"Point","coordinates":[-71.304813,42.184525]}},{"properties":{"zip":2072.0,"latitude":42.125279,"firstyear":1.0,"longitude":-71.107357,"id":"a62ie5ci8yf4"},"type":"Feature","geometry":{"type":"Point","coordinates":[-71.107357,42.125279]}},{"properties":{"zip":2090.0,"latitude":42.214824,"firstyear":1.0,"longitude":-71.210426,"id":"a62ie5dvh35q"},"type":"Feature","geometry":{"type":"Point","coordinates":[-71.210426,42.214824]}},{"properties":{"zip":2138.0,"latitude":42.377045,"firstyear":1.0,"longitude":-71.125611,"id":"a62ie54wp8pn"},"type":"Feature","geometry":{"type":"Point","coordinates":[-71.125611,42.377045]}},{"properties":{"zip":2152.0,"latitude":42.376294,"firstyear":1.0,"longitude":-70.980043,"id":"a62ie5c2n8lf"},"type":"Feature","geometry":{"type":"Point","coordinates":[-70.980043,42.376294]}},{"properties":{"zip":2331.0,"latitude":32.827881,"firstyear":1.0,"longitude":117.490601,"id":"a62ie5feettw"},"type":"Feature","geometry":{"type":"Point","coordinates":[117.490601,32.827881]}},{"properties":{"zip":2421.0,"latitude":31.059509,"firstyear":1.0,"longitude":119.239388,"id":"a62ie54wo83s"},"type":"Feature","geometry":{"type":"Point","coordinates":[119.239388,31.059509]}},{"properties":{"zip":2445.0,"latitude":-31.574551,"firstyear":2.0,"longitude":152.811356,"id":"a62ie56ta4lh"},"type":"Feature","geometry":{"type":"Point","coordinates":[152.811356,-31.574551]}},{"properties":{"zip":2467.0,"latitude":30.84939,"firstyear":1.0,"longitude":117.383072,"id":"a62ie569ocun"},"type":"Feature","geometry":{"type":"Point","coordinates":[117.383072,30.84939]}},{"properties":{"zip":2816.0,"latitude":41.69143,"firstyear":1.0,"longitude":-71.576794,"id":"a62ie5cn8avt"},"type":"Feature","geometry":{"type":"Point","coordinates":[-71.576794,41.69143]}},{"properties":{"zip":2886.0,"latitude":41.702601,"firstyear":1.0,"longitude":-71.447591,"id":"a62ie5d0zt0g"},"type":"Feature","geometry":{"type":"Point","coordinates":[-71.447591,41.702601]}},{"properties":{"zip":2896.0,"latitude":47.686951,"firstyear":1.0,"longitude":18.3321,"id":"a62ie5e8tiza"},"type":"Feature","geometry":{"type":"Point","coordinates":[18.3321,47.686951]}},{"properties":{"zip":3049.0,"latitude":42.748513,"firstyear":1.0,"longitude":-71.577206,"id":"a62ie57s5a8b"},"type":"Feature","geometry":{"type":"Point","coordinates":[-71.577206,42.748513]}},{"properties":{"zip":3055.0,"latitude":42.828497,"firstyear":1.0,"longitude":-71.660569,"id":"a62ie5f5a13e"},"type":"Feature","geometry":{"type":"Point","coordinates":[-71.660569,42.828497]}},{"properties":{"zip":3301.0,"latitude":43.218525,"firstyear":1.0,"longitude":-71.527734,"id":"a62ie57qhqon"},"type":"Feature","geometry":{"type":"Point","coordinates":[-71.527734,43.218525]}},{"properties":{"zip":3801.0,"latitude":43.066524,"firstyear":1.0,"longitude":-70.780412,"id":"a62ie5ff4h3o"},"type":"Feature","geometry":{"type":"Point","coordinates":[-70.780412,43.066524]}},{"properties":{"zip":4105.0,"latitude":43.734038,"firstyear":1.0,"longitude":-70.26253,"id":"a62ie573xpqp"},"type":"Feature","geometry":{"type":"Point","coordinates":[-70.26253,43.734038]}},{"properties":{"zip":4210.0,"latitude":44.094785,"firstyear":1.0,"longitude":-70.238978,"id":"a62ie56hd2bg"},"type":"Feature","geometry":{"type":"Point","coordinates":[-70.238978,44.094785]}},{"properties":{"zip":4364.0,"latitude":44.314031,"firstyear":1.0,"longitude":-69.973128,"id":"a62ie5c2fcxa"},"type":"Feature","geometry":{"type":"Point","coordinates":[-69.973128,44.314031]}},{"properties":{"zip":4605.0,"latitude":44.554824,"firstyear":1.0,"longitude":-68.412093,"id":"a62ie5g7go6u"},"type":"Feature","geometry":{"type":"Point","coordinates":[-68.412093,44.554824]}},{"properties":{"zip":5446.0,"latitude":44.535956,"firstyear":1.0,"longitude":-73.202216,"id":"a62ie51oe14s"},"type":"Feature","geometry":{"type":"Point","coordinates":[-73.202216,44.535956]}},{"properties":{"zip":5482.0,"latitude":44.389967,"firstyear":1.0,"longitude":-73.217124,"id":"a62ie58c8rpi"},"type":"Feature","geometry":{"type":"Point","coordinates":[-73.217124,44.389967]}},{"properties":{"zip":6001.0,"latitude":41.790498,"firstyear":1.0,"longitude":-72.865323,"id":"a62ie5agx3cw"},"type":"Feature","geometry":{"type":"Point","coordinates":[-72.865323,41.790498]}},{"properties":{"zip":6032.0,"latitude":41.72839,"firstyear":1.0,"longitude":-72.841476,"id":"a62ie58dfer6"},"type":"Feature","geometry":{"type":"Point","coordinates":[-72.841476,41.72839]}},{"properties":{"zip":6082.0,"latitude":41.989016,"firstyear":1.0,"longitude":-72.565218,"id":"a62ie5buq47r"},"type":"Feature","geometry":{"type":"Point","coordinates":[-72.565218,41.989016]}},{"properties":{"zip":6410.0,"latitude":41.505473,"firstyear":1.0,"longitude":-72.908127,"id":"a62ie5e76m2e"},"type":"Feature","geometry":{"type":"Point","coordinates":[-72.908127,41.505473]}},{"properties":{"zip":6451.0,"latitude":28.45726,"firstyear":1.0,"longitude":104.580467,"id":"a62ie56w0tr0"},"type":"Feature","geometry":{"type":"Point","coordinates":[104.580467,28.45726]}},{"properties":{"zip":6460.0,"latitude":41.217466,"firstyear":1.0,"longitude":-73.054948,"id":"a62ie5cqnjsq"},"type":"Feature","geometry":{"type":"Point","coordinates":[-73.054948,41.217466]}},{"properties":{"zip":6516.0,"latitude":41.270079,"firstyear":1.0,"longitude":-72.963842,"id":"a62ie5dsk9hp"},"type":"Feature","geometry":{"type":"Point","coordinates":[-72.963842,41.270079]}},{"properties":{"zip":6804.0,"latitude":41.46504,"firstyear":1.0,"longitude":-73.397986,"id":"a62ie54q226d"},"type":"Feature","geometry":{"type":"Point","coordinates":[-73.397986,41.46504]}},{"properties":{"zip":6810.0,"latitude":41.391663,"firstyear":1.0,"longitude":-73.453165,"id":"a62ie54tsqag"},"type":"Feature","geometry":{"type":"Point","coordinates":[-73.453165,41.391663]}},{"properties":{"zip":6811.0,"latitude":41.423983,"firstyear":1.0,"longitude":-73.471587,"id":"a62ie5gvmns6"},"type":"Feature","geometry":{"type":"Point","coordinates":[-73.471587,41.423983]}},{"properties":{"zip":6830.0,"latitude":41.030238,"firstyear":1.0,"longitude":-73.630047,"id":"a62ie59o80l1"},"type":"Feature","geometry":{"type":"Point","coordinates":[-73.630047,41.030238]}},{"properties":{"zip":6877.0,"latitude":41.297683,"firstyear":2.0,"longitude":-73.497268,"id":"a62ie53g8utu"},"type":"Feature","geometry":{"type":"Point","coordinates":[-73.497268,41.297683]}},{"properties":{"zip":6883.0,"latitude":41.219499,"firstyear":1.0,"longitude":-73.371474,"id":"a62ie52p5u7m"},"type":"Feature","geometry":{"type":"Point","coordinates":[-73.371474,41.219499]}},{"properties":{"zip":7028.0,"latitude":40.804015,"firstyear":1.0,"longitude":-74.205477,"id":"a62ie5h3654j"},"type":"Feature","geometry":{"type":"Point","coordinates":[-74.205477,40.804015]}},{"properties":{"zip":7052.0,"latitude":40.785926,"firstyear":1.0,"longitude":-74.256765,"id":"a62ie58oq3jk"},"type":"Feature","geometry":{"type":"Point","coordinates":[-74.256765,40.785926]}},{"properties":{"zip":7076.0,"latitude":40.642162,"firstyear":1.0,"longitude":-74.381663,"id":"a62ie5e8qx2r"},"type":"Feature","geometry":{"type":"Point","coordinates":[-74.381663,40.642162]}},{"properties":{"zip":7078.0,"latitude":40.73678,"firstyear":1.0,"longitude":-74.327085,"id":"a62ie577fvyd"},"type":"Feature","geometry":{"type":"Point","coordinates":[-74.327085,40.73678]}},{"properties":{"zip":7401.0,"latitude":41.032654,"firstyear":1.0,"longitude":-74.134185,"id":"a62ie594xotw"},"type":"Feature","geometry":{"type":"Point","coordinates":[-74.134185,41.032654]}},{"properties":{"zip":7423.0,"latitude":41.000412,"firstyear":1.0,"longitude":-74.102532,"id":"a62ie54r09bg"},"type":"Feature","geometry":{"type":"Point","coordinates":[-74.102532,41.000412]}},{"properties":{"zip":7450.0,"latitude":40.982023,"firstyear":1.0,"longitude":-74.113134,"id":"a62ie5f7h4nv"},"type":"Feature","geometry":{"type":"Point","coordinates":[-74.113134,40.982023]}},{"properties":{"zip":7836.0,"latitude":40.845316,"firstyear":1.0,"longitude":-74.70188,"id":"a62ie54f8vpo"},"type":"Feature","geometry":{"type":"Point","coordinates":[-74.70188,40.845316]}},{"properties":{"zip":7928.0,"latitude":40.730526,"firstyear":1.0,"longitude":-74.401701,"id":"a62ie5g1yniz"},"type":"Feature","geometry":{"type":"Point","coordinates":[-74.401701,40.730526]}},{"properties":{"zip":8002.0,"latitude":39.930808,"firstyear":1.0,"longitude":-75.017538,"id":"a62ie58riree"},"type":"Feature","geometry":{"type":"Point","coordinates":[-75.017538,39.930808]}},{"properties":{"zip":8003.0,"latitude":39.880453,"firstyear":2.0,"longitude":-74.970568,"id":"a62ie521m71x"},"type":"Feature","geometry":{"type":"Point","coordinates":[-74.970568,39.880453]}},{"properties":{"zip":8054.0,"latitude":39.947808,"firstyear":1.0,"longitude":-74.903588,"id":"a62ie5g1mvoj"},"type":"Feature","geometry":{"type":"Point","coordinates":[-74.903588,39.947808]}},{"properties":{"zip":8502.0,"latitude":40.467732,"firstyear":3.0,"longitude":-74.628993,"id":"a62ie53f6lye"},"type":"Feature","geometry":{"type":"Point","coordinates":[-74.628993,40.467732]}},{"properties":{"zip":8520.0,"latitude":40.266885,"firstyear":2.0,"longitude":-74.524993,"id":"a62ie5fccljc"},"type":"Feature","geometry":{"type":"Point","coordinates":[-74.524993,40.266885]}},{"properties":{"zip":8534.0,"latitude":40.333858,"firstyear":1.0,"longitude":-74.794352,"id":"a62ie5e5p2t2"},"type":"Feature","geometry":{"type":"Point","coordinates":[-74.794352,40.333858]}},{"properties":{"zip":8540.0,"latitude":40.366633,"firstyear":5.0,"longitude":-74.640832,"id":"a62ie57xdwlj"},"type":"Feature","geometry":{"type":"Point","coordinates":[-74.640832,40.366633]}},{"properties":{"zip":8550.0,"latitude":40.297684,"firstyear":2.0,"longitude":-74.614596,"id":"a62ie57uvkfc"},"type":"Feature","geometry":{"type":"Point","coordinates":[-74.614596,40.297684]}},{"properties":{"zip":8558.0,"latitude":40.417312,"firstyear":1.0,"longitude":-74.693828,"id":"a62ie5acc0fk"},"type":"Feature","geometry":{"type":"Point","coordinates":[-74.693828,40.417312]}},{"properties":{"zip":8824.0,"latitude":40.4208,"firstyear":1.0,"longitude":-74.552921,"id":"a62ie5gyg7b9"},"type":"Feature","geometry":{"type":"Point","coordinates":[-74.552921,40.4208]}},{"properties":{"zip":9012.0,"latitude":-45.903599,"firstyear":1.0,"longitude":170.491226,"id":"a62ie5e0zp7e"},"type":"Feature","geometry":{"type":"Point","coordinates":[170.491226,-45.903599]}},{"properties":{"zip":10003.0,"latitude":40.731253,"firstyear":1.0,"longitude":-73.989223,"id":"a62ie5173a5a"},"type":"Feature","geometry":{"type":"Point","coordinates":[-73.989223,40.731253]}},{"properties":{"zip":10008.0,"latitude":40.714489,"firstyear":1.0,"longitude":-74.007133,"id":"a62ie5515qmy"},"type":"Feature","geometry":{"type":"Point","coordinates":[-74.007133,40.714489]}},{"properties":{"zip":10025.0,"latitude":40.797466,"firstyear":1.0,"longitude":-73.968312,"id":"a62ie5c3jbl0"},"type":"Feature","geometry":{"type":"Point","coordinates":[-73.968312,40.797466]}},{"properties":{"zip":10027.0,"latitude":40.811556,"firstyear":1.0,"longitude":-73.954978,"id":"a62ie5hdq57h"},"type":"Feature","geometry":{"type":"Point","coordinates":[-73.954978,40.811556]}},{"properties":{"zip":10028.0,"latitude":40.776267,"firstyear":1.0,"longitude":-73.952866,"id":"a62ie5c8pakd"},"type":"Feature","geometry":{"type":"Point","coordinates":[-73.952866,40.776267]}},{"properties":{"zip":10037.0,"latitude":40.813491,"firstyear":1.0,"longitude":-73.9381,"id":"a62ie540i0bx"},"type":"Feature","geometry":{"type":"Point","coordinates":[-73.9381,40.813491]}},{"properties":{"zip":10465.0,"latitude":40.826065,"firstyear":1.0,"longitude":-73.819581,"id":"a62ie5f7h2iu"},"type":"Feature","geometry":{"type":"Point","coordinates":[-73.819581,40.826065]}},{"properties":{"zip":10528.0,"latitude":40.971876,"firstyear":1.0,"longitude":-73.718068,"id":"a62ie530f6pu"},"type":"Feature","geometry":{"type":"Point","coordinates":[-73.718068,40.971876]}},{"properties":{"zip":10598.0,"latitude":41.299947,"firstyear":1.0,"longitude":-73.792398,"id":"a62ie5hhq4hv"},"type":"Feature","geometry":{"type":"Point","coordinates":[-73.792398,41.299947]}},{"properties":{"zip":10803.0,"latitude":40.904455,"firstyear":1.0,"longitude":-73.807304,"id":"a62ie5ans7ow"},"type":"Feature","geometry":{"type":"Point","coordinates":[-73.807304,40.904455]}},{"properties":{"zip":10956.0,"latitude":41.147247,"firstyear":1.0,"longitude":-73.996206,"id":"a62ie5dsq5qy"},"type":"Feature","geometry":{"type":"Point","coordinates":[-73.996206,41.147247]}},{"properties":{"zip":11023.0,"latitude":40.799307,"firstyear":1.0,"longitude":-73.734257,"id":"a62ie5fd1nwt"},"type":"Feature","geometry":{"type":"Point","coordinates":[-73.734257,40.799307]}},{"properties":{"zip":11215.0,"latitude":40.666863,"firstyear":1.0,"longitude":-73.982783,"id":"a62ie5ctm5oi"},"type":"Feature","geometry":{"type":"Point","coordinates":[-73.982783,40.666863]}},{"properties":{"zip":11375.0,"latitude":40.722854,"firstyear":1.0,"longitude":-73.847306,"id":"a62ie5dbjm2v"},"type":"Feature","geometry":{"type":"Point","coordinates":[-73.847306,40.722854]}},{"properties":{"zip":11377.0,"latitude":40.744972,"firstyear":1.0,"longitude":-73.906911,"id":"a62ie5h2nvpz"},"type":"Feature","geometry":{"type":"Point","coordinates":[-73.906911,40.744972]}},{"properties":{"zip":11429.0,"latitude":40.70902,"firstyear":1.0,"longitude":-73.740064,"id":"a62ie53pt8ke"},"type":"Feature","geometry":{"type":"Point","coordinates":[-73.740064,40.70902]}},{"properties":{"zip":11570.0,"latitude":40.663745,"firstyear":1.0,"longitude":-73.638,"id":"a62ie5gmybrx"},"type":"Feature","geometry":{"type":"Point","coordinates":[-73.638,40.663745]}},{"properties":{"zip":11590.0,"latitude":40.755749,"firstyear":1.0,"longitude":-73.57226,"id":"a62ie5gif401"},"type":"Feature","geometry":{"type":"Point","coordinates":[-73.57226,40.755749]}},{"properties":{"zip":11596.0,"latitude":40.759198,"firstyear":1.0,"longitude":-73.644892,"id":"a62ie57v7ga3"},"type":"Feature","geometry":{"type":"Point","coordinates":[-73.644892,40.759198]}},{"properties":{"zip":11733.0,"latitude":40.930004,"firstyear":1.0,"longitude":-73.101467,"id":"a62ie581rq4i"},"type":"Feature","geometry":{"type":"Point","coordinates":[-73.101467,40.930004]}},{"properties":{"zip":11758.0,"latitude":40.685738,"firstyear":1.0,"longitude":-73.469727,"id":"a62ie55cqalj"},"type":"Feature","geometry":{"type":"Point","coordinates":[-73.469727,40.685738]}},{"properties":{"zip":12570.0,"latitude":41.61936,"firstyear":1.0,"longitude":-73.678328,"id":"a62ie5aai6r6"},"type":"Feature","geometry":{"type":"Point","coordinates":[-73.678328,41.61936]}},{"properties":{"zip":13027.0,"latitude":43.162039,"firstyear":1.0,"longitude":-76.323718,"id":"a62ie51290iz"},"type":"Feature","geometry":{"type":"Point","coordinates":[-76.323718,43.162039]}},{"properties":{"zip":13413.0,"latitude":43.065412,"firstyear":1.0,"longitude":-75.290551,"id":"a62ie5gc9ycv"},"type":"Feature","geometry":{"type":"Point","coordinates":[-75.290551,43.065412]}},{"properties":{"zip":13676.0,"latitude":44.659246,"firstyear":1.0,"longitude":-74.968076,"id":"a62ie5b2kf93"},"type":"Feature","geometry":{"type":"Point","coordinates":[-74.968076,44.659246]}},{"properties":{"zip":14028.0,"latitude":43.322089,"firstyear":1.0,"longitude":-78.714097,"id":"a62ie5bws16i"},"type":"Feature","geometry":{"type":"Point","coordinates":[-78.714097,43.322089]}},{"properties":{"zip":14032.0,"latitude":43.0362,"firstyear":1.0,"longitude":-78.63903,"id":"a62ie5et0bwc"},"type":"Feature","geometry":{"type":"Point","coordinates":[-78.63903,43.0362]}},{"properties":{"zip":14051.0,"latitude":43.029168,"firstyear":3.0,"longitude":-78.705035,"id":"a62ie549uch9"},"type":"Feature","geometry":{"type":"Point","coordinates":[-78.705035,43.029168]}},{"properties":{"zip":14068.0,"latitude":43.023989,"firstyear":1.0,"longitude":-78.753184,"id":"a62ie5ewim7p"},"type":"Feature","geometry":{"type":"Point","coordinates":[-78.753184,43.023989]}},{"properties":{"zip":14072.0,"latitude":43.018266,"firstyear":1.0,"longitude":-78.959059,"id":"a62ie5ditqgo"},"type":"Feature","geometry":{"type":"Point","coordinates":[-78.959059,43.018266]}},{"properties":{"zip":14075.0,"latitude":42.733404,"firstyear":1.0,"longitude":-78.838853,"id":"a62ie5alua54"},"type":"Feature","geometry":{"type":"Point","coordinates":[-78.838853,42.733404]}},{"properties":{"zip":14080.0,"latitude":42.639582,"firstyear":1.0,"longitude":-78.543889,"id":"a62ie52gepbz"},"type":"Feature","geometry":{"type":"Point","coordinates":[-78.543889,42.639582]}},{"properties":{"zip":14085.0,"latitude":42.721535,"firstyear":1.0,"longitude":-78.932693,"id":"a62ie588g25f"},"type":"Feature","geometry":{"type":"Point","coordinates":[-78.932693,42.721535]}},{"properties":{"zip":14221.0,"latitude":42.985621,"firstyear":1.0,"longitude":-78.738044,"id":"a62ie53wtl82"},"type":"Feature","geometry":{"type":"Point","coordinates":[-78.738044,42.985621]}},{"properties":{"zip":14222.0,"latitude":42.916401,"firstyear":1.0,"longitude":-78.876333,"id":"a62ie56gtgju"},"type":"Feature","geometry":{"type":"Point","coordinates":[-78.876333,42.916401]}},{"properties":{"zip":14223.0,"latitude":42.973088,"firstyear":1.0,"longitude":-78.845,"id":"a62ie5fi2nef"},"type":"Feature","geometry":{"type":"Point","coordinates":[-78.845,42.973088]}},{"properties":{"zip":14226.0,"latitude":42.967232,"firstyear":1.0,"longitude":-78.799849,"id":"a62ie514wsjl"},"type":"Feature","geometry":{"type":"Point","coordinates":[-78.799849,42.967232]}},{"properties":{"zip":14414.0,"latitude":42.903034,"firstyear":1.0,"longitude":-77.727398,"id":"a62ie59ug2ks"},"type":"Feature","geometry":{"type":"Point","coordinates":[-77.727398,42.903034]}},{"properties":{"zip":14450.0,"latitude":43.089198,"firstyear":1.0,"longitude":-77.435956,"id":"a62ie5gkt2vq"},"type":"Feature","geometry":{"type":"Point","coordinates":[-77.435956,43.089198]}},{"properties":{"zip":14469.0,"latitude":42.885101,"firstyear":1.0,"longitude":-77.459983,"id":"a62ie5dptzfo"},"type":"Feature","geometry":{"type":"Point","coordinates":[-77.459983,42.885101]}},{"properties":{"zip":14534.0,"latitude":43.069511,"firstyear":1.0,"longitude":-77.514067,"id":"a62ie56f7dcb"},"type":"Feature","geometry":{"type":"Point","coordinates":[-77.514067,43.069511]}},{"properties":{"zip":14546.0,"latitude":43.02462,"firstyear":1.0,"longitude":-77.774256,"id":"a62ie56xgo1i"},"type":"Feature","geometry":{"type":"Point","coordinates":[-77.774256,43.02462]}},{"properties":{"zip":14580.0,"latitude":43.219563,"firstyear":1.0,"longitude":-77.461587,"id":"a62ie55jaxex"},"type":"Feature","geometry":{"type":"Point","coordinates":[-77.461587,43.219563]}},{"properties":{"zip":14622.0,"latitude":43.213959,"firstyear":1.0,"longitude":-77.55549,"id":"a62ie585cwb4"},"type":"Feature","geometry":{"type":"Point","coordinates":[-77.55549,43.213959]}},{"properties":{"zip":14830.0,"latitude":42.138331,"firstyear":1.0,"longitude":-77.047546,"id":"a62ie57re2fi"},"type":"Feature","geometry":{"type":"Point","coordinates":[-77.047546,42.138331]}},{"properties":{"zip":14845.0,"latitude":42.180493,"firstyear":1.0,"longitude":-76.834539,"id":"a62ie560a9ad"},"type":"Feature","geometry":{"type":"Point","coordinates":[-76.834539,42.180493]}},{"properties":{"zip":15001.0,"latitude":40.604424,"firstyear":1.0,"longitude":-80.281567,"id":"a62ie5fbl59y"},"type":"Feature","geometry":{"type":"Point","coordinates":[-80.281567,40.604424]}},{"properties":{"zip":15009.0,"latitude":40.697184,"firstyear":2.0,"longitude":-80.336528,"id":"a62ie5ehfkbp"},"type":"Feature","geometry":{"type":"Point","coordinates":[-80.336528,40.697184]}},{"properties":{"zip":15024.0,"latitude":40.568117,"firstyear":4.0,"longitude":-79.841002,"id":"a62ie516bk33"},"type":"Feature","geometry":{"type":"Point","coordinates":[-79.841002,40.568117]}},{"properties":{"zip":15044.0,"latitude":40.625233,"firstyear":1.0,"longitude":-79.944307,"id":"a62ie5fxvlfh"},"type":"Feature","geometry":{"type":"Point","coordinates":[-79.944307,40.625233]}},{"properties":{"zip":15049.0,"latitude":40.557433,"firstyear":1.0,"longitude":-79.805115,"id":"a62ie59bxvj7"},"type":"Feature","geometry":{"type":"Point","coordinates":[-79.805115,40.557433]}},{"properties":{"zip":15055.0,"latitude":40.311615,"firstyear":1.0,"longitude":-80.144029,"id":"a62ie59opoif"},"type":"Feature","geometry":{"type":"Point","coordinates":[-80.144029,40.311615]}},{"properties":{"zip":15068.0,"latitude":40.571179,"firstyear":1.0,"longitude":-79.741547,"id":"a62ie5b757xn"},"type":"Feature","geometry":{"type":"Point","coordinates":[-79.741547,40.571179]}},{"properties":{"zip":15089.0,"latitude":40.207549,"firstyear":1.0,"longitude":-79.757976,"id":"a62ie5avbd4l"},"type":"Feature","geometry":{"type":"Point","coordinates":[-79.757976,40.207549]}},{"properties":{"zip":15090.0,"latitude":40.612044,"firstyear":2.0,"longitude":-80.064879,"id":"a62ie56jo5zv"},"type":"Feature","geometry":{"type":"Point","coordinates":[-80.064879,40.612044]}},{"properties":{"zip":15101.0,"latitude":40.569975,"firstyear":4.0,"longitude":-79.966512,"id":"a62ie583hpgq"},"type":"Feature","geometry":{"type":"Point","coordinates":[-79.966512,40.569975]}},{"properties":{"zip":15102.0,"latitude":40.320984,"firstyear":5.0,"longitude":-80.039793,"id":"a62ie59mgdx6"},"type":"Feature","geometry":{"type":"Point","coordinates":[-80.039793,40.320984]}},{"properties":{"zip":15106.0,"latitude":40.402941,"firstyear":1.0,"longitude":-80.091532,"id":"a62ie59yzmyu"},"type":"Feature","geometry":{"type":"Point","coordinates":[-80.091532,40.402941]}},{"properties":{"zip":15108.0,"latitude":40.513245,"firstyear":3.0,"longitude":-80.18969,"id":"a62ie5fasj11"},"type":"Feature","geometry":{"type":"Point","coordinates":[-80.18969,40.513245]}},{"properties":{"zip":15116.0,"latitude":40.537492,"firstyear":1.0,"longitude":-79.964351,"id":"a62ie5cm1ij2"},"type":"Feature","geometry":{"type":"Point","coordinates":[-79.964351,40.537492]}},{"properties":{"zip":15129.0,"latitude":40.292199,"firstyear":1.0,"longitude":-80.001144,"id":"a62ie54dukcc"},"type":"Feature","geometry":{"type":"Point","coordinates":[-80.001144,40.292199]}},{"properties":{"zip":15133.0,"latitude":40.332835,"firstyear":1.0,"longitude":-79.866759,"id":"a62ie5dbvlcf"},"type":"Feature","geometry":{"type":"Point","coordinates":[-79.866759,40.332835]}},{"properties":{"zip":15137.0,"latitude":40.376248,"firstyear":1.0,"longitude":-79.812427,"id":"a62ie58n45hx"},"type":"Feature","geometry":{"type":"Point","coordinates":[-79.812427,40.376248]}},{"properties":{"zip":15143.0,"latitude":40.557031,"firstyear":5.0,"longitude":-80.157848,"id":"a62ie521hc0o"},"type":"Feature","geometry":{"type":"Point","coordinates":[-80.157848,40.557031]}},{"properties":{"zip":15202.0,"latitude":40.501321,"firstyear":1.0,"longitude":-80.066966,"id":"a62ie54xm0tq"},"type":"Feature","geometry":{"type":"Point","coordinates":[-80.066966,40.501321]}},{"properties":{"zip":15206.0,"latitude":40.468885,"firstyear":1.0,"longitude":-79.919267,"id":"a62ie55306b4"},"type":"Feature","geometry":{"type":"Point","coordinates":[-79.919267,40.468885]}},{"properties":{"zip":15215.0,"latitude":40.499225,"firstyear":1.0,"longitude":-79.917513,"id":"a62ie5c179p3"},"type":"Feature","geometry":{"type":"Point","coordinates":[-79.917513,40.499225]}},{"properties":{"zip":15216.0,"latitude":40.399584,"firstyear":4.0,"longitude":-80.035727,"id":"a62ie5fo6q5i"},"type":"Feature","geometry":{"type":"Point","coordinates":[-80.035727,40.399584]}},{"properties":{"zip":15217.0,"latitude":40.431852,"firstyear":2.0,"longitude":-79.924973,"id":"a62ie5e0t4si"},"type":"Feature","geometry":{"type":"Point","coordinates":[-79.924973,40.431852]}},{"properties":{"zip":15221.0,"latitude":40.438352,"firstyear":1.0,"longitude":-79.870243,"id":"a62ie5gggym9"},"type":"Feature","geometry":{"type":"Point","coordinates":[-79.870243,40.438352]}},{"properties":{"zip":15227.0,"latitude":40.37619,"firstyear":1.0,"longitude":-79.975816,"id":"a62ie51l7r92"},"type":"Feature","geometry":{"type":"Point","coordinates":[-79.975816,40.37619]}},{"properties":{"zip":15228.0,"latitude":40.371326,"firstyear":1.0,"longitude":-80.043186,"id":"a62ie54ai218"},"type":"Feature","geometry":{"type":"Point","coordinates":[-80.043186,40.371326]}},{"properties":{"zip":15234.0,"latitude":40.369424,"firstyear":1.0,"longitude":-80.017907,"id":"a62ie5aq4etr"},"type":"Feature","geometry":{"type":"Point","coordinates":[-80.017907,40.369424]}},{"properties":{"zip":15237.0,"latitude":40.552238,"firstyear":1.0,"longitude":-80.034939,"id":"a62ie58eun9t"},"type":"Feature","geometry":{"type":"Point","coordinates":[-80.034939,40.552238]}},{"properties":{"zip":15238.0,"latitude":40.515077,"firstyear":1.0,"longitude":-79.877423,"id":"a62ie531t3cj"},"type":"Feature","geometry":{"type":"Point","coordinates":[-79.877423,40.515077]}},{"properties":{"zip":15241.0,"latitude":40.332174,"firstyear":1.0,"longitude":-80.07921,"id":"a62ie5904p5g"},"type":"Feature","geometry":{"type":"Point","coordinates":[-80.07921,40.332174]}},{"properties":{"zip":15317.0,"latitude":40.270743,"firstyear":1.0,"longitude":-80.153153,"id":"a62ie55jheo8"},"type":"Feature","geometry":{"type":"Point","coordinates":[-80.153153,40.270743]}},{"properties":{"zip":15342.0,"latitude":40.242492,"firstyear":1.0,"longitude":-80.220937,"id":"a62ie51bwd8e"},"type":"Feature","geometry":{"type":"Point","coordinates":[-80.220937,40.242492]}},{"properties":{"zip":15367.0,"latitude":40.275451,"firstyear":1.0,"longitude":-80.059849,"id":"a62ie59lwtb1"},"type":"Feature","geometry":{"type":"Point","coordinates":[-80.059849,40.275451]}},{"properties":{"zip":15601.0,"latitude":40.307359,"firstyear":2.0,"longitude":-79.542439,"id":"a62ie5av9nkw"},"type":"Feature","geometry":{"type":"Point","coordinates":[-79.542439,40.307359]}},{"properties":{"zip":15644.0,"latitude":40.32947,"firstyear":1.0,"longitude":-79.614412,"id":"a62ie58yu6e8"},"type":"Feature","geometry":{"type":"Point","coordinates":[-79.614412,40.32947]}},{"properties":{"zip":15650.0,"latitude":40.292625,"firstyear":2.0,"longitude":-79.410278,"id":"a62ie5dm57c7"},"type":"Feature","geometry":{"type":"Point","coordinates":[-79.410278,40.292625]}},{"properties":{"zip":15656.0,"latitude":40.634398,"firstyear":1.0,"longitude":-79.620101,"id":"a62ie52mj6g7"},"type":"Feature","geometry":{"type":"Point","coordinates":[-79.620101,40.634398]}},{"properties":{"zip":15668.0,"latitude":40.446674,"firstyear":3.0,"longitude":-79.684154,"id":"a62ie5d45m63"},"type":"Feature","geometry":{"type":"Point","coordinates":[-79.684154,40.446674]}},{"properties":{"zip":15906.0,"latitude":40.352193,"firstyear":1.0,"longitude":-78.938317,"id":"a62ie5gyp25j"},"type":"Feature","geometry":{"type":"Point","coordinates":[-78.938317,40.352193]}},{"properties":{"zip":16020.0,"latitude":41.109205,"firstyear":1.0,"longitude":-79.904692,"id":"a62ie59qtoj9"},"type":"Feature","geometry":{"type":"Point","coordinates":[-79.904692,41.109205]}},{"properties":{"zip":16046.0,"latitude":40.700514,"firstyear":3.0,"longitude":-80.035769,"id":"a62ie5dkgxa8"},"type":"Feature","geometry":{"type":"Point","coordinates":[-80.035769,40.700514]}},{"properties":{"zip":16066.0,"latitude":40.705518,"firstyear":2.0,"longitude":-80.110804,"id":"a62ie51fc7q9"},"type":"Feature","geometry":{"type":"Point","coordinates":[-80.110804,40.705518]}},{"properties":{"zip":16101.0,"latitude":40.99222,"firstyear":1.0,"longitude":-80.328449,"id":"a62ie5fclm5k"},"type":"Feature","geometry":{"type":"Point","coordinates":[-80.328449,40.99222]}},{"properties":{"zip":16105.0,"latitude":41.033502,"firstyear":1.0,"longitude":-80.342191,"id":"a62ie59uaxma"},"type":"Feature","geometry":{"type":"Point","coordinates":[-80.342191,41.033502]}},{"properties":{"zip":16148.0,"latitude":41.232601,"firstyear":1.0,"longitude":-80.45303,"id":"a62ie512h1zp"},"type":"Feature","geometry":{"type":"Point","coordinates":[-80.45303,41.232601]}},{"properties":{"zip":16229.0,"latitude":40.703277,"firstyear":2.0,"longitude":-79.662991,"id":"a62ie5bc65hk"},"type":"Feature","geometry":{"type":"Point","coordinates":[-79.662991,40.703277]}},{"properties":{"zip":16301.0,"latitude":41.431936,"firstyear":1.0,"longitude":-79.691648,"id":"a62ie5c2m5je"},"type":"Feature","geometry":{"type":"Point","coordinates":[-79.691648,41.431936]}},{"properties":{"zip":16335.0,"latitude":41.633847,"firstyear":1.0,"longitude":-80.148787,"id":"a62ie5a70bun"},"type":"Feature","geometry":{"type":"Point","coordinates":[-80.148787,41.633847]}},{"properties":{"zip":16360.0,"latitude":41.685581,"firstyear":1.0,"longitude":-79.876679,"id":"a62ie52o6rvt"},"type":"Feature","geometry":{"type":"Point","coordinates":[-79.876679,41.685581]}},{"properties":{"zip":16365.0,"latitude":41.845265,"firstyear":1.0,"longitude":-79.14286,"id":"a62ie53y4c87"},"type":"Feature","geometry":{"type":"Point","coordinates":[-79.14286,41.845265]}},{"properties":{"zip":16412.0,"latitude":41.875629,"firstyear":1.0,"longitude":-80.135604,"id":"a62ie55ks1es"},"type":"Feature","geometry":{"type":"Point","coordinates":[-80.135604,41.875629]}},{"properties":{"zip":16415.0,"latitude":42.040741,"firstyear":1.0,"longitude":-80.239508,"id":"a62ie52xg7o9"},"type":"Feature","geometry":{"type":"Point","coordinates":[-80.239508,42.040741]}},{"properties":{"zip":16417.0,"latitude":41.989573,"firstyear":1.0,"longitude":-80.317756,"id":"a62ie55jsd3q"},"type":"Feature","geometry":{"type":"Point","coordinates":[-80.317756,41.989573]}},{"properties":{"zip":16423.0,"latitude":42.020361,"firstyear":1.0,"longitude":-80.338834,"id":"a62ie51mmu7m"},"type":"Feature","geometry":{"type":"Point","coordinates":[-80.338834,42.020361]}},{"properties":{"zip":16441.0,"latitude":41.960266,"firstyear":1.0,"longitude":-79.99963,"id":"a62ie54xhhwq"},"type":"Feature","geometry":{"type":"Point","coordinates":[-79.99963,41.960266]}},{"properties":{"zip":16505.0,"latitude":42.097526,"firstyear":3.0,"longitude":-80.161902,"id":"a62ie5gex5ee"},"type":"Feature","geometry":{"type":"Point","coordinates":[-80.161902,42.097526]}},{"properties":{"zip":16506.0,"latitude":42.073801,"firstyear":6.0,"longitude":-80.14844,"id":"a62ie561l1zr"},"type":"Feature","geometry":{"type":"Point","coordinates":[-80.14844,42.073801]}},{"properties":{"zip":16509.0,"latitude":42.076326,"firstyear":1.0,"longitude":-80.066827,"id":"a62ie5cklqiy"},"type":"Feature","geometry":{"type":"Point","coordinates":[-80.066827,42.076326]}},{"properties":{"zip":16510.0,"latitude":42.123673,"firstyear":1.0,"longitude":-80.003752,"id":"a62ie5as379x"},"type":"Feature","geometry":{"type":"Point","coordinates":[-80.003752,42.123673]}},{"properties":{"zip":16511.0,"latitude":42.15529,"firstyear":1.0,"longitude":-80.017665,"id":"a62ie5251alz"},"type":"Feature","geometry":{"type":"Point","coordinates":[-80.017665,42.15529]}},{"properties":{"zip":16652.0,"latitude":40.502274,"firstyear":1.0,"longitude":-78.005028,"id":"a62ie524vkf3"},"type":"Feature","geometry":{"type":"Point","coordinates":[-78.005028,40.502274]}},{"properties":{"zip":17050.0,"latitude":40.248659,"firstyear":3.0,"longitude":-76.99995,"id":"a62ie590nisr"},"type":"Feature","geometry":{"type":"Point","coordinates":[-76.99995,40.248659]}},{"properties":{"zip":17080.0,"latitude":40.640521,"firstyear":1.0,"longitude":-76.802624,"id":"a62ie5al0g2y"},"type":"Feature","geometry":{"type":"Point","coordinates":[-76.802624,40.640521]}},{"properties":{"zip":17110.0,"latitude":40.302957,"firstyear":1.0,"longitude":-76.886246,"id":"a62ie57unn1q"},"type":"Feature","geometry":{"type":"Point","coordinates":[-76.886246,40.302957]}},{"properties":{"zip":17214.0,"latitude":39.726951,"firstyear":1.0,"longitude":-77.469836,"id":"a62ie551gh79"},"type":"Feature","geometry":{"type":"Point","coordinates":[-77.469836,39.726951]}},{"properties":{"zip":17601.0,"latitude":40.075381,"firstyear":1.0,"longitude":-76.319888,"id":"a62ie51n924c"},"type":"Feature","geometry":{"type":"Point","coordinates":[-76.319888,40.075381]}},{"properties":{"zip":17777.0,"latitude":41.102006,"firstyear":1.0,"longitude":-76.853192,"id":"a62ie51z4fxa"},"type":"Feature","geometry":{"type":"Point","coordinates":[-76.853192,41.102006]}},{"properties":{"zip":18020.0,"latitude":40.660581,"firstyear":1.0,"longitude":-75.32684,"id":"a62ie59jxevd"},"type":"Feature","geometry":{"type":"Point","coordinates":[-75.32684,40.660581]}},{"properties":{"zip":18229.0,"latitude":40.870002,"firstyear":1.0,"longitude":-75.739665,"id":"a62ie58i1be3"},"type":"Feature","geometry":{"type":"Point","coordinates":[-75.739665,40.870002]}},{"properties":{"zip":18322.0,"latitude":40.930862,"firstyear":1.0,"longitude":-75.410415,"id":"a62ie5gxmh4b"},"type":"Feature","geometry":{"type":"Point","coordinates":[-75.410415,40.930862]}},{"properties":{"zip":18840.0,"latitude":41.984222,"firstyear":1.0,"longitude":-76.521757,"id":"a62ie5a2ruvj"},"type":"Feature","geometry":{"type":"Point","coordinates":[-76.521757,41.984222]}},{"properties":{"zip":18940.0,"latitude":40.245817,"firstyear":2.0,"longitude":-74.94313,"id":"a62ie54473ou"},"type":"Feature","geometry":{"type":"Point","coordinates":[-74.94313,40.245817]}},{"properties":{"zip":19002.0,"latitude":40.166318,"firstyear":2.0,"longitude":-75.207234,"id":"a62ie54k38w5"},"type":"Feature","geometry":{"type":"Point","coordinates":[-75.207234,40.166318]}},{"properties":{"zip":19003.0,"latitude":40.001971,"firstyear":1.0,"longitude":-75.29665,"id":"a62ie57utwpi"},"type":"Feature","geometry":{"type":"Point","coordinates":[-75.29665,40.001971]}},{"properties":{"zip":19030.0,"latitude":40.174822,"firstyear":1.0,"longitude":-74.851923,"id":"a62ie5ewa1tl"},"type":"Feature","geometry":{"type":"Point","coordinates":[-74.851923,40.174822]}},{"properties":{"zip":19035.0,"latitude":40.045118,"firstyear":1.0,"longitude":-75.282082,"id":"a62ie51ftltl"},"type":"Feature","geometry":{"type":"Point","coordinates":[-75.282082,40.045118]}},{"properties":{"zip":19066.0,"latitude":40.003043,"firstyear":1.0,"longitude":-75.250302,"id":"a62ie5bcvd8m"},"type":"Feature","geometry":{"type":"Point","coordinates":[-75.250302,40.003043]}},{"properties":{"zip":19087.0,"latitude":40.059554,"firstyear":1.0,"longitude":-75.40416,"id":"a62ie5cb0tc1"},"type":"Feature","geometry":{"type":"Point","coordinates":[-75.40416,40.059554]}},{"properties":{"zip":19143.0,"latitude":39.944815,"firstyear":1.0,"longitude":-75.228819,"id":"a62ie5dpaegi"},"type":"Feature","geometry":{"type":"Point","coordinates":[-75.228819,39.944815]}},{"properties":{"zip":19380.0,"latitude":39.984458,"firstyear":1.0,"longitude":-75.596231,"id":"a62ie5ezww8c"},"type":"Feature","geometry":{"type":"Point","coordinates":[-75.596231,39.984458]}},{"properties":{"zip":19808.0,"latitude":39.734737,"firstyear":1.0,"longitude":-75.663891,"id":"a62ie59ix439"},"type":"Feature","geometry":{"type":"Point","coordinates":[-75.663891,39.734737]}},{"properties":{"zip":20002.0,"latitude":38.902365,"firstyear":1.0,"longitude":-76.990055,"id":"a62ie56at4mi"},"type":"Feature","geometry":{"type":"Point","coordinates":[-76.990055,38.902365]}},{"properties":{"zip":20016.0,"latitude":38.938117,"firstyear":1.0,"longitude":-77.086037,"id":"a62ie5cvwv33"},"type":"Feature","geometry":{"type":"Point","coordinates":[-77.086037,38.938117]}},{"properties":{"zip":20020.0,"latitude":38.860039,"firstyear":1.0,"longitude":-76.974187,"id":"a62ie52gkm3u"},"type":"Feature","geometry":{"type":"Point","coordinates":[-76.974187,38.860039]}},{"properties":{"zip":20124.0,"latitude":38.803309,"firstyear":1.0,"longitude":-77.401099,"id":"a62ie59edhhp"},"type":"Feature","geometry":{"type":"Point","coordinates":[-77.401099,38.803309]}},{"properties":{"zip":20147.0,"latitude":39.041592,"firstyear":1.0,"longitude":-77.485162,"id":"a62ie52e7ei8"},"type":"Feature","geometry":{"type":"Point","coordinates":[-77.485162,39.041592]}},{"properties":{"zip":20715.0,"latitude":38.979696,"firstyear":1.0,"longitude":-76.743497,"id":"a62ie52dq2gs"},"type":"Feature","geometry":{"type":"Point","coordinates":[-76.743497,38.979696]}},{"properties":{"zip":20723.0,"latitude":39.120806,"firstyear":1.0,"longitude":-76.84345,"id":"a62ie5gx76r0"},"type":"Feature","geometry":{"type":"Point","coordinates":[-76.84345,39.120806]}},{"properties":{"zip":20769.0,"latitude":38.976632,"firstyear":1.0,"longitude":-76.805336,"id":"a62ie5a8o2d4"},"type":"Feature","geometry":{"type":"Point","coordinates":[-76.805336,38.976632]}},{"properties":{"zip":20817.0,"latitude":38.999659,"firstyear":1.0,"longitude":-77.137239,"id":"a62ie52smyq5"},"type":"Feature","geometry":{"type":"Point","coordinates":[-77.137239,38.999659]}},{"properties":{"zip":20850.0,"latitude":39.087037,"firstyear":2.0,"longitude":-77.167973,"id":"a62ie5eqkcte"},"type":"Feature","geometry":{"type":"Point","coordinates":[-77.167973,39.087037]}},{"properties":{"zip":20854.0,"latitude":39.03877,"firstyear":1.0,"longitude":-77.192151,"id":"a62ie53rks0f"},"type":"Feature","geometry":{"type":"Point","coordinates":[-77.192151,39.03877]}},{"properties":{"zip":20878.0,"latitude":39.115534,"firstyear":1.0,"longitude":-77.236434,"id":"a62ie5bbkgaz"},"type":"Feature","geometry":{"type":"Point","coordinates":[-77.236434,39.115534]}},{"properties":{"zip":20895.0,"latitude":39.029803,"firstyear":1.0,"longitude":-77.079281,"id":"a62ie5h0fwr3"},"type":"Feature","geometry":{"type":"Point","coordinates":[-77.079281,39.029803]}},{"properties":{"zip":20906.0,"latitude":39.081041,"firstyear":1.0,"longitude":-77.063233,"id":"a62ie513aumg"},"type":"Feature","geometry":{"type":"Point","coordinates":[-77.063233,39.081041]}},{"properties":{"zip":20910.0,"latitude":38.998198,"firstyear":1.0,"longitude":-77.033776,"id":"a62ie5daqlp8"},"type":"Feature","geometry":{"type":"Point","coordinates":[-77.033776,38.998198]}},{"properties":{"zip":21037.0,"latitude":38.922511,"firstyear":1.0,"longitude":-76.540374,"id":"a62ie5dizvfe"},"type":"Feature","geometry":{"type":"Point","coordinates":[-76.540374,38.922511]}},{"properties":{"zip":21042.0,"latitude":39.272632,"firstyear":1.0,"longitude":-76.861362,"id":"a62ie5fqeon8"},"type":"Feature","geometry":{"type":"Point","coordinates":[-76.861362,39.272632]}},{"properties":{"zip":21043.0,"latitude":39.258216,"firstyear":1.0,"longitude":-76.803929,"id":"a62ie551turd"},"type":"Feature","geometry":{"type":"Point","coordinates":[-76.803929,39.258216]}},{"properties":{"zip":21044.0,"latitude":39.214103,"firstyear":1.0,"longitude":-76.878807,"id":"a62ie5d18qhs"},"type":"Feature","geometry":{"type":"Point","coordinates":[-76.878807,39.214103]}},{"properties":{"zip":21045.0,"latitude":39.205052,"firstyear":1.0,"longitude":-76.83223,"id":"a62ie51mpt6n"},"type":"Feature","geometry":{"type":"Point","coordinates":[-76.83223,39.205052]}},{"properties":{"zip":21093.0,"latitude":39.438636,"firstyear":1.0,"longitude":-76.633791,"id":"a62ie57l5f3i"},"type":"Feature","geometry":{"type":"Point","coordinates":[-76.633791,39.438636]}},{"properties":{"zip":21117.0,"latitude":39.42688,"firstyear":1.0,"longitude":-76.776934,"id":"a62ie5dd4tr4"},"type":"Feature","geometry":{"type":"Point","coordinates":[-76.776934,39.42688]}},{"properties":{"zip":21239.0,"latitude":39.360977,"firstyear":1.0,"longitude":-76.589082,"id":"a62ie5eukb3r"},"type":"Feature","geometry":{"type":"Point","coordinates":[-76.589082,39.360977]}},{"properties":{"zip":21286.0,"latitude":39.40106,"firstyear":1.0,"longitude":-76.583809,"id":"a62ie57daeh6"},"type":"Feature","geometry":{"type":"Point","coordinates":[-76.583809,39.40106]}},{"properties":{"zip":21403.0,"latitude":38.952394,"firstyear":1.0,"longitude":-76.49103,"id":"a62ie523idd9"},"type":"Feature","geometry":{"type":"Point","coordinates":[-76.49103,38.952394]}},{"properties":{"zip":21536.0,"latitude":39.684436,"firstyear":1.0,"longitude":-79.151665,"id":"a62ie5hirpu0"},"type":"Feature","geometry":{"type":"Point","coordinates":[-79.151665,39.684436]}},{"properties":{"zip":21702.0,"latitude":39.436532,"firstyear":1.0,"longitude":-77.447369,"id":"a62ie57587zm"},"type":"Feature","geometry":{"type":"Point","coordinates":[-77.447369,39.436532]}},{"properties":{"zip":21771.0,"latitude":39.388131,"firstyear":1.0,"longitude":-77.172347,"id":"a62ie57rnn89"},"type":"Feature","geometry":{"type":"Point","coordinates":[-77.172347,39.388131]}},{"properties":{"zip":21773.0,"latitude":39.528194,"firstyear":1.0,"longitude":-77.551322,"id":"a62ie5gq5p57"},"type":"Feature","geometry":{"type":"Point","coordinates":[-77.551322,39.528194]}},{"properties":{"zip":21784.0,"latitude":39.39887,"firstyear":1.0,"longitude":-76.961439,"id":"a62ie56kb6ip"},"type":"Feature","geometry":{"type":"Point","coordinates":[-76.961439,39.39887]}},{"properties":{"zip":22031.0,"latitude":38.860353,"firstyear":1.0,"longitude":-77.264937,"id":"a62ie5576bzr"},"type":"Feature","geometry":{"type":"Point","coordinates":[-77.264937,38.860353]}},{"properties":{"zip":22033.0,"latitude":38.877627,"firstyear":1.0,"longitude":-77.388451,"id":"a62ie5929r5y"},"type":"Feature","geometry":{"type":"Point","coordinates":[-77.388451,38.877627]}},{"properties":{"zip":22124.0,"latitude":38.885187,"firstyear":1.0,"longitude":-77.323345,"id":"a62ie53dhgs5"},"type":"Feature","geometry":{"type":"Point","coordinates":[-77.323345,38.885187]}},{"properties":{"zip":22153.0,"latitude":38.744859,"firstyear":1.0,"longitude":-77.237026,"id":"a62ie52kzh4q"},"type":"Feature","geometry":{"type":"Point","coordinates":[-77.237026,38.744859]}},{"properties":{"zip":22182.0,"latitude":38.928005,"firstyear":2.0,"longitude":-77.264876,"id":"a62ie5hjo127"},"type":"Feature","geometry":{"type":"Point","coordinates":[-77.264876,38.928005]}},{"properties":{"zip":22305.0,"latitude":38.837184,"firstyear":1.0,"longitude":-77.064039,"id":"a62ie55s0d0y"},"type":"Feature","geometry":{"type":"Point","coordinates":[-77.064039,38.837184]}},{"properties":{"zip":22556.0,"latitude":38.476591,"firstyear":1.0,"longitude":-77.490745,"id":"a62ie5fyo8f1"},"type":"Feature","geometry":{"type":"Point","coordinates":[-77.490745,38.476591]}},{"properties":{"zip":22901.0,"latitude":38.054752,"firstyear":1.0,"longitude":-78.490869,"id":"a62ie5alamac"},"type":"Feature","geometry":{"type":"Point","coordinates":[-78.490869,38.054752]}},{"properties":{"zip":23229.0,"latitude":37.596351,"firstyear":1.0,"longitude":-77.566202,"id":"a62ie5e0q0us"},"type":"Feature","geometry":{"type":"Point","coordinates":[-77.566202,37.596351]}},{"properties":{"zip":25314.0,"latitude":38.327442,"firstyear":1.0,"longitude":-81.668988,"id":"a62ie5aaz0h3"},"type":"Feature","geometry":{"type":"Point","coordinates":[-81.668988,38.327442]}},{"properties":{"zip":28303.0,"latitude":35.084046,"firstyear":1.0,"longitude":-78.960135,"id":"a62ie59o79uh"},"type":"Feature","geometry":{"type":"Point","coordinates":[-78.960135,35.084046]}},{"properties":{"zip":29732.0,"latitude":34.968066,"firstyear":1.0,"longitude":-81.048881,"id":"a62ie5ftyeky"},"type":"Feature","geometry":{"type":"Point","coordinates":[-81.048881,34.968066]}},{"properties":{"zip":30022.0,"latitude":34.03079,"firstyear":1.0,"longitude":-84.250089,"id":"a62ie56sgvn8"},"type":"Feature","geometry":{"type":"Point","coordinates":[-84.250089,34.03079]}},{"properties":{"zip":30060.0,"latitude":33.909199,"firstyear":1.0,"longitude":-84.564881,"id":"a62ie59p24ll"},"type":"Feature","geometry":{"type":"Point","coordinates":[-84.564881,33.909199]}},{"properties":{"zip":30062.0,"latitude":34.002521,"firstyear":1.0,"longitude":-84.463291,"id":"a62ie5gyr9a1"},"type":"Feature","geometry":{"type":"Point","coordinates":[-84.463291,34.002521]}},{"properties":{"zip":30067.0,"latitude":33.928198,"firstyear":1.0,"longitude":-84.473251,"id":"a62ie519diqw"},"type":"Feature","geometry":{"type":"Point","coordinates":[-84.473251,33.928198]}},{"properties":{"zip":30068.0,"latitude":33.967861,"firstyear":1.0,"longitude":-84.438549,"id":"a62ie5h25j3w"},"type":"Feature","geometry":{"type":"Point","coordinates":[-84.438549,33.967861]}},{"properties":{"zip":30112.0,"latitude":33.580898,"firstyear":1.0,"longitude":-85.078453,"id":"a62ie5f5ijkp"},"type":"Feature","geometry":{"type":"Point","coordinates":[-85.078453,33.580898]}},{"properties":{"zip":30127.0,"latitude":33.877392,"firstyear":1.0,"longitude":-84.693567,"id":"a62ie56nxhiw"},"type":"Feature","geometry":{"type":"Point","coordinates":[-84.693567,33.877392]}},{"properties":{"zip":30152.0,"latitude":33.99895,"firstyear":1.0,"longitude":-84.644509,"id":"a62ie5637sqs"},"type":"Feature","geometry":{"type":"Point","coordinates":[-84.644509,33.99895]}},{"properties":{"zip":30214.0,"latitude":33.448054,"firstyear":1.0,"longitude":-84.463586,"id":"a62ie5h7fg5z"},"type":"Feature","geometry":{"type":"Point","coordinates":[-84.463586,33.448054]}},{"properties":{"zip":30319.0,"latitude":33.868728,"firstyear":1.0,"longitude":-84.335091,"id":"a62ie59k7nam"},"type":"Feature","geometry":{"type":"Point","coordinates":[-84.335091,33.868728]}},{"properties":{"zip":30328.0,"latitude":33.936295,"firstyear":1.0,"longitude":-84.381143,"id":"a62ie5bf5ez4"},"type":"Feature","geometry":{"type":"Point","coordinates":[-84.381143,33.936295]}},{"properties":{"zip":30342.0,"latitude":33.884245,"firstyear":1.0,"longitude":-84.376091,"id":"a62ie57qfxgu"},"type":"Feature","geometry":{"type":"Point","coordinates":[-84.376091,33.884245]}},{"properties":{"zip":33139.0,"latitude":25.785179,"firstyear":1.0,"longitude":-80.136378,"id":"a62ie5e80nwk"},"type":"Feature","geometry":{"type":"Point","coordinates":[-80.136378,25.785179]}},{"properties":{"zip":33143.0,"latitude":25.700252,"firstyear":1.0,"longitude":-80.301408,"id":"a62ie5el2avg"},"type":"Feature","geometry":{"type":"Point","coordinates":[-80.301408,25.700252]}},{"properties":{"zip":33907.0,"latitude":26.568057,"firstyear":1.0,"longitude":-81.873558,"id":"a62ie53wvfb3"},"type":"Feature","geometry":{"type":"Point","coordinates":[-81.873558,26.568057]}},{"properties":{"zip":34119.0,"latitude":26.256981,"firstyear":1.0,"longitude":-81.71861,"id":"a62ie58qwqfl"},"type":"Feature","geometry":{"type":"Point","coordinates":[-81.71861,26.256981]}},{"properties":{"zip":37027.0,"latitude":36.006272,"firstyear":2.0,"longitude":-86.790947,"id":"a62ie5amx69w"},"type":"Feature","geometry":{"type":"Point","coordinates":[-86.790947,36.006272]}},{"properties":{"zip":37075.0,"latitude":36.305425,"firstyear":1.0,"longitude":-86.607157,"id":"a62ie5fjb6hc"},"type":"Feature","geometry":{"type":"Point","coordinates":[-86.607157,36.305425]}},{"properties":{"zip":37205.0,"latitude":36.111432,"firstyear":1.0,"longitude":-86.868954,"id":"a62ie54xibp0"},"type":"Feature","geometry":{"type":"Point","coordinates":[-86.868954,36.111432]}},{"properties":{"zip":37221.0,"latitude":36.071512,"firstyear":1.0,"longitude":-86.943674,"id":"a62ie5fem5o6"},"type":"Feature","geometry":{"type":"Point","coordinates":[-86.943674,36.071512]}},{"properties":{"zip":40222.0,"latitude":38.263825,"firstyear":1.0,"longitude":-85.611183,"id":"a62ie53p2iom"},"type":"Feature","geometry":{"type":"Point","coordinates":[-85.611183,38.263825]}},{"properties":{"zip":40515.0,"latitude":37.965102,"firstyear":1.0,"longitude":-84.470751,"id":"a62ie55melvn"},"type":"Feature","geometry":{"type":"Point","coordinates":[-84.470751,37.965102]}},{"properties":{"zip":41094.0,"latitude":38.887491,"firstyear":1.0,"longitude":-84.63277,"id":"a62ie5d9ieww"},"type":"Feature","geometry":{"type":"Point","coordinates":[-84.63277,38.887491]}},{"properties":{"zip":42420.0,"latitude":37.827393,"firstyear":1.0,"longitude":-87.563228,"id":"a62ie5e8wika"},"type":"Feature","geometry":{"type":"Point","coordinates":[-87.563228,37.827393]}},{"properties":{"zip":43004.0,"latitude":40.020952,"firstyear":1.0,"longitude":-82.807857,"id":"a62ie5hdapin"},"type":"Feature","geometry":{"type":"Point","coordinates":[-82.807857,40.020952]}},{"properties":{"zip":43015.0,"latitude":40.293186,"firstyear":3.0,"longitude":-83.072312,"id":"a62ie5ejfgds"},"type":"Feature","geometry":{"type":"Point","coordinates":[-83.072312,40.293186]}},{"properties":{"zip":43016.0,"latitude":40.09368,"firstyear":4.0,"longitude":-83.141452,"id":"a62ie5e9vzzu"},"type":"Feature","geometry":{"type":"Point","coordinates":[-83.141452,40.09368]}},{"properties":{"zip":43017.0,"latitude":40.109297,"firstyear":4.0,"longitude":-83.114633,"id":"a62ie517i7ie"},"type":"Feature","geometry":{"type":"Point","coordinates":[-83.114633,40.109297]}},{"properties":{"zip":43026.0,"latitude":40.032187,"firstyear":2.0,"longitude":-83.138333,"id":"a62ie5d9j6n6"},"type":"Feature","geometry":{"type":"Point","coordinates":[-83.138333,40.032187]}},{"properties":{"zip":43040.0,"latitude":40.247723,"firstyear":1.0,"longitude":-83.362213,"id":"a62ie5gict54"},"type":"Feature","geometry":{"type":"Point","coordinates":[-83.362213,40.247723]}},{"properties":{"zip":43054.0,"latitude":40.084686,"firstyear":3.0,"longitude":-82.798793,"id":"a62ie583xlln"},"type":"Feature","geometry":{"type":"Point","coordinates":[-82.798793,40.084686]}},{"properties":{"zip":43062.0,"latitude":40.000925,"firstyear":1.0,"longitude":-82.668656,"id":"a62ie52d0z3q"},"type":"Feature","geometry":{"type":"Point","coordinates":[-82.668656,40.000925]}},{"properties":{"zip":43064.0,"latitude":40.097356,"firstyear":1.0,"longitude":-83.269049,"id":"a62ie5967wa3"},"type":"Feature","geometry":{"type":"Point","coordinates":[-83.269049,40.097356]}},{"properties":{"zip":43068.0,"latitude":39.955145,"firstyear":2.0,"longitude":-82.803454,"id":"a62ie57m5r27"},"type":"Feature","geometry":{"type":"Point","coordinates":[-82.803454,39.955145]}},{"properties":{"zip":43078.0,"latitude":40.106639,"firstyear":1.0,"longitude":-83.767142,"id":"a62ie5f3i2zn"},"type":"Feature","geometry":{"type":"Point","coordinates":[-83.767142,40.106639]}},{"properties":{"zip":43082.0,"latitude":40.154803,"firstyear":2.0,"longitude":-82.912782,"id":"a62ie58b5zhq"},"type":"Feature","geometry":{"type":"Point","coordinates":[-82.912782,40.154803]}},{"properties":{"zip":43085.0,"latitude":40.105155,"firstyear":2.0,"longitude":-83.010069,"id":"a62ie5c6uxsw"},"type":"Feature","geometry":{"type":"Point","coordinates":[-83.010069,40.105155]}},{"properties":{"zip":43130.0,"latitude":39.718697,"firstyear":2.0,"longitude":-82.603074,"id":"a62ie5ewhjkf"},"type":"Feature","geometry":{"type":"Point","coordinates":[-82.603074,39.718697]}},{"properties":{"zip":43147.0,"latitude":39.906062,"firstyear":2.0,"longitude":-82.756267,"id":"a62ie51nwmzw"},"type":"Feature","geometry":{"type":"Point","coordinates":[-82.756267,39.906062]}},{"properties":{"zip":43202.0,"latitude":40.020084,"firstyear":1.0,"longitude":-83.011842,"id":"a62ie5biut2t"},"type":"Feature","geometry":{"type":"Point","coordinates":[-83.011842,40.020084]}},{"properties":{"zip":43209.0,"latitude":39.958999,"firstyear":1.0,"longitude":-82.926595,"id":"a62ie56n0xmd"},"type":"Feature","geometry":{"type":"Point","coordinates":[-82.926595,39.958999]}},{"properties":{"zip":43214.0,"latitude":40.053482,"firstyear":1.0,"longitude":-83.01875,"id":"a62ie5fhj6qn"},"type":"Feature","geometry":{"type":"Point","coordinates":[-83.01875,40.053482]}},{"properties":{"zip":43220.0,"latitude":40.049484,"firstyear":3.0,"longitude":-83.066911,"id":"a62ie5cy9p0f"},"type":"Feature","geometry":{"type":"Point","coordinates":[-83.066911,40.049484]}},{"properties":{"zip":43221.0,"latitude":40.015431,"firstyear":3.0,"longitude":-83.064592,"id":"a62ie5b5rjgh"},"type":"Feature","geometry":{"type":"Point","coordinates":[-83.064592,40.015431]}},{"properties":{"zip":43224.0,"latitude":40.042493,"firstyear":2.0,"longitude":-82.968947,"id":"a62ie54y0m5i"},"type":"Feature","geometry":{"type":"Point","coordinates":[-82.968947,40.042493]}},{"properties":{"zip":43229.0,"latitude":40.083886,"firstyear":1.0,"longitude":-82.972568,"id":"a62ie54lr8be"},"type":"Feature","geometry":{"type":"Point","coordinates":[-82.972568,40.083886]}},{"properties":{"zip":43230.0,"latitude":40.038458,"firstyear":1.0,"longitude":-82.882429,"id":"a62ie5c21tr6"},"type":"Feature","geometry":{"type":"Point","coordinates":[-82.882429,40.038458]}},{"properties":{"zip":43231.0,"latitude":40.080984,"firstyear":1.0,"longitude":-82.938275,"id":"a62ie53wq9rp"},"type":"Feature","geometry":{"type":"Point","coordinates":[-82.938275,40.080984]}},{"properties":{"zip":43235.0,"latitude":40.101271,"firstyear":2.0,"longitude":-83.059287,"id":"a62ie5bpsvv5"},"type":"Feature","geometry":{"type":"Point","coordinates":[-83.059287,40.101271]}},{"properties":{"zip":43302.0,"latitude":40.587648,"firstyear":1.0,"longitude":-83.127056,"id":"a62ie550124d"},"type":"Feature","geometry":{"type":"Point","coordinates":[-83.127056,40.587648]}},{"properties":{"zip":43316.0,"latitude":40.948599,"firstyear":1.0,"longitude":-83.383578,"id":"a62ie55p9k4s"},"type":"Feature","geometry":{"type":"Point","coordinates":[-83.383578,40.948599]}},{"properties":{"zip":43357.0,"latitude":40.262541,"firstyear":1.0,"longitude":-83.752763,"id":"a62ie53nacls"},"type":"Feature","geometry":{"type":"Point","coordinates":[-83.752763,40.262541]}},{"properties":{"zip":43402.0,"latitude":41.381513,"firstyear":1.0,"longitude":-83.650749,"id":"a62ie54adlyj"},"type":"Feature","geometry":{"type":"Point","coordinates":[-83.650749,41.381513]}},{"properties":{"zip":43412.0,"latitude":41.647736,"firstyear":1.0,"longitude":-83.285825,"id":"a62ie554bm1s"},"type":"Feature","geometry":{"type":"Point","coordinates":[-83.285825,41.647736]}},{"properties":{"zip":43420.0,"latitude":41.349792,"firstyear":1.0,"longitude":-83.118095,"id":"a62ie54yxe25"},"type":"Feature","geometry":{"type":"Point","coordinates":[-83.118095,41.349792]}},{"properties":{"zip":43449.0,"latitude":41.523556,"firstyear":1.0,"longitude":-83.127764,"id":"a62ie5e259dr"},"type":"Feature","geometry":{"type":"Point","coordinates":[-83.127764,41.523556]}},{"properties":{"zip":43452.0,"latitude":41.521535,"firstyear":2.0,"longitude":-82.909368,"id":"a62ie579riix"},"type":"Feature","geometry":{"type":"Point","coordinates":[-82.909368,41.521535]}},{"properties":{"zip":43528.0,"latitude":41.622629,"firstyear":2.0,"longitude":-83.725712,"id":"a62ie58au1dd"},"type":"Feature","geometry":{"type":"Point","coordinates":[-83.725712,41.622629]}},{"properties":{"zip":43537.0,"latitude":41.581682,"firstyear":1.0,"longitude":-83.66283,"id":"a62ie51lb7gi"},"type":"Feature","geometry":{"type":"Point","coordinates":[-83.66283,41.581682]}},{"properties":{"zip":43560.0,"latitude":41.707985,"firstyear":1.0,"longitude":-83.706825,"id":"a62ie58qhsw4"},"type":"Feature","geometry":{"type":"Point","coordinates":[-83.706825,41.707985]}},{"properties":{"zip":43608.0,"latitude":41.677908,"firstyear":1.0,"longitude":-83.534359,"id":"a62ie59ij1w6"},"type":"Feature","geometry":{"type":"Point","coordinates":[-83.534359,41.677908]}},{"properties":{"zip":43617.0,"latitude":41.666765,"firstyear":3.0,"longitude":-83.716967,"id":"a62ie54qtj70"},"type":"Feature","geometry":{"type":"Point","coordinates":[-83.716967,41.666765]}},{"properties":{"zip":43725.0,"latitude":40.030501,"firstyear":1.0,"longitude":-81.591277,"id":"a62ie54mm5g9"},"type":"Feature","geometry":{"type":"Point","coordinates":[-81.591277,40.030501]}},{"properties":{"zip":43780.0,"latitude":39.933719,"firstyear":1.0,"longitude":-81.458043,"id":"a62ie5c5fn8b"},"type":"Feature","geometry":{"type":"Point","coordinates":[-81.458043,39.933719]}},{"properties":{"zip":43804.0,"latitude":40.447568,"firstyear":1.0,"longitude":-81.679171,"id":"a62ie5f87q0a"},"type":"Feature","geometry":{"type":"Point","coordinates":[-81.679171,40.447568]}},{"properties":{"zip":43812.0,"latitude":40.275412,"firstyear":1.0,"longitude":-81.866033,"id":"a62ie52rbh6n"},"type":"Feature","geometry":{"type":"Point","coordinates":[-81.866033,40.275412]}},{"properties":{"zip":43939.0,"latitude":40.175769,"firstyear":1.0,"longitude":-80.798894,"id":"a62ie5c48fcj"},"type":"Feature","geometry":{"type":"Point","coordinates":[-80.798894,40.175769]}},{"properties":{"zip":44001.0,"latitude":41.390506,"firstyear":3.0,"longitude":-82.228165,"id":"a62ie5cfta52"},"type":"Feature","geometry":{"type":"Point","coordinates":[-82.228165,41.390506]}},{"properties":{"zip":44004.0,"latitude":41.867877,"firstyear":3.0,"longitude":-80.794681,"id":"a62ie5ds1coi"},"type":"Feature","geometry":{"type":"Point","coordinates":[-80.794681,41.867877]}},{"properties":{"zip":44011.0,"latitude":41.446713,"firstyear":9.0,"longitude":-82.020359,"id":"a62ie5ap28xz"},"type":"Feature","geometry":{"type":"Point","coordinates":[-82.020359,41.446713]}},{"properties":{"zip":44012.0,"latitude":41.501904,"firstyear":2.0,"longitude":-82.011094,"id":"a62ie5c9wh94"},"type":"Feature","geometry":{"type":"Point","coordinates":[-82.011094,41.501904]}},{"properties":{"zip":44017.0,"latitude":41.367557,"firstyear":4.0,"longitude":-81.861756,"id":"a62ie5emhh3u"},"type":"Feature","geometry":{"type":"Point","coordinates":[-81.861756,41.367557]}},{"properties":{"zip":44021.0,"latitude":41.452702,"firstyear":1.0,"longitude":-81.15262,"id":"a62ie5bzt92y"},"type":"Feature","geometry":{"type":"Point","coordinates":[-81.15262,41.452702]}},{"properties":{"zip":44022.0,"latitude":41.418577,"firstyear":2.0,"longitude":-81.361437,"id":"a62ie56f6bzt"},"type":"Feature","geometry":{"type":"Point","coordinates":[-81.361437,41.418577]}},{"properties":{"zip":44023.0,"latitude":41.391439,"firstyear":3.0,"longitude":-81.317789,"id":"a62ie51ibdgh"},"type":"Feature","geometry":{"type":"Point","coordinates":[-81.317789,41.391439]}},{"properties":{"zip":44024.0,"latitude":41.571862,"firstyear":7.0,"longitude":-81.205629,"id":"a62ie587lgdv"},"type":"Feature","geometry":{"type":"Point","coordinates":[-81.205629,41.571862]}},{"properties":{"zip":44026.0,"latitude":41.534378,"firstyear":3.0,"longitude":-81.342102,"id":"a62ie52sp9fi"},"type":"Feature","geometry":{"type":"Point","coordinates":[-81.342102,41.534378]}},{"properties":{"zip":44030.0,"latitude":41.934479,"firstyear":1.0,"longitude":-80.580257,"id":"a62ie5a05obl"},"type":"Feature","geometry":{"type":"Point","coordinates":[-80.580257,41.934479]}},{"properties":{"zip":44035.0,"latitude":41.372353,"firstyear":3.0,"longitude":-82.105088,"id":"a62ie55mrnbv"},"type":"Feature","geometry":{"type":"Point","coordinates":[-82.105088,41.372353]}},{"properties":{"zip":44039.0,"latitude":41.396432,"firstyear":5.0,"longitude":-82.003323,"id":"a62ie5871ced"},"type":"Feature","geometry":{"type":"Point","coordinates":[-82.003323,41.396432]}},{"properties":{"zip":44040.0,"latitude":41.532368,"firstyear":5.0,"longitude":-81.415021,"id":"a62ie55nwe8q"},"type":"Feature","geometry":{"type":"Point","coordinates":[-81.415021,41.532368]}},{"properties":{"zip":44041.0,"latitude":41.802864,"firstyear":1.0,"longitude":-80.947363,"id":"a62ie5c46x4z"},"type":"Feature","geometry":{"type":"Point","coordinates":[-80.947363,41.802864]}},{"properties":{"zip":44045.0,"latitude":41.7339,"firstyear":2.0,"longitude":-81.272669,"id":"a62ie5bbtt0f"},"type":"Feature","geometry":{"type":"Point","coordinates":[-81.272669,41.7339]}},{"properties":{"zip":44053.0,"latitude":41.432002,"firstyear":2.0,"longitude":-82.203833,"id":"a62ie51p8orq"},"type":"Feature","geometry":{"type":"Point","coordinates":[-82.203833,41.432002]}},{"properties":{"zip":44054.0,"latitude":41.482276,"firstyear":2.0,"longitude":-82.096497,"id":"a62ie5hdcyvz"},"type":"Feature","geometry":{"type":"Point","coordinates":[-82.096497,41.482276]}},{"properties":{"zip":44056.0,"latitude":41.322236,"firstyear":1.0,"longitude":-81.499578,"id":"a62ie5fmd3ik"},"type":"Feature","geometry":{"type":"Point","coordinates":[-81.499578,41.322236]}},{"properties":{"zip":44057.0,"latitude":41.805367,"firstyear":3.0,"longitude":-81.058819,"id":"a62ie5eapr3l"},"type":"Feature","geometry":{"type":"Point","coordinates":[-81.058819,41.805367]}},{"properties":{"zip":44060.0,"latitude":41.689468,"firstyear":10.0,"longitude":-81.342133,"id":"a62ie5d25h8k"},"type":"Feature","geometry":{"type":"Point","coordinates":[-81.342133,41.689468]}},{"properties":{"zip":44062.0,"latitude":41.445547,"firstyear":1.0,"longitude":-81.037338,"id":"a62ie5ftmzcm"},"type":"Feature","geometry":{"type":"Point","coordinates":[-81.037338,41.445547]}},{"properties":{"zip":44067.0,"latitude":41.320821,"firstyear":3.0,"longitude":-81.542943,"id":"a62ie5f1k986"},"type":"Feature","geometry":{"type":"Point","coordinates":[-81.542943,41.320821]}},{"properties":{"zip":44070.0,"latitude":41.420129,"firstyear":3.0,"longitude":-81.913056,"id":"a62ie57crm9t"},"type":"Feature","geometry":{"type":"Point","coordinates":[-81.913056,41.420129]}},{"properties":{"zip":44074.0,"latitude":41.28987,"firstyear":2.0,"longitude":-82.222863,"id":"a62ie54k8yfh"},"type":"Feature","geometry":{"type":"Point","coordinates":[-82.222863,41.28987]}},{"properties":{"zip":44077.0,"latitude":41.714014,"firstyear":7.0,"longitude":-81.243665,"id":"a62ie5biu77u"},"type":"Feature","geometry":{"type":"Point","coordinates":[-81.243665,41.714014]}},{"properties":{"zip":44081.0,"latitude":41.767916,"firstyear":1.0,"longitude":-81.143312,"id":"a62ie5c3srjt"},"type":"Feature","geometry":{"type":"Point","coordinates":[-81.143312,41.767916]}},{"properties":{"zip":44087.0,"latitude":41.328851,"firstyear":4.0,"longitude":-81.455912,"id":"a62ie53r3pvx"},"type":"Feature","geometry":{"type":"Point","coordinates":[-81.455912,41.328851]}},{"properties":{"zip":44090.0,"latitude":41.171178,"firstyear":2.0,"longitude":-82.226915,"id":"a62ie5ch66rd"},"type":"Feature","geometry":{"type":"Point","coordinates":[-82.226915,41.171178]}},{"properties":{"zip":44092.0,"latitude":41.604565,"firstyear":1.0,"longitude":-81.469175,"id":"a62ie5aabrmk"},"type":"Feature","geometry":{"type":"Point","coordinates":[-81.469175,41.604565]}},{"properties":{"zip":44094.0,"latitude":41.630229,"firstyear":8.0,"longitude":-81.407619,"id":"a62ie5dz4llk"},"type":"Feature","geometry":{"type":"Point","coordinates":[-81.407619,41.630229]}},{"properties":{"zip":44095.0,"latitude":41.649822,"firstyear":2.0,"longitude":-81.447887,"id":"a62ie59agemr"},"type":"Feature","geometry":{"type":"Point","coordinates":[-81.447887,41.649822]}},{"properties":{"zip":44102.0,"latitude":41.473508,"firstyear":2.0,"longitude":-81.739791,"id":"a62ie5h5h48u"},"type":"Feature","geometry":{"type":"Point","coordinates":[-81.739791,41.473508]}},{"properties":{"zip":44103.0,"latitude":41.515726,"firstyear":2.0,"longitude":-81.640475,"id":"a62ie59i0onj"},"type":"Feature","geometry":{"type":"Point","coordinates":[-81.640475,41.515726]}},{"properties":{"zip":44105.0,"latitude":41.450912,"firstyear":2.0,"longitude":-81.619002,"id":"a62ie5h8v2ko"},"type":"Feature","geometry":{"type":"Point","coordinates":[-81.619002,41.450912]}},{"properties":{"zip":44106.0,"latitude":41.508359,"firstyear":7.0,"longitude":-81.60757,"id":"a62ie5bpqk13"},"type":"Feature","geometry":{"type":"Point","coordinates":[-81.60757,41.508359]}},{"properties":{"zip":44107.0,"latitude":41.482654,"firstyear":11.0,"longitude":-81.797143,"id":"a62ie5fqqlss"},"type":"Feature","geometry":{"type":"Point","coordinates":[-81.797143,41.482654]}},{"properties":{"zip":44108.0,"latitude":41.53492,"firstyear":4.0,"longitude":-81.608974,"id":"a62ie5eoea27"},"type":"Feature","geometry":{"type":"Point","coordinates":[-81.608974,41.53492]}},{"properties":{"zip":44109.0,"latitude":41.445768,"firstyear":2.0,"longitude":-81.703315,"id":"a62ie54z31vs"},"type":"Feature","geometry":{"type":"Point","coordinates":[-81.703315,41.445768]}},{"properties":{"zip":44110.0,"latitude":41.563557,"firstyear":3.0,"longitude":-81.573276,"id":"a62ie5h4c9hk"},"type":"Feature","geometry":{"type":"Point","coordinates":[-81.573276,41.563557]}},{"properties":{"zip":44111.0,"latitude":41.457066,"firstyear":2.0,"longitude":-81.78435,"id":"a62ie59y13kc"},"type":"Feature","geometry":{"type":"Point","coordinates":[-81.78435,41.457066]}},{"properties":{"zip":44112.0,"latitude":41.535517,"firstyear":2.0,"longitude":-81.576262,"id":"a62ie512w16k"},"type":"Feature","geometry":{"type":"Point","coordinates":[-81.576262,41.535517]}},{"properties":{"zip":44113.0,"latitude":41.481648,"firstyear":1.0,"longitude":-81.701848,"id":"a62ie5fywsjd"},"type":"Feature","geometry":{"type":"Point","coordinates":[-81.701848,41.481648]}},{"properties":{"zip":44114.0,"latitude":41.506351,"firstyear":3.0,"longitude":-81.67425,"id":"a62ie5aei0w2"},"type":"Feature","geometry":{"type":"Point","coordinates":[-81.67425,41.506351]}},{"properties":{"zip":44116.0,"latitude":41.469401,"firstyear":3.0,"longitude":-81.851246,"id":"a62ie5cn6y3a"},"type":"Feature","geometry":{"type":"Point","coordinates":[-81.851246,41.469401]}},{"properties":{"zip":44118.0,"latitude":41.501213,"firstyear":11.0,"longitude":-81.553945,"id":"a62ie5elrq8x"},"type":"Feature","geometry":{"type":"Point","coordinates":[-81.553945,41.501213]}},{"properties":{"zip":44120.0,"latitude":41.471433,"firstyear":7.0,"longitude":-81.583911,"id":"a62ie5gdb1mm"},"type":"Feature","geometry":{"type":"Point","coordinates":[-81.583911,41.471433]}},{"properties":{"zip":44121.0,"latitude":41.526019,"firstyear":3.0,"longitude":-81.533758,"id":"a62ie5hkgc9r"},"type":"Feature","geometry":{"type":"Point","coordinates":[-81.533758,41.526019]}},{"properties":{"zip":44122.0,"latitude":41.470109,"firstyear":10.0,"longitude":-81.523172,"id":"a62ie52v1mhq"},"type":"Feature","geometry":{"type":"Point","coordinates":[-81.523172,41.470109]}},{"properties":{"zip":44123.0,"latitude":41.604416,"firstyear":3.0,"longitude":-81.524325,"id":"a62ie51xxam3"},"type":"Feature","geometry":{"type":"Point","coordinates":[-81.524325,41.604416]}},{"properties":{"zip":44124.0,"latitude":41.514349,"firstyear":6.0,"longitude":-81.46801,"id":"a62ie52eca1r"},"type":"Feature","geometry":{"type":"Point","coordinates":[-81.46801,41.514349]}},{"properties":{"zip":44125.0,"latitude":41.415792,"firstyear":5.0,"longitude":-81.605385,"id":"a62ie57qs5s6"},"type":"Feature","geometry":{"type":"Point","coordinates":[-81.605385,41.415792]}},{"properties":{"zip":44126.0,"latitude":41.4433,"firstyear":5.0,"longitude":-81.856381,"id":"a62ie5gtft55"},"type":"Feature","geometry":{"type":"Point","coordinates":[-81.856381,41.4433]}},{"properties":{"zip":44127.0,"latitude":41.470125,"firstyear":1.0,"longitude":-81.648999,"id":"a62ie52lms3r"},"type":"Feature","geometry":{"type":"Point","coordinates":[-81.648999,41.470125]}},{"properties":{"zip":44128.0,"latitude":41.441565,"firstyear":3.0,"longitude":-81.548574,"id":"a62ie523b4wo"},"type":"Feature","geometry":{"type":"Point","coordinates":[-81.548574,41.441565]}},{"properties":{"zip":44129.0,"latitude":41.396474,"firstyear":3.0,"longitude":-81.734604,"id":"a62ie5aogf9c"},"type":"Feature","geometry":{"type":"Point","coordinates":[-81.734604,41.396474]}},{"properties":{"zip":44130.0,"latitude":41.377178,"firstyear":11.0,"longitude":-81.774858,"id":"a62ie55yewei"},"type":"Feature","geometry":{"type":"Point","coordinates":[-81.774858,41.377178]}},{"properties":{"zip":44131.0,"latitude":41.380905,"firstyear":2.0,"longitude":-81.66421,"id":"a62ie51dlu5p"},"type":"Feature","geometry":{"type":"Point","coordinates":[-81.66421,41.380905]}},{"properties":{"zip":44132.0,"latitude":41.608516,"firstyear":3.0,"longitude":-81.499056,"id":"a62ie5h4mj91"},"type":"Feature","geometry":{"type":"Point","coordinates":[-81.499056,41.608516]}},{"properties":{"zip":44133.0,"latitude":41.323164,"firstyear":5.0,"longitude":-81.745657,"id":"a62ie5c2547c"},"type":"Feature","geometry":{"type":"Point","coordinates":[-81.745657,41.323164]}},{"properties":{"zip":44134.0,"latitude":41.390764,"firstyear":6.0,"longitude":-81.705726,"id":"a62ie5fcfh1d"},"type":"Feature","geometry":{"type":"Point","coordinates":[-81.705726,41.390764]}},{"properties":{"zip":44135.0,"latitude":41.434177,"firstyear":4.0,"longitude":-81.804433,"id":"a62ie5h0v1w4"},"type":"Feature","geometry":{"type":"Point","coordinates":[-81.804433,41.434177]}},{"properties":{"zip":44136.0,"latitude":41.313218,"firstyear":4.0,"longitude":-81.828457,"id":"a62ie5c06u4d"},"type":"Feature","geometry":{"type":"Point","coordinates":[-81.828457,41.313218]}},{"properties":{"zip":44137.0,"latitude":41.410513,"firstyear":4.0,"longitude":-81.560339,"id":"a62ie55nf0qg"},"type":"Feature","geometry":{"type":"Point","coordinates":[-81.560339,41.410513]}},{"properties":{"zip":44138.0,"latitude":41.373351,"firstyear":3.0,"longitude":-81.915769,"id":"a62ie5b7qevs"},"type":"Feature","geometry":{"type":"Point","coordinates":[-81.915769,41.373351]}},{"properties":{"zip":44139.0,"latitude":41.386597,"firstyear":10.0,"longitude":-81.442082,"id":"a62ie5bgs6tu"},"type":"Feature","geometry":{"type":"Point","coordinates":[-81.442082,41.386597]}},{"properties":{"zip":44140.0,"latitude":41.484137,"firstyear":2.0,"longitude":-81.928868,"id":"a62ie5eoz59m"},"type":"Feature","geometry":{"type":"Point","coordinates":[-81.928868,41.484137]}},{"properties":{"zip":44141.0,"latitude":41.316554,"firstyear":3.0,"longitude":-81.626083,"id":"a62ie5b3006u"},"type":"Feature","geometry":{"type":"Point","coordinates":[-81.626083,41.316554]}},{"properties":{"zip":44142.0,"latitude":41.397944,"firstyear":3.0,"longitude":-81.811811,"id":"a62ie5gjywik"},"type":"Feature","geometry":{"type":"Point","coordinates":[-81.811811,41.397944]}},{"properties":{"zip":44143.0,"latitude":41.552195,"firstyear":5.0,"longitude":-81.484715,"id":"a62ie51zak6o"},"type":"Feature","geometry":{"type":"Point","coordinates":[-81.484715,41.552195]}},{"properties":{"zip":44144.0,"latitude":41.434419,"firstyear":3.0,"longitude":-81.735222,"id":"a62ie53g6qig"},"type":"Feature","geometry":{"type":"Point","coordinates":[-81.735222,41.434419]}},{"properties":{"zip":44145.0,"latitude":41.453459,"firstyear":13.0,"longitude":-81.921771,"id":"a62ie5bzhrau"},"type":"Feature","geometry":{"type":"Point","coordinates":[-81.921771,41.453459]}},{"properties":{"zip":44146.0,"latitude":41.392067,"firstyear":3.0,"longitude":-81.52315,"id":"a62ie587kc9p"},"type":"Feature","geometry":{"type":"Point","coordinates":[-81.52315,41.392067]}},{"properties":{"zip":44147.0,"latitude":41.32907,"firstyear":5.0,"longitude":-81.680879,"id":"a62ie5cs87vw"},"type":"Feature","geometry":{"type":"Point","coordinates":[-81.680879,41.32907]}},{"properties":{"zip":44149.0,"latitude":41.31657,"firstyear":3.0,"longitude":-81.854344,"id":"a62ie5h371tn"},"type":"Feature","geometry":{"type":"Point","coordinates":[-81.854344,41.31657]}},{"properties":{"zip":44202.0,"latitude":41.320935,"firstyear":3.0,"longitude":-81.360424,"id":"a62ie5gsgpgc"},"type":"Feature","geometry":{"type":"Point","coordinates":[-81.360424,41.320935]}},{"properties":{"zip":44203.0,"latitude":41.018589,"firstyear":3.0,"longitude":-81.615314,"id":"a62ie5dkanae"},"type":"Feature","geometry":{"type":"Point","coordinates":[-81.615314,41.018589]}},{"properties":{"zip":44212.0,"latitude":41.247053,"firstyear":5.0,"longitude":-81.827968,"id":"a62ie516gycj"},"type":"Feature","geometry":{"type":"Point","coordinates":[-81.827968,41.247053]}},{"properties":{"zip":44216.0,"latitude":40.939062,"firstyear":1.0,"longitude":-81.587079,"id":"a62ie5ad0m3s"},"type":"Feature","geometry":{"type":"Point","coordinates":[-81.587079,40.939062]}},{"properties":{"zip":44224.0,"latitude":41.174808,"firstyear":2.0,"longitude":-81.438017,"id":"a62ie5fg9l42"},"type":"Feature","geometry":{"type":"Point","coordinates":[-81.438017,41.174808]}},{"properties":{"zip":44231.0,"latitude":41.298803,"firstyear":1.0,"longitude":-81.070365,"id":"a62ie54inqbn"},"type":"Feature","geometry":{"type":"Point","coordinates":[-81.070365,41.298803]}},{"properties":{"zip":44233.0,"latitude":41.241872,"firstyear":3.0,"longitude":-81.74527,"id":"a62ie548554d"},"type":"Feature","geometry":{"type":"Point","coordinates":[-81.74527,41.241872]}},{"properties":{"zip":44236.0,"latitude":41.245836,"firstyear":8.0,"longitude":-81.436659,"id":"a62ie5ckip76"},"type":"Feature","geometry":{"type":"Point","coordinates":[-81.436659,41.245836]}},{"properties":{"zip":44240.0,"latitude":41.14492,"firstyear":1.0,"longitude":-81.34976,"id":"a62ie5a2pjv9"},"type":"Feature","geometry":{"type":"Point","coordinates":[-81.34976,41.14492]}},{"properties":{"zip":44241.0,"latitude":41.249099,"firstyear":1.0,"longitude":-81.338298,"id":"a62ie54a4s2a"},"type":"Feature","geometry":{"type":"Point","coordinates":[-81.338298,41.249099]}},{"properties":{"zip":44251.0,"latitude":41.031072,"firstyear":1.0,"longitude":-81.930659,"id":"a62ie5a6cky6"},"type":"Feature","geometry":{"type":"Point","coordinates":[-81.930659,41.031072]}},{"properties":{"zip":44255.0,"latitude":41.294141,"firstyear":1.0,"longitude":-81.228259,"id":"a62ie5e8aaq2"},"type":"Feature","geometry":{"type":"Point","coordinates":[-81.228259,41.294141]}},{"properties":{"zip":44256.0,"latitude":41.140415,"firstyear":3.0,"longitude":-81.858351,"id":"a62ie5d5cka3"},"type":"Feature","geometry":{"type":"Point","coordinates":[-81.858351,41.140415]}},{"properties":{"zip":44266.0,"latitude":41.164886,"firstyear":2.0,"longitude":-81.233656,"id":"a62ie5e8uyz7"},"type":"Feature","geometry":{"type":"Point","coordinates":[-81.233656,41.164886]}},{"properties":{"zip":44273.0,"latitude":41.022731,"firstyear":1.0,"longitude":-81.856199,"id":"a62ie57gk0eb"},"type":"Feature","geometry":{"type":"Point","coordinates":[-81.856199,41.022731]}},{"properties":{"zip":44275.0,"latitude":41.098287,"firstyear":1.0,"longitude":-82.099907,"id":"a62ie59hu7wp"},"type":"Feature","geometry":{"type":"Point","coordinates":[-82.099907,41.098287]}},{"properties":{"zip":44278.0,"latitude":41.097492,"firstyear":1.0,"longitude":-81.425966,"id":"a62ie5f590hg"},"type":"Feature","geometry":{"type":"Point","coordinates":[-81.425966,41.097492]}},{"properties":{"zip":44280.0,"latitude":41.236806,"firstyear":1.0,"longitude":-81.924467,"id":"a62ie555ooel"},"type":"Feature","geometry":{"type":"Point","coordinates":[-81.924467,41.236806]}},{"properties":{"zip":44281.0,"latitude":41.038375,"firstyear":2.0,"longitude":-81.737373,"id":"a62ie54wcdpa"},"type":"Feature","geometry":{"type":"Point","coordinates":[-81.737373,41.038375]}},{"properties":{"zip":44301.0,"latitude":41.044852,"firstyear":1.0,"longitude":-81.520048,"id":"a62ie561mskg"},"type":"Feature","geometry":{"type":"Point","coordinates":[-81.520048,41.044852]}},{"properties":{"zip":44313.0,"latitude":41.121995,"firstyear":1.0,"longitude":-81.568487,"id":"a62ie53tcx3p"},"type":"Feature","geometry":{"type":"Point","coordinates":[-81.568487,41.121995]}},{"properties":{"zip":44319.0,"latitude":40.97912,"firstyear":2.0,"longitude":-81.53468,"id":"a62ie53blk9n"},"type":"Feature","geometry":{"type":"Point","coordinates":[-81.53468,40.97912]}},{"properties":{"zip":44333.0,"latitude":41.146734,"firstyear":1.0,"longitude":-81.62385,"id":"a62ie579ayzs"},"type":"Feature","geometry":{"type":"Point","coordinates":[-81.62385,41.146734]}},{"properties":{"zip":44402.0,"latitude":41.379749,"firstyear":1.0,"longitude":-80.856839,"id":"a62ie5awnbns"},"type":"Feature","geometry":{"type":"Point","coordinates":[-80.856839,41.379749]}},{"properties":{"zip":44405.0,"latitude":41.077829,"firstyear":1.0,"longitude":-80.589721,"id":"a62ie5fzphy3"},"type":"Feature","geometry":{"type":"Point","coordinates":[-80.589721,41.077829]}},{"properties":{"zip":44406.0,"latitude":41.029328,"firstyear":2.0,"longitude":-80.756436,"id":"a62ie5dqrojq"},"type":"Feature","geometry":{"type":"Point","coordinates":[-80.756436,41.029328]}},{"properties":{"zip":44408.0,"latitude":40.885279,"firstyear":1.0,"longitude":-80.697473,"id":"a62ie577lhkc"},"type":"Feature","geometry":{"type":"Point","coordinates":[-80.697473,40.885279]}},{"properties":{"zip":44410.0,"latitude":41.325125,"firstyear":2.0,"longitude":-80.732745,"id":"a62ie5hbedl1"},"type":"Feature","geometry":{"type":"Point","coordinates":[-80.732745,41.325125]}},{"properties":{"zip":44420.0,"latitude":41.161136,"firstyear":3.0,"longitude":-80.693305,"id":"a62ie54nv9n6"},"type":"Feature","geometry":{"type":"Point","coordinates":[-80.693305,41.161136]}},{"properties":{"zip":44425.0,"latitude":41.162401,"firstyear":1.0,"longitude":-80.576192,"id":"a62ie533292a"},"type":"Feature","geometry":{"type":"Point","coordinates":[-80.576192,41.162401]}},{"properties":{"zip":44431.0,"latitude":40.863077,"firstyear":1.0,"longitude":-80.758453,"id":"a62ie54pcous"},"type":"Feature","geometry":{"type":"Point","coordinates":[-80.758453,40.863077]}},{"properties":{"zip":44440.0,"latitude":41.131843,"firstyear":1.0,"longitude":-80.755293,"id":"a62ie5ev6eb4"},"type":"Feature","geometry":{"type":"Point","coordinates":[-80.755293,41.131843]}},{"properties":{"zip":44460.0,"latitude":40.900024,"firstyear":1.0,"longitude":-80.861883,"id":"a62ie5ep17k4"},"type":"Feature","geometry":{"type":"Point","coordinates":[-80.861883,40.900024]}},{"properties":{"zip":44481.0,"latitude":41.172426,"firstyear":1.0,"longitude":-80.871806,"id":"a62ie53imet0"},"type":"Feature","geometry":{"type":"Point","coordinates":[-80.871806,41.172426]}},{"properties":{"zip":44483.0,"latitude":41.263878,"firstyear":2.0,"longitude":-80.816448,"id":"a62ie594rngh"},"type":"Feature","geometry":{"type":"Point","coordinates":[-80.816448,41.263878]}},{"properties":{"zip":44511.0,"latitude":41.070402,"firstyear":1.0,"longitude":-80.693098,"id":"a62ie5ff0ibq"},"type":"Feature","geometry":{"type":"Point","coordinates":[-80.693098,41.070402]}},{"properties":{"zip":44512.0,"latitude":41.031985,"firstyear":1.0,"longitude":-80.666629,"id":"a62ie51cywrt"},"type":"Feature","geometry":{"type":"Point","coordinates":[-80.666629,41.031985]}},{"properties":{"zip":44514.0,"latitude":41.023258,"firstyear":2.0,"longitude":-80.610254,"id":"a62ie55779vl"},"type":"Feature","geometry":{"type":"Point","coordinates":[-80.610254,41.023258]}},{"properties":{"zip":44515.0,"latitude":41.093903,"firstyear":2.0,"longitude":-80.743966,"id":"a62ie59j0t1x"},"type":"Feature","geometry":{"type":"Point","coordinates":[-80.743966,41.093903]}},{"properties":{"zip":44608.0,"latitude":40.656199,"firstyear":1.0,"longitude":-81.585129,"id":"a62ie525inrk"},"type":"Feature","geometry":{"type":"Point","coordinates":[-81.585129,40.656199]}},{"properties":{"zip":44641.0,"latitude":40.847729,"firstyear":1.0,"longitude":-81.259464,"id":"a62ie5dqcsiq"},"type":"Feature","geometry":{"type":"Point","coordinates":[-81.259464,40.847729]}},{"properties":{"zip":44646.0,"latitude":40.811605,"firstyear":1.0,"longitude":-81.497263,"id":"a62ie5e6y5l4"},"type":"Feature","geometry":{"type":"Point","coordinates":[-81.497263,40.811605]}},{"properties":{"zip":44662.0,"latitude":40.720405,"firstyear":1.0,"longitude":-81.533824,"id":"a62ie523pqb3"},"type":"Feature","geometry":{"type":"Point","coordinates":[-81.533824,40.720405]}},{"properties":{"zip":44667.0,"latitude":40.845836,"firstyear":1.0,"longitude":-81.774109,"id":"a62ie53bye2i"},"type":"Feature","geometry":{"type":"Point","coordinates":[-81.774109,40.845836]}},{"properties":{"zip":44676.0,"latitude":40.692584,"firstyear":1.0,"longitude":-82.032451,"id":"a62ie59g78er"},"type":"Feature","geometry":{"type":"Point","coordinates":[-82.032451,40.692584]}},{"properties":{"zip":44685.0,"latitude":40.963694,"firstyear":2.0,"longitude":-81.421108,"id":"a62ie5cdqb2q"},"type":"Feature","geometry":{"type":"Point","coordinates":[-81.421108,40.963694]}},{"properties":{"zip":44691.0,"latitude":40.809354,"firstyear":3.0,"longitude":-81.948272,"id":"a62ie5dgxd0d"},"type":"Feature","geometry":{"type":"Point","coordinates":[-81.948272,40.809354]}},{"properties":{"zip":44697.0,"latitude":40.613941,"firstyear":1.0,"longitude":-81.422318,"id":"a62ie5bk72yu"},"type":"Feature","geometry":{"type":"Point","coordinates":[-81.422318,40.613941]}},{"properties":{"zip":44703.0,"latitude":40.809791,"firstyear":1.0,"longitude":-81.381439,"id":"a62ie59dfyvj"},"type":"Feature","geometry":{"type":"Point","coordinates":[-81.381439,40.809791]}},{"properties":{"zip":44709.0,"latitude":40.837227,"firstyear":3.0,"longitude":-81.385947,"id":"a62ie5485iz6"},"type":"Feature","geometry":{"type":"Point","coordinates":[-81.385947,40.837227]}},{"properties":{"zip":44714.0,"latitude":40.827174,"firstyear":1.0,"longitude":-81.360963,"id":"a62ie5chav1z"},"type":"Feature","geometry":{"type":"Point","coordinates":[-81.360963,40.827174]}},{"properties":{"zip":44718.0,"latitude":40.85479,"firstyear":2.0,"longitude":-81.448514,"id":"a62ie5cxzroh"},"type":"Feature","geometry":{"type":"Point","coordinates":[-81.448514,40.85479]}},{"properties":{"zip":44720.0,"latitude":40.889919,"firstyear":3.0,"longitude":-81.413464,"id":"a62ie58lh5oc"},"type":"Feature","geometry":{"type":"Point","coordinates":[-81.413464,40.889919]}},{"properties":{"zip":44721.0,"latitude":40.883446,"firstyear":2.0,"longitude":-81.33279,"id":"a62ie56ohvit"},"type":"Feature","geometry":{"type":"Point","coordinates":[-81.33279,40.883446]}},{"properties":{"zip":44730.0,"latitude":40.784983,"firstyear":1.0,"longitude":-81.278295,"id":"a62ie544zaho"},"type":"Feature","geometry":{"type":"Point","coordinates":[-81.278295,40.784983]}},{"properties":{"zip":44843.0,"latitude":40.70389,"firstyear":1.0,"longitude":-82.408671,"id":"a62ie5glpbsl"},"type":"Feature","geometry":{"type":"Point","coordinates":[-82.408671,40.70389]}},{"properties":{"zip":44855.0,"latitude":41.102987,"firstyear":1.0,"longitude":-82.599801,"id":"a62ie535othn"},"type":"Feature","geometry":{"type":"Point","coordinates":[-82.599801,41.102987]}},{"properties":{"zip":44857.0,"latitude":41.240314,"firstyear":1.0,"longitude":-82.60785,"id":"a62ie5eq1biz"},"type":"Feature","geometry":{"type":"Point","coordinates":[-82.60785,41.240314]}},{"properties":{"zip":44870.0,"latitude":41.434878,"firstyear":1.0,"longitude":-82.70633,"id":"a62ie56pmi6n"},"type":"Feature","geometry":{"type":"Point","coordinates":[-82.70633,41.434878]}},{"properties":{"zip":44880.0,"latitude":41.036818,"firstyear":1.0,"longitude":-82.217217,"id":"a62ie5gt06xt"},"type":"Feature","geometry":{"type":"Point","coordinates":[-82.217217,41.036818]}},{"properties":{"zip":44883.0,"latitude":41.123822,"firstyear":1.0,"longitude":-83.184356,"id":"a62ie59pxzm0"},"type":"Feature","geometry":{"type":"Point","coordinates":[-83.184356,41.123822]}},{"properties":{"zip":44904.0,"latitude":40.682568,"firstyear":2.0,"longitude":-82.590605,"id":"a62ie51dpdoq"},"type":"Feature","geometry":{"type":"Point","coordinates":[-82.590605,40.682568]}},{"properties":{"zip":44907.0,"latitude":40.734483,"firstyear":1.0,"longitude":-82.519833,"id":"a62ie54di0u9"},"type":"Feature","geometry":{"type":"Point","coordinates":[-82.519833,40.734483]}},{"properties":{"zip":45002.0,"latitude":39.193707,"firstyear":1.0,"longitude":-84.733969,"id":"a62ie53zj99k"},"type":"Feature","geometry":{"type":"Point","coordinates":[-84.733969,39.193707]}},{"properties":{"zip":45013.0,"latitude":39.40619,"firstyear":2.0,"longitude":-84.606655,"id":"a62ie57dyns4"},"type":"Feature","geometry":{"type":"Point","coordinates":[-84.606655,39.40619]}},{"properties":{"zip":45036.0,"latitude":39.442047,"firstyear":1.0,"longitude":-84.218754,"id":"a62ie5dcr7qv"},"type":"Feature","geometry":{"type":"Point","coordinates":[-84.218754,39.442047]}},{"properties":{"zip":45040.0,"latitude":39.335741,"firstyear":5.0,"longitude":-84.314935,"id":"a62ie51j0n7z"},"type":"Feature","geometry":{"type":"Point","coordinates":[-84.314935,39.335741]}},{"properties":{"zip":45042.0,"latitude":39.532121,"firstyear":1.0,"longitude":-84.389601,"id":"a62ie5bbev5d"},"type":"Feature","geometry":{"type":"Point","coordinates":[-84.389601,39.532121]}},{"properties":{"zip":45054.0,"latitude":39.414479,"firstyear":1.0,"longitude":-84.051136,"id":"a62ie5hg9kfv"},"type":"Feature","geometry":{"type":"Point","coordinates":[-84.051136,39.414479]}},{"properties":{"zip":45068.0,"latitude":39.528489,"firstyear":1.0,"longitude":-84.081518,"id":"a62ie530jfso"},"type":"Feature","geometry":{"type":"Point","coordinates":[-84.081518,39.528489]}},{"properties":{"zip":45069.0,"latitude":39.340243,"firstyear":7.0,"longitude":-84.399786,"id":"a62ie56j98kc"},"type":"Feature","geometry":{"type":"Point","coordinates":[-84.399786,39.340243]}},{"properties":{"zip":45140.0,"latitude":39.244484,"firstyear":2.0,"longitude":-84.258802,"id":"a62ie57iab5o"},"type":"Feature","geometry":{"type":"Point","coordinates":[-84.258802,39.244484]}},{"properties":{"zip":45157.0,"latitude":38.953663,"firstyear":1.0,"longitude":-84.237903,"id":"a62ie56uczli"},"type":"Feature","geometry":{"type":"Point","coordinates":[-84.237903,38.953663]}},{"properties":{"zip":45213.0,"latitude":39.182905,"firstyear":1.0,"longitude":-84.418701,"id":"a62ie5c0ed9f"},"type":"Feature","geometry":{"type":"Point","coordinates":[-84.418701,39.182905]}},{"properties":{"zip":45215.0,"latitude":39.230063,"firstyear":1.0,"longitude":-84.457168,"id":"a62ie53x3r2w"},"type":"Feature","geometry":{"type":"Point","coordinates":[-84.457168,39.230063]}},{"properties":{"zip":45240.0,"latitude":39.286424,"firstyear":1.0,"longitude":-84.526299,"id":"a62ie547a5oq"},"type":"Feature","geometry":{"type":"Point","coordinates":[-84.526299,39.286424]}},{"properties":{"zip":45241.0,"latitude":39.276745,"firstyear":1.0,"longitude":-84.391161,"id":"a62ie57aymlm"},"type":"Feature","geometry":{"type":"Point","coordinates":[-84.391161,39.276745]}},{"properties":{"zip":45242.0,"latitude":39.239881,"firstyear":4.0,"longitude":-84.359919,"id":"a62ie51dgroz"},"type":"Feature","geometry":{"type":"Point","coordinates":[-84.359919,39.239881]}},{"properties":{"zip":45249.0,"latitude":39.275946,"firstyear":2.0,"longitude":-84.326673,"id":"a62ie5ae9kyg"},"type":"Feature","geometry":{"type":"Point","coordinates":[-84.326673,39.275946]}},{"properties":{"zip":45255.0,"latitude":39.070642,"firstyear":2.0,"longitude":-84.330774,"id":"a62ie5gh0823"},"type":"Feature","geometry":{"type":"Point","coordinates":[-84.330774,39.070642]}},{"properties":{"zip":45327.0,"latitude":39.6244,"firstyear":1.0,"longitude":-84.376384,"id":"a62ie51bas3s"},"type":"Feature","geometry":{"type":"Point","coordinates":[-84.376384,39.6244]}},{"properties":{"zip":45385.0,"latitude":39.684204,"firstyear":1.0,"longitude":-83.936878,"id":"a62ie5ggtudj"},"type":"Feature","geometry":{"type":"Point","coordinates":[-83.936878,39.684204]}},{"properties":{"zip":45403.0,"latitude":39.761728,"firstyear":1.0,"longitude":-84.149802,"id":"a62ie514p0lm"},"type":"Feature","geometry":{"type":"Point","coordinates":[-84.149802,39.761728]}},{"properties":{"zip":45408.0,"latitude":39.739526,"firstyear":1.0,"longitude":-84.228963,"id":"a62ie5gj06yz"},"type":"Feature","geometry":{"type":"Point","coordinates":[-84.228963,39.739526]}},{"properties":{"zip":45417.0,"latitude":39.752812,"firstyear":1.0,"longitude":-84.246961,"id":"a62ie5cw3bjt"},"type":"Feature","geometry":{"type":"Point","coordinates":[-84.246961,39.752812]}},{"properties":{"zip":45419.0,"latitude":39.715486,"firstyear":3.0,"longitude":-84.163656,"id":"a62ie52i9obt"},"type":"Feature","geometry":{"type":"Point","coordinates":[-84.163656,39.715486]}},{"properties":{"zip":45429.0,"latitude":39.686392,"firstyear":2.0,"longitude":-84.156077,"id":"a62ie54ej6y9"},"type":"Feature","geometry":{"type":"Point","coordinates":[-84.156077,39.686392]}},{"properties":{"zip":45431.0,"latitude":39.765396,"firstyear":2.0,"longitude":-84.099802,"id":"a62ie5fxix5v"},"type":"Feature","geometry":{"type":"Point","coordinates":[-84.099802,39.765396]}},{"properties":{"zip":45432.0,"latitude":39.740774,"firstyear":1.0,"longitude":-84.094157,"id":"a62ie549gl1j"},"type":"Feature","geometry":{"type":"Point","coordinates":[-84.094157,39.740774]}},{"properties":{"zip":45434.0,"latitude":39.716552,"firstyear":2.0,"longitude":-84.040385,"id":"a62ie566t6oj"},"type":"Feature","geometry":{"type":"Point","coordinates":[-84.040385,39.716552]}},{"properties":{"zip":45440.0,"latitude":39.674854,"firstyear":1.0,"longitude":-84.113573,"id":"a62ie5ddjaeb"},"type":"Feature","geometry":{"type":"Point","coordinates":[-84.113573,39.674854]}},{"properties":{"zip":45458.0,"latitude":39.615755,"firstyear":2.0,"longitude":-84.162697,"id":"a62ie5g50xq4"},"type":"Feature","geometry":{"type":"Point","coordinates":[-84.162697,39.615755]}},{"properties":{"zip":45503.0,"latitude":39.9528,"firstyear":2.0,"longitude":-83.78043,"id":"a62ie5c4zfos"},"type":"Feature","geometry":{"type":"Point","coordinates":[-83.78043,39.9528]}},{"properties":{"zip":45504.0,"latitude":39.940793,"firstyear":1.0,"longitude":-83.834302,"id":"a62ie5de00a2"},"type":"Feature","geometry":{"type":"Point","coordinates":[-83.834302,39.940793]}},{"properties":{"zip":45644.0,"latitude":39.441432,"firstyear":1.0,"longitude":-82.848808,"id":"a62ie5ebx0uw"},"type":"Feature","geometry":{"type":"Point","coordinates":[-82.848808,39.441432]}},{"properties":{"zip":45714.0,"latitude":39.286772,"firstyear":1.0,"longitude":-81.596795,"id":"a62ie52is3ht"},"type":"Feature","geometry":{"type":"Point","coordinates":[-81.596795,39.286772]}},{"properties":{"zip":45809.0,"latitude":40.84364,"firstyear":1.0,"longitude":-84.180489,"id":"a62ie5356t8s"},"type":"Feature","geometry":{"type":"Point","coordinates":[-84.180489,40.84364]}},{"properties":{"zip":45817.0,"latitude":40.878978,"firstyear":1.0,"longitude":-83.891397,"id":"a62ie5308740"},"type":"Feature","geometry":{"type":"Point","coordinates":[-83.891397,40.878978]}},{"properties":{"zip":45887.0,"latitude":40.703767,"firstyear":1.0,"longitude":-84.34125,"id":"a62ie5bmxufb"},"type":"Feature","geometry":{"type":"Point","coordinates":[-84.34125,40.703767]}},{"properties":{"zip":45895.0,"latitude":40.568978,"firstyear":1.0,"longitude":-84.177378,"id":"a62ie5eh36bt"},"type":"Feature","geometry":{"type":"Point","coordinates":[-84.177378,40.568978]}},{"properties":{"zip":46037.0,"latitude":39.957415,"firstyear":1.0,"longitude":-85.957969,"id":"a62ie5bb349y"},"type":"Feature","geometry":{"type":"Point","coordinates":[-85.957969,39.957415]}},{"properties":{"zip":46038.0,"latitude":39.957486,"firstyear":1.0,"longitude":-86.023048,"id":"a62ie52o3f2s"},"type":"Feature","geometry":{"type":"Point","coordinates":[-86.023048,39.957486]}},{"properties":{"zip":46074.0,"latitude":40.048868,"firstyear":1.0,"longitude":-86.149907,"id":"a62ie5cnr5sb"},"type":"Feature","geometry":{"type":"Point","coordinates":[-86.149907,40.048868]}},{"properties":{"zip":46077.0,"latitude":39.956111,"firstyear":1.0,"longitude":-86.276737,"id":"a62ie55pru38"},"type":"Feature","geometry":{"type":"Point","coordinates":[-86.276737,39.956111]}},{"properties":{"zip":46234.0,"latitude":39.788438,"firstyear":1.0,"longitude":-86.324117,"id":"a62ie5e2mlbo"},"type":"Feature","geometry":{"type":"Point","coordinates":[-86.324117,39.788438]}},{"properties":{"zip":46250.0,"latitude":39.9069,"firstyear":1.0,"longitude":-86.069112,"id":"a62ie5cbs9lp"},"type":"Feature","geometry":{"type":"Point","coordinates":[-86.069112,39.9069]}},{"properties":{"zip":46304.0,"latitude":41.603949,"firstyear":1.0,"longitude":-87.050196,"id":"a62ie57qerx0"},"type":"Feature","geometry":{"type":"Point","coordinates":[-87.050196,41.603949]}},{"properties":{"zip":46373.0,"latitude":41.44949,"firstyear":1.0,"longitude":-87.476376,"id":"a62ie58altzb"},"type":"Feature","geometry":{"type":"Point","coordinates":[-87.476376,41.44949]}},{"properties":{"zip":46385.0,"latitude":41.48045,"firstyear":1.0,"longitude":-87.114268,"id":"a62ie57yepz2"},"type":"Feature","geometry":{"type":"Point","coordinates":[-87.114268,41.48045]}},{"properties":{"zip":46526.0,"latitude":41.584484,"firstyear":1.0,"longitude":-85.837988,"id":"a62ie55dvn6x"},"type":"Feature","geometry":{"type":"Point","coordinates":[-85.837988,41.584484]}},{"properties":{"zip":46901.0,"latitude":40.49884,"firstyear":1.0,"longitude":-86.145273,"id":"a62ie55qh78d"},"type":"Feature","geometry":{"type":"Point","coordinates":[-86.145273,40.49884]}},{"properties":{"zip":47401.0,"latitude":39.140057,"firstyear":1.0,"longitude":-86.508262,"id":"a62ie5auwmw6"},"type":"Feature","geometry":{"type":"Point","coordinates":[-86.508262,39.140057]}},{"properties":{"zip":47591.0,"latitude":38.67344,"firstyear":1.0,"longitude":-87.509806,"id":"a62ie5810swe"},"type":"Feature","geometry":{"type":"Point","coordinates":[-87.509806,38.67344]}},{"properties":{"zip":48009.0,"latitude":42.544396,"firstyear":1.0,"longitude":-83.213255,"id":"a62ie5406y1l"},"type":"Feature","geometry":{"type":"Point","coordinates":[-83.213255,42.544396]}},{"properties":{"zip":48044.0,"latitude":42.616456,"firstyear":1.0,"longitude":-82.946845,"id":"a62ie5epjls2"},"type":"Feature","geometry":{"type":"Point","coordinates":[-82.946845,42.616456]}},{"properties":{"zip":48092.0,"latitude":42.512459,"firstyear":1.0,"longitude":-83.064278,"id":"a62ie54zxc4z"},"type":"Feature","geometry":{"type":"Point","coordinates":[-83.064278,42.512459]}},{"properties":{"zip":48098.0,"latitude":42.598118,"firstyear":1.0,"longitude":-83.145001,"id":"a62ie59cpdyy"},"type":"Feature","geometry":{"type":"Point","coordinates":[-83.145001,42.598118]}},{"properties":{"zip":48108.0,"latitude":42.232782,"firstyear":1.0,"longitude":-83.701481,"id":"a62ie5dgg1zr"},"type":"Feature","geometry":{"type":"Point","coordinates":[-83.701481,42.232782]}},{"properties":{"zip":48182.0,"latitude":41.768229,"firstyear":1.0,"longitude":-83.579739,"id":"a62ie53xvtua"},"type":"Feature","geometry":{"type":"Point","coordinates":[-83.579739,41.768229]}},{"properties":{"zip":48219.0,"latitude":42.426033,"firstyear":1.0,"longitude":-83.249495,"id":"a62ie5f9221c"},"type":"Feature","geometry":{"type":"Point","coordinates":[-83.249495,42.426033]}},{"properties":{"zip":48220.0,"latitude":42.458564,"firstyear":1.0,"longitude":-83.13626,"id":"a62ie58krcuc"},"type":"Feature","geometry":{"type":"Point","coordinates":[-83.13626,42.458564]}},{"properties":{"zip":48221.0,"latitude":42.425998,"firstyear":1.0,"longitude":-83.149976,"id":"a62ie51yilay"},"type":"Feature","geometry":{"type":"Point","coordinates":[-83.149976,42.425998]}},{"properties":{"zip":48236.0,"latitude":42.427404,"firstyear":1.0,"longitude":-82.900248,"id":"a62ie5g6v0a6"},"type":"Feature","geometry":{"type":"Point","coordinates":[-82.900248,42.427404]}},{"properties":{"zip":48304.0,"latitude":42.593764,"firstyear":2.0,"longitude":-83.234011,"id":"a62ie52ous8n"},"type":"Feature","geometry":{"type":"Point","coordinates":[-83.234011,42.593764]}},{"properties":{"zip":48309.0,"latitude":42.666848,"firstyear":1.0,"longitude":-83.181842,"id":"a62ie5gez8ts"},"type":"Feature","geometry":{"type":"Point","coordinates":[-83.181842,42.666848]}},{"properties":{"zip":48324.0,"latitude":42.598109,"firstyear":1.0,"longitude":-83.395536,"id":"a62ie5bk9oyj"},"type":"Feature","geometry":{"type":"Point","coordinates":[-83.395536,42.598109]}},{"properties":{"zip":48326.0,"latitude":42.658345,"firstyear":1.0,"longitude":-83.237489,"id":"a62ie55czq6n"},"type":"Feature","geometry":{"type":"Point","coordinates":[-83.237489,42.658345]}},{"properties":{"zip":48331.0,"latitude":42.510042,"firstyear":1.0,"longitude":-83.405433,"id":"a62ie51nd4cu"},"type":"Feature","geometry":{"type":"Point","coordinates":[-83.405433,42.510042]}},{"properties":{"zip":48374.0,"latitude":42.473495,"firstyear":1.0,"longitude":-83.522423,"id":"a62ie53ddq6l"},"type":"Feature","geometry":{"type":"Point","coordinates":[-83.522423,42.473495]}},{"properties":{"zip":48532.0,"latitude":43.01021,"firstyear":1.0,"longitude":-83.768576,"id":"a62ie54zy5pw"},"type":"Feature","geometry":{"type":"Point","coordinates":[-83.768576,43.01021]}},{"properties":{"zip":48801.0,"latitude":43.380877,"firstyear":1.0,"longitude":-84.663484,"id":"a62ie51gswk4"},"type":"Feature","geometry":{"type":"Point","coordinates":[-84.663484,43.380877]}},{"properties":{"zip":48843.0,"latitude":42.615933,"firstyear":1.0,"longitude":-83.92481,"id":"a62ie57b3lc1"},"type":"Feature","geometry":{"type":"Point","coordinates":[-83.92481,42.615933]}},{"properties":{"zip":48858.0,"latitude":43.601295,"firstyear":1.0,"longitude":-84.773571,"id":"a62ie5a4wdve"},"type":"Feature","geometry":{"type":"Point","coordinates":[-84.773571,43.601295]}},{"properties":{"zip":48864.0,"latitude":42.705341,"firstyear":1.0,"longitude":-84.418696,"id":"a62ie5687vfx"},"type":"Feature","geometry":{"type":"Point","coordinates":[-84.418696,42.705341]}},{"properties":{"zip":48867.0,"latitude":42.993407,"firstyear":1.0,"longitude":-84.159486,"id":"a62ie5cr933p"},"type":"Feature","geometry":{"type":"Point","coordinates":[-84.159486,42.993407]}},{"properties":{"zip":49010.0,"latitude":42.525609,"firstyear":1.0,"longitude":-85.86608,"id":"a62ie5h7xypd"},"type":"Feature","geometry":{"type":"Point","coordinates":[-85.86608,42.525609]}},{"properties":{"zip":49014.0,"latitude":42.304549,"firstyear":1.0,"longitude":-85.14103,"id":"a62ie52iq4mg"},"type":"Feature","geometry":{"type":"Point","coordinates":[-85.14103,42.304549]}},{"properties":{"zip":49125.0,"latitude":41.882866,"firstyear":1.0,"longitude":-86.588508,"id":"a62ie5akhak9"},"type":"Feature","geometry":{"type":"Point","coordinates":[-86.588508,41.882866]}},{"properties":{"zip":49424.0,"latitude":42.813514,"firstyear":1.0,"longitude":-86.142631,"id":"a62ie544xnpu"},"type":"Feature","geometry":{"type":"Point","coordinates":[-86.142631,42.813514]}},{"properties":{"zip":49428.0,"latitude":42.910423,"firstyear":1.0,"longitude":-85.827603,"id":"a62ie5gddbpq"},"type":"Feature","geometry":{"type":"Point","coordinates":[-85.827603,42.910423]}},{"properties":{"zip":49464.0,"latitude":42.825586,"firstyear":1.0,"longitude":-86.010408,"id":"a62ie53fq9bk"},"type":"Feature","geometry":{"type":"Point","coordinates":[-86.010408,42.825586]}},{"properties":{"zip":50010.0,"latitude":42.029859,"firstyear":1.0,"longitude":-93.639398,"id":"a62ie5dyupwj"},"type":"Feature","geometry":{"type":"Point","coordinates":[-93.639398,42.029859]}},{"properties":{"zip":50125.0,"latitude":41.35617,"firstyear":1.0,"longitude":-93.571502,"id":"a62ie536vjms"},"type":"Feature","geometry":{"type":"Point","coordinates":[-93.571502,41.35617]}},{"properties":{"zip":52722.0,"latitude":41.550865,"firstyear":1.0,"longitude":-90.494201,"id":"a62ie575hvh4"},"type":"Feature","geometry":{"type":"Point","coordinates":[-90.494201,41.550865]}},{"properties":{"zip":52761.0,"latitude":41.430378,"firstyear":1.0,"longitude":-91.050928,"id":"a62ie53tgzru"},"type":"Feature","geometry":{"type":"Point","coordinates":[-91.050928,41.430378]}},{"properties":{"zip":53144.0,"latitude":42.605788,"firstyear":1.0,"longitude":-87.876171,"id":"a62ie5cs9nyd"},"type":"Feature","geometry":{"type":"Point","coordinates":[-87.876171,42.605788]}},{"properties":{"zip":53711.0,"latitude":43.035644,"firstyear":1.0,"longitude":-89.452558,"id":"a62ie56o0swc"},"type":"Feature","geometry":{"type":"Point","coordinates":[-89.452558,43.035644]}},{"properties":{"zip":55060.0,"latitude":44.080478,"firstyear":1.0,"longitude":-93.21914,"id":"a62ie56gz0gs"},"type":"Feature","geometry":{"type":"Point","coordinates":[-93.21914,44.080478]}},{"properties":{"zip":55346.0,"latitude":44.877106,"firstyear":1.0,"longitude":-93.483028,"id":"a62ie53oska6"},"type":"Feature","geometry":{"type":"Point","coordinates":[-93.483028,44.877106]}},{"properties":{"zip":55902.0,"latitude":44.003217,"firstyear":1.0,"longitude":-92.483519,"id":"a62ie55qnejt"},"type":"Feature","geometry":{"type":"Point","coordinates":[-92.483519,44.003217]}},{"properties":{"zip":60008.0,"latitude":42.072979,"firstyear":1.0,"longitude":-88.019075,"id":"a62ie53ndghk"},"type":"Feature","geometry":{"type":"Point","coordinates":[-88.019075,42.072979]}},{"properties":{"zip":60011.0,"latitude":42.152851,"firstyear":1.0,"longitude":-88.136093,"id":"a62ie5co5xwc"},"type":"Feature","geometry":{"type":"Point","coordinates":[-88.136093,42.152851]}},{"properties":{"zip":60015.0,"latitude":42.170494,"firstyear":1.0,"longitude":-87.859033,"id":"a62ie5ctpl9m"},"type":"Feature","geometry":{"type":"Point","coordinates":[-87.859033,42.170494]}},{"properties":{"zip":60016.0,"latitude":42.046734,"firstyear":1.0,"longitude":-87.885899,"id":"a62ie58mst2i"},"type":"Feature","geometry":{"type":"Point","coordinates":[-87.885899,42.046734]}},{"properties":{"zip":60045.0,"latitude":42.237398,"firstyear":1.0,"longitude":-87.848154,"id":"a62ie52f29rw"},"type":"Feature","geometry":{"type":"Point","coordinates":[-87.848154,42.237398]}},{"properties":{"zip":60048.0,"latitude":42.281001,"firstyear":1.0,"longitude":-87.949955,"id":"a62ie51midcv"},"type":"Feature","geometry":{"type":"Point","coordinates":[-87.949955,42.281001]}},{"properties":{"zip":60061.0,"latitude":42.228753,"firstyear":2.0,"longitude":-87.971852,"id":"a62ie56h6j5s"},"type":"Feature","geometry":{"type":"Point","coordinates":[-87.971852,42.228753]}},{"properties":{"zip":60074.0,"latitude":42.145775,"firstyear":1.0,"longitude":-88.022998,"id":"a62ie5foq5z0"},"type":"Feature","geometry":{"type":"Point","coordinates":[-88.022998,42.145775]}},{"properties":{"zip":60085.0,"latitude":42.361882,"firstyear":1.0,"longitude":-87.852585,"id":"a62ie58j7w2t"},"type":"Feature","geometry":{"type":"Point","coordinates":[-87.852585,42.361882]}},{"properties":{"zip":60087.0,"latitude":42.398906,"firstyear":1.0,"longitude":-87.855387,"id":"a62ie5fgq9iq"},"type":"Feature","geometry":{"type":"Point","coordinates":[-87.855387,42.398906]}},{"properties":{"zip":60089.0,"latitude":42.159843,"firstyear":1.0,"longitude":-87.964364,"id":"a62ie525y083"},"type":"Feature","geometry":{"type":"Point","coordinates":[-87.964364,42.159843]}},{"properties":{"zip":60120.0,"latitude":42.038356,"firstyear":1.0,"longitude":-88.260631,"id":"a62ie52wf8bt"},"type":"Feature","geometry":{"type":"Point","coordinates":[-88.260631,42.038356]}},{"properties":{"zip":60134.0,"latitude":41.886013,"firstyear":1.0,"longitude":-88.310954,"id":"a62ie5864rc3"},"type":"Feature","geometry":{"type":"Point","coordinates":[-88.310954,41.886013]}},{"properties":{"zip":60174.0,"latitude":41.919417,"firstyear":1.0,"longitude":-88.307022,"id":"a62ie58b8mm1"},"type":"Feature","geometry":{"type":"Point","coordinates":[-88.307022,41.919417]}},{"properties":{"zip":60188.0,"latitude":41.91784,"firstyear":1.0,"longitude":-88.136962,"id":"a62ie51i84kg"},"type":"Feature","geometry":{"type":"Point","coordinates":[-88.136962,41.91784]}},{"properties":{"zip":60193.0,"latitude":42.014432,"firstyear":1.0,"longitude":-88.093481,"id":"a62ie58kthet"},"type":"Feature","geometry":{"type":"Point","coordinates":[-88.093481,42.014432]}},{"properties":{"zip":60201.0,"latitude":42.054551,"firstyear":1.0,"longitude":-87.694331,"id":"a62ie56xc59w"},"type":"Feature","geometry":{"type":"Point","coordinates":[-87.694331,42.054551]}},{"properties":{"zip":60202.0,"latitude":42.03022,"firstyear":1.0,"longitude":-87.686544,"id":"a62ie5f46u7b"},"type":"Feature","geometry":{"type":"Point","coordinates":[-87.686544,42.03022]}},{"properties":{"zip":60411.0,"latitude":41.506202,"firstyear":1.0,"longitude":-87.613209,"id":"a62ie55qp0hs"},"type":"Feature","geometry":{"type":"Point","coordinates":[-87.613209,41.506202]}},{"properties":{"zip":60440.0,"latitude":41.697605,"firstyear":1.0,"longitude":-88.087315,"id":"a62ie51o4m1c"},"type":"Feature","geometry":{"type":"Point","coordinates":[-88.087315,41.697605]}},{"properties":{"zip":60450.0,"latitude":41.367233,"firstyear":1.0,"longitude":-88.417769,"id":"a62ie55vcckw"},"type":"Feature","geometry":{"type":"Point","coordinates":[-88.417769,41.367233]}},{"properties":{"zip":60467.0,"latitude":41.59548,"firstyear":1.0,"longitude":-87.891284,"id":"a62ie53eramb"},"type":"Feature","geometry":{"type":"Point","coordinates":[-87.891284,41.59548]}},{"properties":{"zip":60491.0,"latitude":41.61158,"firstyear":1.0,"longitude":-87.948934,"id":"a62ie5a04tkc"},"type":"Feature","geometry":{"type":"Point","coordinates":[-87.948934,41.61158]}},{"properties":{"zip":60521.0,"latitude":41.7891,"firstyear":1.0,"longitude":-87.940089,"id":"a62ie5avvhf7"},"type":"Feature","geometry":{"type":"Point","coordinates":[-87.940089,41.7891]}},{"properties":{"zip":60527.0,"latitude":41.74948,"firstyear":1.0,"longitude":-87.932799,"id":"a62ie54yqivu"},"type":"Feature","geometry":{"type":"Point","coordinates":[-87.932799,41.74948]}},{"properties":{"zip":60540.0,"latitude":41.766198,"firstyear":2.0,"longitude":-88.141038,"id":"a62ie55zjd69"},"type":"Feature","geometry":{"type":"Point","coordinates":[-88.141038,41.766198]}},{"properties":{"zip":60558.0,"latitude":41.804864,"firstyear":1.0,"longitude":-87.899485,"id":"a62ie5f3pkcj"},"type":"Feature","geometry":{"type":"Point","coordinates":[-87.899485,41.804864]}},{"properties":{"zip":60564.0,"latitude":41.704022,"firstyear":2.0,"longitude":-88.195248,"id":"a62ie5a85x2u"},"type":"Feature","geometry":{"type":"Point","coordinates":[-88.195248,41.704022]}},{"properties":{"zip":60565.0,"latitude":41.732833,"firstyear":1.0,"longitude":-88.128245,"id":"a62ie5f18fpu"},"type":"Feature","geometry":{"type":"Point","coordinates":[-88.128245,41.732833]}},{"properties":{"zip":60616.0,"latitude":41.84258,"firstyear":1.0,"longitude":-87.630552,"id":"a62ie5ap81vf"},"type":"Feature","geometry":{"type":"Point","coordinates":[-87.630552,41.84258]}},{"properties":{"zip":60625.0,"latitude":41.970325,"firstyear":1.0,"longitude":-87.704157,"id":"a62ie54r0d1e"},"type":"Feature","geometry":{"type":"Point","coordinates":[-87.704157,41.970325]}},{"properties":{"zip":61108.0,"latitude":42.251406,"firstyear":1.0,"longitude":-89.023519,"id":"a62ie5b7fdtg"},"type":"Feature","geometry":{"type":"Point","coordinates":[-89.023519,42.251406]}},{"properties":{"zip":61938.0,"latitude":39.480184,"firstyear":1.0,"longitude":-88.376152,"id":"a62ie572j7qd"},"type":"Feature","geometry":{"type":"Point","coordinates":[-88.376152,39.480184]}},{"properties":{"zip":62294.0,"latitude":38.724275,"firstyear":1.0,"longitude":-89.870848,"id":"a62ie5a2riog"},"type":"Feature","geometry":{"type":"Point","coordinates":[-89.870848,38.724275]}},{"properties":{"zip":62881.0,"latitude":38.626421,"firstyear":1.0,"longitude":-88.948077,"id":"a62ie52fbtv9"},"type":"Feature","geometry":{"type":"Point","coordinates":[-88.948077,38.626421]}},{"properties":{"zip":62901.0,"latitude":37.719994,"firstyear":1.0,"longitude":-89.215762,"id":"a62ie522j955"},"type":"Feature","geometry":{"type":"Point","coordinates":[-89.215762,37.719994]}},{"properties":{"zip":63005.0,"latitude":38.631832,"firstyear":1.0,"longitude":-90.614185,"id":"a62ie593aumg"},"type":"Feature","geometry":{"type":"Point","coordinates":[-90.614185,38.631832]}},{"properties":{"zip":63011.0,"latitude":38.604132,"firstyear":1.0,"longitude":-90.55213,"id":"a62ie538ifyh"},"type":"Feature","geometry":{"type":"Point","coordinates":[-90.55213,38.604132]}},{"properties":{"zip":63017.0,"latitude":38.647241,"firstyear":1.0,"longitude":-90.53969,"id":"a62ie57azjnx"},"type":"Feature","geometry":{"type":"Point","coordinates":[-90.53969,38.647241]}},{"properties":{"zip":63131.0,"latitude":38.612479,"firstyear":1.0,"longitude":-90.44264,"id":"a62ie51ub115"},"type":"Feature","geometry":{"type":"Point","coordinates":[-90.44264,38.612479]}},{"properties":{"zip":63141.0,"latitude":38.661741,"firstyear":1.0,"longitude":-90.457072,"id":"a62ie51eoui7"},"type":"Feature","geometry":{"type":"Point","coordinates":[-90.457072,38.661741]}},{"properties":{"zip":63701.0,"latitude":37.31685,"firstyear":1.0,"longitude":-89.545861,"id":"a62ie5fxf0rq"},"type":"Feature","geometry":{"type":"Point","coordinates":[-89.545861,37.31685]}},{"properties":{"zip":64012.0,"latitude":38.816118,"firstyear":1.0,"longitude":-94.532785,"id":"a62ie5dx368m"},"type":"Feature","geometry":{"type":"Point","coordinates":[-94.532785,38.816118]}},{"properties":{"zip":64108.0,"latitude":39.0837,"firstyear":1.0,"longitude":-94.586826,"id":"a62ie5et53y4"},"type":"Feature","geometry":{"type":"Point","coordinates":[-94.586826,39.0837]}},{"properties":{"zip":66208.0,"latitude":38.996812,"firstyear":1.0,"longitude":-94.631513,"id":"a62ie5dh2iaf"},"type":"Feature","geometry":{"type":"Point","coordinates":[-94.631513,38.996812]}},{"properties":{"zip":66211.0,"latitude":38.925956,"firstyear":1.0,"longitude":-94.637991,"id":"a62ie5bvj0qh"},"type":"Feature","geometry":{"type":"Point","coordinates":[-94.637991,38.925956]}},{"properties":{"zip":66216.0,"latitude":39.009289,"firstyear":1.0,"longitude":-94.738234,"id":"a62ie529d3g3"},"type":"Feature","geometry":{"type":"Point","coordinates":[-94.738234,39.009289]}},{"properties":{"zip":66221.0,"latitude":38.85272,"firstyear":1.0,"longitude":-94.706745,"id":"a62ie5fdqmsi"},"type":"Feature","geometry":{"type":"Point","coordinates":[-94.706745,38.85272]}},{"properties":{"zip":66538.0,"latitude":39.839804,"firstyear":1.0,"longitude":-96.059489,"id":"a62ie5bvberd"},"type":"Feature","geometry":{"type":"Point","coordinates":[-96.059489,39.839804]}},{"properties":{"zip":67208.0,"latitude":37.702428,"firstyear":1.0,"longitude":-97.281062,"id":"a62ie58j9zf8"},"type":"Feature","geometry":{"type":"Point","coordinates":[-97.281062,37.702428]}},{"properties":{"zip":71270.0,"latitude":32.530823,"firstyear":1.0,"longitude":-92.643927,"id":"a62ie5bi6l5i"},"type":"Feature","geometry":{"type":"Point","coordinates":[-92.643927,32.530823]}},{"properties":{"zip":72113.0,"latitude":34.849085,"firstyear":1.0,"longitude":-92.405892,"id":"a62ie5f0utwj"},"type":"Feature","geometry":{"type":"Point","coordinates":[-92.405892,34.849085]}},{"properties":{"zip":72120.0,"latitude":34.859292,"firstyear":1.0,"longitude":-92.214169,"id":"a62ie5dahfh9"},"type":"Feature","geometry":{"type":"Point","coordinates":[-92.214169,34.859292]}},{"properties":{"zip":72212.0,"latitude":34.787076,"firstyear":1.0,"longitude":-92.422232,"id":"a62ie5ej62b8"},"type":"Feature","geometry":{"type":"Point","coordinates":[-92.422232,34.787076]}},{"properties":{"zip":73045.0,"latitude":35.483258,"firstyear":1.0,"longitude":-97.17343,"id":"a62ie59l0wyb"},"type":"Feature","geometry":{"type":"Point","coordinates":[-97.17343,35.483258]}},{"properties":{"zip":74055.0,"latitude":36.286258,"firstyear":1.0,"longitude":-95.822151,"id":"a62ie5b2uqg7"},"type":"Feature","geometry":{"type":"Point","coordinates":[-95.822151,36.286258]}},{"properties":{"zip":75007.0,"latitude":33.003294,"firstyear":1.0,"longitude":-96.881988,"id":"a62ie5cyyrw7"},"type":"Feature","geometry":{"type":"Point","coordinates":[-96.881988,33.003294]}},{"properties":{"zip":75025.0,"latitude":33.078377,"firstyear":1.0,"longitude":-96.729142,"id":"a62ie593anze"},"type":"Feature","geometry":{"type":"Point","coordinates":[-96.729142,33.078377]}},{"properties":{"zip":76012.0,"latitude":32.753962,"firstyear":1.0,"longitude":-97.134808,"id":"a62ie54jgdcu"},"type":"Feature","geometry":{"type":"Point","coordinates":[-97.134808,32.753962]}},{"properties":{"zip":77031.0,"latitude":29.658144,"firstyear":1.0,"longitude":-95.541281,"id":"a62ie5ada73h"},"type":"Feature","geometry":{"type":"Point","coordinates":[-95.541281,29.658144]}},{"properties":{"zip":77382.0,"latitude":30.195973,"firstyear":1.0,"longitude":-95.543802,"id":"a62ie5gpxdv4"},"type":"Feature","geometry":{"type":"Point","coordinates":[-95.543802,30.195973]}},{"properties":{"zip":77401.0,"latitude":29.702313,"firstyear":1.0,"longitude":-95.461106,"id":"a62ie54f93uw"},"type":"Feature","geometry":{"type":"Point","coordinates":[-95.461106,29.702313]}},{"properties":{"zip":77429.0,"latitude":29.976608,"firstyear":1.0,"longitude":-95.635778,"id":"a62ie5eumj7d"},"type":"Feature","geometry":{"type":"Point","coordinates":[-95.635778,29.976608]}},{"properties":{"zip":77479.0,"latitude":29.578537,"firstyear":1.0,"longitude":-95.606591,"id":"a62ie5dfhm9l"},"type":"Feature","geometry":{"type":"Point","coordinates":[-95.606591,29.578537]}},{"properties":{"zip":78255.0,"latitude":29.636875,"firstyear":1.0,"longitude":-98.655572,"id":"a62ie52o3bw1"},"type":"Feature","geometry":{"type":"Point","coordinates":[-98.655572,29.636875]}},{"properties":{"zip":78537.0,"latitude":26.167138,"firstyear":1.0,"longitude":-98.052925,"id":"a62ie5cxjhhn"},"type":"Feature","geometry":{"type":"Point","coordinates":[-98.052925,26.167138]}},{"properties":{"zip":79121.0,"latitude":35.169689,"firstyear":1.0,"longitude":-101.926594,"id":"a62ie5ane49h"},"type":"Feature","geometry":{"type":"Point","coordinates":[-101.926594,35.169689]}},{"properties":{"zip":79416.0,"latitude":33.592397,"firstyear":1.0,"longitude":-101.936705,"id":"a62ie5278prl"},"type":"Feature","geometry":{"type":"Point","coordinates":[-101.936705,33.592397]}},{"properties":{"zip":80013.0,"latitude":39.657457,"firstyear":1.0,"longitude":-104.784566,"id":"a62ie5dtweaz"},"type":"Feature","geometry":{"type":"Point","coordinates":[-104.784566,39.657457]}},{"properties":{"zip":80126.0,"latitude":39.55134,"firstyear":1.0,"longitude":-104.963751,"id":"a62ie578v73r"},"type":"Feature","geometry":{"type":"Point","coordinates":[-104.963751,39.55134]}},{"properties":{"zip":80132.0,"latitude":39.100726,"firstyear":1.0,"longitude":-104.85416,"id":"a62ie524xvrs"},"type":"Feature","geometry":{"type":"Point","coordinates":[-104.85416,39.100726]}},{"properties":{"zip":80210.0,"latitude":39.679003,"firstyear":1.0,"longitude":-104.963124,"id":"a62ie54uijku"},"type":"Feature","geometry":{"type":"Point","coordinates":[-104.963124,39.679003]}},{"properties":{"zip":81623.0,"latitude":39.385431,"firstyear":1.0,"longitude":-107.171012,"id":"a62ie59f201y"},"type":"Feature","geometry":{"type":"Point","coordinates":[-107.171012,39.385431]}},{"properties":{"zip":84109.0,"latitude":40.704251,"firstyear":1.0,"longitude":-111.814218,"id":"a62ie5132azj"},"type":"Feature","geometry":{"type":"Point","coordinates":[-111.814218,40.704251]}},{"properties":{"zip":85048.0,"latitude":33.30356,"firstyear":1.0,"longitude":-112.026469,"id":"a62ie5g4ggtc"},"type":"Feature","geometry":{"type":"Point","coordinates":[-112.026469,33.30356]}},{"properties":{"zip":85254.0,"latitude":33.616476,"firstyear":1.0,"longitude":-111.955422,"id":"a62ie58718yh"},"type":"Feature","geometry":{"type":"Point","coordinates":[-111.955422,33.616476]}},{"properties":{"zip":87122.0,"latitude":35.178715,"firstyear":1.0,"longitude":-106.510176,"id":"a62ie5cqf31y"},"type":"Feature","geometry":{"type":"Point","coordinates":[-106.510176,35.178715]}},{"properties":{"zip":87544.0,"latitude":35.866321,"firstyear":1.0,"longitude":-106.267624,"id":"a62ie5ctzx0d"},"type":"Feature","geometry":{"type":"Point","coordinates":[-106.267624,35.866321]}},{"properties":{"zip":89129.0,"latitude":36.245004,"firstyear":1.0,"longitude":-115.274254,"id":"a62ie5e7r59t"},"type":"Feature","geometry":{"type":"Point","coordinates":[-115.274254,36.245004]}},{"properties":{"zip":89145.0,"latitude":36.16755,"firstyear":2.0,"longitude":-115.271912,"id":"a62ie5go74pq"},"type":"Feature","geometry":{"type":"Point","coordinates":[-115.271912,36.16755]}},{"properties":{"zip":90034.0,"latitude":34.028977,"firstyear":1.0,"longitude":-118.400482,"id":"a62ie5e4u9vb"},"type":"Feature","geometry":{"type":"Point","coordinates":[-118.400482,34.028977]}},{"properties":{"zip":90064.0,"latitude":34.035279,"firstyear":1.0,"longitude":-118.425911,"id":"a62ie52thhuj"},"type":"Feature","geometry":{"type":"Point","coordinates":[-118.425911,34.035279]}},{"properties":{"zip":91105.0,"latitude":34.135455,"firstyear":1.0,"longitude":-118.163577,"id":"a62ie54b1f91"},"type":"Feature","geometry":{"type":"Point","coordinates":[-118.163577,34.135455]}},{"properties":{"zip":91311.0,"latitude":34.258253,"firstyear":1.0,"longitude":-118.591357,"id":"a62ie5h01zy8"},"type":"Feature","geometry":{"type":"Point","coordinates":[-118.591357,34.258253]}},{"properties":{"zip":91344.0,"latitude":34.277068,"firstyear":1.0,"longitude":-118.4992,"id":"a62ie5frpyh8"},"type":"Feature","geometry":{"type":"Point","coordinates":[-118.4992,34.277068]}},{"properties":{"zip":91709.0,"latitude":33.979735,"firstyear":1.0,"longitude":-117.730791,"id":"a62ie5266fgy"},"type":"Feature","geometry":{"type":"Point","coordinates":[-117.730791,33.979735]}},{"properties":{"zip":92130.0,"latitude":32.955533,"firstyear":1.0,"longitude":-117.225201,"id":"a62ie53p3357"},"type":"Feature","geometry":{"type":"Point","coordinates":[-117.225201,32.955533]}},{"properties":{"zip":92675.0,"latitude":33.511714,"firstyear":1.0,"longitude":-117.657409,"id":"a62ie54ef807"},"type":"Feature","geometry":{"type":"Point","coordinates":[-117.657409,33.511714]}},{"properties":{"zip":92692.0,"latitude":33.610872,"firstyear":1.0,"longitude":-117.64245,"id":"a62ie57toj85"},"type":"Feature","geometry":{"type":"Point","coordinates":[-117.64245,33.610872]}},{"properties":{"zip":94121.0,"latitude":37.778616,"firstyear":1.0,"longitude":-122.489178,"id":"a62ie51qu7b9"},"type":"Feature","geometry":{"type":"Point","coordinates":[-122.489178,37.778616]}},{"properties":{"zip":94133.0,"latitude":37.800175,"firstyear":1.0,"longitude":-122.409081,"id":"a62ie5eccfwz"},"type":"Feature","geometry":{"type":"Point","coordinates":[-122.409081,37.800175]}},{"properties":{"zip":94539.0,"latitude":37.517579,"firstyear":1.0,"longitude":-121.928733,"id":"a62ie59fklxa"},"type":"Feature","geometry":{"type":"Point","coordinates":[-121.928733,37.517579]}},{"properties":{"zip":94582.0,"latitude":37.766338,"firstyear":1.0,"longitude":-121.918668,"id":"a62ie56ss6qh"},"type":"Feature","geometry":{"type":"Point","coordinates":[-121.918668,37.766338]}},{"properties":{"zip":95014.0,"latitude":37.317363,"firstyear":2.0,"longitude":-122.038604,"id":"a62ie5c6346c"},"type":"Feature","geometry":{"type":"Point","coordinates":[-122.038604,37.317363]}},{"properties":{"zip":95030.0,"latitude":37.211677,"firstyear":1.0,"longitude":-121.978684,"id":"a62ie55jh8i1"},"type":"Feature","geometry":{"type":"Point","coordinates":[-121.978684,37.211677]}},{"properties":{"zip":95070.0,"latitude":37.272871,"firstyear":2.0,"longitude":-122.018238,"id":"a62ie5c3mudq"},"type":"Feature","geometry":{"type":"Point","coordinates":[-122.018238,37.272871]}},{"properties":{"zip":95132.0,"latitude":37.40408,"firstyear":1.0,"longitude":-121.860336,"id":"a62ie5brd95a"},"type":"Feature","geometry":{"type":"Point","coordinates":[-121.860336,37.40408]}},{"properties":{"zip":95135.0,"latitude":37.297539,"firstyear":1.0,"longitude":-121.757228,"id":"a62ie51kfzbp"},"type":"Feature","geometry":{"type":"Point","coordinates":[-121.757228,37.297539]}},{"properties":{"zip":96782.0,"latitude":21.408393,"firstyear":1.0,"longitude":-157.965164,"id":"a62ie53u610z"},"type":"Feature","geometry":{"type":"Point","coordinates":[-157.965164,21.408393]}},{"properties":{"zip":97006.0,"latitude":45.517675,"firstyear":1.0,"longitude":-122.859209,"id":"a62ie59yopzj"},"type":"Feature","geometry":{"type":"Point","coordinates":[-122.859209,45.517675]}},{"properties":{"zip":97007.0,"latitude":45.472985,"firstyear":1.0,"longitude":-122.859473,"id":"a62ie55gwvql"},"type":"Feature","geometry":{"type":"Point","coordinates":[-122.859473,45.472985]}},{"properties":{"zip":97058.0,"latitude":45.599504,"firstyear":1.0,"longitude":-121.190493,"id":"a62ie5e9mm13"},"type":"Feature","geometry":{"type":"Point","coordinates":[-121.190493,45.599504]}},{"properties":{"zip":97229.0,"latitude":45.541087,"firstyear":1.0,"longitude":-122.829924,"id":"a62ie5d1kvxi"},"type":"Feature","geometry":{"type":"Point","coordinates":[-122.829924,45.541087]}},{"properties":{"zip":97266.0,"latitude":45.476207,"firstyear":1.0,"longitude":-122.559607,"id":"a62ie520ne0m"},"type":"Feature","geometry":{"type":"Point","coordinates":[-122.559607,45.476207]}},{"properties":{"zip":98006.0,"latitude":47.561425,"firstyear":1.0,"longitude":-122.155179,"id":"a62ie5dz285l"},"type":"Feature","geometry":{"type":"Point","coordinates":[-122.155179,47.561425]}},{"properties":{"zip":98115.0,"latitude":47.684918,"firstyear":1.0,"longitude":-122.296828,"id":"a62ie5eiq11d"},"type":"Feature","geometry":{"type":"Point","coordinates":[-122.296828,47.684918]}},{"properties":{"zip":98122.0,"latitude":47.611633,"firstyear":1.0,"longitude":-122.305608,"id":"a62ie5bkhpvk"},"type":"Feature","geometry":{"type":"Point","coordinates":[-122.305608,47.611633]}},{"properties":{"zip":98177.0,"latitude":47.746678,"firstyear":1.0,"longitude":-122.368585,"id":"a62ie526g9b4"},"type":"Feature","geometry":{"type":"Point","coordinates":[-122.368585,47.746678]}},{"properties":{"zip":98501.0,"latitude":47.012906,"firstyear":1.0,"longitude":-122.876311,"id":"a62ie5829kzj"},"type":"Feature","geometry":{"type":"Point","coordinates":[-122.876311,47.012906]}},{"properties":{"zip":99504.0,"latitude":61.203696,"firstyear":1.0,"longitude":-149.74467,"id":"a62ie5hcyycw"},"type":"Feature","geometry":{"type":"Point","coordinates":[-149.74467,61.203696]}},{"properties":{"zip":99801.0,"latitude":58.362767,"firstyear":1.0,"longitude":-134.529429,"id":"a62ie53mo7zd"},"type":"Feature","geometry":{"type":"Point","coordinates":[-134.529429,58.362767]}}],"is_temporal":false,"author":{"url":"","metadata":"","contact_name":"","contact_address":"","source":"","contact_phone":""},"source":"","pagination":{"sort":null,"start":0,"total":646,"limit":1000000},"state":"complete","tags":"college,cwru,university","published":"2014-08-10T18:07:20-04:00","id":14236}