{"type":"FeatureCollection","data_type":"Dataset","url_type":null,"permissions":[{"permissions":{"download":true,"view":true},"group_id":"everyone"}],"classification":null,"title":"Sophomore Students","count":660,"stream_id":14238,"contributor":{"url":"http://geocommons.com/users/7442","name":"trg9"},"data_attributes":null,"calculation_params":null,"icon_link":null,"link":"http://geocommons.com/overlays/14238.json","extent":[-122.859,-28.3952,152.456,48.1695],"geometry_types":["point"],"unique_name":null,"name":"Sophomore Students","feature_count":660,"description":"","next_feature":null,"is_raster":false,"short_classification":"Y","stats":{"zip":{"max":99156.0,"mean":38723.95,"variance":528481467.234221,"stdev":22988.724784864,"min":900.0,"median":44062.0},"latitude":{"max":48.169465,"mean":39.9432932742425,"variance":18.5072642554999,"stdev":4.30200700319047,"min":-28.39522,"median":40.791107},"longitude":{"max":152.456284,"mean":-81.1962160181818,"variance":613.872580956897,"stdev":24.7764521462799,"min":-122.859209,"median":-81.591277},"soph":{"max":15.0,"mean":1.68787878787879,"variance":2.95857819469349,"stdev":1.72005180000298,"min":1.0,"median":1.0}},"features":[{"properties":{"zip":900.0,"latitude":22.665819,"longitude":120.473198,"id":"a674wk5g1auf","soph":1.0},"type":"Feature","geometry":{"type":"Point","coordinates":[120.473198,22.665819]}},{"properties":{"zip":1247.0,"latitude":42.69865,"longitude":-73.10999,"id":"a674wjxpeggm","soph":1.0},"type":"Feature","geometry":{"type":"Point","coordinates":[-73.10999,42.69865]}},{"properties":{"zip":1341.0,"latitude":42.513832,"longitude":-72.702473,"id":"a674wk7bo4cn","soph":1.0},"type":"Feature","geometry":{"type":"Point","coordinates":[-72.702473,42.513832]}},{"properties":{"zip":1532.0,"latitude":42.318242,"longitude":-71.646372,"id":"a674wjukn8zv","soph":1.0},"type":"Feature","geometry":{"type":"Point","coordinates":[-71.646372,42.318242]}},{"properties":{"zip":1609.0,"latitude":42.275387,"longitude":-71.817456,"id":"a674wk5e4t3w","soph":1.0},"type":"Feature","geometry":{"type":"Point","coordinates":[-71.817456,42.275387]}},{"properties":{"zip":1610.0,"latitude":42.249186,"longitude":-71.810798,"id":"a674wjw8z2q3","soph":1.0},"type":"Feature","geometry":{"type":"Point","coordinates":[-71.810798,42.249186]}},{"properties":{"zip":1719.0,"latitude":42.486876,"longitude":-71.518229,"id":"a674wk0d73h7","soph":1.0},"type":"Feature","geometry":{"type":"Point","coordinates":[-71.518229,42.486876]}},{"properties":{"zip":1742.0,"latitude":42.456701,"longitude":-71.374741,"id":"a674wk049x1s","soph":2.0},"type":"Feature","geometry":{"type":"Point","coordinates":[-71.374741,42.456701]}},{"properties":{"zip":1760.0,"latitude":42.287476,"longitude":-71.35741,"id":"a674wjtv6lnm","soph":1.0},"type":"Feature","geometry":{"type":"Point","coordinates":[-71.35741,42.287476]}},{"properties":{"zip":1778.0,"latitude":42.348629,"longitude":-71.358781,"id":"a674wjtuhmvb","soph":1.0},"type":"Feature","geometry":{"type":"Point","coordinates":[-71.358781,42.348629]}},{"properties":{"zip":1810.0,"latitude":42.64956,"longitude":-71.156481,"id":"a674wjw2gvsb","soph":1.0},"type":"Feature","geometry":{"type":"Point","coordinates":[-71.156481,42.64956]}},{"properties":{"zip":1886.0,"latitude":42.589959,"longitude":-71.438143,"id":"a674wjujptix","soph":1.0},"type":"Feature","geometry":{"type":"Point","coordinates":[-71.438143,42.589959]}},{"properties":{"zip":1960.0,"latitude":42.532579,"longitude":-70.961194,"id":"a674wk572akh","soph":1.0},"type":"Feature","geometry":{"type":"Point","coordinates":[-70.961194,42.532579]}},{"properties":{"zip":2038.0,"latitude":42.09347,"longitude":-71.405786,"id":"a674wjyt4rp6","soph":1.0},"type":"Feature","geometry":{"type":"Point","coordinates":[-71.405786,42.09347]}},{"properties":{"zip":2052.0,"latitude":42.184525,"longitude":-71.304813,"id":"a674wka3yxgx","soph":1.0},"type":"Feature","geometry":{"type":"Point","coordinates":[-71.304813,42.184525]}},{"properties":{"zip":2067.0,"latitude":42.109388,"longitude":-71.175872,"id":"a674wk0bkz5n","soph":1.0},"type":"Feature","geometry":{"type":"Point","coordinates":[-71.175872,42.109388]}},{"properties":{"zip":2072.0,"latitude":42.125279,"longitude":-71.107357,"id":"a674wjyclnga","soph":1.0},"type":"Feature","geometry":{"type":"Point","coordinates":[-71.107357,42.125279]}},{"properties":{"zip":2114.0,"latitude":42.361111,"longitude":-71.06823,"id":"a674wjz85wce","soph":1.0},"type":"Feature","geometry":{"type":"Point","coordinates":[-71.06823,42.361111]}},{"properties":{"zip":2116.0,"latitude":42.349201,"longitude":-71.076798,"id":"a674wjz3x2ut","soph":1.0},"type":"Feature","geometry":{"type":"Point","coordinates":[-71.076798,42.349201]}},{"properties":{"zip":2148.0,"latitude":42.42911,"longitude":-71.060507,"id":"a674wjzdhk09","soph":1.0},"type":"Feature","geometry":{"type":"Point","coordinates":[-71.060507,42.42911]}},{"properties":{"zip":2180.0,"latitude":42.482778,"longitude":-71.0978,"id":"a674wk8tuwrg","soph":1.0},"type":"Feature","geometry":{"type":"Point","coordinates":[-71.0978,42.482778]}},{"properties":{"zip":2420.0,"latitude":30.93125,"longitude":118.790298,"id":"a674wk30j2cy","soph":1.0},"type":"Feature","geometry":{"type":"Point","coordinates":[118.790298,30.93125]}},{"properties":{"zip":2421.0,"latitude":31.059509,"longitude":119.239388,"id":"a674wjv2767v","soph":1.0},"type":"Feature","geometry":{"type":"Point","coordinates":[119.239388,31.059509]}},{"properties":{"zip":2458.0,"latitude":47.050411,"longitude":18.899321,"id":"a674wk1orono","soph":1.0},"type":"Feature","geometry":{"type":"Point","coordinates":[18.899321,47.050411]}},{"properties":{"zip":2465.0,"latitude":30.110399,"longitude":116.258263,"id":"a674wk6vfwxl","soph":1.0},"type":"Feature","geometry":{"type":"Point","coordinates":[116.258263,30.110399]}},{"properties":{"zip":2476.0,"latitude":-28.39522,"longitude":152.456284,"id":"a674wjxhlswf","soph":1.0},"type":"Feature","geometry":{"type":"Point","coordinates":[152.456284,-28.39522]}},{"properties":{"zip":2494.0,"latitude":42.6628,"longitude":22.57325,"id":"a674wk63ki41","soph":1.0},"type":"Feature","geometry":{"type":"Point","coordinates":[22.57325,42.6628]}},{"properties":{"zip":2660.0,"latitude":41.709711,"longitude":-70.15851,"id":"a674wk8wye1w","soph":1.0},"type":"Feature","geometry":{"type":"Point","coordinates":[-70.15851,41.709711]}},{"properties":{"zip":2852.0,"latitude":41.589426,"longitude":-71.462494,"id":"a674wk42l49i","soph":1.0},"type":"Feature","geometry":{"type":"Point","coordinates":[-71.462494,41.589426]}},{"properties":{"zip":2905.0,"latitude":41.786568,"longitude":-71.403146,"id":"a674wjvojov6","soph":1.0},"type":"Feature","geometry":{"type":"Point","coordinates":[-71.403146,41.786568]}},{"properties":{"zip":3053.0,"latitude":42.865555,"longitude":-71.37719,"id":"a674wk7fqenr","soph":1.0},"type":"Feature","geometry":{"type":"Point","coordinates":[-71.37719,42.865555]}},{"properties":{"zip":3110.0,"latitude":42.940307,"longitude":-71.52127,"id":"a674wjzodni4","soph":1.0},"type":"Feature","geometry":{"type":"Point","coordinates":[-71.52127,42.940307]}},{"properties":{"zip":6002.0,"latitude":41.831647,"longitude":-72.72493,"id":"a674wk0tt02e","soph":1.0},"type":"Feature","geometry":{"type":"Point","coordinates":[-72.72493,41.831647]}},{"properties":{"zip":6070.0,"latitude":41.873712,"longitude":-72.821267,"id":"a674wjzdkoxy","soph":1.0},"type":"Feature","geometry":{"type":"Point","coordinates":[-72.821267,41.873712]}},{"properties":{"zip":6460.0,"latitude":41.217466,"longitude":-73.054948,"id":"a674wjvuw7s4","soph":3.0},"type":"Feature","geometry":{"type":"Point","coordinates":[-73.054948,41.217466]}},{"properties":{"zip":6461.0,"latitude":29.042629,"longitude":105.469543,"id":"a674wjzrohww","soph":1.0},"type":"Feature","geometry":{"type":"Point","coordinates":[105.469543,29.042629]}},{"properties":{"zip":6515.0,"latitude":41.329301,"longitude":-72.966445,"id":"a674wjzrm1v2","soph":1.0},"type":"Feature","geometry":{"type":"Point","coordinates":[-72.966445,41.329301]}},{"properties":{"zip":6518.0,"latitude":41.409664,"longitude":-72.911001,"id":"a674wjxuhua3","soph":1.0},"type":"Feature","geometry":{"type":"Point","coordinates":[-72.911001,41.409664]}},{"properties":{"zip":6524.0,"latitude":41.426194,"longitude":-73.000704,"id":"a674wk0pa64l","soph":1.0},"type":"Feature","geometry":{"type":"Point","coordinates":[-73.000704,41.426194]}},{"properties":{"zip":6825.0,"latitude":45.904179,"longitude":8.98598,"id":"a674wjuzcvdw","soph":1.0},"type":"Feature","geometry":{"type":"Point","coordinates":[8.98598,45.904179]}},{"properties":{"zip":6840.0,"latitude":41.151024,"longitude":-73.494356,"id":"a674wjxfd5be","soph":1.0},"type":"Feature","geometry":{"type":"Point","coordinates":[-73.494356,41.151024]}},{"properties":{"zip":6878.0,"latitude":41.037998,"longitude":-73.581136,"id":"a674wk7v5w0o","soph":1.0},"type":"Feature","geometry":{"type":"Point","coordinates":[-73.581136,41.037998]}},{"properties":{"zip":6880.0,"latitude":41.143433,"longitude":-73.349579,"id":"a674wk18yug8","soph":1.0},"type":"Feature","geometry":{"type":"Point","coordinates":[-73.349579,41.143433]}},{"properties":{"zip":7005.0,"latitude":40.911528,"longitude":-74.414035,"id":"a674wk0cwjvd","soph":2.0},"type":"Feature","geometry":{"type":"Point","coordinates":[-74.414035,40.911528]}},{"properties":{"zip":7052.0,"latitude":40.785926,"longitude":-74.256765,"id":"a674wjwj4nm3","soph":1.0},"type":"Feature","geometry":{"type":"Point","coordinates":[-74.256765,40.785926]}},{"properties":{"zip":7070.0,"latitude":40.829245,"longitude":-74.112146,"id":"a674wjuwvpsv","soph":1.0},"type":"Feature","geometry":{"type":"Point","coordinates":[-74.112146,40.829245]}},{"properties":{"zip":7110.0,"latitude":40.818548,"longitude":-74.158934,"id":"a674wk9ij8ye","soph":1.0},"type":"Feature","geometry":{"type":"Point","coordinates":[-74.158934,40.818548]}},{"properties":{"zip":7446.0,"latitude":41.057743,"longitude":-74.144467,"id":"a674wjv672mp","soph":1.0},"type":"Feature","geometry":{"type":"Point","coordinates":[-74.144467,41.057743]}},{"properties":{"zip":7458.0,"latitude":41.053083,"longitude":-74.096775,"id":"a674wjwnr1np","soph":1.0},"type":"Feature","geometry":{"type":"Point","coordinates":[-74.096775,41.053083]}},{"properties":{"zip":7650.0,"latitude":40.846238,"longitude":-73.995436,"id":"a674wk6n2xqv","soph":1.0},"type":"Feature","geometry":{"type":"Point","coordinates":[-73.995436,40.846238]}},{"properties":{"zip":7719.0,"latitude":40.17434,"longitude":-74.047247,"id":"a674wk3sk8p7","soph":1.0},"type":"Feature","geometry":{"type":"Point","coordinates":[-74.047247,40.17434]}},{"properties":{"zip":7733.0,"latitude":40.385853,"longitude":-74.173971,"id":"a674wk2vj6cp","soph":1.0},"type":"Feature","geometry":{"type":"Point","coordinates":[-74.173971,40.385853]}},{"properties":{"zip":7840.0,"latitude":40.852891,"longitude":-74.834315,"id":"a674wk5kug9z","soph":1.0},"type":"Feature","geometry":{"type":"Point","coordinates":[-74.834315,40.852891]}},{"properties":{"zip":7848.0,"latitude":41.076099,"longitude":-74.691223,"id":"a674wjv6tq7u","soph":1.0},"type":"Feature","geometry":{"type":"Point","coordinates":[-74.691223,41.076099]}},{"properties":{"zip":7920.0,"latitude":40.678937,"longitude":-74.560463,"id":"a674wjx7ypjh","soph":1.0},"type":"Feature","geometry":{"type":"Point","coordinates":[-74.560463,40.678937]}},{"properties":{"zip":7922.0,"latitude":40.67522,"longitude":-74.434599,"id":"a674wk2gb7uq","soph":1.0},"type":"Feature","geometry":{"type":"Point","coordinates":[-74.434599,40.67522]}},{"properties":{"zip":8003.0,"latitude":39.880453,"longitude":-74.970568,"id":"a674wjv6ggnd","soph":1.0},"type":"Feature","geometry":{"type":"Point","coordinates":[-74.970568,39.880453]}},{"properties":{"zip":8043.0,"latitude":39.850422,"longitude":-74.964614,"id":"a674wjxt5efc","soph":1.0},"type":"Feature","geometry":{"type":"Point","coordinates":[-74.964614,39.850422]}},{"properties":{"zip":8060.0,"latitude":39.993028,"longitude":-74.795522,"id":"a674wk1wrv4o","soph":1.0},"type":"Feature","geometry":{"type":"Point","coordinates":[-74.795522,39.993028]}},{"properties":{"zip":8080.0,"latitude":39.747345,"longitude":-75.089852,"id":"a674wjyettrb","soph":1.0},"type":"Feature","geometry":{"type":"Point","coordinates":[-75.089852,39.747345]}},{"properties":{"zip":8085.0,"latitude":39.752853,"longitude":-75.336202,"id":"a674wk9pu23e","soph":1.0},"type":"Feature","geometry":{"type":"Point","coordinates":[-75.336202,39.752853]}},{"properties":{"zip":8536.0,"latitude":40.332432,"longitude":-74.568836,"id":"a674wk6lbnfa","soph":2.0},"type":"Feature","geometry":{"type":"Point","coordinates":[-74.568836,40.332432]}},{"properties":{"zip":8550.0,"latitude":40.297684,"longitude":-74.614596,"id":"a674wk3ape23","soph":2.0},"type":"Feature","geometry":{"type":"Point","coordinates":[-74.614596,40.297684]}},{"properties":{"zip":8558.0,"latitude":40.417312,"longitude":-74.693828,"id":"a674wk92rpo6","soph":1.0},"type":"Feature","geometry":{"type":"Point","coordinates":[-74.693828,40.417312]}},{"properties":{"zip":8648.0,"latitude":40.277646,"longitude":-74.723956,"id":"a674wk4vcedr","soph":1.0},"type":"Feature","geometry":{"type":"Point","coordinates":[-74.723956,40.277646]}},{"properties":{"zip":8801.0,"latitude":40.628731,"longitude":-74.885512,"id":"a674wk407to3","soph":1.0},"type":"Feature","geometry":{"type":"Point","coordinates":[-74.885512,40.628731]}},{"properties":{"zip":8807.0,"latitude":40.590388,"longitude":-74.626741,"id":"a674wk6j86dd","soph":1.0},"type":"Feature","geometry":{"type":"Point","coordinates":[-74.626741,40.590388]}},{"properties":{"zip":8820.0,"latitude":40.57804,"longitude":-74.358863,"id":"a674wk9cmk9d","soph":1.0},"type":"Feature","geometry":{"type":"Point","coordinates":[-74.358863,40.57804]}},{"properties":{"zip":10065.0,"latitude":40.76421,"longitude":-73.963179,"id":"a674wjx3jh3u","soph":1.0},"type":"Feature","geometry":{"type":"Point","coordinates":[-73.963179,40.76421]}},{"properties":{"zip":10310.0,"latitude":40.632427,"longitude":-74.11715,"id":"a674wk5mtcka","soph":1.0},"type":"Feature","geometry":{"type":"Point","coordinates":[-74.11715,40.632427]}},{"properties":{"zip":10452.0,"latitude":40.837594,"longitude":-73.921555,"id":"a674wk7wh989","soph":1.0},"type":"Feature","geometry":{"type":"Point","coordinates":[-73.921555,40.837594]}},{"properties":{"zip":10458.0,"latitude":40.863307,"longitude":-73.889464,"id":"a674wk6pq589","soph":2.0},"type":"Feature","geometry":{"type":"Point","coordinates":[-73.889464,40.863307]}},{"properties":{"zip":10520.0,"latitude":41.218037,"longitude":-73.892408,"id":"a674wjyxk2k7","soph":1.0},"type":"Feature","geometry":{"type":"Point","coordinates":[-73.892408,41.218037]}},{"properties":{"zip":10536.0,"latitude":41.270884,"longitude":-73.684115,"id":"a674wk4hqz82","soph":1.0},"type":"Feature","geometry":{"type":"Point","coordinates":[-73.684115,41.270884]}},{"properties":{"zip":10543.0,"latitude":40.952481,"longitude":-73.735037,"id":"a674wjvjxx73","soph":1.0},"type":"Feature","geometry":{"type":"Point","coordinates":[-73.735037,40.952481]}},{"properties":{"zip":10562.0,"latitude":41.167344,"longitude":-73.853791,"id":"a674wk7hx6en","soph":1.0},"type":"Feature","geometry":{"type":"Point","coordinates":[-73.853791,41.167344]}},{"properties":{"zip":10989.0,"latitude":41.118338,"longitude":-73.943006,"id":"a674wjvi68x0","soph":1.0},"type":"Feature","geometry":{"type":"Point","coordinates":[-73.943006,41.118338]}},{"properties":{"zip":11372.0,"latitude":40.751329,"longitude":-73.882975,"id":"a674wk8j5i16","soph":1.0},"type":"Feature","geometry":{"type":"Point","coordinates":[-73.882975,40.751329]}},{"properties":{"zip":11373.0,"latitude":40.740388,"longitude":-73.878551,"id":"a674wjvgv016","soph":1.0},"type":"Feature","geometry":{"type":"Point","coordinates":[-73.878551,40.740388]}},{"properties":{"zip":11416.0,"latitude":40.683753,"longitude":-73.851397,"id":"a674wjwnb1qu","soph":1.0},"type":"Feature","geometry":{"type":"Point","coordinates":[-73.851397,40.683753]}},{"properties":{"zip":11545.0,"latitude":40.828098,"longitude":-73.60763,"id":"a674wk32k9kw","soph":1.0},"type":"Feature","geometry":{"type":"Point","coordinates":[-73.60763,40.828098]}},{"properties":{"zip":11717.0,"latitude":40.777918,"longitude":-73.248189,"id":"a674wjxmgka9","soph":1.0},"type":"Feature","geometry":{"type":"Point","coordinates":[-73.248189,40.777918]}},{"properties":{"zip":11720.0,"latitude":40.870508,"longitude":-73.082163,"id":"a674wk9l7y2u","soph":1.0},"type":"Feature","geometry":{"type":"Point","coordinates":[-73.082163,40.870508]}},{"properties":{"zip":11743.0,"latitude":40.866945,"longitude":-73.410924,"id":"a674wk2fmw7y","soph":1.0},"type":"Feature","geometry":{"type":"Point","coordinates":[-73.410924,40.866945]}},{"properties":{"zip":11762.0,"latitude":40.680673,"longitude":-73.444447,"id":"a674wk1f1590","soph":1.0},"type":"Feature","geometry":{"type":"Point","coordinates":[-73.444447,40.680673]}},{"properties":{"zip":11771.0,"latitude":40.866012,"longitude":-73.527212,"id":"a674wk31c1jr","soph":1.0},"type":"Feature","geometry":{"type":"Point","coordinates":[-73.527212,40.866012]}},{"properties":{"zip":11791.0,"latitude":40.81462,"longitude":-73.502397,"id":"a674wk2c41pq","soph":3.0},"type":"Feature","geometry":{"type":"Point","coordinates":[-73.502397,40.81462]}},{"properties":{"zip":11954.0,"latitude":41.045853,"longitude":-71.943963,"id":"a674wjvs6q67","soph":1.0},"type":"Feature","geometry":{"type":"Point","coordinates":[-71.943963,41.045853]}},{"properties":{"zip":12724.0,"latitude":41.836079,"longitude":-74.946938,"id":"a674wk552j3b","soph":1.0},"type":"Feature","geometry":{"type":"Point","coordinates":[-74.946938,41.836079]}},{"properties":{"zip":13027.0,"latitude":43.162039,"longitude":-76.323718,"id":"a674wjzfpc0q","soph":1.0},"type":"Feature","geometry":{"type":"Point","coordinates":[-76.323718,43.162039]}},{"properties":{"zip":13088.0,"latitude":43.109925,"longitude":-76.186999,"id":"a674wjzfdkdz","soph":1.0},"type":"Feature","geometry":{"type":"Point","coordinates":[-76.186999,43.109925]}},{"properties":{"zip":13207.0,"latitude":43.019482,"longitude":-76.16501,"id":"a674wk7ek1i7","soph":1.0},"type":"Feature","geometry":{"type":"Point","coordinates":[-76.16501,43.019482]}},{"properties":{"zip":13215.0,"latitude":42.997544,"longitude":-76.211851,"id":"a674wk10eslh","soph":1.0},"type":"Feature","geometry":{"type":"Point","coordinates":[-76.211851,42.997544]}},{"properties":{"zip":14052.0,"latitude":42.770138,"longitude":-78.601992,"id":"a674wk5ovu64","soph":1.0},"type":"Feature","geometry":{"type":"Point","coordinates":[-78.601992,42.770138]}},{"properties":{"zip":14075.0,"latitude":42.733404,"longitude":-78.838853,"id":"a674wjv0unkz","soph":1.0},"type":"Feature","geometry":{"type":"Point","coordinates":[-78.838853,42.733404]}},{"properties":{"zip":14085.0,"latitude":42.721535,"longitude":-78.932693,"id":"a674wk7cesje","soph":1.0},"type":"Feature","geometry":{"type":"Point","coordinates":[-78.932693,42.721535]}},{"properties":{"zip":14092.0,"latitude":43.172165,"longitude":-79.021547,"id":"a674wk3lqnxk","soph":1.0},"type":"Feature","geometry":{"type":"Point","coordinates":[-79.021547,43.172165]}},{"properties":{"zip":14221.0,"latitude":42.985621,"longitude":-78.738044,"id":"a674wk93rj8c","soph":3.0},"type":"Feature","geometry":{"type":"Point","coordinates":[-78.738044,42.985621]}},{"properties":{"zip":14223.0,"latitude":42.973088,"longitude":-78.845,"id":"a674wk7stxex","soph":1.0},"type":"Feature","geometry":{"type":"Point","coordinates":[-78.845,42.973088]}},{"properties":{"zip":14450.0,"latitude":43.089198,"longitude":-77.435956,"id":"a674wk4qn5o7","soph":1.0},"type":"Feature","geometry":{"type":"Point","coordinates":[-77.435956,43.089198]}},{"properties":{"zip":14519.0,"latitude":43.229092,"longitude":-77.308781,"id":"a674wk8exebg","soph":1.0},"type":"Feature","geometry":{"type":"Point","coordinates":[-77.308781,43.229092]}},{"properties":{"zip":14534.0,"latitude":43.069511,"longitude":-77.514067,"id":"a674wk3ojja6","soph":1.0},"type":"Feature","geometry":{"type":"Point","coordinates":[-77.514067,43.069511]}},{"properties":{"zip":14613.0,"latitude":43.18308,"longitude":-77.639276,"id":"a674wk1akf1v","soph":1.0},"type":"Feature","geometry":{"type":"Point","coordinates":[-77.639276,43.18308]}},{"properties":{"zip":14618.0,"latitude":43.115416,"longitude":-77.558801,"id":"a674wk37p6x4","soph":1.0},"type":"Feature","geometry":{"type":"Point","coordinates":[-77.558801,43.115416]}},{"properties":{"zip":14624.0,"latitude":43.12589,"longitude":-77.733552,"id":"a674wk0snoy8","soph":2.0},"type":"Feature","geometry":{"type":"Point","coordinates":[-77.733552,43.12589]}},{"properties":{"zip":14626.0,"latitude":43.21257,"longitude":-77.703996,"id":"a674wjzd84xo","soph":1.0},"type":"Feature","geometry":{"type":"Point","coordinates":[-77.703996,43.21257]}},{"properties":{"zip":14755.0,"latitude":42.254121,"longitude":-78.809286,"id":"a674wk8staig","soph":1.0},"type":"Feature","geometry":{"type":"Point","coordinates":[-78.809286,42.254121]}},{"properties":{"zip":14830.0,"latitude":42.138331,"longitude":-77.047546,"id":"a674wjzafi6x","soph":1.0},"type":"Feature","geometry":{"type":"Point","coordinates":[-77.047546,42.138331]}},{"properties":{"zip":15003.0,"latitude":40.595368,"longitude":-80.219778,"id":"a674wjv66nae","soph":1.0},"type":"Feature","geometry":{"type":"Point","coordinates":[-80.219778,40.595368]}},{"properties":{"zip":15005.0,"latitude":40.641595,"longitude":-80.198471,"id":"a674wk74zprk","soph":1.0},"type":"Feature","geometry":{"type":"Point","coordinates":[-80.198471,40.641595]}},{"properties":{"zip":15009.0,"latitude":40.697184,"longitude":-80.336528,"id":"a674wk8lcxyv","soph":1.0},"type":"Feature","geometry":{"type":"Point","coordinates":[-80.336528,40.697184]}},{"properties":{"zip":15024.0,"latitude":40.568117,"longitude":-79.841002,"id":"a674wjvxedj8","soph":1.0},"type":"Feature","geometry":{"type":"Point","coordinates":[-79.841002,40.568117]}},{"properties":{"zip":15025.0,"latitude":40.298917,"longitude":-79.910096,"id":"a674wk1160kb","soph":1.0},"type":"Feature","geometry":{"type":"Point","coordinates":[-79.910096,40.298917]}},{"properties":{"zip":15037.0,"latitude":40.265575,"longitude":-79.856842,"id":"a674wk1sywm5","soph":1.0},"type":"Feature","geometry":{"type":"Point","coordinates":[-79.856842,40.265575]}},{"properties":{"zip":15042.0,"latitude":40.683023,"longitude":-80.214663,"id":"a674wjx01nh7","soph":1.0},"type":"Feature","geometry":{"type":"Point","coordinates":[-80.214663,40.683023]}},{"properties":{"zip":15044.0,"latitude":40.625233,"longitude":-79.944307,"id":"a674wk20icvd","soph":1.0},"type":"Feature","geometry":{"type":"Point","coordinates":[-79.944307,40.625233]}},{"properties":{"zip":15068.0,"latitude":40.571179,"longitude":-79.741547,"id":"a674wk87xdqz","soph":2.0},"type":"Feature","geometry":{"type":"Point","coordinates":[-79.741547,40.571179]}},{"properties":{"zip":15074.0,"latitude":40.715745,"longitude":-80.260315,"id":"a674wjufumgw","soph":1.0},"type":"Feature","geometry":{"type":"Point","coordinates":[-80.260315,40.715745]}},{"properties":{"zip":15090.0,"latitude":40.612044,"longitude":-80.064879,"id":"a674wjz7w1ja","soph":6.0},"type":"Feature","geometry":{"type":"Point","coordinates":[-80.064879,40.612044]}},{"properties":{"zip":15101.0,"latitude":40.569975,"longitude":-79.966512,"id":"a674wk78zl7j","soph":3.0},"type":"Feature","geometry":{"type":"Point","coordinates":[-79.966512,40.569975]}},{"properties":{"zip":15102.0,"latitude":40.320984,"longitude":-80.039793,"id":"a674wk7lxeju","soph":4.0},"type":"Feature","geometry":{"type":"Point","coordinates":[-80.039793,40.320984]}},{"properties":{"zip":15108.0,"latitude":40.513245,"longitude":-80.18969,"id":"a674wk1u4ppi","soph":3.0},"type":"Feature","geometry":{"type":"Point","coordinates":[-80.18969,40.513245]}},{"properties":{"zip":15116.0,"latitude":40.537492,"longitude":-79.964351,"id":"a674wk3872sv","soph":1.0},"type":"Feature","geometry":{"type":"Point","coordinates":[-79.964351,40.537492]}},{"properties":{"zip":15129.0,"latitude":40.292199,"longitude":-80.001144,"id":"a674wjy1zy7p","soph":2.0},"type":"Feature","geometry":{"type":"Point","coordinates":[-80.001144,40.292199]}},{"properties":{"zip":15146.0,"latitude":40.429026,"longitude":-79.762279,"id":"a674wk2unjvf","soph":3.0},"type":"Feature","geometry":{"type":"Point","coordinates":[-79.762279,40.429026]}},{"properties":{"zip":15204.0,"latitude":40.455569,"longitude":-80.061056,"id":"a674wk5tqeib","soph":1.0},"type":"Feature","geometry":{"type":"Point","coordinates":[-80.061056,40.455569]}},{"properties":{"zip":15217.0,"latitude":40.431852,"longitude":-79.924973,"id":"a674wk3mf46c","soph":3.0},"type":"Feature","geometry":{"type":"Point","coordinates":[-79.924973,40.431852]}},{"properties":{"zip":15221.0,"latitude":40.438352,"longitude":-79.870243,"id":"a674wk9kjzra","soph":1.0},"type":"Feature","geometry":{"type":"Point","coordinates":[-79.870243,40.438352]}},{"properties":{"zip":15226.0,"latitude":40.394628,"longitude":-80.015759,"id":"a674wjx2cf5m","soph":2.0},"type":"Feature","geometry":{"type":"Point","coordinates":[-80.015759,40.394628]}},{"properties":{"zip":15228.0,"latitude":40.371326,"longitude":-80.043186,"id":"a674wjz0nbrm","soph":1.0},"type":"Feature","geometry":{"type":"Point","coordinates":[-80.043186,40.371326]}},{"properties":{"zip":15236.0,"latitude":40.345244,"longitude":-79.976894,"id":"a674wk4myrkv","soph":1.0},"type":"Feature","geometry":{"type":"Point","coordinates":[-79.976894,40.345244]}},{"properties":{"zip":15237.0,"latitude":40.552238,"longitude":-80.034939,"id":"a674wjxs7m8h","soph":2.0},"type":"Feature","geometry":{"type":"Point","coordinates":[-80.034939,40.552238]}},{"properties":{"zip":15238.0,"latitude":40.515077,"longitude":-79.877423,"id":"a674wk97mv5o","soph":1.0},"type":"Feature","geometry":{"type":"Point","coordinates":[-79.877423,40.515077]}},{"properties":{"zip":15239.0,"latitude":40.477693,"longitude":-79.734505,"id":"a674wk2s1j0x","soph":1.0},"type":"Feature","geometry":{"type":"Point","coordinates":[-79.734505,40.477693]}},{"properties":{"zip":15241.0,"latitude":40.332174,"longitude":-80.07921,"id":"a674wjzlzlz9","soph":5.0},"type":"Feature","geometry":{"type":"Point","coordinates":[-80.07921,40.332174]}},{"properties":{"zip":15243.0,"latitude":40.373797,"longitude":-80.072425,"id":"a674wjz4krtv","soph":1.0},"type":"Feature","geometry":{"type":"Point","coordinates":[-80.072425,40.373797]}},{"properties":{"zip":15317.0,"latitude":40.270743,"longitude":-80.153153,"id":"a674wk4lwkip","soph":1.0},"type":"Feature","geometry":{"type":"Point","coordinates":[-80.153153,40.270743]}},{"properties":{"zip":15323.0,"latitude":40.137557,"longitude":-80.385904,"id":"a674wk0kut8q","soph":1.0},"type":"Feature","geometry":{"type":"Point","coordinates":[-80.385904,40.137557]}},{"properties":{"zip":15332.0,"latitude":40.259301,"longitude":-79.97531,"id":"a674wjvwpd2k","soph":1.0},"type":"Feature","geometry":{"type":"Point","coordinates":[-79.97531,40.259301]}},{"properties":{"zip":15401.0,"latitude":39.889733,"longitude":-79.728216,"id":"a674wk3a95sa","soph":1.0},"type":"Feature","geometry":{"type":"Point","coordinates":[-79.728216,39.889733]}},{"properties":{"zip":15601.0,"latitude":40.307359,"longitude":-79.542439,"id":"a674wk4lysi3","soph":1.0},"type":"Feature","geometry":{"type":"Point","coordinates":[-79.542439,40.307359]}},{"properties":{"zip":15613.0,"latitude":40.556481,"longitude":-79.577158,"id":"a674wk9rvgyz","soph":2.0},"type":"Feature","geometry":{"type":"Point","coordinates":[-79.577158,40.556481]}},{"properties":{"zip":15632.0,"latitude":40.425185,"longitude":-79.611021,"id":"a674wk23f8dt","soph":1.0},"type":"Feature","geometry":{"type":"Point","coordinates":[-79.611021,40.425185]}},{"properties":{"zip":15642.0,"latitude":40.319227,"longitude":-79.723855,"id":"a674wk78zk23","soph":4.0},"type":"Feature","geometry":{"type":"Point","coordinates":[-79.723855,40.319227]}},{"properties":{"zip":15668.0,"latitude":40.446674,"longitude":-79.684154,"id":"a674wk78j0e1","soph":1.0},"type":"Feature","geometry":{"type":"Point","coordinates":[-79.684154,40.446674]}},{"properties":{"zip":15672.0,"latitude":40.223345,"longitude":-79.618187,"id":"a674wk96rgyj","soph":1.0},"type":"Feature","geometry":{"type":"Point","coordinates":[-79.618187,40.223345]}},{"properties":{"zip":15701.0,"latitude":40.619628,"longitude":-79.159596,"id":"a674wk9gs1u7","soph":1.0},"type":"Feature","geometry":{"type":"Point","coordinates":[-79.159596,40.619628]}},{"properties":{"zip":15825.0,"latitude":41.159986,"longitude":-79.064101,"id":"a674wjx5f4s3","soph":1.0},"type":"Feature","geometry":{"type":"Point","coordinates":[-79.064101,41.159986]}},{"properties":{"zip":15851.0,"latitude":41.062935,"longitude":-78.896147,"id":"a674wk9xjohn","soph":1.0},"type":"Feature","geometry":{"type":"Point","coordinates":[-78.896147,41.062935]}},{"properties":{"zip":15931.0,"latitude":40.480105,"longitude":-78.726294,"id":"a674wjwkrej5","soph":1.0},"type":"Feature","geometry":{"type":"Point","coordinates":[-78.726294,40.480105]}},{"properties":{"zip":16002.0,"latitude":40.814238,"longitude":-79.863401,"id":"a674wk8llax3","soph":1.0},"type":"Feature","geometry":{"type":"Point","coordinates":[-79.863401,40.814238]}},{"properties":{"zip":16046.0,"latitude":40.700514,"longitude":-80.035769,"id":"a674wjyp3lnc","soph":1.0},"type":"Feature","geometry":{"type":"Point","coordinates":[-80.035769,40.700514]}},{"properties":{"zip":16055.0,"latitude":40.714285,"longitude":-79.74243,"id":"a674wjxad9le","soph":1.0},"type":"Feature","geometry":{"type":"Point","coordinates":[-79.74243,40.714285]}},{"properties":{"zip":16063.0,"latitude":40.73136,"longitude":-80.128564,"id":"a674wjwhmrq7","soph":1.0},"type":"Feature","geometry":{"type":"Point","coordinates":[-80.128564,40.73136]}},{"properties":{"zip":16066.0,"latitude":40.705518,"longitude":-80.110804,"id":"a674wjyd550h","soph":3.0},"type":"Feature","geometry":{"type":"Point","coordinates":[-80.110804,40.705518]}},{"properties":{"zip":16101.0,"latitude":40.99222,"longitude":-80.328449,"id":"a674wk4u4bay","soph":1.0},"type":"Feature","geometry":{"type":"Point","coordinates":[-80.328449,40.99222]}},{"properties":{"zip":16115.0,"latitude":40.796839,"longitude":-80.455611,"id":"a674wju97oab","soph":1.0},"type":"Feature","geometry":{"type":"Point","coordinates":[-80.455611,40.796839]}},{"properties":{"zip":16116.0,"latitude":41.027614,"longitude":-80.463178,"id":"a674wjxigmg6","soph":2.0},"type":"Feature","geometry":{"type":"Point","coordinates":[-80.463178,41.027614]}},{"properties":{"zip":16148.0,"latitude":41.232601,"longitude":-80.45303,"id":"a674wjwcqxfi","soph":3.0},"type":"Feature","geometry":{"type":"Point","coordinates":[-80.45303,41.232601]}},{"properties":{"zip":16159.0,"latitude":41.174054,"longitude":-80.452759,"id":"a674wk2i7mh9","soph":1.0},"type":"Feature","geometry":{"type":"Point","coordinates":[-80.452759,41.174054]}},{"properties":{"zip":16201.0,"latitude":40.815516,"longitude":-79.510675,"id":"a674wk16zmo0","soph":2.0},"type":"Feature","geometry":{"type":"Point","coordinates":[-79.510675,40.815516]}},{"properties":{"zip":16406.0,"latitude":41.745455,"longitude":-80.344516,"id":"a674wk1aw69q","soph":1.0},"type":"Feature","geometry":{"type":"Point","coordinates":[-80.344516,41.745455]}},{"properties":{"zip":16426.0,"latitude":41.999035,"longitude":-80.147336,"id":"a674wk57b72x","soph":1.0},"type":"Feature","geometry":{"type":"Point","coordinates":[-80.147336,41.999035]}},{"properties":{"zip":16428.0,"latitude":42.200793,"longitude":-79.833179,"id":"a674wk2ofctn","soph":1.0},"type":"Feature","geometry":{"type":"Point","coordinates":[-79.833179,42.200793]}},{"properties":{"zip":16506.0,"latitude":42.073801,"longitude":-80.14844,"id":"a674wk05cx8i","soph":2.0},"type":"Feature","geometry":{"type":"Point","coordinates":[-80.14844,42.073801]}},{"properties":{"zip":16508.0,"latitude":42.097577,"longitude":-80.093544,"id":"a674wjy6hggg","soph":1.0},"type":"Feature","geometry":{"type":"Point","coordinates":[-80.093544,42.097577]}},{"properties":{"zip":16509.0,"latitude":42.076326,"longitude":-80.066827,"id":"a674wk10si2u","soph":6.0},"type":"Feature","geometry":{"type":"Point","coordinates":[-80.066827,42.076326]}},{"properties":{"zip":16510.0,"latitude":42.123673,"longitude":-80.003752,"id":"a674wjx0ekw1","soph":4.0},"type":"Feature","geometry":{"type":"Point","coordinates":[-80.003752,42.123673]}},{"properties":{"zip":16915.0,"latitude":41.781529,"longitude":-78.003861,"id":"a674wjwg3kml","soph":1.0},"type":"Feature","geometry":{"type":"Point","coordinates":[-78.003861,41.781529]}},{"properties":{"zip":17022.0,"latitude":40.155331,"longitude":-76.602545,"id":"a674wk4n0qfp","soph":1.0},"type":"Feature","geometry":{"type":"Point","coordinates":[-76.602545,40.155331]}},{"properties":{"zip":17036.0,"latitude":40.278199,"longitude":-76.709375,"id":"a674wk565254","soph":1.0},"type":"Feature","geometry":{"type":"Point","coordinates":[-76.709375,40.278199]}},{"properties":{"zip":17050.0,"latitude":40.248659,"longitude":-76.99995,"id":"a674wk73e51k","soph":1.0},"type":"Feature","geometry":{"type":"Point","coordinates":[-76.99995,40.248659]}},{"properties":{"zip":17349.0,"latitude":39.742266,"longitude":-76.684064,"id":"a674wjw306le","soph":1.0},"type":"Feature","geometry":{"type":"Point","coordinates":[-76.684064,39.742266]}},{"properties":{"zip":17543.0,"latitude":40.162573,"longitude":-76.29926,"id":"a674wk5wbovb","soph":1.0},"type":"Feature","geometry":{"type":"Point","coordinates":[-76.29926,40.162573]}},{"properties":{"zip":17866.0,"latitude":40.803039,"longitude":-76.498242,"id":"a674wjvz1xft","soph":1.0},"type":"Feature","geometry":{"type":"Point","coordinates":[-76.498242,40.803039]}},{"properties":{"zip":18036.0,"latitude":40.507553,"longitude":-75.388778,"id":"a674wk08eyjg","soph":2.0},"type":"Feature","geometry":{"type":"Point","coordinates":[-75.388778,40.507553]}},{"properties":{"zip":18708.0,"latitude":41.299802,"longitude":-75.97108,"id":"a674wk5ohszz","soph":1.0},"type":"Feature","geometry":{"type":"Point","coordinates":[-75.97108,41.299802]}},{"properties":{"zip":19004.0,"latitude":40.01179,"longitude":-75.23421,"id":"a674wjvrigcj","soph":1.0},"type":"Feature","geometry":{"type":"Point","coordinates":[-75.23421,40.01179]}},{"properties":{"zip":19044.0,"latitude":40.182057,"longitude":-75.147932,"id":"a674wk9456k0","soph":1.0},"type":"Feature","geometry":{"type":"Point","coordinates":[-75.147932,40.182057]}},{"properties":{"zip":19063.0,"latitude":39.915562,"longitude":-75.407226,"id":"a674wjx2wsws","soph":1.0},"type":"Feature","geometry":{"type":"Point","coordinates":[-75.407226,39.915562]}},{"properties":{"zip":19066.0,"latitude":40.003043,"longitude":-75.250302,"id":"a674wk282jaq","soph":1.0},"type":"Feature","geometry":{"type":"Point","coordinates":[-75.250302,40.003043]}},{"properties":{"zip":19096.0,"latitude":40.0,"longitude":-75.275984,"id":"a674wjxkt7uq","soph":1.0},"type":"Feature","geometry":{"type":"Point","coordinates":[-75.275984,40.0]}},{"properties":{"zip":19312.0,"latitude":40.041184,"longitude":-75.447457,"id":"a674wk69hruz","soph":1.0},"type":"Feature","geometry":{"type":"Point","coordinates":[-75.447457,40.041184]}},{"properties":{"zip":19335.0,"latitude":40.016078,"longitude":-75.718261,"id":"a674wjz7rwmq","soph":1.0},"type":"Feature","geometry":{"type":"Point","coordinates":[-75.718261,40.016078]}},{"properties":{"zip":19380.0,"latitude":39.984458,"longitude":-75.596231,"id":"a674wjtrecl5","soph":1.0},"type":"Feature","geometry":{"type":"Point","coordinates":[-75.596231,39.984458]}},{"properties":{"zip":19382.0,"latitude":39.944081,"longitude":-75.588197,"id":"a674wk4gdyw6","soph":1.0},"type":"Feature","geometry":{"type":"Point","coordinates":[-75.588197,39.944081]}},{"properties":{"zip":19426.0,"latitude":40.189277,"longitude":-75.448762,"id":"a674wjw2cftu","soph":1.0},"type":"Feature","geometry":{"type":"Point","coordinates":[-75.448762,40.189277]}},{"properties":{"zip":19444.0,"latitude":40.089597,"longitude":-75.260052,"id":"a674wjxxcw4c","soph":1.0},"type":"Feature","geometry":{"type":"Point","coordinates":[-75.260052,40.089597]}},{"properties":{"zip":19460.0,"latitude":40.126704,"longitude":-75.527192,"id":"a674wk33y9b3","soph":1.0},"type":"Feature","geometry":{"type":"Point","coordinates":[-75.527192,40.126704]}},{"properties":{"zip":19707.0,"latitude":39.77604,"longitude":-75.688873,"id":"a674wjvjmwkl","soph":1.0},"type":"Feature","geometry":{"type":"Point","coordinates":[-75.688873,39.77604]}},{"properties":{"zip":19711.0,"latitude":39.701129,"longitude":-75.737534,"id":"a674wjyqvso9","soph":1.0},"type":"Feature","geometry":{"type":"Point","coordinates":[-75.737534,39.701129]}},{"properties":{"zip":20001.0,"latitude":38.912217,"longitude":-77.017691,"id":"a674wjy942v9","soph":1.0},"type":"Feature","geometry":{"type":"Point","coordinates":[-77.017691,38.912217]}},{"properties":{"zip":20007.0,"latitude":38.914365,"longitude":-77.074042,"id":"a674wjwboke2","soph":1.0},"type":"Feature","geometry":{"type":"Point","coordinates":[-77.074042,38.914365]}},{"properties":{"zip":20120.0,"latitude":38.848788,"longitude":-77.445151,"id":"a674wjx8e1xs","soph":1.0},"type":"Feature","geometry":{"type":"Point","coordinates":[-77.445151,38.848788]}},{"properties":{"zip":20175.0,"latitude":39.07743,"longitude":-77.57408,"id":"a674wk8sq4oq","soph":1.0},"type":"Feature","geometry":{"type":"Point","coordinates":[-77.57408,39.07743]}},{"properties":{"zip":20721.0,"latitude":38.919588,"longitude":-76.80527,"id":"a674wk4kafs2","soph":1.0},"type":"Feature","geometry":{"type":"Point","coordinates":[-76.80527,38.919588]}},{"properties":{"zip":20816.0,"latitude":38.958485,"longitude":-77.11528,"id":"a674wjwpwhpb","soph":1.0},"type":"Feature","geometry":{"type":"Point","coordinates":[-77.11528,38.958485]}},{"properties":{"zip":20817.0,"latitude":38.999659,"longitude":-77.137239,"id":"a674wk1e9iyd","soph":2.0},"type":"Feature","geometry":{"type":"Point","coordinates":[-77.137239,38.999659]}},{"properties":{"zip":20818.0,"latitude":38.974302,"longitude":-77.15911,"id":"a674wjz815kb","soph":1.0},"type":"Feature","geometry":{"type":"Point","coordinates":[-77.15911,38.974302]}},{"properties":{"zip":20854.0,"latitude":39.03877,"longitude":-77.192151,"id":"a674wk2l5nwj","soph":5.0},"type":"Feature","geometry":{"type":"Point","coordinates":[-77.192151,39.03877]}},{"properties":{"zip":20855.0,"latitude":39.134539,"longitude":-77.147707,"id":"a674wk7j6x4f","soph":1.0},"type":"Feature","geometry":{"type":"Point","coordinates":[-77.147707,39.134539]}},{"properties":{"zip":20876.0,"latitude":39.188001,"longitude":-77.235829,"id":"a674wjzs0cd1","soph":2.0},"type":"Feature","geometry":{"type":"Point","coordinates":[-77.235829,39.188001]}},{"properties":{"zip":20878.0,"latitude":39.115534,"longitude":-77.236434,"id":"a674wjyoys47","soph":2.0},"type":"Feature","geometry":{"type":"Point","coordinates":[-77.236434,39.115534]}},{"properties":{"zip":20879.0,"latitude":39.172597,"longitude":-77.194599,"id":"a674wk3ctd8j","soph":1.0},"type":"Feature","geometry":{"type":"Point","coordinates":[-77.194599,39.172597]}},{"properties":{"zip":20906.0,"latitude":39.081041,"longitude":-77.063233,"id":"a674wk4qcy0y","soph":1.0},"type":"Feature","geometry":{"type":"Point","coordinates":[-77.063233,39.081041]}},{"properties":{"zip":21042.0,"latitude":39.272632,"longitude":-76.861362,"id":"a674wjvyvdtk","soph":1.0},"type":"Feature","geometry":{"type":"Point","coordinates":[-76.861362,39.272632]}},{"properties":{"zip":21093.0,"latitude":39.438636,"longitude":-76.633791,"id":"a674wjvhfb7m","soph":1.0},"type":"Feature","geometry":{"type":"Point","coordinates":[-76.633791,39.438636]}},{"properties":{"zip":21117.0,"latitude":39.42688,"longitude":-76.776934,"id":"a674wk6g47kh","soph":1.0},"type":"Feature","geometry":{"type":"Point","coordinates":[-76.776934,39.42688]}},{"properties":{"zip":21122.0,"latitude":39.129284,"longitude":-76.516248,"id":"a674wk7en3gu","soph":1.0},"type":"Feature","geometry":{"type":"Point","coordinates":[-76.516248,39.129284]}},{"properties":{"zip":21136.0,"latitude":39.45996,"longitude":-76.813452,"id":"a674wk5xwcfr","soph":1.0},"type":"Feature","geometry":{"type":"Point","coordinates":[-76.813452,39.45996]}},{"properties":{"zip":21209.0,"latitude":39.371622,"longitude":-76.674431,"id":"a674wk2mv1a9","soph":2.0},"type":"Feature","geometry":{"type":"Point","coordinates":[-76.674431,39.371622]}},{"properties":{"zip":21212.0,"latitude":39.362571,"longitude":-76.609989,"id":"a674wk9fm5w7","soph":1.0},"type":"Feature","geometry":{"type":"Point","coordinates":[-76.609989,39.362571]}},{"properties":{"zip":21218.0,"latitude":39.3265,"longitude":-76.6048,"id":"a674wjun9kqx","soph":1.0},"type":"Feature","geometry":{"type":"Point","coordinates":[-76.6048,39.3265]}},{"properties":{"zip":21769.0,"latitude":39.441586,"longitude":-77.550241,"id":"a674wjvk61vs","soph":1.0},"type":"Feature","geometry":{"type":"Point","coordinates":[-77.550241,39.441586]}},{"properties":{"zip":21771.0,"latitude":39.388131,"longitude":-77.172347,"id":"a674wjx7tf6n","soph":1.0},"type":"Feature","geometry":{"type":"Point","coordinates":[-77.172347,39.388131]}},{"properties":{"zip":21774.0,"latitude":39.405208,"longitude":-77.289346,"id":"a674wjtxr0kw","soph":1.0},"type":"Feature","geometry":{"type":"Point","coordinates":[-77.289346,39.405208]}},{"properties":{"zip":21776.0,"latitude":39.516233,"longitude":-77.103397,"id":"a674wk2i42he","soph":1.0},"type":"Feature","geometry":{"type":"Point","coordinates":[-77.103397,39.516233]}},{"properties":{"zip":22003.0,"latitude":38.830699,"longitude":-77.214245,"id":"a674wk1bgmbj","soph":1.0},"type":"Feature","geometry":{"type":"Point","coordinates":[-77.214245,38.830699]}},{"properties":{"zip":22030.0,"latitude":38.845826,"longitude":-77.324151,"id":"a674wk7qcvup","soph":1.0},"type":"Feature","geometry":{"type":"Point","coordinates":[-77.324151,38.845826]}},{"properties":{"zip":22039.0,"latitude":38.760205,"longitude":-77.306388,"id":"a674wjzjlaky","soph":2.0},"type":"Feature","geometry":{"type":"Point","coordinates":[-77.306388,38.760205]}},{"properties":{"zip":22101.0,"latitude":38.932624,"longitude":-77.170628,"id":"a674wju5jxeh","soph":1.0},"type":"Feature","geometry":{"type":"Point","coordinates":[-77.170628,38.932624]}},{"properties":{"zip":22304.0,"latitude":38.814871,"longitude":-77.120989,"id":"a674wk6vpr7w","soph":1.0},"type":"Feature","geometry":{"type":"Point","coordinates":[-77.120989,38.814871]}},{"properties":{"zip":23220.0,"latitude":37.549808,"longitude":-77.458798,"id":"a674wk3rl6nm","soph":1.0},"type":"Feature","geometry":{"type":"Point","coordinates":[-77.458798,37.549808]}},{"properties":{"zip":23669.0,"latitude":37.043559,"longitude":-76.342573,"id":"a674wjv0gcp7","soph":1.0},"type":"Feature","geometry":{"type":"Point","coordinates":[-76.342573,37.043559]}},{"properties":{"zip":25311.0,"latitude":38.349032,"longitude":-81.599282,"id":"a674wjw1pqif","soph":1.0},"type":"Feature","geometry":{"type":"Point","coordinates":[-81.599282,38.349032]}},{"properties":{"zip":25404.0,"latitude":39.479407,"longitude":-77.928593,"id":"a674wjzlbyl3","soph":1.0},"type":"Feature","geometry":{"type":"Point","coordinates":[-77.928593,39.479407]}},{"properties":{"zip":26155.0,"latitude":39.658798,"longitude":-80.856541,"id":"a674wjzccrxg","soph":1.0},"type":"Feature","geometry":{"type":"Point","coordinates":[-80.856541,39.658798]}},{"properties":{"zip":27516.0,"latitude":35.916175,"longitude":-79.099867,"id":"a674wk4qwxoq","soph":1.0},"type":"Feature","geometry":{"type":"Point","coordinates":[-79.099867,35.916175]}},{"properties":{"zip":28078.0,"latitude":35.421992,"longitude":-80.864664,"id":"a674wk3awitb","soph":2.0},"type":"Feature","geometry":{"type":"Point","coordinates":[-80.864664,35.421992]}},{"properties":{"zip":28105.0,"latitude":35.121879,"longitude":-80.713568,"id":"a674wjyw0chv","soph":1.0},"type":"Feature","geometry":{"type":"Point","coordinates":[-80.713568,35.121879]}},{"properties":{"zip":30024.0,"latitude":34.061791,"longitude":-84.090131,"id":"a674wk9rq7cb","soph":1.0},"type":"Feature","geometry":{"type":"Point","coordinates":[-84.090131,34.061791]}},{"properties":{"zip":30030.0,"latitude":33.769883,"longitude":-84.295044,"id":"a674wk7k3ipw","soph":1.0},"type":"Feature","geometry":{"type":"Point","coordinates":[-84.295044,33.769883]}},{"properties":{"zip":30068.0,"latitude":33.967861,"longitude":-84.438549,"id":"a674wk1z6rwr","soph":1.0},"type":"Feature","geometry":{"type":"Point","coordinates":[-84.438549,33.967861]}},{"properties":{"zip":30328.0,"latitude":33.936295,"longitude":-84.381143,"id":"a674wk2kwo77","soph":1.0},"type":"Feature","geometry":{"type":"Point","coordinates":[-84.381143,33.936295]}},{"properties":{"zip":30518.0,"latitude":34.112373,"longitude":-83.996459,"id":"a674wjucafzf","soph":1.0},"type":"Feature","geometry":{"type":"Point","coordinates":[-83.996459,34.112373]}},{"properties":{"zip":30809.0,"latitude":33.541194,"longitude":-82.139775,"id":"a674wjud95x6","soph":1.0},"type":"Feature","geometry":{"type":"Point","coordinates":[-82.139775,33.541194]}},{"properties":{"zip":32217.0,"latitude":30.240678,"longitude":-81.616956,"id":"a674wk7m5z1x","soph":1.0},"type":"Feature","geometry":{"type":"Point","coordinates":[-81.616956,30.240678]}},{"properties":{"zip":32258.0,"latitude":30.145944,"longitude":-81.573864,"id":"a674wk08vb49","soph":1.0},"type":"Feature","geometry":{"type":"Point","coordinates":[-81.573864,30.145944]}},{"properties":{"zip":32312.0,"latitude":30.518474,"longitude":-84.262708,"id":"a674wk97ju6c","soph":1.0},"type":"Feature","geometry":{"type":"Point","coordinates":[-84.262708,30.518474]}},{"properties":{"zip":32779.0,"latitude":28.703978,"longitude":-81.422767,"id":"a674wjx0td6r","soph":2.0},"type":"Feature","geometry":{"type":"Point","coordinates":[-81.422767,28.703978]}},{"properties":{"zip":33071.0,"latitude":26.243515,"longitude":-80.260085,"id":"a674wk96xk86","soph":1.0},"type":"Feature","geometry":{"type":"Point","coordinates":[-80.260085,26.243515]}},{"properties":{"zip":33141.0,"latitude":25.852384,"longitude":-80.133578,"id":"a674wk25vcjb","soph":1.0},"type":"Feature","geometry":{"type":"Point","coordinates":[-80.133578,25.852384]}},{"properties":{"zip":33308.0,"latitude":26.187883,"longitude":-80.107674,"id":"a674wk36ulu4","soph":1.0},"type":"Feature","geometry":{"type":"Point","coordinates":[-80.107674,26.187883]}},{"properties":{"zip":33327.0,"latitude":26.097291,"longitude":-80.40645,"id":"a674wjwz6csc","soph":1.0},"type":"Feature","geometry":{"type":"Point","coordinates":[-80.40645,26.097291]}},{"properties":{"zip":33332.0,"latitude":26.054436,"longitude":-80.41299,"id":"a674wjx0uc0f","soph":1.0},"type":"Feature","geometry":{"type":"Point","coordinates":[-80.41299,26.054436]}},{"properties":{"zip":33415.0,"latitude":26.655722,"longitude":-80.127966,"id":"a674wjywmhiy","soph":1.0},"type":"Feature","geometry":{"type":"Point","coordinates":[-80.127966,26.655722]}},{"properties":{"zip":33702.0,"latitude":27.842712,"longitude":-82.644795,"id":"a674wjxy189s","soph":1.0},"type":"Feature","geometry":{"type":"Point","coordinates":[-82.644795,27.842712]}},{"properties":{"zip":34209.0,"latitude":27.487909,"longitude":-82.627631,"id":"a674wjtl194n","soph":1.0},"type":"Feature","geometry":{"type":"Point","coordinates":[-82.627631,27.487909]}},{"properties":{"zip":37027.0,"latitude":36.006272,"longitude":-86.790947,"id":"a674wk85o6ix","soph":2.0},"type":"Feature","geometry":{"type":"Point","coordinates":[-86.790947,36.006272]}},{"properties":{"zip":37069.0,"latitude":35.979181,"longitude":-86.896199,"id":"a674wk3r10p4","soph":1.0},"type":"Feature","geometry":{"type":"Point","coordinates":[-86.896199,35.979181]}},{"properties":{"zip":37129.0,"latitude":35.871019,"longitude":-86.41809,"id":"a674wjwvyd8a","soph":1.0},"type":"Feature","geometry":{"type":"Point","coordinates":[-86.41809,35.871019]}},{"properties":{"zip":37206.0,"latitude":36.179813,"longitude":-86.741106,"id":"a674wk2ku5u8","soph":1.0},"type":"Feature","geometry":{"type":"Point","coordinates":[-86.741106,36.179813]}},{"properties":{"zip":37221.0,"latitude":36.071512,"longitude":-86.943674,"id":"a674wjxygeu4","soph":1.0},"type":"Feature","geometry":{"type":"Point","coordinates":[-86.943674,36.071512]}},{"properties":{"zip":38125.0,"latitude":35.031249,"longitude":-89.812357,"id":"a674wk88mide","soph":1.0},"type":"Feature","geometry":{"type":"Point","coordinates":[-89.812357,35.031249]}},{"properties":{"zip":40059.0,"latitude":38.355987,"longitude":-85.608287,"id":"a674wjvf41c1","soph":3.0},"type":"Feature","geometry":{"type":"Point","coordinates":[-85.608287,38.355987]}},{"properties":{"zip":40207.0,"latitude":38.257908,"longitude":-85.649689,"id":"a674wjvrminn","soph":1.0},"type":"Feature","geometry":{"type":"Point","coordinates":[-85.649689,38.257908]}},{"properties":{"zip":40208.0,"latitude":38.219988,"longitude":-85.764823,"id":"a674wjwimepz","soph":1.0},"type":"Feature","geometry":{"type":"Point","coordinates":[-85.764823,38.219988]}},{"properties":{"zip":40211.0,"latitude":38.241958,"longitude":-85.81265,"id":"a674wk8oydem","soph":1.0},"type":"Feature","geometry":{"type":"Point","coordinates":[-85.81265,38.241958]}},{"properties":{"zip":40241.0,"latitude":38.301509,"longitude":-85.582421,"id":"a674wk902hii","soph":1.0},"type":"Feature","geometry":{"type":"Point","coordinates":[-85.582421,38.301509]}},{"properties":{"zip":40383.0,"latitude":38.041301,"longitude":-84.728683,"id":"a674wju6u6l5","soph":1.0},"type":"Feature","geometry":{"type":"Point","coordinates":[-84.728683,38.041301]}},{"properties":{"zip":40515.0,"latitude":37.965102,"longitude":-84.470751,"id":"a674wjx2r89t","soph":1.0},"type":"Feature","geometry":{"type":"Point","coordinates":[-84.470751,37.965102]}},{"properties":{"zip":41048.0,"latitude":39.07553,"longitude":-84.700745,"id":"a674wjy3iyew","soph":1.0},"type":"Feature","geometry":{"type":"Point","coordinates":[-84.700745,39.07553]}},{"properties":{"zip":41075.0,"latitude":39.078634,"longitude":-84.45234,"id":"a674wk2glwh3","soph":1.0},"type":"Feature","geometry":{"type":"Point","coordinates":[-84.45234,39.078634]}},{"properties":{"zip":42122.0,"latitude":36.86296,"longitude":-86.363213,"id":"a674wk7tlc5w","soph":1.0},"type":"Feature","geometry":{"type":"Point","coordinates":[-86.363213,36.86296]}},{"properties":{"zip":43016.0,"latitude":40.09368,"longitude":-83.141452,"id":"a674wjxbx2f3","soph":3.0},"type":"Feature","geometry":{"type":"Point","coordinates":[-83.141452,40.09368]}},{"properties":{"zip":43017.0,"latitude":40.109297,"longitude":-83.114633,"id":"a674wjuc6clc","soph":5.0},"type":"Feature","geometry":{"type":"Point","coordinates":[-83.114633,40.109297]}},{"properties":{"zip":43040.0,"latitude":40.247723,"longitude":-83.362213,"id":"a674wjyowfvo","soph":1.0},"type":"Feature","geometry":{"type":"Point","coordinates":[-83.362213,40.247723]}},{"properties":{"zip":43050.0,"latitude":40.384937,"longitude":-82.487286,"id":"a674wk73f3ld","soph":2.0},"type":"Feature","geometry":{"type":"Point","coordinates":[-82.487286,40.384937]}},{"properties":{"zip":43055.0,"latitude":40.072429,"longitude":-82.404565,"id":"a674wk71lyw8","soph":1.0},"type":"Feature","geometry":{"type":"Point","coordinates":[-82.404565,40.072429]}},{"properties":{"zip":43065.0,"latitude":40.152652,"longitude":-83.074921,"id":"a674wju1umwe","soph":1.0},"type":"Feature","geometry":{"type":"Point","coordinates":[-83.074921,40.152652]}},{"properties":{"zip":43081.0,"latitude":40.114569,"longitude":-82.910504,"id":"a674wjyfji7a","soph":3.0},"type":"Feature","geometry":{"type":"Point","coordinates":[-82.910504,40.114569]}},{"properties":{"zip":43082.0,"latitude":40.154803,"longitude":-82.912782,"id":"a674wk42bvde","soph":3.0},"type":"Feature","geometry":{"type":"Point","coordinates":[-82.912782,40.154803]}},{"properties":{"zip":43085.0,"latitude":40.105155,"longitude":-83.010069,"id":"a674wjvk08q4","soph":1.0},"type":"Feature","geometry":{"type":"Point","coordinates":[-83.010069,40.105155]}},{"properties":{"zip":43112.0,"latitude":39.795743,"longitude":-82.708358,"id":"a674wk8q030o","soph":1.0},"type":"Feature","geometry":{"type":"Point","coordinates":[-82.708358,39.795743]}},{"properties":{"zip":43119.0,"latitude":39.936604,"longitude":-83.183848,"id":"a674wk01fvwq","soph":1.0},"type":"Feature","geometry":{"type":"Point","coordinates":[-83.183848,39.936604]}},{"properties":{"zip":43130.0,"latitude":39.718697,"longitude":-82.603074,"id":"a674wk6qkwcb","soph":3.0},"type":"Feature","geometry":{"type":"Point","coordinates":[-82.603074,39.718697]}},{"properties":{"zip":43140.0,"latitude":39.900074,"longitude":-83.443899,"id":"a674wk7aejhh","soph":1.0},"type":"Feature","geometry":{"type":"Point","coordinates":[-83.443899,39.900074]}},{"properties":{"zip":43147.0,"latitude":39.906062,"longitude":-82.756267,"id":"a674wju8qul8","soph":1.0},"type":"Feature","geometry":{"type":"Point","coordinates":[-82.756267,39.906062]}},{"properties":{"zip":43204.0,"latitude":39.952333,"longitude":-83.077999,"id":"a674wk8ezkiu","soph":1.0},"type":"Feature","geometry":{"type":"Point","coordinates":[-83.077999,39.952333]}},{"properties":{"zip":43205.0,"latitude":39.956905,"longitude":-82.964352,"id":"a674wjysjizu","soph":1.0},"type":"Feature","geometry":{"type":"Point","coordinates":[-82.964352,39.956905]}},{"properties":{"zip":43209.0,"latitude":39.958999,"longitude":-82.926595,"id":"a674wk7ul4yn","soph":3.0},"type":"Feature","geometry":{"type":"Point","coordinates":[-82.926595,39.958999]}},{"properties":{"zip":43213.0,"latitude":39.967146,"longitude":-82.878275,"id":"a674wjybe7kg","soph":2.0},"type":"Feature","geometry":{"type":"Point","coordinates":[-82.878275,39.967146]}},{"properties":{"zip":43216.0,"latitude":39.962051,"longitude":-83.003021,"id":"a674wjz1ktxv","soph":1.0},"type":"Feature","geometry":{"type":"Point","coordinates":[-83.003021,39.962051]}},{"properties":{"zip":43220.0,"latitude":40.049484,"longitude":-83.066911,"id":"a674wk59ejh3","soph":1.0},"type":"Feature","geometry":{"type":"Point","coordinates":[-83.066911,40.049484]}},{"properties":{"zip":43221.0,"latitude":40.015431,"longitude":-83.064592,"id":"a674wk1sqqmi","soph":2.0},"type":"Feature","geometry":{"type":"Point","coordinates":[-83.064592,40.015431]}},{"properties":{"zip":43230.0,"latitude":40.038458,"longitude":-82.882429,"id":"a674wk3n2mjv","soph":2.0},"type":"Feature","geometry":{"type":"Point","coordinates":[-82.882429,40.038458]}},{"properties":{"zip":43235.0,"latitude":40.101271,"longitude":-83.059287,"id":"a674wk2ytw4c","soph":6.0},"type":"Feature","geometry":{"type":"Point","coordinates":[-83.059287,40.101271]}},{"properties":{"zip":43240.0,"latitude":40.14505,"longitude":-82.983709,"id":"a674wk7cw4xo","soph":1.0},"type":"Feature","geometry":{"type":"Point","coordinates":[-82.983709,40.14505]}},{"properties":{"zip":43302.0,"latitude":40.587648,"longitude":-83.127056,"id":"a674wk75djh2","soph":1.0},"type":"Feature","geometry":{"type":"Point","coordinates":[-83.127056,40.587648]}},{"properties":{"zip":43311.0,"latitude":40.360472,"longitude":-83.757076,"id":"a674wk6bc8kp","soph":1.0},"type":"Feature","geometry":{"type":"Point","coordinates":[-83.757076,40.360472]}},{"properties":{"zip":43344.0,"latitude":40.43698,"longitude":-83.313639,"id":"a674wk5yju52","soph":1.0},"type":"Feature","geometry":{"type":"Point","coordinates":[-83.313639,40.43698]}},{"properties":{"zip":43357.0,"latitude":40.262541,"longitude":-83.752763,"id":"a674wjtyctnw","soph":1.0},"type":"Feature","geometry":{"type":"Point","coordinates":[-83.752763,40.262541]}},{"properties":{"zip":43358.0,"latitude":40.404284,"longitude":-83.524274,"id":"a674wk769ftr","soph":1.0},"type":"Feature","geometry":{"type":"Point","coordinates":[-83.524274,40.404284]}},{"properties":{"zip":43447.0,"latitude":41.56106,"longitude":-83.438083,"id":"a674wk0gtm3a","soph":1.0},"type":"Feature","geometry":{"type":"Point","coordinates":[-83.438083,41.56106]}},{"properties":{"zip":43551.0,"latitude":41.542926,"longitude":-83.592727,"id":"a674wjtqlzxg","soph":1.0},"type":"Feature","geometry":{"type":"Point","coordinates":[-83.592727,41.542926]}},{"properties":{"zip":43558.0,"latitude":41.594497,"longitude":-83.871821,"id":"a674wka14saq","soph":2.0},"type":"Feature","geometry":{"type":"Point","coordinates":[-83.871821,41.594497]}},{"properties":{"zip":43560.0,"latitude":41.707985,"longitude":-83.706825,"id":"a674wjuyxrrw","soph":1.0},"type":"Feature","geometry":{"type":"Point","coordinates":[-83.706825,41.707985]}},{"properties":{"zip":43567.0,"latitude":41.566796,"longitude":-84.153745,"id":"a674wk73kxlm","soph":1.0},"type":"Feature","geometry":{"type":"Point","coordinates":[-84.153745,41.566796]}},{"properties":{"zip":43608.0,"latitude":41.677908,"longitude":-83.534359,"id":"a674wk7z3pc6","soph":1.0},"type":"Feature","geometry":{"type":"Point","coordinates":[-83.534359,41.677908]}},{"properties":{"zip":43609.0,"latitude":41.629761,"longitude":-83.577282,"id":"a674wk4tt6jg","soph":1.0},"type":"Feature","geometry":{"type":"Point","coordinates":[-83.577282,41.629761]}},{"properties":{"zip":43614.0,"latitude":41.60279,"longitude":-83.62917,"id":"a674wk51106z","soph":1.0},"type":"Feature","geometry":{"type":"Point","coordinates":[-83.62917,41.60279]}},{"properties":{"zip":43615.0,"latitude":41.649197,"longitude":-83.670583,"id":"a674wjuznar3","soph":2.0},"type":"Feature","geometry":{"type":"Point","coordinates":[-83.670583,41.649197]}},{"properties":{"zip":43701.0,"latitude":39.944265,"longitude":-82.008898,"id":"a674wk2nph96","soph":1.0},"type":"Feature","geometry":{"type":"Point","coordinates":[-82.008898,39.944265]}},{"properties":{"zip":43725.0,"latitude":40.030501,"longitude":-81.591277,"id":"a674wk3p9i29","soph":1.0},"type":"Feature","geometry":{"type":"Point","coordinates":[-81.591277,40.030501]}},{"properties":{"zip":43812.0,"latitude":40.275412,"longitude":-81.866033,"id":"a674wk2dszb5","soph":1.0},"type":"Feature","geometry":{"type":"Point","coordinates":[-81.866033,40.275412]}},{"properties":{"zip":43832.0,"latitude":40.273895,"longitude":-81.593969,"id":"a674wjy8elh6","soph":1.0},"type":"Feature","geometry":{"type":"Point","coordinates":[-81.593969,40.273895]}},{"properties":{"zip":43907.0,"latitude":40.264537,"longitude":-80.996244,"id":"a674wjv9fz6y","soph":1.0},"type":"Feature","geometry":{"type":"Point","coordinates":[-80.996244,40.264537]}},{"properties":{"zip":43910.0,"latitude":40.3742,"longitude":-80.807214,"id":"a674wk6u5awv","soph":1.0},"type":"Feature","geometry":{"type":"Point","coordinates":[-80.807214,40.3742]}},{"properties":{"zip":43920.0,"latitude":40.645918,"longitude":-80.578669,"id":"a674wk07cs1s","soph":1.0},"type":"Feature","geometry":{"type":"Point","coordinates":[-80.578669,40.645918]}},{"properties":{"zip":43947.0,"latitude":39.967497,"longitude":-80.764309,"id":"a674wk0kk62q","soph":1.0},"type":"Feature","geometry":{"type":"Point","coordinates":[-80.764309,39.967497]}},{"properties":{"zip":43950.0,"latitude":40.083439,"longitude":-80.902285,"id":"a674wjwhtap5","soph":1.0},"type":"Feature","geometry":{"type":"Point","coordinates":[-80.902285,40.083439]}},{"properties":{"zip":43952.0,"latitude":40.370638,"longitude":-80.66115,"id":"a674wjud87bv","soph":2.0},"type":"Feature","geometry":{"type":"Point","coordinates":[-80.66115,40.370638]}},{"properties":{"zip":44001.0,"latitude":41.390506,"longitude":-82.228165,"id":"a674wk9zfs48","soph":5.0},"type":"Feature","geometry":{"type":"Point","coordinates":[-82.228165,41.390506]}},{"properties":{"zip":44004.0,"latitude":41.867877,"longitude":-80.794681,"id":"a674wk8l3i3k","soph":3.0},"type":"Feature","geometry":{"type":"Point","coordinates":[-80.794681,41.867877]}},{"properties":{"zip":44012.0,"latitude":41.501904,"longitude":-82.011094,"id":"a674wjvvvem9","soph":7.0},"type":"Feature","geometry":{"type":"Point","coordinates":[-82.011094,41.501904]}},{"properties":{"zip":44017.0,"latitude":41.367557,"longitude":-81.861756,"id":"a674wjukvx7r","soph":3.0},"type":"Feature","geometry":{"type":"Point","coordinates":[-81.861756,41.367557]}},{"properties":{"zip":44021.0,"latitude":41.452702,"longitude":-81.15262,"id":"a674wk7wu8pf","soph":1.0},"type":"Feature","geometry":{"type":"Point","coordinates":[-81.15262,41.452702]}},{"properties":{"zip":44022.0,"latitude":41.418577,"longitude":-81.361437,"id":"a674wk3w03k8","soph":7.0},"type":"Feature","geometry":{"type":"Point","coordinates":[-81.361437,41.418577]}},{"properties":{"zip":44023.0,"latitude":41.391439,"longitude":-81.317789,"id":"a674wk6bhsy6","soph":1.0},"type":"Feature","geometry":{"type":"Point","coordinates":[-81.317789,41.391439]}},{"properties":{"zip":44024.0,"latitude":41.571862,"longitude":-81.205629,"id":"a674wjzvmf7f","soph":5.0},"type":"Feature","geometry":{"type":"Point","coordinates":[-81.205629,41.571862]}},{"properties":{"zip":44026.0,"latitude":41.534378,"longitude":-81.342102,"id":"a674wk7hj80h","soph":2.0},"type":"Feature","geometry":{"type":"Point","coordinates":[-81.342102,41.534378]}},{"properties":{"zip":44030.0,"latitude":41.934479,"longitude":-80.580257,"id":"a674wk6kx9ny","soph":1.0},"type":"Feature","geometry":{"type":"Point","coordinates":[-80.580257,41.934479]}},{"properties":{"zip":44035.0,"latitude":41.372353,"longitude":-82.105088,"id":"a674wjwsx4mf","soph":2.0},"type":"Feature","geometry":{"type":"Point","coordinates":[-82.105088,41.372353]}},{"properties":{"zip":44039.0,"latitude":41.396432,"longitude":-82.003323,"id":"a674wjvpxbop","soph":2.0},"type":"Feature","geometry":{"type":"Point","coordinates":[-82.003323,41.396432]}},{"properties":{"zip":44040.0,"latitude":41.532368,"longitude":-81.415021,"id":"a674wjz2ytnb","soph":1.0},"type":"Feature","geometry":{"type":"Point","coordinates":[-81.415021,41.532368]}},{"properties":{"zip":44050.0,"latitude":41.242278,"longitude":-82.127918,"id":"a674wk0ndke5","soph":1.0},"type":"Feature","geometry":{"type":"Point","coordinates":[-82.127918,41.242278]}},{"properties":{"zip":44052.0,"latitude":41.457796,"longitude":-82.171039,"id":"a674wk936ubs","soph":3.0},"type":"Feature","geometry":{"type":"Point","coordinates":[-82.171039,41.457796]}},{"properties":{"zip":44055.0,"latitude":41.436131,"longitude":-82.134992,"id":"a674wk6vda23","soph":2.0},"type":"Feature","geometry":{"type":"Point","coordinates":[-82.134992,41.436131]}},{"properties":{"zip":44057.0,"latitude":41.805367,"longitude":-81.058819,"id":"a674wk4d9877","soph":3.0},"type":"Feature","geometry":{"type":"Point","coordinates":[-81.058819,41.805367]}},{"properties":{"zip":44060.0,"latitude":41.689468,"longitude":-81.342133,"id":"a674wk7cwlvt","soph":11.0},"type":"Feature","geometry":{"type":"Point","coordinates":[-81.342133,41.689468]}},{"properties":{"zip":44062.0,"latitude":41.445547,"longitude":-81.037338,"id":"a674wjwhv6zg","soph":2.0},"type":"Feature","geometry":{"type":"Point","coordinates":[-81.037338,41.445547]}},{"properties":{"zip":44067.0,"latitude":41.320821,"longitude":-81.542943,"id":"a674wk9ykp2w","soph":5.0},"type":"Feature","geometry":{"type":"Point","coordinates":[-81.542943,41.320821]}},{"properties":{"zip":44070.0,"latitude":41.420129,"longitude":-81.913056,"id":"a674wjvai06a","soph":7.0},"type":"Feature","geometry":{"type":"Point","coordinates":[-81.913056,41.420129]}},{"properties":{"zip":44072.0,"latitude":41.476288,"longitude":-81.334228,"id":"a674wjvex06j","soph":2.0},"type":"Feature","geometry":{"type":"Point","coordinates":[-81.334228,41.476288]}},{"properties":{"zip":44074.0,"latitude":41.28987,"longitude":-82.222863,"id":"a674wjz9trnf","soph":1.0},"type":"Feature","geometry":{"type":"Point","coordinates":[-82.222863,41.28987]}},{"properties":{"zip":44077.0,"latitude":41.714014,"longitude":-81.243665,"id":"a674wjtwnyzb","soph":2.0},"type":"Feature","geometry":{"type":"Point","coordinates":[-81.243665,41.714014]}},{"properties":{"zip":44081.0,"latitude":41.767916,"longitude":-81.143312,"id":"a674wk31edvc","soph":2.0},"type":"Feature","geometry":{"type":"Point","coordinates":[-81.143312,41.767916]}},{"properties":{"zip":44084.0,"latitude":41.6651,"longitude":-80.885134,"id":"a674wk7fz8wy","soph":1.0},"type":"Feature","geometry":{"type":"Point","coordinates":[-80.885134,41.6651]}},{"properties":{"zip":44087.0,"latitude":41.328851,"longitude":-81.455912,"id":"a674wjzlgr6r","soph":7.0},"type":"Feature","geometry":{"type":"Point","coordinates":[-81.455912,41.328851]}},{"properties":{"zip":44092.0,"latitude":41.604565,"longitude":-81.469175,"id":"a674wjwxgiud","soph":2.0},"type":"Feature","geometry":{"type":"Point","coordinates":[-81.469175,41.604565]}},{"properties":{"zip":44094.0,"latitude":41.630229,"longitude":-81.407619,"id":"a674wk1kvlw9","soph":6.0},"type":"Feature","geometry":{"type":"Point","coordinates":[-81.407619,41.630229]}},{"properties":{"zip":44095.0,"latitude":41.649822,"longitude":-81.447887,"id":"a674wk3eo3j2","soph":6.0},"type":"Feature","geometry":{"type":"Point","coordinates":[-81.447887,41.649822]}},{"properties":{"zip":44102.0,"latitude":41.473508,"longitude":-81.739791,"id":"a674wk37h70m","soph":3.0},"type":"Feature","geometry":{"type":"Point","coordinates":[-81.739791,41.473508]}},{"properties":{"zip":44103.0,"latitude":41.515726,"longitude":-81.640475,"id":"a674wka1p74n","soph":3.0},"type":"Feature","geometry":{"type":"Point","coordinates":[-81.640475,41.515726]}},{"properties":{"zip":44104.0,"latitude":41.480924,"longitude":-81.624502,"id":"a674wjz1dlj2","soph":3.0},"type":"Feature","geometry":{"type":"Point","coordinates":[-81.624502,41.480924]}},{"properties":{"zip":44105.0,"latitude":41.450912,"longitude":-81.619002,"id":"a674wk4edgwv","soph":3.0},"type":"Feature","geometry":{"type":"Point","coordinates":[-81.619002,41.450912]}},{"properties":{"zip":44106.0,"latitude":41.508359,"longitude":-81.60757,"id":"a674wk31e7u4","soph":13.0},"type":"Feature","geometry":{"type":"Point","coordinates":[-81.60757,41.508359]}},{"properties":{"zip":44107.0,"latitude":41.482654,"longitude":-81.797143,"id":"a674wk4b78wv","soph":11.0},"type":"Feature","geometry":{"type":"Point","coordinates":[-81.797143,41.482654]}},{"properties":{"zip":44108.0,"latitude":41.53492,"longitude":-81.608974,"id":"a674wk1zork2","soph":4.0},"type":"Feature","geometry":{"type":"Point","coordinates":[-81.608974,41.53492]}},{"properties":{"zip":44109.0,"latitude":41.445768,"longitude":-81.703315,"id":"a674wk4t0z2h","soph":1.0},"type":"Feature","geometry":{"type":"Point","coordinates":[-81.703315,41.445768]}},{"properties":{"zip":44111.0,"latitude":41.457066,"longitude":-81.78435,"id":"a674wk5dpim7","soph":5.0},"type":"Feature","geometry":{"type":"Point","coordinates":[-81.78435,41.457066]}},{"properties":{"zip":44112.0,"latitude":41.535517,"longitude":-81.576262,"id":"a674wk0s2cg3","soph":5.0},"type":"Feature","geometry":{"type":"Point","coordinates":[-81.576262,41.535517]}},{"properties":{"zip":44113.0,"latitude":41.481648,"longitude":-81.701848,"id":"a674wk0puc6d","soph":2.0},"type":"Feature","geometry":{"type":"Point","coordinates":[-81.701848,41.481648]}},{"properties":{"zip":44114.0,"latitude":41.506351,"longitude":-81.67425,"id":"a674wjw1j8xx","soph":1.0},"type":"Feature","geometry":{"type":"Point","coordinates":[-81.67425,41.506351]}},{"properties":{"zip":44116.0,"latitude":41.469401,"longitude":-81.851246,"id":"a674wk21xyze","soph":5.0},"type":"Feature","geometry":{"type":"Point","coordinates":[-81.851246,41.469401]}},{"properties":{"zip":44117.0,"latitude":41.569615,"longitude":-81.525686,"id":"a674wk90a444","soph":2.0},"type":"Feature","geometry":{"type":"Point","coordinates":[-81.525686,41.569615]}},{"properties":{"zip":44118.0,"latitude":41.501213,"longitude":-81.553945,"id":"a674wk8h9r8m","soph":14.0},"type":"Feature","geometry":{"type":"Point","coordinates":[-81.553945,41.501213]}},{"properties":{"zip":44120.0,"latitude":41.471433,"longitude":-81.583911,"id":"a674wk3dg4g5","soph":8.0},"type":"Feature","geometry":{"type":"Point","coordinates":[-81.583911,41.471433]}},{"properties":{"zip":44121.0,"latitude":41.526019,"longitude":-81.533758,"id":"a674wjz7b8fv","soph":13.0},"type":"Feature","geometry":{"type":"Point","coordinates":[-81.533758,41.526019]}},{"properties":{"zip":44122.0,"latitude":41.470109,"longitude":-81.523172,"id":"a674wk6khi40","soph":11.0},"type":"Feature","geometry":{"type":"Point","coordinates":[-81.523172,41.470109]}},{"properties":{"zip":44123.0,"latitude":41.604416,"longitude":-81.524325,"id":"a674wk7qcqn2","soph":2.0},"type":"Feature","geometry":{"type":"Point","coordinates":[-81.524325,41.604416]}},{"properties":{"zip":44124.0,"latitude":41.514349,"longitude":-81.46801,"id":"a674wk92jh9g","soph":15.0},"type":"Feature","geometry":{"type":"Point","coordinates":[-81.46801,41.514349]}},{"properties":{"zip":44125.0,"latitude":41.415792,"longitude":-81.605385,"id":"a674wk8uj9oz","soph":3.0},"type":"Feature","geometry":{"type":"Point","coordinates":[-81.605385,41.415792]}},{"properties":{"zip":44126.0,"latitude":41.4433,"longitude":-81.856381,"id":"a674wjyjnoaa","soph":4.0},"type":"Feature","geometry":{"type":"Point","coordinates":[-81.856381,41.4433]}},{"properties":{"zip":44128.0,"latitude":41.441565,"longitude":-81.548574,"id":"a674wjzybuyp","soph":1.0},"type":"Feature","geometry":{"type":"Point","coordinates":[-81.548574,41.441565]}},{"properties":{"zip":44129.0,"latitude":41.396474,"longitude":-81.734604,"id":"a674wka1elys","soph":4.0},"type":"Feature","geometry":{"type":"Point","coordinates":[-81.734604,41.396474]}},{"properties":{"zip":44130.0,"latitude":41.377178,"longitude":-81.774858,"id":"a674wjtxd29p","soph":4.0},"type":"Feature","geometry":{"type":"Point","coordinates":[-81.774858,41.377178]}},{"properties":{"zip":44131.0,"latitude":41.380905,"longitude":-81.66421,"id":"a674wk60p1sc","soph":3.0},"type":"Feature","geometry":{"type":"Point","coordinates":[-81.66421,41.380905]}},{"properties":{"zip":44132.0,"latitude":41.608516,"longitude":-81.499056,"id":"a674wk9bxvgr","soph":1.0},"type":"Feature","geometry":{"type":"Point","coordinates":[-81.499056,41.608516]}},{"properties":{"zip":44133.0,"latitude":41.323164,"longitude":-81.745657,"id":"a674wk5yu4k1","soph":3.0},"type":"Feature","geometry":{"type":"Point","coordinates":[-81.745657,41.323164]}},{"properties":{"zip":44134.0,"latitude":41.390764,"longitude":-81.705726,"id":"a674wk1zlu4e","soph":5.0},"type":"Feature","geometry":{"type":"Point","coordinates":[-81.705726,41.390764]}},{"properties":{"zip":44135.0,"latitude":41.434177,"longitude":-81.804433,"id":"a674wjvnttpz","soph":1.0},"type":"Feature","geometry":{"type":"Point","coordinates":[-81.804433,41.434177]}},{"properties":{"zip":44136.0,"latitude":41.313218,"longitude":-81.828457,"id":"a674wjwk4qvz","soph":7.0},"type":"Feature","geometry":{"type":"Point","coordinates":[-81.828457,41.313218]}},{"properties":{"zip":44137.0,"latitude":41.410513,"longitude":-81.560339,"id":"a674wk7izbs5","soph":3.0},"type":"Feature","geometry":{"type":"Point","coordinates":[-81.560339,41.410513]}},{"properties":{"zip":44139.0,"latitude":41.386597,"longitude":-81.442082,"id":"a674wk4emt4k","soph":4.0},"type":"Feature","geometry":{"type":"Point","coordinates":[-81.442082,41.386597]}},{"properties":{"zip":44140.0,"latitude":41.484137,"longitude":-81.928868,"id":"a674wk1kwop0","soph":3.0},"type":"Feature","geometry":{"type":"Point","coordinates":[-81.928868,41.484137]}},{"properties":{"zip":44141.0,"latitude":41.316554,"longitude":-81.626083,"id":"a674wk2xxz5g","soph":3.0},"type":"Feature","geometry":{"type":"Point","coordinates":[-81.626083,41.316554]}},{"properties":{"zip":44142.0,"latitude":41.397944,"longitude":-81.811811,"id":"a674wjzg4f05","soph":3.0},"type":"Feature","geometry":{"type":"Point","coordinates":[-81.811811,41.397944]}},{"properties":{"zip":44143.0,"latitude":41.552195,"longitude":-81.484715,"id":"a674wk11fs5m","soph":6.0},"type":"Feature","geometry":{"type":"Point","coordinates":[-81.484715,41.552195]}},{"properties":{"zip":44144.0,"latitude":41.434419,"longitude":-81.735222,"id":"a674wjtx4swk","soph":2.0},"type":"Feature","geometry":{"type":"Point","coordinates":[-81.735222,41.434419]}},{"properties":{"zip":44145.0,"latitude":41.453459,"longitude":-81.921771,"id":"a674wk6u1um1","soph":8.0},"type":"Feature","geometry":{"type":"Point","coordinates":[-81.921771,41.453459]}},{"properties":{"zip":44146.0,"latitude":41.392067,"longitude":-81.52315,"id":"a674wk9an0nt","soph":3.0},"type":"Feature","geometry":{"type":"Point","coordinates":[-81.52315,41.392067]}},{"properties":{"zip":44147.0,"latitude":41.32907,"longitude":-81.680879,"id":"a674wjvv526r","soph":5.0},"type":"Feature","geometry":{"type":"Point","coordinates":[-81.680879,41.32907]}},{"properties":{"zip":44149.0,"latitude":41.31657,"longitude":-81.854344,"id":"a674wjwe82jq","soph":3.0},"type":"Feature","geometry":{"type":"Point","coordinates":[-81.854344,41.31657]}},{"properties":{"zip":44202.0,"latitude":41.320935,"longitude":-81.360424,"id":"a674wk4f7phx","soph":1.0},"type":"Feature","geometry":{"type":"Point","coordinates":[-81.360424,41.320935]}},{"properties":{"zip":44212.0,"latitude":41.247053,"longitude":-81.827968,"id":"a674wk0osour","soph":10.0},"type":"Feature","geometry":{"type":"Point","coordinates":[-81.827968,41.247053]}},{"properties":{"zip":44216.0,"latitude":40.939062,"longitude":-81.587079,"id":"a674wk7d1pjk","soph":1.0},"type":"Feature","geometry":{"type":"Point","coordinates":[-81.587079,40.939062]}},{"properties":{"zip":44223.0,"latitude":41.146448,"longitude":-81.510719,"id":"a674wjxhpr1g","soph":2.0},"type":"Feature","geometry":{"type":"Point","coordinates":[-81.510719,41.146448]}},{"properties":{"zip":44224.0,"latitude":41.174808,"longitude":-81.438017,"id":"a674wk227ppe","soph":5.0},"type":"Feature","geometry":{"type":"Point","coordinates":[-81.438017,41.174808]}},{"properties":{"zip":44230.0,"latitude":40.965042,"longitude":-81.684845,"id":"a674wk3bfco4","soph":2.0},"type":"Feature","geometry":{"type":"Point","coordinates":[-81.684845,40.965042]}},{"properties":{"zip":44231.0,"latitude":41.298803,"longitude":-81.070365,"id":"a674wk3qvfnk","soph":1.0},"type":"Feature","geometry":{"type":"Point","coordinates":[-81.070365,41.298803]}},{"properties":{"zip":44233.0,"latitude":41.241872,"longitude":-81.74527,"id":"a674wk109af3","soph":1.0},"type":"Feature","geometry":{"type":"Point","coordinates":[-81.74527,41.241872]}},{"properties":{"zip":44236.0,"latitude":41.245836,"longitude":-81.436659,"id":"a674wk9eezi8","soph":11.0},"type":"Feature","geometry":{"type":"Point","coordinates":[-81.436659,41.245836]}},{"properties":{"zip":44240.0,"latitude":41.14492,"longitude":-81.34976,"id":"a674wjzh3ky6","soph":3.0},"type":"Feature","geometry":{"type":"Point","coordinates":[-81.34976,41.14492]}},{"properties":{"zip":44251.0,"latitude":41.031072,"longitude":-81.930659,"id":"a674wjwz0vxc","soph":2.0},"type":"Feature","geometry":{"type":"Point","coordinates":[-81.930659,41.031072]}},{"properties":{"zip":44256.0,"latitude":41.140415,"longitude":-81.858351,"id":"a674wjx170fz","soph":7.0},"type":"Feature","geometry":{"type":"Point","coordinates":[-81.858351,41.140415]}},{"properties":{"zip":44260.0,"latitude":41.038196,"longitude":-81.358963,"id":"a674wk6jcjuj","soph":2.0},"type":"Feature","geometry":{"type":"Point","coordinates":[-81.358963,41.038196]}},{"properties":{"zip":44266.0,"latitude":41.164886,"longitude":-81.233656,"id":"a674wk6e95f9","soph":2.0},"type":"Feature","geometry":{"type":"Point","coordinates":[-81.233656,41.164886]}},{"properties":{"zip":44273.0,"latitude":41.022731,"longitude":-81.856199,"id":"a674wk34xlap","soph":1.0},"type":"Feature","geometry":{"type":"Point","coordinates":[-81.856199,41.022731]}},{"properties":{"zip":44278.0,"latitude":41.097492,"longitude":-81.425966,"id":"a674wk717pc6","soph":1.0},"type":"Feature","geometry":{"type":"Point","coordinates":[-81.425966,41.097492]}},{"properties":{"zip":44280.0,"latitude":41.236806,"longitude":-81.924467,"id":"a674wjzmr71h","soph":1.0},"type":"Feature","geometry":{"type":"Point","coordinates":[-81.924467,41.236806]}},{"properties":{"zip":44281.0,"latitude":41.038375,"longitude":-81.737373,"id":"a674wk2p4zfo","soph":6.0},"type":"Feature","geometry":{"type":"Point","coordinates":[-81.737373,41.038375]}},{"properties":{"zip":44286.0,"latitude":41.23712,"longitude":-81.646668,"id":"a674wk3dkp2b","soph":2.0},"type":"Feature","geometry":{"type":"Point","coordinates":[-81.646668,41.23712]}},{"properties":{"zip":44301.0,"latitude":41.044852,"longitude":-81.520048,"id":"a674wjv45uft","soph":1.0},"type":"Feature","geometry":{"type":"Point","coordinates":[-81.520048,41.044852]}},{"properties":{"zip":44302.0,"latitude":41.091988,"longitude":-81.542015,"id":"a674wjzk159y","soph":1.0},"type":"Feature","geometry":{"type":"Point","coordinates":[-81.542015,41.091988]}},{"properties":{"zip":44303.0,"latitude":41.102508,"longitude":-81.538609,"id":"a674wk0sex7j","soph":1.0},"type":"Feature","geometry":{"type":"Point","coordinates":[-81.538609,41.102508]}},{"properties":{"zip":44310.0,"latitude":41.107547,"longitude":-81.500586,"id":"a674wk0a0a6e","soph":2.0},"type":"Feature","geometry":{"type":"Point","coordinates":[-81.500586,41.107547]}},{"properties":{"zip":44313.0,"latitude":41.121995,"longitude":-81.568487,"id":"a674wk9seplk","soph":4.0},"type":"Feature","geometry":{"type":"Point","coordinates":[-81.568487,41.121995]}},{"properties":{"zip":44321.0,"latitude":41.103139,"longitude":-81.648045,"id":"a674wk4i42o3","soph":1.0},"type":"Feature","geometry":{"type":"Point","coordinates":[-81.648045,41.103139]}},{"properties":{"zip":44333.0,"latitude":41.146734,"longitude":-81.62385,"id":"a674wjy2c15k","soph":4.0},"type":"Feature","geometry":{"type":"Point","coordinates":[-81.62385,41.146734]}},{"properties":{"zip":44402.0,"latitude":41.379749,"longitude":-80.856839,"id":"a674wjxvk27r","soph":1.0},"type":"Feature","geometry":{"type":"Point","coordinates":[-80.856839,41.379749]}},{"properties":{"zip":44436.0,"latitude":41.050256,"longitude":-80.541551,"id":"a674wjy4vwhy","soph":2.0},"type":"Feature","geometry":{"type":"Point","coordinates":[-80.541551,41.050256]}},{"properties":{"zip":44446.0,"latitude":41.182414,"longitude":-80.755775,"id":"a674wjypzlbd","soph":1.0},"type":"Feature","geometry":{"type":"Point","coordinates":[-80.755775,41.182414]}},{"properties":{"zip":44449.0,"latitude":40.987579,"longitude":-81.016168,"id":"a674wk9ajbpk","soph":1.0},"type":"Feature","geometry":{"type":"Point","coordinates":[-81.016168,40.987579]}},{"properties":{"zip":44455.0,"latitude":40.778943,"longitude":-80.620237,"id":"a674wjyo0282","soph":1.0},"type":"Feature","geometry":{"type":"Point","coordinates":[-80.620237,40.778943]}},{"properties":{"zip":44460.0,"latitude":40.900024,"longitude":-80.861883,"id":"a674wjylmsls","soph":2.0},"type":"Feature","geometry":{"type":"Point","coordinates":[-80.861883,40.900024]}},{"properties":{"zip":44481.0,"latitude":41.172426,"longitude":-80.871806,"id":"a674wjwakzpu","soph":1.0},"type":"Feature","geometry":{"type":"Point","coordinates":[-80.871806,41.172426]}},{"properties":{"zip":44484.0,"latitude":41.231819,"longitude":-80.764243,"id":"a674wk3i828v","soph":2.0},"type":"Feature","geometry":{"type":"Point","coordinates":[-80.764243,41.231819]}},{"properties":{"zip":44485.0,"latitude":41.240511,"longitude":-80.844136,"id":"a674wk396v7j","soph":1.0},"type":"Feature","geometry":{"type":"Point","coordinates":[-80.844136,41.240511]}},{"properties":{"zip":44505.0,"latitude":41.125748,"longitude":-80.627748,"id":"a674wjwrslyj","soph":1.0},"type":"Feature","geometry":{"type":"Point","coordinates":[-80.627748,41.125748]}},{"properties":{"zip":44509.0,"latitude":41.10498,"longitude":-80.694463,"id":"a674wk3mu2pv","soph":1.0},"type":"Feature","geometry":{"type":"Point","coordinates":[-80.694463,41.10498]}},{"properties":{"zip":44511.0,"latitude":41.070402,"longitude":-80.693098,"id":"a674wjumxmkm","soph":1.0},"type":"Feature","geometry":{"type":"Point","coordinates":[-80.693098,41.070402]}},{"properties":{"zip":44512.0,"latitude":41.031985,"longitude":-80.666629,"id":"a674wjxmna6c","soph":3.0},"type":"Feature","geometry":{"type":"Point","coordinates":[-80.666629,41.031985]}},{"properties":{"zip":44514.0,"latitude":41.023258,"longitude":-80.610254,"id":"a674wjv6fr3j","soph":2.0},"type":"Feature","geometry":{"type":"Point","coordinates":[-80.610254,41.023258]}},{"properties":{"zip":44601.0,"latitude":40.915842,"longitude":-81.118193,"id":"a674wjwtufo7","soph":2.0},"type":"Feature","geometry":{"type":"Point","coordinates":[-81.118193,40.915842]}},{"properties":{"zip":44609.0,"latitude":40.895678,"longitude":-80.989669,"id":"a674wk507fu9","soph":1.0},"type":"Feature","geometry":{"type":"Point","coordinates":[-80.989669,40.895678]}},{"properties":{"zip":44614.0,"latitude":40.88871,"longitude":-81.577269,"id":"a674wk9gvdbq","soph":1.0},"type":"Feature","geometry":{"type":"Point","coordinates":[-81.577269,40.88871]}},{"properties":{"zip":44618.0,"latitude":40.779326,"longitude":-81.70078,"id":"a674wk7l1914","soph":1.0},"type":"Feature","geometry":{"type":"Point","coordinates":[-81.70078,40.779326]}},{"properties":{"zip":44622.0,"latitude":40.534338,"longitude":-81.476321,"id":"a674wk46sf6b","soph":4.0},"type":"Feature","geometry":{"type":"Point","coordinates":[-81.476321,40.534338]}},{"properties":{"zip":44627.0,"latitude":40.685953,"longitude":-81.851812,"id":"a674wk5gg6e0","soph":1.0},"type":"Feature","geometry":{"type":"Point","coordinates":[-81.851812,40.685953]}},{"properties":{"zip":44629.0,"latitude":40.372123,"longitude":-81.405858,"id":"a674wjxu7zui","soph":1.0},"type":"Feature","geometry":{"type":"Point","coordinates":[-81.405858,40.372123]}},{"properties":{"zip":44632.0,"latitude":40.961798,"longitude":-81.323873,"id":"a674wk5qzt4h","soph":1.0},"type":"Feature","geometry":{"type":"Point","coordinates":[-81.323873,40.961798]}},{"properties":{"zip":44634.0,"latitude":40.859192,"longitude":-81.065473,"id":"a674wk2k288l","soph":1.0},"type":"Feature","geometry":{"type":"Point","coordinates":[-81.065473,40.859192]}},{"properties":{"zip":44646.0,"latitude":40.811605,"longitude":-81.497263,"id":"a674wk9j3ags","soph":2.0},"type":"Feature","geometry":{"type":"Point","coordinates":[-81.497263,40.811605]}},{"properties":{"zip":44647.0,"latitude":40.795918,"longitude":-81.553252,"id":"a674wjvkybrh","soph":1.0},"type":"Feature","geometry":{"type":"Point","coordinates":[-81.553252,40.795918]}},{"properties":{"zip":44657.0,"latitude":40.742049,"longitude":-81.103076,"id":"a674wk8roy2b","soph":1.0},"type":"Feature","geometry":{"type":"Point","coordinates":[-81.103076,40.742049]}},{"properties":{"zip":44659.0,"latitude":40.694009,"longitude":-81.702127,"id":"a674wk4391wh","soph":1.0},"type":"Feature","geometry":{"type":"Point","coordinates":[-81.702127,40.694009]}},{"properties":{"zip":44662.0,"latitude":40.720405,"longitude":-81.533824,"id":"a674wk4xq3l1","soph":1.0},"type":"Feature","geometry":{"type":"Point","coordinates":[-81.533824,40.720405]}},{"properties":{"zip":44663.0,"latitude":40.484539,"longitude":-81.435827,"id":"a674wjzy1fcb","soph":1.0},"type":"Feature","geometry":{"type":"Point","coordinates":[-81.435827,40.484539]}},{"properties":{"zip":44685.0,"latitude":40.963694,"longitude":-81.421108,"id":"a674wka2ntxi","soph":2.0},"type":"Feature","geometry":{"type":"Point","coordinates":[-81.421108,40.963694]}},{"properties":{"zip":44691.0,"latitude":40.809354,"longitude":-81.948272,"id":"a674wk4cf99u","soph":3.0},"type":"Feature","geometry":{"type":"Point","coordinates":[-81.948272,40.809354]}},{"properties":{"zip":44703.0,"latitude":40.809791,"longitude":-81.381439,"id":"a674wjvwkz2x","soph":1.0},"type":"Feature","geometry":{"type":"Point","coordinates":[-81.381439,40.809791]}},{"properties":{"zip":44706.0,"latitude":40.767959,"longitude":-81.411903,"id":"a674wk5h0kfu","soph":1.0},"type":"Feature","geometry":{"type":"Point","coordinates":[-81.411903,40.767959]}},{"properties":{"zip":44708.0,"latitude":40.81196,"longitude":-81.424116,"id":"a674wjv7x3es","soph":1.0},"type":"Feature","geometry":{"type":"Point","coordinates":[-81.424116,40.81196]}},{"properties":{"zip":44710.0,"latitude":40.791107,"longitude":-81.416946,"id":"a674wk4lgu55","soph":2.0},"type":"Feature","geometry":{"type":"Point","coordinates":[-81.416946,40.791107]}},{"properties":{"zip":44714.0,"latitude":40.827174,"longitude":-81.360963,"id":"a674wjvkhlq3","soph":1.0},"type":"Feature","geometry":{"type":"Point","coordinates":[-81.360963,40.827174]}},{"properties":{"zip":44718.0,"latitude":40.85479,"longitude":-81.448514,"id":"a674wjz3rgc0","soph":3.0},"type":"Feature","geometry":{"type":"Point","coordinates":[-81.448514,40.85479]}},{"properties":{"zip":44720.0,"latitude":40.889919,"longitude":-81.413464,"id":"a674wk1zshre","soph":6.0},"type":"Feature","geometry":{"type":"Point","coordinates":[-81.413464,40.889919]}},{"properties":{"zip":44721.0,"latitude":40.883446,"longitude":-81.33279,"id":"a674wjx3brru","soph":1.0},"type":"Feature","geometry":{"type":"Point","coordinates":[-81.33279,40.883446]}},{"properties":{"zip":44805.0,"latitude":40.855892,"longitude":-82.318931,"id":"a674wjvy8kih","soph":1.0},"type":"Feature","geometry":{"type":"Point","coordinates":[-82.318931,40.855892]}},{"properties":{"zip":44811.0,"latitude":41.268432,"longitude":-82.85765,"id":"a674wk495q3r","soph":1.0},"type":"Feature","geometry":{"type":"Point","coordinates":[-82.85765,41.268432]}},{"properties":{"zip":44820.0,"latitude":40.810306,"longitude":-82.969829,"id":"a674wjwj4n1a","soph":1.0},"type":"Feature","geometry":{"type":"Point","coordinates":[-82.969829,40.810306]}},{"properties":{"zip":44839.0,"latitude":41.390662,"longitude":-82.555491,"id":"a674wka3gmua","soph":1.0},"type":"Feature","geometry":{"type":"Point","coordinates":[-82.555491,41.390662]}},{"properties":{"zip":44846.0,"latitude":41.311065,"longitude":-82.612565,"id":"a674wk19fpjk","soph":1.0},"type":"Feature","geometry":{"type":"Point","coordinates":[-82.612565,41.311065]}},{"properties":{"zip":44857.0,"latitude":41.240314,"longitude":-82.60785,"id":"a674wk8aiw9w","soph":1.0},"type":"Feature","geometry":{"type":"Point","coordinates":[-82.60785,41.240314]}},{"properties":{"zip":44870.0,"latitude":41.434878,"longitude":-82.70633,"id":"a674wk63c0jw","soph":3.0},"type":"Feature","geometry":{"type":"Point","coordinates":[-82.70633,41.434878]}},{"properties":{"zip":44883.0,"latitude":41.123822,"longitude":-83.184356,"id":"a674wk1kww5y","soph":1.0},"type":"Feature","geometry":{"type":"Point","coordinates":[-83.184356,41.123822]}},{"properties":{"zip":44904.0,"latitude":40.682568,"longitude":-82.590605,"id":"a674wk7wx0a8","soph":5.0},"type":"Feature","geometry":{"type":"Point","coordinates":[-82.590605,40.682568]}},{"properties":{"zip":45013.0,"latitude":39.40619,"longitude":-84.606655,"id":"a674wk93p2ko","soph":1.0},"type":"Feature","geometry":{"type":"Point","coordinates":[-84.606655,39.40619]}},{"properties":{"zip":45014.0,"latitude":39.326602,"longitude":-84.547881,"id":"a674wk9iiune","soph":1.0},"type":"Feature","geometry":{"type":"Point","coordinates":[-84.547881,39.326602]}},{"properties":{"zip":45040.0,"latitude":39.335741,"longitude":-84.314935,"id":"a674wk9xftmq","soph":4.0},"type":"Feature","geometry":{"type":"Point","coordinates":[-84.314935,39.335741]}},{"properties":{"zip":45044.0,"latitude":39.485259,"longitude":-84.383461,"id":"a674wjw1v3in","soph":4.0},"type":"Feature","geometry":{"type":"Point","coordinates":[-84.383461,39.485259]}},{"properties":{"zip":45050.0,"latitude":39.441285,"longitude":-84.365196,"id":"a674wk0ym9k0","soph":1.0},"type":"Feature","geometry":{"type":"Point","coordinates":[-84.365196,39.441285]}},{"properties":{"zip":45056.0,"latitude":39.503838,"longitude":-84.738518,"id":"a674wk6cjoim","soph":1.0},"type":"Feature","geometry":{"type":"Point","coordinates":[-84.738518,39.503838]}},{"properties":{"zip":45069.0,"latitude":39.340243,"longitude":-84.399786,"id":"a674wk3mtarc","soph":6.0},"type":"Feature","geometry":{"type":"Point","coordinates":[-84.399786,39.340243]}},{"properties":{"zip":45103.0,"latitude":39.095661,"longitude":-84.145125,"id":"a674wk8unskv","soph":1.0},"type":"Feature","geometry":{"type":"Point","coordinates":[-84.145125,39.095661]}},{"properties":{"zip":45140.0,"latitude":39.244484,"longitude":-84.258802,"id":"a674wju8sm4i","soph":1.0},"type":"Feature","geometry":{"type":"Point","coordinates":[-84.258802,39.244484]}},{"properties":{"zip":45211.0,"latitude":39.152401,"longitude":-84.596714,"id":"a674wk86qbcw","soph":2.0},"type":"Feature","geometry":{"type":"Point","coordinates":[-84.596714,39.152401]}},{"properties":{"zip":45213.0,"latitude":39.182905,"longitude":-84.418701,"id":"a674wk7m36gw","soph":1.0},"type":"Feature","geometry":{"type":"Point","coordinates":[-84.418701,39.182905]}},{"properties":{"zip":45215.0,"latitude":39.230063,"longitude":-84.457168,"id":"a674wk1pztbo","soph":3.0},"type":"Feature","geometry":{"type":"Point","coordinates":[-84.457168,39.230063]}},{"properties":{"zip":45230.0,"latitude":39.080861,"longitude":-84.378727,"id":"a674wjukwpr2","soph":1.0},"type":"Feature","geometry":{"type":"Point","coordinates":[-84.378727,39.080861]}},{"properties":{"zip":45231.0,"latitude":39.241827,"longitude":-84.543702,"id":"a674wjzshpsf","soph":1.0},"type":"Feature","geometry":{"type":"Point","coordinates":[-84.543702,39.241827]}},{"properties":{"zip":45233.0,"latitude":39.11928,"longitude":-84.669411,"id":"a674wjtszdt4","soph":2.0},"type":"Feature","geometry":{"type":"Point","coordinates":[-84.669411,39.11928]}},{"properties":{"zip":45241.0,"latitude":39.276745,"longitude":-84.391161,"id":"a674wk6okba5","soph":1.0},"type":"Feature","geometry":{"type":"Point","coordinates":[-84.391161,39.276745]}},{"properties":{"zip":45242.0,"latitude":39.239881,"longitude":-84.359919,"id":"a674wk06tb92","soph":2.0},"type":"Feature","geometry":{"type":"Point","coordinates":[-84.359919,39.239881]}},{"properties":{"zip":45243.0,"latitude":39.187847,"longitude":-84.359349,"id":"a674wk36yo5n","soph":4.0},"type":"Feature","geometry":{"type":"Point","coordinates":[-84.359349,39.187847]}},{"properties":{"zip":45247.0,"latitude":39.207604,"longitude":-84.631608,"id":"a674wk2z9zd1","soph":1.0},"type":"Feature","geometry":{"type":"Point","coordinates":[-84.631608,39.207604]}},{"properties":{"zip":45249.0,"latitude":39.275946,"longitude":-84.326673,"id":"a674wk07fkvr","soph":2.0},"type":"Feature","geometry":{"type":"Point","coordinates":[-84.326673,39.275946]}},{"properties":{"zip":45255.0,"latitude":39.070642,"longitude":-84.330774,"id":"a674wk2yoipv","soph":3.0},"type":"Feature","geometry":{"type":"Point","coordinates":[-84.330774,39.070642]}},{"properties":{"zip":45305.0,"latitude":39.640187,"longitude":-84.08245,"id":"a674wjvzhfch","soph":1.0},"type":"Feature","geometry":{"type":"Point","coordinates":[-84.08245,39.640187]}},{"properties":{"zip":45324.0,"latitude":39.805311,"longitude":-84.019789,"id":"a674wjur77it","soph":1.0},"type":"Feature","geometry":{"type":"Point","coordinates":[-84.019789,39.805311]}},{"properties":{"zip":45331.0,"latitude":40.098726,"longitude":-84.634189,"id":"a674wk686yvj","soph":1.0},"type":"Feature","geometry":{"type":"Point","coordinates":[-84.634189,40.098726]}},{"properties":{"zip":45373.0,"latitude":40.037394,"longitude":-84.203151,"id":"a674wk2a4mc9","soph":2.0},"type":"Feature","geometry":{"type":"Point","coordinates":[-84.203151,40.037394]}},{"properties":{"zip":45380.0,"latitude":40.227284,"longitude":-84.495697,"id":"a674wjz1hria","soph":1.0},"type":"Feature","geometry":{"type":"Point","coordinates":[-84.495697,40.227284]}},{"properties":{"zip":45383.0,"latitude":39.953077,"longitude":-84.324237,"id":"a674wk8y6tfd","soph":1.0},"type":"Feature","geometry":{"type":"Point","coordinates":[-84.324237,39.953077]}},{"properties":{"zip":45385.0,"latitude":39.684204,"longitude":-83.936878,"id":"a674wk1r31u4","soph":2.0},"type":"Feature","geometry":{"type":"Point","coordinates":[-83.936878,39.684204]}},{"properties":{"zip":45387.0,"latitude":39.799569,"longitude":-83.889066,"id":"a674wka3shzs","soph":1.0},"type":"Feature","geometry":{"type":"Point","coordinates":[-83.889066,39.799569]}},{"properties":{"zip":45406.0,"latitude":39.782148,"longitude":-84.237297,"id":"a674wju363t2","soph":1.0},"type":"Feature","geometry":{"type":"Point","coordinates":[-84.237297,39.782148]}},{"properties":{"zip":45419.0,"latitude":39.715486,"longitude":-84.163656,"id":"a674wk0uaeqi","soph":2.0},"type":"Feature","geometry":{"type":"Point","coordinates":[-84.163656,39.715486]}},{"properties":{"zip":45424.0,"latitude":39.845339,"longitude":-84.123287,"id":"a674wk76uj6g","soph":2.0},"type":"Feature","geometry":{"type":"Point","coordinates":[-84.123287,39.845339]}},{"properties":{"zip":45429.0,"latitude":39.686392,"longitude":-84.156077,"id":"a674wjw2zw2h","soph":2.0},"type":"Feature","geometry":{"type":"Point","coordinates":[-84.156077,39.686392]}},{"properties":{"zip":45431.0,"latitude":39.765396,"longitude":-84.099802,"id":"a674wk8lmup9","soph":1.0},"type":"Feature","geometry":{"type":"Point","coordinates":[-84.099802,39.765396]}},{"properties":{"zip":45432.0,"latitude":39.740774,"longitude":-84.094157,"id":"a674wjyvrnm6","soph":1.0},"type":"Feature","geometry":{"type":"Point","coordinates":[-84.094157,39.740774]}},{"properties":{"zip":45458.0,"latitude":39.615755,"longitude":-84.162697,"id":"a674wk1frzdb","soph":4.0},"type":"Feature","geometry":{"type":"Point","coordinates":[-84.162697,39.615755]}},{"properties":{"zip":45459.0,"latitude":39.645957,"longitude":-84.166422,"id":"a674wjxyr24x","soph":1.0},"type":"Feature","geometry":{"type":"Point","coordinates":[-84.166422,39.645957]}},{"properties":{"zip":45503.0,"latitude":39.9528,"longitude":-83.78043,"id":"a674wk6qf9gp","soph":1.0},"type":"Feature","geometry":{"type":"Point","coordinates":[-83.78043,39.9528]}},{"properties":{"zip":45621.0,"latitude":39.11033,"longitude":-82.610639,"id":"a674wk7uhefd","soph":1.0},"type":"Feature","geometry":{"type":"Point","coordinates":[-82.610639,39.11033]}},{"properties":{"zip":45662.0,"latitude":38.757252,"longitude":-82.94864,"id":"a674wk4izm73","soph":1.0},"type":"Feature","geometry":{"type":"Point","coordinates":[-82.94864,38.757252]}},{"properties":{"zip":45690.0,"latitude":39.126445,"longitude":-83.004874,"id":"a674wjxihmcq","soph":1.0},"type":"Feature","geometry":{"type":"Point","coordinates":[-83.004874,39.126445]}},{"properties":{"zip":45701.0,"latitude":39.317824,"longitude":-82.102011,"id":"a674wk9m8003","soph":1.0},"type":"Feature","geometry":{"type":"Point","coordinates":[-82.102011,39.317824]}},{"properties":{"zip":45750.0,"latitude":39.428141,"longitude":-81.464438,"id":"a674wk0uco1f","soph":1.0},"type":"Feature","geometry":{"type":"Point","coordinates":[-81.464438,39.428141]}},{"properties":{"zip":45833.0,"latitude":40.833619,"longitude":-84.324678,"id":"a674wk6euqlk","soph":1.0},"type":"Feature","geometry":{"type":"Point","coordinates":[-84.324678,40.833619]}},{"properties":{"zip":45840.0,"latitude":41.044903,"longitude":-83.645656,"id":"a674wk2emsnd","soph":1.0},"type":"Feature","geometry":{"type":"Point","coordinates":[-83.645656,41.044903]}},{"properties":{"zip":45843.0,"latitude":40.79955,"longitude":-83.509771,"id":"a674wjwo3ysl","soph":1.0},"type":"Feature","geometry":{"type":"Point","coordinates":[-83.509771,40.79955]}},{"properties":{"zip":46033.0,"latitude":39.97692,"longitude":-86.088729,"id":"a674wk7wpec3","soph":1.0},"type":"Feature","geometry":{"type":"Point","coordinates":[-86.088729,39.97692]}},{"properties":{"zip":46038.0,"latitude":39.957486,"longitude":-86.023048,"id":"a674wjvvg5fr","soph":1.0},"type":"Feature","geometry":{"type":"Point","coordinates":[-86.023048,39.957486]}},{"properties":{"zip":46142.0,"latitude":39.622398,"longitude":-86.148993,"id":"a674wk7bckhe","soph":1.0},"type":"Feature","geometry":{"type":"Point","coordinates":[-86.148993,39.622398]}},{"properties":{"zip":46158.0,"latitude":39.591469,"longitude":-86.364173,"id":"a674wka1asm4","soph":1.0},"type":"Feature","geometry":{"type":"Point","coordinates":[-86.364173,39.591469]}},{"properties":{"zip":46250.0,"latitude":39.9069,"longitude":-86.069112,"id":"a674wk7apoei","soph":1.0},"type":"Feature","geometry":{"type":"Point","coordinates":[-86.069112,39.9069]}},{"properties":{"zip":46307.0,"latitude":41.423571,"longitude":-87.355586,"id":"a674wjtplmsr","soph":1.0},"type":"Feature","geometry":{"type":"Point","coordinates":[-87.355586,41.423571]}},{"properties":{"zip":46321.0,"latitude":41.554438,"longitude":-87.501101,"id":"a674wjzhp9bv","soph":1.0},"type":"Feature","geometry":{"type":"Point","coordinates":[-87.501101,41.554438]}},{"properties":{"zip":46637.0,"latitude":41.729936,"longitude":-86.240694,"id":"a674wk4fm60l","soph":1.0},"type":"Feature","geometry":{"type":"Point","coordinates":[-86.240694,41.729936]}},{"properties":{"zip":46970.0,"latitude":40.749203,"longitude":-86.068044,"id":"a674wju578oo","soph":1.0},"type":"Feature","geometry":{"type":"Point","coordinates":[-86.068044,40.749203]}},{"properties":{"zip":47906.0,"latitude":40.444025,"longitude":-86.923661,"id":"a674wjxuga2w","soph":1.0},"type":"Feature","geometry":{"type":"Point","coordinates":[-86.923661,40.444025]}},{"properties":{"zip":48062.0,"latitude":42.812743,"longitude":-82.730052,"id":"a674wjw0sjx3","soph":1.0},"type":"Feature","geometry":{"type":"Point","coordinates":[-82.730052,42.812743]}},{"properties":{"zip":48075.0,"latitude":42.463831,"longitude":-83.225539,"id":"a674wk6xm6qw","soph":1.0},"type":"Feature","geometry":{"type":"Point","coordinates":[-83.225539,42.463831]}},{"properties":{"zip":48103.0,"latitude":42.279379,"longitude":-83.783998,"id":"a674wk0owmsk","soph":1.0},"type":"Feature","geometry":{"type":"Point","coordinates":[-83.783998,42.279379]}},{"properties":{"zip":48104.0,"latitude":42.26939,"longitude":-83.728156,"id":"a674wjw2y7pi","soph":1.0},"type":"Feature","geometry":{"type":"Point","coordinates":[-83.728156,42.26939]}},{"properties":{"zip":48108.0,"latitude":42.232782,"longitude":-83.701481,"id":"a674wjuwbusj","soph":1.0},"type":"Feature","geometry":{"type":"Point","coordinates":[-83.701481,42.232782]}},{"properties":{"zip":48128.0,"latitude":42.319981,"longitude":-83.270131,"id":"a674wjxw0bd1","soph":1.0},"type":"Feature","geometry":{"type":"Point","coordinates":[-83.270131,42.319981]}},{"properties":{"zip":48134.0,"latitude":42.105521,"longitude":-83.279525,"id":"a674wk815kx7","soph":2.0},"type":"Feature","geometry":{"type":"Point","coordinates":[-83.279525,42.105521]}},{"properties":{"zip":48170.0,"latitude":42.36882,"longitude":-83.479946,"id":"a674wjvl1to7","soph":1.0},"type":"Feature","geometry":{"type":"Point","coordinates":[-83.479946,42.36882]}},{"properties":{"zip":48183.0,"latitude":42.134304,"longitude":-83.218142,"id":"a674wk6w58kf","soph":1.0},"type":"Feature","geometry":{"type":"Point","coordinates":[-83.218142,42.134304]}},{"properties":{"zip":48214.0,"latitude":42.366944,"longitude":-82.993798,"id":"a674wjx0amj2","soph":1.0},"type":"Feature","geometry":{"type":"Point","coordinates":[-82.993798,42.366944]}},{"properties":{"zip":48230.0,"latitude":42.384694,"longitude":-82.924394,"id":"a674wk5x0xqf","soph":1.0},"type":"Feature","geometry":{"type":"Point","coordinates":[-82.924394,42.384694]}},{"properties":{"zip":48236.0,"latitude":42.427404,"longitude":-82.900248,"id":"a674wjyptu7k","soph":1.0},"type":"Feature","geometry":{"type":"Point","coordinates":[-82.900248,42.427404]}},{"properties":{"zip":48304.0,"latitude":42.593764,"longitude":-83.234011,"id":"a674wk9c0dt8","soph":2.0},"type":"Feature","geometry":{"type":"Point","coordinates":[-83.234011,42.593764]}},{"properties":{"zip":48306.0,"latitude":42.710684,"longitude":-83.164215,"id":"a674wju3y7hq","soph":2.0},"type":"Feature","geometry":{"type":"Point","coordinates":[-83.164215,42.710684]}},{"properties":{"zip":48312.0,"latitude":42.559203,"longitude":-83.002896,"id":"a674wjzp0zte","soph":1.0},"type":"Feature","geometry":{"type":"Point","coordinates":[-83.002896,42.559203]}},{"properties":{"zip":48314.0,"latitude":42.612352,"longitude":-83.034455,"id":"a674wjtpod89","soph":1.0},"type":"Feature","geometry":{"type":"Point","coordinates":[-83.034455,42.612352]}},{"properties":{"zip":48331.0,"latitude":42.510042,"longitude":-83.405433,"id":"a674wk6h5ai9","soph":1.0},"type":"Feature","geometry":{"type":"Point","coordinates":[-83.405433,42.510042]}},{"properties":{"zip":48439.0,"latitude":42.928163,"longitude":-83.626414,"id":"a674wk6l1u5s","soph":1.0},"type":"Feature","geometry":{"type":"Point","coordinates":[-83.626414,42.928163]}},{"properties":{"zip":49002.0,"latitude":42.207482,"longitude":-85.595691,"id":"a674wk6swaix","soph":1.0},"type":"Feature","geometry":{"type":"Point","coordinates":[-85.595691,42.207482]}},{"properties":{"zip":49024.0,"latitude":42.21411,"longitude":-85.618169,"id":"a674wjwmktkv","soph":1.0},"type":"Feature","geometry":{"type":"Point","coordinates":[-85.618169,42.21411]}},{"properties":{"zip":49080.0,"latitude":42.454379,"longitude":-85.59936,"id":"a674wk5jt3rd","soph":1.0},"type":"Feature","geometry":{"type":"Point","coordinates":[-85.59936,42.454379]}},{"properties":{"zip":49417.0,"latitude":43.037838,"longitude":-86.191227,"id":"a674wjvfz2vy","soph":1.0},"type":"Feature","geometry":{"type":"Point","coordinates":[-86.191227,43.037838]}},{"properties":{"zip":49506.0,"latitude":42.943978,"longitude":-85.621317,"id":"a674wjtmh7kq","soph":1.0},"type":"Feature","geometry":{"type":"Point","coordinates":[-85.621317,42.943978]}},{"properties":{"zip":49508.0,"latitude":42.875653,"longitude":-85.624179,"id":"a674wjv6u6xv","soph":1.0},"type":"Feature","geometry":{"type":"Point","coordinates":[-85.624179,42.875653]}},{"properties":{"zip":49684.0,"latitude":44.74365,"longitude":-85.618869,"id":"a674wjx9aowh","soph":2.0},"type":"Feature","geometry":{"type":"Point","coordinates":[-85.618869,44.74365]}},{"properties":{"zip":49837.0,"latitude":45.856402,"longitude":-87.027284,"id":"a674wjvsu4wn","soph":1.0},"type":"Feature","geometry":{"type":"Point","coordinates":[-87.027284,45.856402]}},{"properties":{"zip":50047.0,"latitude":41.481384,"longitude":-93.49214,"id":"a674wjyfkkw5","soph":1.0},"type":"Feature","geometry":{"type":"Point","coordinates":[-93.49214,41.481384]}},{"properties":{"zip":53045.0,"latitude":43.066791,"longitude":-88.146946,"id":"a674wk4u1clg","soph":1.0},"type":"Feature","geometry":{"type":"Point","coordinates":[-88.146946,43.066791]}},{"properties":{"zip":53209.0,"latitude":43.118765,"longitude":-87.947834,"id":"a674wjz9h47e","soph":1.0},"type":"Feature","geometry":{"type":"Point","coordinates":[-87.947834,43.118765]}},{"properties":{"zip":53223.0,"latitude":43.162374,"longitude":-87.989818,"id":"a674wjun8wzz","soph":1.0},"type":"Feature","geometry":{"type":"Point","coordinates":[-87.989818,43.162374]}},{"properties":{"zip":53405.0,"latitude":42.716112,"longitude":-87.823329,"id":"a674wjxo1dlt","soph":1.0},"type":"Feature","geometry":{"type":"Point","coordinates":[-87.823329,42.716112]}},{"properties":{"zip":53726.0,"latitude":43.069555,"longitude":-89.421909,"id":"a674wk41p511","soph":1.0},"type":"Feature","geometry":{"type":"Point","coordinates":[-89.421909,43.069555]}},{"properties":{"zip":54915.0,"latitude":44.26351,"longitude":-88.399902,"id":"a674wjwkh82u","soph":1.0},"type":"Feature","geometry":{"type":"Point","coordinates":[-88.399902,44.26351]}},{"properties":{"zip":55446.0,"latitude":45.032446,"longitude":-93.472323,"id":"a674wk5meaj6","soph":1.0},"type":"Feature","geometry":{"type":"Point","coordinates":[-93.472323,45.032446]}},{"properties":{"zip":59701.0,"latitude":45.991579,"longitude":-112.517807,"id":"a674wjxdp3mr","soph":1.0},"type":"Feature","geometry":{"type":"Point","coordinates":[-112.517807,45.991579]}},{"properties":{"zip":60004.0,"latitude":42.111619,"longitude":-87.979099,"id":"a674wk8iotpk","soph":1.0},"type":"Feature","geometry":{"type":"Point","coordinates":[-87.979099,42.111619]}},{"properties":{"zip":60010.0,"latitude":42.161387,"longitude":-88.138345,"id":"a674wk7fgjxm","soph":2.0},"type":"Feature","geometry":{"type":"Point","coordinates":[-88.138345,42.161387]}},{"properties":{"zip":60025.0,"latitude":42.075785,"longitude":-87.822299,"id":"a674wjv3jxwz","soph":3.0},"type":"Feature","geometry":{"type":"Point","coordinates":[-87.822299,42.075785]}},{"properties":{"zip":60026.0,"latitude":42.09134,"longitude":-87.824782,"id":"a674wk1fj42l","soph":1.0},"type":"Feature","geometry":{"type":"Point","coordinates":[-87.824782,42.09134]}},{"properties":{"zip":60031.0,"latitude":42.366906,"longitude":-87.945232,"id":"a674wk1uj3h5","soph":1.0},"type":"Feature","geometry":{"type":"Point","coordinates":[-87.945232,42.366906]}},{"properties":{"zip":60035.0,"latitude":42.179446,"longitude":-87.805894,"id":"a674wjv4nako","soph":1.0},"type":"Feature","geometry":{"type":"Point","coordinates":[-87.805894,42.179446]}},{"properties":{"zip":60044.0,"latitude":42.28196,"longitude":-87.85595,"id":"a674wjuopsyk","soph":1.0},"type":"Feature","geometry":{"type":"Point","coordinates":[-87.85595,42.28196]}},{"properties":{"zip":60060.0,"latitude":42.263616,"longitude":-88.004762,"id":"a674wk3i2s8d","soph":2.0},"type":"Feature","geometry":{"type":"Point","coordinates":[-88.004762,42.263616]}},{"properties":{"zip":60069.0,"latitude":42.192872,"longitude":-87.904823,"id":"a674wk0hf2ze","soph":1.0},"type":"Feature","geometry":{"type":"Point","coordinates":[-87.904823,42.192872]}},{"properties":{"zip":60089.0,"latitude":42.159843,"longitude":-87.964364,"id":"a674wk5g7s02","soph":1.0},"type":"Feature","geometry":{"type":"Point","coordinates":[-87.964364,42.159843]}},{"properties":{"zip":60093.0,"latitude":42.103605,"longitude":-87.752256,"id":"a674wjyhyqqp","soph":1.0},"type":"Feature","geometry":{"type":"Point","coordinates":[-87.752256,42.103605]}},{"properties":{"zip":60126.0,"latitude":41.892661,"longitude":-87.941025,"id":"a674wjz9ijnd","soph":2.0},"type":"Feature","geometry":{"type":"Point","coordinates":[-87.941025,41.892661]}},{"properties":{"zip":60174.0,"latitude":41.919417,"longitude":-88.307022,"id":"a674wk7u0qo8","soph":1.0},"type":"Feature","geometry":{"type":"Point","coordinates":[-88.307022,41.919417]}},{"properties":{"zip":60175.0,"latitude":41.947842,"longitude":-88.391799,"id":"a674wk7uw6t8","soph":1.0},"type":"Feature","geometry":{"type":"Point","coordinates":[-88.391799,41.947842]}},{"properties":{"zip":60201.0,"latitude":42.054551,"longitude":-87.694331,"id":"a674wjttyqsy","soph":3.0},"type":"Feature","geometry":{"type":"Point","coordinates":[-87.694331,42.054551]}},{"properties":{"zip":60202.0,"latitude":42.03022,"longitude":-87.686544,"id":"a674wjxjq8yo","soph":1.0},"type":"Feature","geometry":{"type":"Point","coordinates":[-87.686544,42.03022]}},{"properties":{"zip":60203.0,"latitude":42.048487,"longitude":-87.71759,"id":"a674wjw2eiei","soph":1.0},"type":"Feature","geometry":{"type":"Point","coordinates":[-87.71759,42.048487]}},{"properties":{"zip":60304.0,"latitude":41.872458,"longitude":-87.787712,"id":"a674wjytxgnk","soph":1.0},"type":"Feature","geometry":{"type":"Point","coordinates":[-87.787712,41.872458]}},{"properties":{"zip":60402.0,"latitude":41.841819,"longitude":-87.79075,"id":"a674wk83tltt","soph":1.0},"type":"Feature","geometry":{"type":"Point","coordinates":[-87.79075,41.841819]}},{"properties":{"zip":60438.0,"latitude":41.566045,"longitude":-87.544634,"id":"a674wk6uwgo5","soph":1.0},"type":"Feature","geometry":{"type":"Point","coordinates":[-87.544634,41.566045]}},{"properties":{"zip":60523.0,"latitude":41.83991,"longitude":-87.958114,"id":"a674wk5xp25p","soph":1.0},"type":"Feature","geometry":{"type":"Point","coordinates":[-87.958114,41.83991]}},{"properties":{"zip":60540.0,"latitude":41.766198,"longitude":-88.141038,"id":"a674wjzinsmh","soph":1.0},"type":"Feature","geometry":{"type":"Point","coordinates":[-88.141038,41.766198]}},{"properties":{"zip":60561.0,"latitude":41.747179,"longitude":-87.979688,"id":"a674wk5k4k8e","soph":1.0},"type":"Feature","geometry":{"type":"Point","coordinates":[-87.979688,41.747179]}},{"properties":{"zip":60563.0,"latitude":41.78955,"longitude":-88.16901,"id":"a674wjyfadpx","soph":1.0},"type":"Feature","geometry":{"type":"Point","coordinates":[-88.16901,41.78955]}},{"properties":{"zip":60564.0,"latitude":41.704022,"longitude":-88.195248,"id":"a674wk6dnl7m","soph":1.0},"type":"Feature","geometry":{"type":"Point","coordinates":[-88.195248,41.704022]}},{"properties":{"zip":60565.0,"latitude":41.732833,"longitude":-88.128245,"id":"a674wk2dirdh","soph":3.0},"type":"Feature","geometry":{"type":"Point","coordinates":[-88.128245,41.732833]}},{"properties":{"zip":60608.0,"latitude":41.851482,"longitude":-87.669444,"id":"a674wk1efxib","soph":1.0},"type":"Feature","geometry":{"type":"Point","coordinates":[-87.669444,41.851482]}},{"properties":{"zip":60611.0,"latitude":41.897105,"longitude":-87.622285,"id":"a674wjy1oe1g","soph":1.0},"type":"Feature","geometry":{"type":"Point","coordinates":[-87.622285,41.897105]}},{"properties":{"zip":60631.0,"latitude":41.995145,"longitude":-87.808215,"id":"a674wk02tt2b","soph":2.0},"type":"Feature","geometry":{"type":"Point","coordinates":[-87.808215,41.995145]}},{"properties":{"zip":60643.0,"latitude":41.693243,"longitude":-87.659445,"id":"a674wjwza09k","soph":1.0},"type":"Feature","geometry":{"type":"Point","coordinates":[-87.659445,41.693243]}},{"properties":{"zip":60646.0,"latitude":41.996414,"longitude":-87.759172,"id":"a674wk1ngwue","soph":1.0},"type":"Feature","geometry":{"type":"Point","coordinates":[-87.759172,41.996414]}},{"properties":{"zip":61822.0,"latitude":40.11281,"longitude":-88.293564,"id":"a674wjww5csx","soph":1.0},"type":"Feature","geometry":{"type":"Point","coordinates":[-88.293564,40.11281]}},{"properties":{"zip":63011.0,"latitude":38.604132,"longitude":-90.55213,"id":"a674wjyokb9y","soph":1.0},"type":"Feature","geometry":{"type":"Point","coordinates":[-90.55213,38.604132]}},{"properties":{"zip":63021.0,"latitude":38.577032,"longitude":-90.525527,"id":"a674wk4ajqi8","soph":1.0},"type":"Feature","geometry":{"type":"Point","coordinates":[-90.525527,38.577032]}},{"properties":{"zip":63038.0,"latitude":38.5745,"longitude":-90.643971,"id":"a674wk11x6er","soph":1.0},"type":"Feature","geometry":{"type":"Point","coordinates":[-90.643971,38.5745]}},{"properties":{"zip":63040.0,"latitude":38.573316,"longitude":-90.646112,"id":"a674wk155i7j","soph":1.0},"type":"Feature","geometry":{"type":"Point","coordinates":[-90.646112,38.573316]}},{"properties":{"zip":63104.0,"latitude":38.612819,"longitude":-90.218512,"id":"a674wk5hoin2","soph":1.0},"type":"Feature","geometry":{"type":"Point","coordinates":[-90.218512,38.612819]}},{"properties":{"zip":63131.0,"latitude":38.612479,"longitude":-90.44264,"id":"a674wk17aleu","soph":1.0},"type":"Feature","geometry":{"type":"Point","coordinates":[-90.44264,38.612479]}},{"properties":{"zip":63141.0,"latitude":38.661741,"longitude":-90.457072,"id":"a674wk0hr0hh","soph":1.0},"type":"Feature","geometry":{"type":"Point","coordinates":[-90.457072,38.661741]}},{"properties":{"zip":63146.0,"latitude":38.688418,"longitude":-90.448251,"id":"a674wjvndba5","soph":1.0},"type":"Feature","geometry":{"type":"Point","coordinates":[-90.448251,38.688418]}},{"properties":{"zip":63301.0,"latitude":38.801424,"longitude":-90.506503,"id":"a674wk2523s3","soph":1.0},"type":"Feature","geometry":{"type":"Point","coordinates":[-90.506503,38.801424]}},{"properties":{"zip":64080.0,"latitude":38.785856,"longitude":-94.243961,"id":"a674wjuzglfq","soph":1.0},"type":"Feature","geometry":{"type":"Point","coordinates":[-94.243961,38.785856]}},{"properties":{"zip":65203.0,"latitude":38.93482,"longitude":-92.363865,"id":"a674wjtwp8zq","soph":1.0},"type":"Feature","geometry":{"type":"Point","coordinates":[-92.363865,38.93482]}},{"properties":{"zip":66061.0,"latitude":38.886548,"longitude":-94.820359,"id":"a674wk6vgpvh","soph":1.0},"type":"Feature","geometry":{"type":"Point","coordinates":[-94.820359,38.886548]}},{"properties":{"zip":66207.0,"latitude":38.957472,"longitude":-94.645193,"id":"a674wk77vddp","soph":1.0},"type":"Feature","geometry":{"type":"Point","coordinates":[-94.645193,38.957472]}},{"properties":{"zip":66210.0,"latitude":38.922007,"longitude":-94.704788,"id":"a674wjvc7qgq","soph":1.0},"type":"Feature","geometry":{"type":"Point","coordinates":[-94.704788,38.922007]}},{"properties":{"zip":67206.0,"latitude":37.699622,"longitude":-97.239253,"id":"a674wk7y569c","soph":1.0},"type":"Feature","geometry":{"type":"Point","coordinates":[-97.239253,37.699622]}},{"properties":{"zip":68123.0,"latitude":41.122265,"longitude":-95.95599,"id":"a674wk0m35b7","soph":1.0},"type":"Feature","geometry":{"type":"Point","coordinates":[-95.95599,41.122265]}},{"properties":{"zip":70119.0,"latitude":29.974552,"longitude":-90.085156,"id":"a674wk4ikiq7","soph":1.0},"type":"Feature","geometry":{"type":"Point","coordinates":[-90.085156,29.974552]}},{"properties":{"zip":70448.0,"latitude":30.386096,"longitude":-90.076846,"id":"a674wk4n1c7p","soph":1.0},"type":"Feature","geometry":{"type":"Point","coordinates":[-90.076846,30.386096]}},{"properties":{"zip":70507.0,"latitude":30.281313,"longitude":-92.015962,"id":"a674wk95uw9s","soph":1.0},"type":"Feature","geometry":{"type":"Point","coordinates":[-92.015962,30.281313]}},{"properties":{"zip":70810.0,"latitude":30.363309,"longitude":-91.091898,"id":"a674wk6ra9l9","soph":1.0},"type":"Feature","geometry":{"type":"Point","coordinates":[-91.091898,30.363309]}},{"properties":{"zip":72135.0,"latitude":34.88287,"longitude":-92.519152,"id":"a674wk5fe0mm","soph":1.0},"type":"Feature","geometry":{"type":"Point","coordinates":[-92.519152,34.88287]}},{"properties":{"zip":72212.0,"latitude":34.787076,"longitude":-92.422232,"id":"a674wjwklwpo","soph":1.0},"type":"Feature","geometry":{"type":"Point","coordinates":[-92.422232,34.787076]}},{"properties":{"zip":72223.0,"latitude":34.78998,"longitude":-92.472939,"id":"a674wk8yk0bl","soph":1.0},"type":"Feature","geometry":{"type":"Point","coordinates":[-92.472939,34.78998]}},{"properties":{"zip":75089.0,"latitude":32.927022,"longitude":-96.547571,"id":"a674wk8vfl4i","soph":1.0},"type":"Feature","geometry":{"type":"Point","coordinates":[-96.547571,32.927022]}},{"properties":{"zip":75093.0,"latitude":33.029866,"longitude":-96.788903,"id":"a674wk72zufp","soph":1.0},"type":"Feature","geometry":{"type":"Point","coordinates":[-96.788903,33.029866]}},{"properties":{"zip":76012.0,"latitude":32.753962,"longitude":-97.134808,"id":"a674wjwvv7ga","soph":1.0},"type":"Feature","geometry":{"type":"Point","coordinates":[-97.134808,32.753962]}},{"properties":{"zip":77025.0,"latitude":29.688897,"longitude":-95.434107,"id":"a674wk0z2zbu","soph":1.0},"type":"Feature","geometry":{"type":"Point","coordinates":[-95.434107,29.688897]}},{"properties":{"zip":77071.0,"latitude":29.651838,"longitude":-95.517554,"id":"a674wk6nhq73","soph":1.0},"type":"Feature","geometry":{"type":"Point","coordinates":[-95.517554,29.651838]}},{"properties":{"zip":77096.0,"latitude":29.672205,"longitude":-95.486066,"id":"a674wk469nd5","soph":1.0},"type":"Feature","geometry":{"type":"Point","coordinates":[-95.486066,29.672205]}},{"properties":{"zip":77345.0,"latitude":30.056641,"longitude":-95.170654,"id":"a674wk34xa0q","soph":1.0},"type":"Feature","geometry":{"type":"Point","coordinates":[-95.170654,30.056641]}},{"properties":{"zip":77401.0,"latitude":29.702313,"longitude":-95.461106,"id":"a674wk5c6ttp","soph":1.0},"type":"Feature","geometry":{"type":"Point","coordinates":[-95.461106,29.702313]}},{"properties":{"zip":77450.0,"latitude":29.767632,"longitude":-95.744506,"id":"a674wjz3xjaz","soph":1.0},"type":"Feature","geometry":{"type":"Point","coordinates":[-95.744506,29.767632]}},{"properties":{"zip":78255.0,"latitude":29.636875,"longitude":-98.655572,"id":"a674wjxk05l3","soph":1.0},"type":"Feature","geometry":{"type":"Point","coordinates":[-98.655572,29.636875]}},{"properties":{"zip":78746.0,"latitude":30.285009,"longitude":-97.808129,"id":"a674wjv5hn40","soph":1.0},"type":"Feature","geometry":{"type":"Point","coordinates":[-97.808129,30.285009]}},{"properties":{"zip":80112.0,"latitude":39.58051,"longitude":-104.901115,"id":"a674wk5fccbj","soph":1.0},"type":"Feature","geometry":{"type":"Point","coordinates":[-104.901115,39.58051]}},{"properties":{"zip":80126.0,"latitude":39.55134,"longitude":-104.963751,"id":"a674wk818558","soph":1.0},"type":"Feature","geometry":{"type":"Point","coordinates":[-104.963751,39.55134]}},{"properties":{"zip":80303.0,"latitude":39.991381,"longitude":-105.239178,"id":"a674wjutcimw","soph":1.0},"type":"Feature","geometry":{"type":"Point","coordinates":[-105.239178,39.991381]}},{"properties":{"zip":80305.0,"latitude":39.979966,"longitude":-105.252059,"id":"a674wjxcsrk4","soph":1.0},"type":"Feature","geometry":{"type":"Point","coordinates":[-105.252059,39.979966]}},{"properties":{"zip":80503.0,"latitude":40.15588,"longitude":-105.162432,"id":"a674wk8arjq7","soph":1.0},"type":"Feature","geometry":{"type":"Point","coordinates":[-105.162432,40.15588]}},{"properties":{"zip":82609.0,"latitude":42.840629,"longitude":-106.280649,"id":"a674wk8m4rpr","soph":1.0},"type":"Feature","geometry":{"type":"Point","coordinates":[-106.280649,42.840629]}},{"properties":{"zip":83702.0,"latitude":43.632237,"longitude":-116.205192,"id":"a674wk22i96g","soph":1.0},"type":"Feature","geometry":{"type":"Point","coordinates":[-116.205192,43.632237]}},{"properties":{"zip":83713.0,"latitude":43.63948,"longitude":-116.334339,"id":"a674wk2ew04v","soph":1.0},"type":"Feature","geometry":{"type":"Point","coordinates":[-116.334339,43.63948]}},{"properties":{"zip":85037.0,"latitude":33.491278,"longitude":-112.246763,"id":"a674wk5vm37g","soph":1.0},"type":"Feature","geometry":{"type":"Point","coordinates":[-112.246763,33.491278]}},{"properties":{"zip":85048.0,"latitude":33.30356,"longitude":-112.026469,"id":"a674wk8hpdw2","soph":1.0},"type":"Feature","geometry":{"type":"Point","coordinates":[-112.026469,33.30356]}},{"properties":{"zip":87107.0,"latitude":35.134742,"longitude":-106.642747,"id":"a674wjurethk","soph":1.0},"type":"Feature","geometry":{"type":"Point","coordinates":[-106.642747,35.134742]}},{"properties":{"zip":87110.0,"latitude":35.110417,"longitude":-106.578052,"id":"a674wk5xl8l2","soph":1.0},"type":"Feature","geometry":{"type":"Point","coordinates":[-106.578052,35.110417]}},{"properties":{"zip":87122.0,"latitude":35.178715,"longitude":-106.510176,"id":"a674wjup4co6","soph":1.0},"type":"Feature","geometry":{"type":"Point","coordinates":[-106.510176,35.178715]}},{"properties":{"zip":87191.0,"latitude":35.084099,"longitude":-106.648628,"id":"a674wjyzieng","soph":1.0},"type":"Feature","geometry":{"type":"Point","coordinates":[-106.648628,35.084099]}},{"properties":{"zip":90213.0,"latitude":34.07288,"longitude":-118.399834,"id":"a674wk3ghtt6","soph":1.0},"type":"Feature","geometry":{"type":"Point","coordinates":[-118.399834,34.07288]}},{"properties":{"zip":90230.0,"latitude":33.994927,"longitude":-118.399115,"id":"a674wjvr0jhv","soph":1.0},"type":"Feature","geometry":{"type":"Point","coordinates":[-118.399115,33.994927]}},{"properties":{"zip":91208.0,"latitude":34.19212,"longitude":-118.234966,"id":"a674wjv1sx2n","soph":1.0},"type":"Feature","geometry":{"type":"Point","coordinates":[-118.234966,34.19212]}},{"properties":{"zip":91326.0,"latitude":34.274191,"longitude":-118.541235,"id":"a674wk3ry9ol","soph":1.0},"type":"Feature","geometry":{"type":"Point","coordinates":[-118.541235,34.274191]}},{"properties":{"zip":92129.0,"latitude":32.965185,"longitude":-117.121308,"id":"a674wk0qsaub","soph":1.0},"type":"Feature","geometry":{"type":"Point","coordinates":[-117.121308,32.965185]}},{"properties":{"zip":92614.0,"latitude":33.678406,"longitude":-117.825466,"id":"a674wk7ri9rm","soph":1.0},"type":"Feature","geometry":{"type":"Point","coordinates":[-117.825466,33.678406]}},{"properties":{"zip":92833.0,"latitude":33.877243,"longitude":-117.962628,"id":"a674wjxb1d71","soph":1.0},"type":"Feature","geometry":{"type":"Point","coordinates":[-117.962628,33.877243]}},{"properties":{"zip":94087.0,"latitude":37.350214,"longitude":-122.034859,"id":"a674wk367l5s","soph":2.0},"type":"Feature","geometry":{"type":"Point","coordinates":[-122.034859,37.350214]}},{"properties":{"zip":94088.0,"latitude":37.371552,"longitude":-122.038254,"id":"a674wk9x0ba6","soph":1.0},"type":"Feature","geometry":{"type":"Point","coordinates":[-122.038254,37.371552]}},{"properties":{"zip":94122.0,"latitude":37.759326,"longitude":-122.483647,"id":"a674wk75trim","soph":1.0},"type":"Feature","geometry":{"type":"Point","coordinates":[-122.483647,37.759326]}},{"properties":{"zip":94132.0,"latitude":37.721118,"longitude":-122.47545,"id":"a674wk3dxm90","soph":1.0},"type":"Feature","geometry":{"type":"Point","coordinates":[-122.47545,37.721118]}},{"properties":{"zip":94306.0,"latitude":37.418009,"longitude":-122.127375,"id":"a674wjxozjmg","soph":1.0},"type":"Feature","geometry":{"type":"Point","coordinates":[-122.127375,37.418009]}},{"properties":{"zip":94404.0,"latitude":37.551614,"longitude":-122.263577,"id":"a674wjwb9ib8","soph":1.0},"type":"Feature","geometry":{"type":"Point","coordinates":[-122.263577,37.551614]}},{"properties":{"zip":94539.0,"latitude":37.517579,"longitude":-121.928733,"id":"a674wk9t3egl","soph":1.0},"type":"Feature","geometry":{"type":"Point","coordinates":[-121.928733,37.517579]}},{"properties":{"zip":95014.0,"latitude":37.317363,"longitude":-122.038604,"id":"a674wk30rqt4","soph":2.0},"type":"Feature","geometry":{"type":"Point","coordinates":[-122.038604,37.317363]}},{"properties":{"zip":95135.0,"latitude":37.297539,"longitude":-121.757228,"id":"a674wk7gjuu4","soph":1.0},"type":"Feature","geometry":{"type":"Point","coordinates":[-121.757228,37.297539]}},{"properties":{"zip":95340.0,"latitude":37.300724,"longitude":-120.461668,"id":"a674wk2vf4vd","soph":1.0},"type":"Feature","geometry":{"type":"Point","coordinates":[-120.461668,37.300724]}},{"properties":{"zip":96951.0,"latitude":14.15468,"longitude":145.210709,"id":"a674wk0pl7k4","soph":1.0},"type":"Feature","geometry":{"type":"Point","coordinates":[145.210709,14.15468]}},{"properties":{"zip":97005.0,"latitude":45.475035,"longitude":-122.805395,"id":"a674wjznqmvz","soph":1.0},"type":"Feature","geometry":{"type":"Point","coordinates":[-122.805395,45.475035]}},{"properties":{"zip":97006.0,"latitude":45.517675,"longitude":-122.859209,"id":"a674wjvyl29l","soph":1.0},"type":"Feature","geometry":{"type":"Point","coordinates":[-122.859209,45.517675]}},{"properties":{"zip":97045.0,"latitude":45.337718,"longitude":-122.569991,"id":"a674wjxvt3e6","soph":1.0},"type":"Feature","geometry":{"type":"Point","coordinates":[-122.569991,45.337718]}},{"properties":{"zip":97058.0,"latitude":45.599504,"longitude":-121.190493,"id":"a674wjw03hvg","soph":1.0},"type":"Feature","geometry":{"type":"Point","coordinates":[-121.190493,45.599504]}},{"properties":{"zip":97229.0,"latitude":45.541087,"longitude":-122.829924,"id":"a674wk4h7ade","soph":1.0},"type":"Feature","geometry":{"type":"Point","coordinates":[-122.829924,45.541087]}},{"properties":{"zip":97601.0,"latitude":42.229601,"longitude":-121.786969,"id":"a674wk8j1lmc","soph":1.0},"type":"Feature","geometry":{"type":"Point","coordinates":[-121.786969,42.229601]}},{"properties":{"zip":98004.0,"latitude":47.619899,"longitude":-122.207371,"id":"a674wjvpcx4l","soph":1.0},"type":"Feature","geometry":{"type":"Point","coordinates":[-122.207371,47.619899]}},{"properties":{"zip":98011.0,"latitude":47.749692,"longitude":-122.2159,"id":"a674wjz38hza","soph":1.0},"type":"Feature","geometry":{"type":"Point","coordinates":[-122.2159,47.749692]}},{"properties":{"zip":98020.0,"latitude":47.800693,"longitude":-122.366949,"id":"a674wjvt8d5z","soph":1.0},"type":"Feature","geometry":{"type":"Point","coordinates":[-122.366949,47.800693]}},{"properties":{"zip":98040.0,"latitude":47.563149,"longitude":-122.226562,"id":"a674wk0w0i2g","soph":2.0},"type":"Feature","geometry":{"type":"Point","coordinates":[-122.226562,47.563149]}},{"properties":{"zip":98110.0,"latitude":47.645048,"longitude":-122.531297,"id":"a674wk6zcy1u","soph":1.0},"type":"Feature","geometry":{"type":"Point","coordinates":[-122.531297,47.645048]}},{"properties":{"zip":98115.0,"latitude":47.684918,"longitude":-122.296828,"id":"a674wjww6h36","soph":1.0},"type":"Feature","geometry":{"type":"Point","coordinates":[-122.296828,47.684918]}},{"properties":{"zip":99156.0,"latitude":48.169465,"longitude":-117.150784,"id":"a674wk58cao8","soph":1.0},"type":"Feature","geometry":{"type":"Point","coordinates":[-117.150784,48.169465]}}],"is_temporal":false,"author":{"url":"","metadata":"","contact_name":"","contact_address":"","source":"","contact_phone":""},"source":"","pagination":{"sort":null,"start":0,"total":660,"limit":1000000},"state":"complete","tags":"college,cwru,university","published":"2014-08-10T18:07:21-04:00","id":14238}