{"type":"FeatureCollection","data_type":"Dataset","url_type":null,"permissions":[{"permissions":{"download":true,"view":true},"group_id":"everyone"}],"classification":null,"title":"alioto","count":26,"stream_id":173431,"contributor":{"url":"http://geocommons.com/users/27762","name":"Mission Local"},"data_attributes":null,"calculation_params":null,"icon_link":null,"link":"http://geocommons.com/overlays/173431.json","extent":[-122.497,37.7192,-122.388,37.8029],"geometry_types":["point"],"unique_name":null,"name":"alioto","feature_count":26,"description":"","next_feature":null,"is_raster":false,"short_classification":"Y","stats":{"latitude":{"max":37.802929,"mean":37.76697528,"variance":0.000761321489710062,"stdev":0.0275920548294262,"min":37.719196,"median":37.77355},"contributions":{"max":174960,"mean":13458.4615384615,"variance":1146691363.53846,"stdev":33862.8315936288,"min":100,"median":3850},"zipcode":{"max":94134,"mean":94117.08,"variance":101.66,"stdev":10.082658379614,"min":94102,"median":94116},"longitude":{"max":-122.387822,"mean":-122.43382444,"variance":0.00103583305184005,"stdev":0.0321843603608966,"min":-122.496779,"median":-122.435729}},"features":[{"properties":{"column_5":null,"latitude":37.777125,"column_6":null,"contributions":950,"zipcode":94102,"longitude":-122.419644,"id":"a69og3lvrr98"},"type":"Feature","geometry":{"type":"Point","coordinates":[-122.419644,37.777125]}},{"properties":{"column_5":null,"latitude":37.77355,"column_6":null,"contributions":5500,"zipcode":94103,"longitude":-122.411329,"id":"a69og3jgjj1j"},"type":"Feature","geometry":{"type":"Point","coordinates":[-122.411329,37.77355]}},{"properties":{"column_5":null,"latitude":37.791051,"column_6":null,"contributions":1250,"zipcode":94104,"longitude":-122.401709,"id":"a69og3dlbku4"},"type":"Feature","geometry":{"type":"Point","coordinates":[-122.401709,37.791051]}},{"properties":{"column_5":null,"latitude":37.789572,"column_6":null,"contributions":1550,"zipcode":94105,"longitude":-122.394712,"id":"a69og3hd4gqw"},"type":"Feature","geometry":{"type":"Point","coordinates":[-122.394712,37.789572]}},{"properties":{"column_5":null,"latitude":37.767022,"column_6":null,"contributions":2725,"zipcode":94107,"longitude":-122.395687,"id":"a69og3lgncce"},"type":"Feature","geometry":{"type":"Point","coordinates":[-122.395687,37.767022]}},{"properties":{"column_5":null,"latitude":37.79179,"column_6":null,"contributions":3850,"zipcode":94108,"longitude":-122.407419,"id":"a69og39zubdb"},"type":"Feature","geometry":{"type":"Point","coordinates":[-122.407419,37.79179]}},{"properties":{"column_5":null,"latitude":37.79514,"column_6":null,"contributions":18700,"zipcode":94109,"longitude":-122.420749,"id":"a69og36qee7c"},"type":"Feature","geometry":{"type":"Point","coordinates":[-122.420749,37.79514]}},{"properties":{"column_5":null,"latitude":37.74779,"column_6":null,"contributions":3200,"zipcode":94110,"longitude":-122.414864,"id":"a69og3in89un"},"type":"Feature","geometry":{"type":"Point","coordinates":[-122.414864,37.74779]}},{"properties":{"column_5":null,"latitude":37.797876,"column_6":null,"contributions":2950,"zipcode":94111,"longitude":-122.399278,"id":"a69og3aljs5t"},"type":"Feature","geometry":{"type":"Point","coordinates":[-122.399278,37.797876]}},{"properties":{"column_5":null,"latitude":37.719744,"column_6":null,"contributions":1075,"zipcode":94112,"longitude":-122.441957,"id":"a69og3ed5lhp"},"type":"Feature","geometry":{"type":"Point","coordinates":[-122.441957,37.719744]}},{"properties":{"column_5":null,"latitude":37.7592,"column_6":null,"contributions":6500,"zipcode":94114,"longitude":-122.436489,"id":"a69og38q6b94"},"type":"Feature","geometry":{"type":"Point","coordinates":[-122.436489,37.7592]}},{"properties":{"column_5":null,"latitude":37.78578,"column_6":null,"contributions":21150,"zipcode":94115,"longitude":-122.435729,"id":"a69og35p7lip"},"type":"Feature","geometry":{"type":"Point","coordinates":[-122.435729,37.78578]}},{"properties":{"column_5":null,"latitude":37.74346,"column_6":null,"contributions":1000,"zipcode":94116,"longitude":-122.487539,"id":"a69og374xdrk"},"type":"Feature","geometry":{"type":"Point","coordinates":[-122.487539,37.74346]}},{"properties":{"column_5":null,"latitude":37.769951,"column_6":null,"contributions":5700,"zipcode":94117,"longitude":-122.443553,"id":"a69og3byx5l0"},"type":"Feature","geometry":{"type":"Point","coordinates":[-122.443553,37.769951]}},{"properties":{"column_5":null,"latitude":37.77459,"column_6":null,"contributions":23150,"zipcode":94118,"longitude":-122.462755,"id":"a69og3g03s4t"},"type":"Feature","geometry":{"type":"Point","coordinates":[-122.462755,37.77459]}},{"properties":{"column_5":null,"latitude":37.77574,"column_6":null,"contributions":10400,"zipcode":94121,"longitude":-122.496779,"id":"a69og3iuybaj"},"type":"Feature","geometry":{"type":"Point","coordinates":[-122.496779,37.77574]}},{"properties":{"column_5":null,"latitude":37.759485,"column_6":null,"contributions":3850,"zipcode":94122,"longitude":-122.484889,"id":"a69og3l62yb8"},"type":"Feature","geometry":{"type":"Point","coordinates":[-122.484889,37.759485]}},{"properties":{"column_5":null,"latitude":37.802733,"column_6":null,"contributions":28685,"zipcode":94123,"longitude":-122.43582,"id":"a69og3h2jrw6"},"type":"Feature","geometry":{"type":"Point","coordinates":[-122.43582,37.802733]}},{"properties":{"column_5":null,"latitude":37.727982,"column_6":null,"contributions":250,"zipcode":94124,"longitude":-122.387822,"id":"a69og3ltxwrn"},"type":"Feature","geometry":{"type":"Point","coordinates":[-122.387822,37.727982]}},{"properties":{"column_5":null,"latitude":37.735258,"column_6":null,"contributions":15350,"zipcode":94127,"longitude":-122.460592,"id":"a69og3hgwctf"},"type":"Feature","geometry":{"type":"Point","coordinates":[-122.460592,37.735258]}},{"properties":{"column_5":null,"latitude":37.79989,"column_6":null,"contributions":1700,"zipcode":94129,"longitude":-122.462589,"id":"a69og3cgzpz3"},"type":"Feature","geometry":{"type":"Point","coordinates":[-122.462589,37.79989]}},{"properties":{"column_5":null,"latitude":37.74462,"column_6":null,"contributions":3475,"zipcode":94131,"longitude":-122.439565,"id":"a69og3dt4ier"},"type":"Feature","geometry":{"type":"Point","coordinates":[-122.439565,37.74462]}},{"properties":{"column_5":null,"latitude":37.722908,"column_6":null,"contributions":3475,"zipcode":94132,"longitude":-122.483376,"id":"a69og3lnkfhv"},"type":"Feature","geometry":{"type":"Point","coordinates":[-122.483376,37.722908]}},{"properties":{"column_5":null,"latitude":37.802929,"column_6":null,"contributions":8425,"zipcode":94133,"longitude":-122.410295,"id":"a69og369m4n5"},"type":"Feature","geometry":{"type":"Point","coordinates":[-122.410295,37.802929]}},{"properties":{"column_5":null,"latitude":37.719196,"column_6":null,"contributions":100,"zipcode":94134,"longitude":-122.410471,"id":"a69og35vaff9"},"type":"Feature","geometry":{"type":"Point","coordinates":[-122.410471,37.719196]}},{"properties":{"column_5":null,"latitude":null,"column_6":null,"contributions":174960,"zipcode":null,"longitude":null,"id":"a69og3cd3zz8"},"type":"Feature","geometry":null}],"is_temporal":false,"author":{"url":"","metadata":"","contact_name":"","contact_address":"","source":"","contact_phone":""},"source":"","pagination":{"sort":null,"start":0,"total":26,"limit":1000000},"state":"complete","tags":"","published":"2014-08-13T02:36:05-04:00","id":173431}