{"type":"FeatureCollection","data_type":"Dataset","url_type":null,"permissions":[{"permissions":{"download":true,"edit":true,"view":true},"group_id":33927},{"permissions":{"download":true,"view":true},"group_id":"everyone"}],"classification":null,"title":"hallclean","count":26,"stream_id":173414,"contributor":{"url":"http://geocommons.com/users/27762","name":"Mission Local"},"data_attributes":null,"calculation_params":null,"icon_link":null,"link":"http://geocommons.com/overlays/173414.json","extent":[-122.497,37.7192,-122.388,37.8029],"geometry_types":["point"],"unique_name":null,"name":"hallclean","feature_count":26,"description":"","next_feature":null,"is_raster":false,"short_classification":"Y","stats":{"latitude":{"max":37.802929,"mean":37.76697528,"variance":0.000761321489710062,"stdev":0.0275920548294262,"min":37.719196,"median":37.77355},"contributions":{"max":117800,"mean":9061.53846153846,"variance":513541511.538461,"stdev":22661.4543120794,"min":100,"median":4100},"zipcode":{"max":94134,"mean":94117.08,"variance":101.66,"stdev":10.082658379614,"min":94102,"median":94116},"longitude":{"max":-122.387822,"mean":-122.43382444,"variance":0.00103583305184005,"stdev":0.0321843603608966,"min":-122.496779,"median":-122.435729}},"features":[{"properties":{"latitude":37.777125,"contributions":450,"zipcode":94102,"longitude":-122.419644,"id":"a6dzjhgsp2cf"},"type":"Feature","geometry":{"type":"Point","coordinates":[-122.419644,37.777125]}},{"properties":{"latitude":37.77355,"contributions":3300,"zipcode":94103,"longitude":-122.411329,"id":"a6dzjhcetfm6"},"type":"Feature","geometry":{"type":"Point","coordinates":[-122.411329,37.77355]}},{"properties":{"latitude":37.791051,"contributions":1600,"zipcode":94104,"longitude":-122.401709,"id":"a6dzjhfu0hyq"},"type":"Feature","geometry":{"type":"Point","coordinates":[-122.401709,37.791051]}},{"properties":{"latitude":37.789572,"contributions":500,"zipcode":94105,"longitude":-122.394712,"id":"a6dzjhfe1oxo"},"type":"Feature","geometry":{"type":"Point","coordinates":[-122.394712,37.789572]}},{"properties":{"latitude":37.767022,"contributions":6150,"zipcode":94107,"longitude":-122.395687,"id":"a6dzjhpmt01h"},"type":"Feature","geometry":{"type":"Point","coordinates":[-122.395687,37.767022]}},{"properties":{"latitude":37.79179,"contributions":2400,"zipcode":94108,"longitude":-122.407419,"id":"a6dzjhq6ho60"},"type":"Feature","geometry":{"type":"Point","coordinates":[-122.407419,37.79179]}},{"properties":{"latitude":37.79514,"contributions":8850,"zipcode":94109,"longitude":-122.420749,"id":"a6dzjho5vssg"},"type":"Feature","geometry":{"type":"Point","coordinates":[-122.420749,37.79514]}},{"properties":{"latitude":37.74779,"contributions":4100,"zipcode":94110,"longitude":-122.414864,"id":"a6dzjhs2wfm5"},"type":"Feature","geometry":{"type":"Point","coordinates":[-122.414864,37.74779]}},{"properties":{"latitude":37.797876,"contributions":2750,"zipcode":94111,"longitude":-122.399278,"id":"a6dzjhk1w5db"},"type":"Feature","geometry":{"type":"Point","coordinates":[-122.399278,37.797876]}},{"properties":{"latitude":37.719744,"contributions":6700,"zipcode":94112,"longitude":-122.441957,"id":"a6dzjheghkd8"},"type":"Feature","geometry":{"type":"Point","coordinates":[-122.441957,37.719744]}},{"properties":{"latitude":37.7592,"contributions":2200,"zipcode":94114,"longitude":-122.436489,"id":"a6dzjhe6i2j8"},"type":"Feature","geometry":{"type":"Point","coordinates":[-122.436489,37.7592]}},{"properties":{"latitude":37.78578,"contributions":5300,"zipcode":94115,"longitude":-122.435729,"id":"a6dzjhig372n"},"type":"Feature","geometry":{"type":"Point","coordinates":[-122.435729,37.78578]}},{"properties":{"latitude":37.74346,"contributions":6200,"zipcode":94116,"longitude":-122.487539,"id":"a6dzjhr24btf"},"type":"Feature","geometry":{"type":"Point","coordinates":[-122.487539,37.74346]}},{"properties":{"latitude":37.769951,"contributions":3150,"zipcode":94117,"longitude":-122.443553,"id":"a6dzjhj1kqiz"},"type":"Feature","geometry":{"type":"Point","coordinates":[-122.443553,37.769951]}},{"properties":{"latitude":37.77459,"contributions":5600,"zipcode":94118,"longitude":-122.462755,"id":"a6dzjhni24g2"},"type":"Feature","geometry":{"type":"Point","coordinates":[-122.462755,37.77459]}},{"properties":{"latitude":37.77574,"contributions":4100,"zipcode":94121,"longitude":-122.496779,"id":"a6dzjhemedld"},"type":"Feature","geometry":{"type":"Point","coordinates":[-122.496779,37.77574]}},{"properties":{"latitude":37.759485,"contributions":3100,"zipcode":94122,"longitude":-122.484889,"id":"a6dzjhq65nwp"},"type":"Feature","geometry":{"type":"Point","coordinates":[-122.484889,37.759485]}},{"properties":{"latitude":37.802733,"contributions":6850,"zipcode":94123,"longitude":-122.43582,"id":"a6dzjhmvo8o6"},"type":"Feature","geometry":{"type":"Point","coordinates":[-122.43582,37.802733]}},{"properties":{"latitude":37.727982,"contributions":2550,"zipcode":94124,"longitude":-122.387822,"id":"a6dzjhrsv3ah"},"type":"Feature","geometry":{"type":"Point","coordinates":[-122.387822,37.727982]}},{"properties":{"latitude":37.735258,"contributions":24850,"zipcode":94127,"longitude":-122.460592,"id":"a6dzjhit6anx"},"type":"Feature","geometry":{"type":"Point","coordinates":[-122.460592,37.735258]}},{"properties":{"latitude":37.79989,"contributions":100,"zipcode":94129,"longitude":-122.462589,"id":"a6dzjhiudbtq"},"type":"Feature","geometry":{"type":"Point","coordinates":[-122.462589,37.79989]}},{"properties":{"latitude":37.74462,"contributions":4000,"zipcode":94131,"longitude":-122.439565,"id":"a6dzjhf6qvkx"},"type":"Feature","geometry":{"type":"Point","coordinates":[-122.439565,37.74462]}},{"properties":{"latitude":37.722908,"contributions":5925,"zipcode":94132,"longitude":-122.483376,"id":"a6dzjhczv1hb"},"type":"Feature","geometry":{"type":"Point","coordinates":[-122.483376,37.722908]}},{"properties":{"latitude":37.802929,"contributions":5175,"zipcode":94133,"longitude":-122.410295,"id":"a6dzjhrkx34s"},"type":"Feature","geometry":{"type":"Point","coordinates":[-122.410295,37.802929]}},{"properties":{"latitude":37.719196,"contributions":1900,"zipcode":94134,"longitude":-122.410471,"id":"a6dzjhcq6nvh"},"type":"Feature","geometry":{"type":"Point","coordinates":[-122.410471,37.719196]}},{"properties":{"latitude":null,"contributions":117800,"zipcode":null,"longitude":null,"id":"a6dzjhlnlns2"},"type":"Feature","geometry":null}],"is_temporal":false,"author":{"url":"","metadata":"","contact_name":"","contact_address":"","source":"","contact_phone":""},"source":"","pagination":{"sort":null,"start":0,"total":26,"limit":1000000},"state":"complete","tags":"","published":"2014-08-13T02:35:56-04:00","id":173414}