{"type":"FeatureCollection","data_type":"Dataset","url_type":null,"permissions":[{"permissions":{"download":true,"view":true},"group_id":"everyone"}],"classification":null,"title":"CAFO","count":90,"stream_id":241839,"contributor":{"url":"http://geocommons.com/users/40615","name":"WatershedMedia"},"data_attributes":null,"calculation_params":null,"icon_link":null,"link":"http://geocommons.com/overlays/241839.json","extent":[-123.046,-33.8914,151.228,52.1109],"geometry_types":["point"],"unique_name":null,"name":"CAFO","feature_count":90,"description":"","next_feature":null,"is_raster":false,"short_classification":"Y","stats":{},"features":[{"properties":{"city":null,"zip":"97038","website":"http://www.friendsoffamilyfarmers.org/","notes":"Distributed 100 copies of CAFO: The Tragedy of Industrial Animal Factories","organization":"Friends of Family Farmers","id":"0","state":null},"type":"Feature","geometry":{"type":"Point","coordinates":[-122.505962,45.070265]}},{"properties":{"city":null,"zip":"28562","website":"http://www.neuseriver.org/","notes":"Distributed 150 copies of CAFO: The Tragedy of Industrial Animal Factories","organization":"Lower Neuse Riverkeepers","id":"1","state":null},"type":"Feature","geometry":{"type":"Point","coordinates":[-77.092169,35.089807]}},{"properties":{"city":null,"zip":"94108","website":"http://rootsofchange.org/","notes":"Distributed 50 copies of CAFO: The Tragedy of Industrial Animal Factories","organization":"Roots of Change","id":"2","state":null},"type":"Feature","geometry":{"type":"Point","coordinates":[-122.407419,37.79179]}},{"properties":{"city":null,"zip":"21205","website":"http://www.jhsph.edu/clf/","notes":"Distributed 200 copies of CAFO: The Tragedy of Industrial Animal Factories, and 50 copies of the CAFO Reader","organization":"Center for a Livable Future","id":"3","state":null},"type":"Feature","geometry":{"type":"Point","coordinates":[-76.572749,39.30118]}},{"properties":{"city":null,"zip":"97219","website":"http://law.lclark.edu/","notes":"Distributed 50 copies of CAFO: The Tragedy of Industrial Animal Factories, and 50 copies of the CAFO Reader","organization":"Lewis and Clark Law School","id":"4","state":null},"type":"Feature","geometry":{"type":"Point","coordinates":[-122.706544,45.457941]}},{"properties":{"city":null,"zip":"94111","website":"http://www.centerforfoodsafety.org/","notes":"Distributed 350 copies of CAFO: The Tragedy of Industrial Animal Factories, and 100 copies of the CAFO Reader","organization":"Center for Food Safety, SF","id":"5","state":null},"type":"Feature","geometry":{"type":"Point","coordinates":[-122.398942,37.797927]}},{"properties":{"city":null,"zip":"20003","website":"http://www.centerforfoodsafety.org/","notes":"Distributed 350 copies of CAFO: The Tragedy of Industrial Animal Factories","organization":"Center for Food Safety, DC","id":"6","state":null},"type":"Feature","geometry":{"type":"Point","coordinates":[-76.992137,38.883154]}},{"properties":{"city":null,"zip":"83638","website":"http://www.sraproject.org/","notes":"Distributed 1150 copies of CAFO: The Tragedy of Industrial Animal Factories, and 225 copies of the CAFO Reader","organization":"Socially Responsible Agriculture Project","id":"7","state":null},"type":"Feature","geometry":{"type":"Point","coordinates":[-116.045642,44.87939]}},{"properties":{"city":null,"zip":"20037","website":"http://www.humanesociety.org/","notes":"Distributed 250 copies of CAFO: The Tragedy of Industrial Animal Factories, and 500 copies of the CAFO Reader","organization":"The Humane Society of the United States","id":"8","state":null},"type":"Feature","geometry":{"type":"Point","coordinates":[-77.048899,38.89338]}},{"properties":{"city":null,"zip":"30324","website":"www.georgiaorganics.org/","notes":"Distributed 50 copies of CAFO: The Tragedy of Industrial Animal Factories","organization":"Georgia Organics","id":"9","state":null},"type":"Feature","geometry":{"type":"Point","coordinates":[-84.357902,33.822412]}},{"properties":{"city":null,"zip":"95448","website":"www.watershedmedia.org","notes":"Distributed 650 copies of CAFO: The Tragedy of Industrial Animal Factories, and 100 copies of the CAFO Reader","organization":"Watershed Media","id":"10","state":null},"type":"Feature","geometry":{"type":"Point","coordinates":[-122.86135,38.619305]}},{"properties":{"city":null,"zip":"20036","website":"http://www.foodandwaterwatch.org/","notes":"Distributed 75 copies of CAFO: The Tragedy of Industrial Animal Factories","organization":"Food and Water Watch","id":"11","state":null},"type":"Feature","geometry":{"type":"Point","coordinates":[-77.041659,38.90812]}},{"properties":{"city":"London","zip":"WC1X","website":"http://www.wspa.org.uk/","notes":"Distributed 25 copies of CAFO: The Tragedy of Industrial Animal Factories, and 25 copies of the CAFO Reader","organization":"World Society for the Protection of Animals, UK","id":"12","state":null},"type":"Feature","geometry":{"type":"Point","coordinates":[-0.11304,51.523224]}},{"properties":{"city":null,"zip":"2111","website":"http://www.wspa-usa.org/","notes":null,"organization":"World Society for the Protection of Animals, USA","id":"13","state":null},"type":"Feature","geometry":{"type":"Point","coordinates":[-123.045601,45.176384]}},{"properties":{"city":"Saskatoon","zip":"S7H2H6","website":"http://beyondfactoryfarming.org/","notes":null,"organization":"Beyond Factory Farming","id":"14","state":"SK"},"type":"Feature","geometry":{"type":"Point","coordinates":[-106.639797,52.11092]}},{"properties":{"city":null,"zip":"42301","website":"http://kentucky.sierraclub.org/","notes":"Distributed 50 copies of CAFO: The Tragedy of Industrial Animal Factories, and 50 copies of the CAFO Reader","organization":"The Sierra Club, KY Chapter","id":"15","state":null},"type":"Feature","geometry":{"type":"Point","coordinates":[-87.172023,37.7515]}},{"properties":{"city":null,"zip":"48906","website":"http://michigan.sierraclub.org/","notes":"Distributed 150 copies of CAFO: The Tragedy of Industrial Animal Factories","organization":"The Sierra Club, Michigan Chapter","id":"16","state":null},"type":"Feature","geometry":{"type":"Point","coordinates":[-84.564869,42.765738]}},{"properties":{"city":null,"zip":"49247","website":"http://www.nocafos.org/","notes":null,"organization":"Environmentally Concerned Citizens of South Central Michigan","id":"17","state":null},"type":"Feature","geometry":{"type":"Point","coordinates":[-84.342459,41.854037]}},{"properties":{"city":null,"zip":"60659","website":"http://www.foodanimalconcerns.org/","notes":"Distributed 80 copies of CAFO: The Tragedy of Industrial Animal Factories","organization":"Food Animal Concerns Trust","id":"18","state":null},"type":"Feature","geometry":{"type":"Point","coordinates":[-123.045601,45.176384]}},{"properties":{"city":null,"zip":"17314","website":"http://www.pbccg.com/","notes":"Distributed 100 copies of CAFO: The Tragedy of Industrial Animal Factories","organization":"Peach Bottom Concerned Citizens Group","id":"19","state":null},"type":"Feature","geometry":{"type":"Point","coordinates":[-76.342492,39.751097]}},{"properties":{"city":null,"zip":"53703","website":"http://familyfarmers.org/","notes":"Distributed 45 copies of CAFO: The Tragedy of Industrial Animal Factories","organization":"Family Farm Defenders","id":"20","state":null},"type":"Feature","geometry":{"type":"Point","coordinates":[-89.377922,43.079252]}},{"properties":{"city":null,"zip":"5602","website":"http://www.ruralvermont.org/","notes":"Distributed 25 copies of CAFO: The Tragedy of Industrial Animal Factories, and 10 copies of the CAFO Reader","organization":"Rural Vermont","id":"21","state":null},"type":"Feature","geometry":{"type":"Point","coordinates":[-123.045601,45.176384]}},{"properties":{"city":null,"zip":"52556","website":"http://www.jfaniowa.org/","notes":"Distributed 1436 copies of CAFO: The Tragedy of Industrial Animal Factories, and 80 copies of the CAFO Reader","organization":"Jefferson County Farmers and Neighbors","id":"22","state":null},"type":"Feature","geometry":{"type":"Point","coordinates":[-91.954049,41.01194]}},{"properties":{"city":null,"zip":"20912","website":"http://www.cok.net/","notes":"Distributed 24 copies of CAFO: The Tragedy of Industrial Animal Factories, and 20 copies of the CAFO Reader","organization":"Compassion Over Killing","id":"23","state":null},"type":"Feature","geometry":{"type":"Point","coordinates":[-76.99943,38.982448]}},{"properties":{"city":null,"zip":"54930","website":"http://www.friendsofcs.org/","notes":"Distributed 200 copies of CAFO: The Tragedy of Industrial Animal Factories","organization":"Friends of Central Sands","id":"24","state":null},"type":"Feature","geometry":{"type":"Point","coordinates":[-89.512191,44.02739]}},{"properties":{"city":null,"zip":"10003","website":"http://www.glynwood.org/glynwood-institute/","notes":"Distributed 50 copies of The CAFO Reader","organization":"Glynwood Institute","id":"25","state":null},"type":"Feature","geometry":{"type":"Point","coordinates":[-73.987432,40.732947]}},{"properties":{"city":null,"zip":"94720","website":"http://www.facebook.com/calveg","notes":"Distributed 11 copies of CAFO: The Tragedy of Industrial Animal Factories","organization":"Berkeley Organization for Animal Advocacy","id":"26","state":null},"type":"Feature","geometry":{"type":"Point","coordinates":[-122.258308,37.872828]}},{"properties":{"city":null,"zip":"61087","website":"www.stopthemegadairy.org/","notes":"Distributed 50 copies of CAFO: The Tragedy of Industrial Animal Factories","organization":"Helping Others Maintain Environmental Standards","id":"27","state":null},"type":"Feature","geometry":{"type":"Point","coordinates":[-89.988519,42.49065]}},{"properties":{"city":null,"zip":"10591","website":"Stone Barns\nwww.stonebarnscenter.org/","notes":"Distributed 21 copies of CAFO: The Tragedy of Industrial Animal Factories","organization":"Stone Barns Center","id":"28","state":null},"type":"Feature","geometry":{"type":"Point","coordinates":[-73.854269,41.081121]}},{"properties":{"city":null,"zip":"13041","website":"PhoenixTalks.com\nwww.phoenixtalks.com/","notes":null,"organization":"Citizens for Family Farms","id":"29","state":null},"type":"Feature","geometry":{"type":"Point","coordinates":[-76.172079,43.173899]}},{"properties":{"city":null,"zip":"54628","website":"crawfordstewardshipproject.org/","notes":null,"organization":"Crawford Stewardship Project","id":"30","state":null},"type":"Feature","geometry":{"type":"Point","coordinates":[-91.04046,43.37417]}},{"properties":{"city":null,"zip":"20002","website":"www.nsac.org/","notes":null,"organization":"National Sustainalbe  Agriculture Coalition","id":"31","state":null},"type":"Feature","geometry":{"type":"Point","coordinates":[-76.989243,38.904102]}},{"properties":{"city":null,"zip":"20016","website":"http://www.pcrm.org/","notes":null,"organization":"Physicians Committee for Responsible Medicine","id":"32","state":null},"type":"Feature","geometry":{"type":"Point","coordinates":[-77.088479,38.9398]}},{"properties":{"city":null,"zip":"20010","website":"http://awellfedworld.org/","notes":null,"organization":"A Well- Fed World","id":"33","state":null},"type":"Feature","geometry":{"type":"Point","coordinates":[-77.027167,38.932207]}},{"properties":{"city":null,"zip":"GU7 1EZ","website":"http://www.ciwf.org.uk/","notes":null,"organization":"Compassion in World Farming Dorset","id":"34","state":null},"type":"Feature","geometry":{"type":"Point","coordinates":[-0.617705,51.184895]}},{"properties":{"city":null,"zip":"2141","website":"www.farmaid.org/","notes":null,"organization":"Farm Aid","id":"35","state":null},"type":"Feature","geometry":{"type":"Point","coordinates":[120.32505,31.58254]}},{"properties":{"city":null,"zip":"48108","website":"www.animalsandsociety.org/","notes":null,"organization":"Animals in Society Institute","id":"36","state":null},"type":"Feature","geometry":{"type":"Point","coordinates":[-123.045601,45.176384]}},{"properties":{"city":null,"zip":"6491","website":"www.nofa.org/","notes":null,"organization":"Organic Farmers Association","id":"37","state":null},"type":"Feature","geometry":{"type":"Point","coordinates":[8.472505,46.57723]}},{"properties":{"city":null,"zip":"BS1 3NX","website":"www.soilassociation.org/","notes":null,"organization":"Soil Association","id":"38","state":null},"type":"Feature","geometry":{"type":"Point","coordinates":[-2.590195,51.459589]}},{"properties":{"city":null,"zip":"17236","website":"www.celdf.org/","notes":null,"organization":"Community Environmental Legal Defense Fund","id":"39","state":null},"type":"Feature","geometry":{"type":"Point","coordinates":[-77.92047,39.795841]}},{"properties":{"city":null,"zip":"20036","website":"www.worldwatch.org/nourishingtheplanet","notes":null,"organization":"Nourish the Planet- Worldwatch Institute","id":"40","state":null},"type":"Feature","geometry":{"type":"Point","coordinates":[-77.041659,38.90812]}},{"properties":{"city":null,"zip":"94901","website":"www.idausa.org/","notes":null,"organization":"In Defense of Animals","id":"41","state":null},"type":"Feature","geometry":{"type":"Point","coordinates":[-122.51346,37.974461]}},{"properties":{"city":"Bristol","zip":"BS2 8QH","website":"www.viva.org.uk/","notes":null,"organization":"Viva! - Vegetarians International Voice for Animals","id":"42","state":null},"type":"Feature","geometry":{"type":"Point","coordinates":[-2.586945,51.461004]}},{"properties":{"city":null,"zip":"1773","website":"thefoodproject.org/","notes":null,"organization":"The Food Project","id":"43","state":null},"type":"Feature","geometry":{"type":"Point","coordinates":[-123.045601,45.176384]}},{"properties":{"city":null,"zip":"53202","website":"www.midwestadvocates.org/","notes":null,"organization":"Midwest Environmental Advocates","id":"44","state":null},"type":"Feature","geometry":{"type":"Point","coordinates":[-87.899093,43.043254]}},{"properties":{"city":null,"zip":"97208","website":"www.farmforward.com/","notes":null,"organization":"Farm Forward","id":"45","state":null},"type":"Feature","geometry":{"type":"Point","coordinates":[-123.045601,45.176384]}},{"properties":{"city":null,"zip":"30303","website":"greenlaw.org/","notes":null,"organization":"Green Law","id":"46","state":null},"type":"Feature","geometry":{"type":"Point","coordinates":[-84.389709,33.75438]}},{"properties":{"city":null,"zip":"10036","website":"www.justfood.org/","notes":null,"organization":"Just Food","id":"47","state":null},"type":"Feature","geometry":{"type":"Point","coordinates":[-73.990262,40.759136]}},{"properties":{"city":null,"zip":"55603","website":"www.organicconsumers.org/","notes":null,"organization":"Organic Consumers Association","id":"48","state":null},"type":"Feature","geometry":{"type":"Point","coordinates":[-91.20941,47.51785]}},{"properties":{"city":null,"zip":"10016","website":"www.gracelinks.org/","notes":null,"organization":"GRACE","id":"49","state":null},"type":"Feature","geometry":{"type":"Point","coordinates":[-73.977736,40.745564]}},{"properties":{"city":null,"zip":"20009","website":"www.edf.org/","notes":null,"organization":"Environmental Defense Fund","id":"50","state":null},"type":"Feature","geometry":{"type":"Point","coordinates":[-77.037698,38.919129]}},{"properties":{"city":null,"zip":"55404","website":"www.iatp.org/","notes":null,"organization":"Institute for Agriculture and Trade Policy","id":"51","state":null},"type":"Feature","geometry":{"type":"Point","coordinates":[-93.261059,44.96332]}},{"properties":{"city":null,"zip":"55407","website":"www.landstewardshipproject.org/","notes":null,"organization":"Land Stewardship Project","id":"52","state":null},"type":"Feature","geometry":{"type":"Point","coordinates":[-93.254934,44.93684]}},{"properties":{"city":null,"zip":"20002","website":"www.nffc.net/","notes":null,"organization":"National Family Farm Coalition","id":"53","state":null},"type":"Feature","geometry":{"type":"Point","coordinates":[-76.989243,38.904102]}},{"properties":{"city":null,"zip":"59101","website":"www.worc.org/","notes":null,"organization":"Western Organization of Resource Councils","id":"54","state":null},"type":"Feature","geometry":{"type":"Point","coordinates":[-108.497686,45.770272]}},{"properties":{"city":null,"zip":"43212","website":"www.theoec.org/","notes":null,"organization":"Ohio Environmental Counsil","id":"55","state":null},"type":"Feature","geometry":{"type":"Point","coordinates":[-83.040743,39.99079]}},{"properties":{"city":null,"zip":"20036","website":"www.defenders.org/","notes":null,"organization":"Defenders of Wildlife","id":"56","state":null},"type":"Feature","geometry":{"type":"Point","coordinates":[-77.041659,38.90812]}},{"properties":{"city":null,"zip":"53561","website":"cswab.org/","notes":null,"organization":"Citizens for Safe Water Around Badger","id":"57","state":null},"type":"Feature","geometry":{"type":"Point","coordinates":[-89.648933,43.388496]}},{"properties":{"city":null,"zip":"53061","website":"www.wisrawmilkassociation.com/","notes":null,"organization":"Wisconsin Raw Milk Association","id":"58","state":null},"type":"Feature","geometry":{"type":"Point","coordinates":[-88.098314,43.94796]}},{"properties":{"city":null,"zip":"46208","website":"www.hecweb.org/","notes":null,"organization":"Hoosier Environmental Council","id":"59","state":null},"type":"Feature","geometry":{"type":"Point","coordinates":[-86.171618,39.824718]}},{"properties":{"city":null,"zip":"10025","website":"www.foodfight.org/","notes":null,"organization":"FoodFight","id":"60","state":null},"type":"Feature","geometry":{"type":"Point","coordinates":[-73.968899,40.80008]}},{"properties":{"city":null,"zip":"54767","website":"www.mosesorganic.org/","notes":null,"organization":"Midwest Organic and Sustainable Education Service","id":"61","state":null},"type":"Feature","geometry":{"type":"Point","coordinates":[-92.269777,44.83372]}},{"properties":{"city":null,"zip":"77057","website":"www.cechouston.org/","notes":null,"organization":"Citizens' Environmental Coalition","id":"62","state":null},"type":"Feature","geometry":{"type":"Point","coordinates":[-95.488655,29.74407]}},{"properties":{"city":null,"zip":"72702","website":"www.ssawg.org/","notes":null,"organization":"Southern SAWG","id":"63","state":null},"type":"Feature","geometry":{"type":"Point","coordinates":[-94.091343,35.94558]}},{"properties":{"city":null,"zip":"54016","website":"grassworks.org/","notes":null,"organization":"GrassWorks","id":"64","state":null},"type":"Feature","geometry":{"type":"Point","coordinates":[-92.712545,44.9747]}},{"properties":{"city":null,"zip":"58458","website":"www.npsas.org/","notes":null,"organization":"Northern Plains Sustainable Agriculture Society","id":"65","state":null},"type":"Feature","geometry":{"type":"Point","coordinates":[-98.285369,46.36779]}},{"properties":{"city":null,"zip":"43402","website":"www.wccoff.org/","notes":null,"organization":"Wood County Citizens Opposed to Factory Farms","id":"66","state":null},"type":"Feature","geometry":{"type":"Point","coordinates":[-83.658575,41.38537]}},{"properties":{"city":null,"zip":"54302","website":"www.cwac.net/","notes":null,"organization":"Clean Water Action Council","id":"67","state":null},"type":"Feature","geometry":{"type":"Point","coordinates":[-87.977459,44.504175]}},{"properties":{"city":null,"zip":"20005","website":"www.environmentalintegrity.org/","notes":null,"organization":"Environmental Integrity Project","id":"68","state":null},"type":"Feature","geometry":{"type":"Point","coordinates":[-77.031079,38.904363]}},{"properties":{"city":null,"zip":"78701","website":"www.environmentalintegrity.org/","notes":null,"organization":"Environmental Integrity Project","id":"69","state":null},"type":"Feature","geometry":{"type":"Point","coordinates":[-97.740189,30.272469]}},{"properties":{"city":null,"zip":"22201","website":"www.animalagalliance.org/","notes":null,"organization":"Animal Agriculture Alliance","id":"70","state":null},"type":"Feature","geometry":{"type":"Point","coordinates":[-77.094879,38.88659]}},{"properties":{"city":null,"zip":"87931","website":"caballonm.com/","notes":null,"organization":"Caballo Concerned Citizens Group","id":"71","state":null},"type":"Feature","geometry":{"type":"Point","coordinates":[-107.325197,32.965225]}},{"properties":{"city":null,"zip":"88240","website":"www.dairynm.org/","notes":null,"organization":"Citizens for Diary Reform","id":"72","state":null},"type":"Feature","geometry":{"type":"Point","coordinates":[-103.155709,32.700679]}},{"properties":{"city":null,"zip":"10011","website":"www.nrdc.org/","notes":null,"organization":"The Natural Resources Defense Council","id":"73","state":null},"type":"Feature","geometry":{"type":"Point","coordinates":[-74.002552,40.742266]}},{"properties":{"city":null,"zip":"50010","website":"www.wfan.org/","notes":null,"organization":"Women, Food and Agriculture Network","id":"74","state":null},"type":"Feature","geometry":{"type":"Point","coordinates":[-93.614729,42.03453]}},{"properties":{"city":null,"zip":"96021","website":"www.farmsanctuary.org/","notes":null,"organization":"Farm Sanctuary","id":"75","state":null},"type":"Feature","geometry":{"type":"Point","coordinates":[-122.218719,39.93921]}},{"properties":{"city":null,"zip":"94618","website":"http://www.foodfirst.org/","notes":null,"organization":"First Food: Instituted for Food and Development Policy","id":"76","state":null},"type":"Feature","geometry":{"type":"Point","coordinates":[-122.242149,37.843671]}},{"properties":{"city":null,"zip":"97075","website":"cookingupastory.com/","notes":null,"organization":"Cooking Up a Story","id":"77","state":null},"type":"Feature","geometry":{"type":"Point","coordinates":[-122.799973,45.496454]}},{"properties":{"city":null,"zip":"98417","website":"www.eatwild.com/","notes":null,"organization":"Eat Wild","id":"78","state":null},"type":"Feature","geometry":{"type":"Point","coordinates":[-122.439915,47.248495]}},{"properties":{"city":null,"zip":"94618","website":"info@foodfirst.org","notes":null,"organization":"First  Food","id":"79","state":null},"type":"Feature","geometry":{"type":"Point","coordinates":[-122.242149,37.843671]}},{"properties":{"city":null,"zip":"22314","website":"www.animalwelfareapproved.org/","notes":null,"organization":"Animal Welfare Approved","id":"80","state":null},"type":"Feature","geometry":{"type":"Point","coordinates":[-77.052068,38.80747]}},{"properties":{"city":null,"zip":"80246","website":"www.americangrassfed.org/","notes":null,"organization":"American Grassfed Association","id":"81","state":null},"type":"Feature","geometry":{"type":"Point","coordinates":[-104.931269,39.70589]}},{"properties":{"city":null,"zip":"98273","website":"wsffn.org/","notes":null,"organization":"Washington Sustainable Food &amp; Farming Network","id":"82","state":null},"type":"Feature","geometry":{"type":"Point","coordinates":[-122.358871,48.40308]}},{"properties":{"city":null,"zip":"50010","website":"www.practicalfarmers.org/","notes":null,"organization":"Practical Farmers of Iowa","id":"83","state":null},"type":"Feature","geometry":{"type":"Point","coordinates":[-93.614729,42.03453]}},{"properties":{"city":null,"zip":"94102","website":"www.panna.org/","notes":null,"organization":"Pesticide Action Network North America","id":"84","state":null},"type":"Feature","geometry":{"type":"Point","coordinates":[-122.418444,37.779541]}},{"properties":{"city":null,"zip":"16854","website":"www.pasafarming.org/","notes":null,"organization":"Pennsylvania Association for Sustainable Agriculture","id":"85","state":null},"type":"Feature","geometry":{"type":"Point","coordinates":[-77.476009,40.89149]}},{"properties":{"city":null,"zip":"98101","website":"www.pccfarmlandtrust.org/","notes":null,"organization":"PCC Farmland Trust","id":"86","state":null},"type":"Feature","geometry":{"type":"Point","coordinates":[-122.335847,47.610588]}},{"properties":{"city":null,"zip":"12583","website":null,"notes":null,"organization":"Young Farmers Coalition","id":"87","state":null},"type":"Feature","geometry":{"type":"Point","coordinates":[-73.885079,42.05395]}},{"properties":{"city":null,"zip":"98232","website":null,"notes":null,"organization":"Island Grown Farmers Coalition","id":"88","state":null},"type":"Feature","geometry":{"type":"Point","coordinates":[-122.412776,48.559652]}},{"properties":{"city":null,"zip":"2021","website":null,"notes":null,"organization":"Voiceless","id":"89","state":"NSW"},"type":"Feature","geometry":{"type":"Point","coordinates":[151.228447,-33.89142]}}],"is_temporal":false,"author":{"url":"","metadata":"","contact_name":"Watershed Media","contact_address":"www.watershedmedia.org\r\nwww.cafothebook.org","source":"Watershed Media","contact_phone":"707.431.2936"},"source":"","pagination":{"sort":null,"start":0,"total":90,"limit":1000000},"state":"complete","tags":"agriculture,animal,cafo,environment,factory,farming,pollan,sustainability,welfare","published":"2014-08-14T17:17:08-04:00","id":241839}