{"type":"FeatureCollection","data_type":"Dataset","url_type":null,"permissions":[{"permissions":{"download":true,"view":true},"group_id":"everyone"}],"classification":null,"title":"5.134426015182148","count":129,"stream_id":284141,"contributor":{"url":"http://geocommons.com/users/53702","name":"skafararix"},"data_attributes":null,"calculation_params":null,"icon_link":null,"link":"http://geocommons.com/overlays/284141.json","extent":[0.0,0.0,0.0,0.0],"geometry_types":null,"unique_name":null,"name":"5.134426015182148","feature_count":129,"description":"","next_feature":null,"is_raster":false,"short_classification":"Y","features":[{"properties":{"column_10":"","2010*":"tonnes","itemcode":"486","area":"Algeria","2010**":"F","2010":"320.00","item":"Bananas","areacode":"4","id":"a9bq13atl34g","elementcode":"5510","element":"Production"},"type":"Feature","geometry":null},{"properties":{"column_10":"","2010*":"tonnes","itemcode":"486","area":"American Samoa","2010**":"F","2010":"1,100.00","item":"Bananas","areacode":"5","id":"a9bq13c9mxsh","elementcode":"5510","element":"Production"},"type":"Feature","geometry":null},{"properties":{"column_10":"","2010*":"tonnes","itemcode":"486","area":"Angola","2010**":"F","2010":"432,700.00","item":"Bananas","areacode":"7","id":"a9bq13l5qblq","elementcode":"5510","element":"Production"},"type":"Feature","geometry":null},{"properties":{"column_10":"","2010*":"tonnes","itemcode":"486","area":"Antigua and Barbuda","2010**":"F","2010":"220.00","item":"Bananas","areacode":"8","id":"a9bq137roork","elementcode":"5510","element":"Production"},"type":"Feature","geometry":null},{"properties":{"column_10":"","2010*":"tonnes","itemcode":"486","area":"Argentina","2010**":"F","2010":"171,000.00","item":"Bananas","areacode":"9","id":"a9bq13ke0s29","elementcode":"5510","element":"Production"},"type":"Feature","geometry":null},{"properties":{"column_10":"","2010*":"tonnes","itemcode":"486","area":"Australia","2010**":"","2010":"302,173.00","item":"Bananas","areacode":"10","id":"a9bq13h0yelz","elementcode":"5510","element":"Production"},"type":"Feature","geometry":null},{"properties":{"column_10":"","2010*":"tonnes","itemcode":"486","area":"Bahamas","2010**":"F","2010":"4,300.00","item":"Bananas","areacode":"12","id":"a9bq13h86zsn","elementcode":"5510","element":"Production"},"type":"Feature","geometry":null},{"properties":{"column_10":"","2010*":"tonnes","itemcode":"486","area":"Bahrain","2010**":"F","2010":"890.00","item":"Bananas","areacode":"13","id":"a9bq1378tlpj","elementcode":"5510","element":"Production"},"type":"Feature","geometry":null},{"properties":{"column_10":"","2010*":"tonnes","itemcode":"486","area":"Bangladesh","2010**":"","2010":"818,254.00","item":"Bananas","areacode":"16","id":"a9bq13bedomi","elementcode":"5510","element":"Production"},"type":"Feature","geometry":null},{"properties":{"column_10":"","2010*":"tonnes","itemcode":"486","area":"Barbados","2010**":"F","2010":"860.00","item":"Bananas","areacode":"14","id":"a9bq137e0a6r","elementcode":"5510","element":"Production"},"type":"Feature","geometry":null},{"properties":{"column_10":"","2010*":"tonnes","itemcode":"486","area":"Belize","2010**":"F","2010":"70,100.00","item":"Bananas","areacode":"23","id":"a9bq13hcstt0","elementcode":"5510","element":"Production"},"type":"Feature","geometry":null},{"properties":{"column_10":"","2010*":"tonnes","itemcode":"486","area":"Benin","2010**":"F","2010":"18,000.00","item":"Bananas","areacode":"53","id":"a9bq13j9bv7h","elementcode":"5510","element":"Production"},"type":"Feature","geometry":null},{"properties":{"column_10":"","2010*":"tonnes","itemcode":"486","area":"Bermuda","2010**":"F","2010":"370.00","item":"Bananas","areacode":"17","id":"a9bq13bthr2b","elementcode":"5510","element":"Production"},"type":"Feature","geometry":null},{"properties":{"column_10":"","2010*":"tonnes","itemcode":"486","area":"Bhutan","2010**":"","2010":"2,208.00","item":"Bananas","areacode":"18","id":"a9bq13g9qt7s","elementcode":"5510","element":"Production"},"type":"Feature","geometry":null},{"properties":{"column_10":"","2010*":"tonnes","itemcode":"486","area":"Bolivia (Plurinational State of)","2010**":"","2010":"158,178.00","item":"Bananas","areacode":"19","id":"a9bq13fvwq16","elementcode":"5510","element":"Production"},"type":"Feature","geometry":null},{"properties":{"column_10":"","2010*":"tonnes","itemcode":"486","area":"Brazil","2010**":"","2010":"6,962,790.00","item":"Bananas","areacode":"21","id":"a9bq13cctq2h","elementcode":"5510","element":"Production"},"type":"Feature","geometry":null},{"properties":{"column_10":"","2010*":"tonnes","itemcode":"486","area":"British Virgin Islands","2010**":"F","2010":"430.00","item":"Bananas","areacode":"239","id":"a9bq13g0218d","elementcode":"5510","element":"Production"},"type":"Feature","geometry":null},{"properties":{"column_10":"","2010*":"tonnes","itemcode":"486","area":"Brunei Darussalam","2010**":"F","2010":"810.00","item":"Bananas","areacode":"26","id":"a9bq13ajheex","elementcode":"5510","element":"Production"},"type":"Feature","geometry":null},{"properties":{"column_10":"","2010*":"tonnes","itemcode":"486","area":"Burundi","2010**":"","2010":"1,912,660.00","item":"Bananas","areacode":"29","id":"a9bq13ixl00v","elementcode":"5510","element":"Production"},"type":"Feature","geometry":null},{"properties":{"column_10":"","2010*":"tonnes","itemcode":"486","area":"Cambodia","2010**":"F","2010":"159,000.00","item":"Bananas","areacode":"115","id":"a9bq13aumhsv","elementcode":"5510","element":"Production"},"type":"Feature","geometry":null},{"properties":{"column_10":"","2010*":"tonnes","itemcode":"486","area":"Cameroon","2010**":"","2010":"950,200.00","item":"Bananas","areacode":"32","id":"a9bq13kbfug4","elementcode":"5510","element":"Production"},"type":"Feature","geometry":null},{"properties":{"column_10":"","2010*":"tonnes","itemcode":"486","area":"Cape Verde","2010**":"F","2010":"8,900.00","item":"Bananas","areacode":"35","id":"a9bq13h6nizt","elementcode":"5510","element":"Production"},"type":"Feature","geometry":null},{"properties":{"column_10":"","2010*":"tonnes","itemcode":"486","area":"Cayman Islands","2010**":"F","2010":"195.00","item":"Bananas","areacode":"36","id":"a9bq13ckdszg","elementcode":"5510","element":"Production"},"type":"Feature","geometry":null},{"properties":{"column_10":"","2010*":"tonnes","itemcode":"486","area":"Central African Republic","2010**":"F","2010":"126,000.00","item":"Bananas","areacode":"37","id":"a9bq13fekm1t","elementcode":"5510","element":"Production"},"type":"Feature","geometry":null},{"properties":{"column_10":"","2010*":"tonnes","itemcode":"486","area":"China","2010**":"","2010":"9,848,895.00","item":"Bananas","areacode":"351","id":"a9bq13cn1tsp","elementcode":"5510","element":"Production"},"type":"Feature","geometry":null},{"properties":{"column_10":"","2010*":"tonnes","itemcode":"486","area":"Colombia","2010**":"","2010":"2,034,340.00","item":"Bananas","areacode":"44","id":"a9bq13j5qxm8","elementcode":"5510","element":"Production"},"type":"Feature","geometry":null},{"properties":{"column_10":"","2010*":"tonnes","itemcode":"486","area":"Comoros","2010**":"F","2010":"44,400.00","item":"Bananas","areacode":"45","id":"a9bq13cegqku","elementcode":"5510","element":"Production"},"type":"Feature","geometry":null},{"properties":{"column_10":"","2010*":"tonnes","itemcode":"486","area":"Congo","2010**":"F","2010":"100,000.00","item":"Bananas","areacode":"46","id":"a9bq13778op8","elementcode":"5510","element":"Production"},"type":"Feature","geometry":null},{"properties":{"column_10":"","2010*":"tonnes","itemcode":"486","area":"Cook Islands","2010**":"F","2010":"90.00","item":"Bananas","areacode":"47","id":"a9bq136ovveh","elementcode":"5510","element":"Production"},"type":"Feature","geometry":null},{"properties":{"column_10":"","2010*":"tonnes","itemcode":"486","area":"Costa Rica","2010**":"","2010":"1,803,940.00","item":"Bananas","areacode":"48","id":"a9bq13chotkp","elementcode":"5510","element":"Production"},"type":"Feature","geometry":null},{"properties":{"column_10":"","2010*":"tonnes","itemcode":"486","area":"CÃ´te d'Ivoire","2010**":"","2010":"314,270.00","item":"Bananas","areacode":"107","id":"a9bq13kja0si","elementcode":"5510","element":"Production"},"type":"Feature","geometry":null},{"properties":{"column_10":"","2010*":"tonnes","itemcode":"486","area":"Cuba","2010**":"","2010":"249,200.00","item":"Bananas","areacode":"49","id":"a9bq13heqm7p","elementcode":"5510","element":"Production"},"type":"Feature","geometry":null},{"properties":{"column_10":"","2010*":"tonnes","itemcode":"486","area":"Cyprus","2010**":"","2010":"5,980.00","item":"Bananas","areacode":"50","id":"a9bq13dlzuyh","elementcode":"5510","element":"Production"},"type":"Feature","geometry":null},{"properties":{"column_10":"","2010*":"tonnes","itemcode":"486","area":"Democratic Republic of the Congo","2010**":"","2010":"316,472.00","item":"Bananas","areacode":"250","id":"a9bq13hsjv1f","elementcode":"5510","element":"Production"},"type":"Feature","geometry":null},{"properties":{"column_10":"","2010*":"tonnes","itemcode":"486","area":"Dominica","2010**":"F","2010":"21,000.00","item":"Bananas","areacode":"55","id":"a9bq137cen87","elementcode":"5510","element":"Production"},"type":"Feature","geometry":null},{"properties":{"column_10":"","2010*":"tonnes","itemcode":"486","area":"Dominican Republic","2010**":"","2010":"735,045.00","item":"Bananas","areacode":"56","id":"a9bq13do39tx","elementcode":"5510","element":"Production"},"type":"Feature","geometry":null},{"properties":{"column_10":"","2010*":"tonnes","itemcode":"486","area":"Ecuador","2010**":"","2010":"7,931,060.00","item":"Bananas","areacode":"58","id":"a9bq13dlx9rr","elementcode":"5510","element":"Production"},"type":"Feature","geometry":null},{"properties":{"column_10":"","2010*":"tonnes","itemcode":"486","area":"Egypt","2010**":"","2010":"1,028,950.00","item":"Bananas","areacode":"59","id":"a9bq13ex9tzl","elementcode":"5510","element":"Production"},"type":"Feature","geometry":null},{"properties":{"column_10":"","2010*":"tonnes","itemcode":"486","area":"El Salvador","2010**":"F","2010":"39,000.00","item":"Bananas","areacode":"60","id":"a9bq13l3umg9","elementcode":"5510","element":"Production"},"type":"Feature","geometry":null},{"properties":{"column_10":"","2010*":"tonnes","itemcode":"486","area":"Equatorial Guinea","2010**":"F","2010":"27,200.00","item":"Bananas","areacode":"61","id":"a9bq13d5wn26","elementcode":"5510","element":"Production"},"type":"Feature","geometry":null},{"properties":{"column_10":"","2010*":"tonnes","itemcode":"486","area":"Ethiopia","2010**":"","2010":"270,572.00","item":"Bananas","areacode":"238","id":"a9bq13amnddo","elementcode":"5510","element":"Production"},"type":"Feature","geometry":null},{"properties":{"column_10":"","2010*":"tonnes","itemcode":"486","area":"Fiji","2010**":"F","2010":"3,100.00","item":"Bananas","areacode":"66","id":"a9bq13hhra96","elementcode":"5510","element":"Production"},"type":"Feature","geometry":null},{"properties":{"column_10":"","2010*":"tonnes","itemcode":"486","area":"French Guiana","2010**":"F","2010":"3,800.00","item":"Bananas","areacode":"69","id":"a9bq13iad5a8","elementcode":"5510","element":"Production"},"type":"Feature","geometry":null},{"properties":{"column_10":"","2010*":"tonnes","itemcode":"486","area":"French Polynesia","2010**":"F","2010":"1,100.00","item":"Bananas","areacode":"70","id":"a9bq13elb55a","elementcode":"5510","element":"Production"},"type":"Feature","geometry":null},{"properties":{"column_10":"","2010*":"tonnes","itemcode":"486","area":"Gabon","2010**":"F","2010":"13,600.00","item":"Bananas","areacode":"74","id":"a9bq13jfz2hp","elementcode":"5510","element":"Production"},"type":"Feature","geometry":null},{"properties":{"column_10":"","2010*":"tonnes","itemcode":"486","area":"Ghana","2010**":"F","2010":"64,500.00","item":"Bananas","areacode":"81","id":"a9bq1370lqcn","elementcode":"5510","element":"Production"},"type":"Feature","geometry":null},{"properties":{"column_10":"","2010*":"tonnes","itemcode":"486","area":"Greece","2010**":"F","2010":"3,300.00","item":"Bananas","areacode":"84","id":"a9bq13gkxqo1","elementcode":"5510","element":"Production"},"type":"Feature","geometry":null},{"properties":{"column_10":"","2010*":"tonnes","itemcode":"486","area":"Grenada","2010**":"F","2010":"3,000.00","item":"Bananas","areacode":"86","id":"a9bq13e4erqy","elementcode":"5510","element":"Production"},"type":"Feature","geometry":null},{"properties":{"column_10":"","2010*":"tonnes","itemcode":"486","area":"Guadeloupe","2010**":"F","2010":"68,000.00","item":"Bananas","areacode":"87","id":"a9bq138n8dxs","elementcode":"5510","element":"Production"},"type":"Feature","geometry":null},{"properties":{"column_10":"","2010*":"tonnes","itemcode":"486","area":"Guam","2010**":"F","2010":"490.00","item":"Bananas","areacode":"88","id":"a9bq13m42ab8","elementcode":"5510","element":"Production"},"type":"Feature","geometry":null},{"properties":{"column_10":"","2010*":"tonnes","itemcode":"486","area":"Guatemala","2010**":"","2010":"2,637,570.00","item":"Bananas","areacode":"89","id":"a9bq13aaieud","elementcode":"5510","element":"Production"},"type":"Feature","geometry":null},{"properties":{"column_10":"","2010*":"tonnes","itemcode":"486","area":"Guinea","2010**":"F","2010":"201,500.00","item":"Bananas","areacode":"90","id":"a9bq13b2d1dp","elementcode":"5510","element":"Production"},"type":"Feature","geometry":null},{"properties":{"column_10":"","2010*":"tonnes","itemcode":"486","area":"Guinea-Bissau","2010**":"F","2010":"4,900.00","item":"Bananas","areacode":"175","id":"a9bq13d7h4yp","elementcode":"5510","element":"Production"},"type":"Feature","geometry":null},{"properties":{"column_10":"","2010*":"tonnes","itemcode":"486","area":"Guyana","2010**":"F","2010":"6,400.00","item":"Bananas","areacode":"91","id":"a9bq13bhhhsa","elementcode":"5510","element":"Production"},"type":"Feature","geometry":null},{"properties":{"column_10":"","2010*":"tonnes","itemcode":"486","area":"Haiti","2010**":"F","2010":"335,000.00","item":"Bananas","areacode":"93","id":"a9bq13l2ra32","elementcode":"5510","element":"Production"},"type":"Feature","geometry":null},{"properties":{"column_10":"","2010*":"tonnes","itemcode":"486","area":"Honduras","2010**":"","2010":"750,788.00","item":"Bananas","areacode":"95","id":"a9bq13ev680d","elementcode":"5510","element":"Production"},"type":"Feature","geometry":null},{"properties":{"column_10":"","2010*":"tonnes","itemcode":"486","area":"India","2010**":"","2010":"29,780,000.00","item":"Bananas","areacode":"100","id":"a9bq13githam","elementcode":"5510","element":"Production"},"type":"Feature","geometry":null},{"properties":{"column_10":"","2010*":"tonnes","itemcode":"486","area":"Indonesia","2010**":"","2010":"5,755,070.00","item":"Bananas","areacode":"101","id":"a9bq13bgir3l","elementcode":"5510","element":"Production"},"type":"Feature","geometry":null},{"properties":{"column_10":"","2010*":"tonnes","itemcode":"486","area":"Iran (Islamic Republic of)","2010**":"F","2010":"108,300.00","item":"Bananas","areacode":"102","id":"a9bq13ke7osq","elementcode":"5510","element":"Production"},"type":"Feature","geometry":null},{"properties":{"column_10":"","2010*":"tonnes","itemcode":"486","area":"Israel","2010**":"","2010":"101,415.00","item":"Bananas","areacode":"105","id":"a9bq13hbo952","elementcode":"5510","element":"Production"},"type":"Feature","geometry":null},{"properties":{"column_10":"","2010*":"tonnes","itemcode":"486","area":"Italy","2010**":"F","2010":"340.00","item":"Bananas","areacode":"106","id":"a9bq139bb6rx","elementcode":"5510","element":"Production"},"type":"Feature","geometry":null},{"properties":{"column_10":"","2010*":"tonnes","itemcode":"486","area":"Jamaica","2010**":"*","2010":"63,850.00","item":"Bananas","areacode":"109","id":"a9bq13jaz7uu","elementcode":"5510","element":"Production"},"type":"Feature","geometry":null},{"properties":{"column_10":"","2010*":"tonnes","itemcode":"486","area":"Japan","2010**":"F","2010":"170.00","item":"Bananas","areacode":"110","id":"a9bq13ctl7sj","elementcode":"5510","element":"Production"},"type":"Feature","geometry":null},{"properties":{"column_10":"","2010*":"tonnes","itemcode":"486","area":"Jordan","2010**":"","2010":"43,753.00","item":"Bananas","areacode":"112","id":"a9bq136fa7zd","elementcode":"5510","element":"Production"},"type":"Feature","geometry":null},{"properties":{"column_10":"","2010*":"tonnes","itemcode":"486","area":"Kenya","2010**":"*","2010":"791,570.00","item":"Bananas","areacode":"114","id":"a9bq139fkil7","elementcode":"5510","element":"Production"},"type":"Feature","geometry":null},{"properties":{"column_10":"","2010*":"tonnes","itemcode":"486","area":"Kiribati","2010**":"F","2010":"8,200.00","item":"Bananas","areacode":"83","id":"a9bq13d1kavt","elementcode":"5510","element":"Production"},"type":"Feature","geometry":null},{"properties":{"column_10":"","2010*":"tonnes","itemcode":"486","area":"Lao People's Democratic Republic","2010**":"F","2010":"60,500.00","item":"Bananas","areacode":"120","id":"a9bq13dnruh0","elementcode":"5510","element":"Production"},"type":"Feature","geometry":null},{"properties":{"column_10":"","2010*":"tonnes","itemcode":"486","area":"Lebanon","2010**":"F","2010":"87,500.00","item":"Bananas","areacode":"121","id":"a9bq13bu82fd","elementcode":"5510","element":"Production"},"type":"Feature","geometry":null},{"properties":{"column_10":"","2010*":"tonnes","itemcode":"486","area":"Liberia","2010**":"F","2010":"124,500.00","item":"Bananas","areacode":"123","id":"a9bq13jsqpxm","elementcode":"5510","element":"Production"},"type":"Feature","geometry":null},{"properties":{"column_10":"","2010*":"tonnes","itemcode":"486","area":"Madagascar","2010**":"F","2010":"231,800.00","item":"Bananas","areacode":"129","id":"a9bq13bfn4io","elementcode":"5510","element":"Production"},"type":"Feature","geometry":null},{"properties":{"column_10":"","2010*":"tonnes","itemcode":"486","area":"Malawi","2010**":"F","2010":"418,000.00","item":"Bananas","areacode":"130","id":"a9bq13bn4knk","elementcode":"5510","element":"Production"},"type":"Feature","geometry":null},{"properties":{"column_10":"","2010*":"tonnes","itemcode":"486","area":"Malaysia","2010**":"","2010":"294,530.00","item":"Bananas","areacode":"131","id":"a9bq13agezmb","elementcode":"5510","element":"Production"},"type":"Feature","geometry":null},{"properties":{"column_10":"","2010*":"tonnes","itemcode":"486","area":"Maldives","2010**":"*","2010":"6,500.00","item":"Bananas","areacode":"132","id":"a9bq1377x88h","elementcode":"5510","element":"Production"},"type":"Feature","geometry":null},{"properties":{"column_10":"","2010*":"tonnes","itemcode":"486","area":"Mali","2010**":"F","2010":"157,600.00","item":"Bananas","areacode":"133","id":"a9bq13k10e52","elementcode":"5510","element":"Production"},"type":"Feature","geometry":null},{"properties":{"column_10":"","2010*":"tonnes","itemcode":"486","area":"Martinique","2010**":"F","2010":"192,000.00","item":"Bananas","areacode":"135","id":"a9bq13k7ah0m","elementcode":"5510","element":"Production"},"type":"Feature","geometry":null},{"properties":{"column_10":"","2010*":"tonnes","itemcode":"486","area":"Mauritius","2010**":"","2010":"11,936.00","item":"Bananas","areacode":"137","id":"a9bq138x9y2c","elementcode":"5510","element":"Production"},"type":"Feature","geometry":null},{"properties":{"column_10":"","2010*":"tonnes","itemcode":"486","area":"Mexico","2010**":"","2010":"2,103,360.00","item":"Bananas","areacode":"138","id":"a9bq13i3tw4b","elementcode":"5510","element":"Production"},"type":"Feature","geometry":null},{"properties":{"column_10":"","2010*":"tonnes","itemcode":"486","area":"Micronesia (Federated States of)","2010**":"F","2010":"3,000.00","item":"Bananas","areacode":"145","id":"a9bq13c0g8l5","elementcode":"5510","element":"Production"},"type":"Feature","geometry":null},{"properties":{"column_10":"","2010*":"tonnes","itemcode":"486","area":"Montserrat","2010**":"F","2010":"170.00","item":"Bananas","areacode":"142","id":"a9bq136tfmsc","elementcode":"5510","element":"Production"},"type":"Feature","geometry":null},{"properties":{"column_10":"","2010*":"tonnes","itemcode":"486","area":"Morocco","2010**":"F","2010":"280,000.00","item":"Bananas","areacode":"143","id":"a9bq13klhtgj","elementcode":"5510","element":"Production"},"type":"Feature","geometry":null},{"properties":{"column_10":"","2010*":"tonnes","itemcode":"486","area":"Mozambique","2010**":"F","2010":"115,000.00","item":"Bananas","areacode":"144","id":"a9bq136rekfs","elementcode":"5510","element":"Production"},"type":"Feature","geometry":null},{"properties":{"column_10":"","2010*":"tonnes","itemcode":"486","area":"Nepal","2010**":"","2010":"91,042.00","item":"Bananas","areacode":"149","id":"a9bq13l3rvzw","elementcode":"5510","element":"Production"},"type":"Feature","geometry":null},{"properties":{"column_10":"","2010*":"tonnes","itemcode":"486","area":"New Caledonia","2010**":"","2010":"1,089.00","item":"Bananas","areacode":"153","id":"a9bq13hw408b","elementcode":"5510","element":"Production"},"type":"Feature","geometry":null},{"properties":{"column_10":"","2010*":"tonnes","itemcode":"486","area":"Nicaragua","2010**":"","2010":"35,213.80","item":"Bananas","areacode":"157","id":"a9bq13lzlmry","elementcode":"5510","element":"Production"},"type":"Feature","geometry":null},{"properties":{"column_10":"","2010*":"tonnes","itemcode":"486","area":"Niue","2010**":"F","2010":"110.00","item":"Bananas","areacode":"160","id":"a9bq1367mvyv","elementcode":"5510","element":"Production"},"type":"Feature","geometry":null},{"properties":{"column_10":"","2010*":"tonnes","itemcode":"486","area":"Occupied Palestinian Territory","2010**":"F","2010":"5,200.00","item":"Bananas","areacode":"299","id":"a9bq138vyt1w","elementcode":"5510","element":"Production"},"type":"Feature","geometry":null},{"properties":{"column_10":"","2010*":"tonnes","itemcode":"486","area":"Oman","2010**":"","2010":"56,700.00","item":"Bananas","areacode":"221","id":"a9bq13d2quej","elementcode":"5510","element":"Production"},"type":"Feature","geometry":null},{"properties":{"column_10":"","2010*":"tonnes","itemcode":"486","area":"Pakistan","2010**":"","2010":"141,200.00","item":"Bananas","areacode":"165","id":"a9bq13cx5iwb","elementcode":"5510","element":"Production"},"type":"Feature","geometry":null},{"properties":{"column_10":"","2010*":"tonnes","itemcode":"486","area":"Panama","2010**":"","2010":"338,280.00","item":"Bananas","areacode":"166","id":"a9bq13d97stj","elementcode":"5510","element":"Production"},"type":"Feature","geometry":null},{"properties":{"column_10":"","2010*":"tonnes","itemcode":"486","area":"Papua New Guinea","2010**":"F","2010":"1,050,000.00","item":"Bananas","areacode":"168","id":"a9bq138ainlc","elementcode":"5510","element":"Production"},"type":"Feature","geometry":null},{"properties":{"column_10":"","2010*":"tonnes","itemcode":"486","area":"Paraguay","2010**":"","2010":"79,856.00","item":"Bananas","areacode":"169","id":"a9bq13m642jv","elementcode":"5510","element":"Production"},"type":"Feature","geometry":null},{"properties":{"column_10":"","2010*":"tonnes","itemcode":"486","area":"Philippines","2010**":"","2010":"9,101,340.00","item":"Bananas","areacode":"171","id":"a9bq13ix35hk","elementcode":"5510","element":"Production"},"type":"Feature","geometry":null},{"properties":{"column_10":"","2010*":"tonnes","itemcode":"486","area":"Portugal","2010**":"F","2010":"34,400.00","item":"Bananas","areacode":"174","id":"a9bq13liehys","elementcode":"5510","element":"Production"},"type":"Feature","geometry":null},{"properties":{"column_10":"","2010*":"tonnes","itemcode":"486","area":"Puerto Rico","2010**":"F","2010":"56,539.00","item":"Bananas","areacode":"177","id":"a9bq138u4j1v","elementcode":"5510","element":"Production"},"type":"Feature","geometry":null},{"properties":{"column_10":"","2010*":"tonnes","itemcode":"486","area":"RÃ©union","2010**":"F","2010":"7,200.00","item":"Bananas","areacode":"182","id":"a9bq1367tkj7","elementcode":"5510","element":"Production"},"type":"Feature","geometry":null},{"properties":{"column_10":"","2010*":"tonnes","itemcode":"486","area":"Rwanda","2010**":"F","2010":"30.00","item":"Bananas","areacode":"184","id":"a9bq13igpp9c","elementcode":"5510","element":"Production"},"type":"Feature","geometry":null},{"properties":{"column_10":"","2010*":"tonnes","itemcode":"486","area":"Saint Lucia","2010**":"F","2010":"53,000.00","item":"Bananas","areacode":"189","id":"a9bq138rtklo","elementcode":"5510","element":"Production"},"type":"Feature","geometry":null},{"properties":{"column_10":"","2010*":"tonnes","itemcode":"486","area":"Saint Vincent and the Grenadines","2010**":"F","2010":"62,500.00","item":"Bananas","areacode":"191","id":"a9bq139ign0q","elementcode":"5510","element":"Production"},"type":"Feature","geometry":null},{"properties":{"column_10":"","2010*":"tonnes","itemcode":"486","area":"Samoa","2010**":"F","2010":"32,400.00","item":"Bananas","areacode":"244","id":"a9bq13lpna95","elementcode":"5510","element":"Production"},"type":"Feature","geometry":null},{"properties":{"column_10":"","2010*":"tonnes","itemcode":"486","area":"Sao Tome and Principe","2010**":"F","2010":"33,400.00","item":"Bananas","areacode":"193","id":"a9bq13ltf6p7","elementcode":"5510","element":"Production"},"type":"Feature","geometry":null},{"properties":{"column_10":"","2010*":"tonnes","itemcode":"486","area":"Senegal","2010**":"","2010":"47,000.00","item":"Bananas","areacode":"195","id":"a9bq13goxdvr","elementcode":"5510","element":"Production"},"type":"Feature","geometry":null},{"properties":{"column_10":"","2010*":"tonnes","itemcode":"486","area":"Seychelles","2010**":"F","2010":"1,400.00","item":"Bananas","areacode":"196","id":"a9bq13iqv9pj","elementcode":"5510","element":"Production"},"type":"Feature","geometry":null},{"properties":{"column_10":"","2010*":"tonnes","itemcode":"486","area":"Solomon Islands","2010**":"F","2010":"320.00","item":"Bananas","areacode":"25","id":"a9bq13kb7vdm","elementcode":"5510","element":"Production"},"type":"Feature","geometry":null},{"properties":{"column_10":"","2010*":"tonnes","itemcode":"486","area":"Somalia","2010**":"F","2010":"36,600.00","item":"Bananas","areacode":"201","id":"a9bq13btckpb","elementcode":"5510","element":"Production"},"type":"Feature","geometry":null},{"properties":{"column_10":"","2010*":"tonnes","itemcode":"486","area":"South Africa","2010**":"","2010":"393,271.00","item":"Bananas","areacode":"202","id":"a9bq13e811g4","elementcode":"5510","element":"Production"},"type":"Feature","geometry":null},{"properties":{"column_10":"","2010*":"tonnes","itemcode":"486","area":"Spain","2010**":"F","2010":"376,700.00","item":"Bananas","areacode":"203","id":"a9bq136yg8sr","elementcode":"5510","element":"Production"},"type":"Feature","geometry":null},{"properties":{"column_10":"","2010*":"tonnes","itemcode":"486","area":"Sudan (former)","2010**":"","2010":"684,000.00","item":"Bananas","areacode":"206","id":"a9bq136q03ea","elementcode":"5510","element":"Production"},"type":"Feature","geometry":null},{"properties":{"column_10":"","2010*":"tonnes","itemcode":"486","area":"Suriname","2010**":"","2010":"94,272.00","item":"Bananas","areacode":"207","id":"a9bq13bdzyss","elementcode":"5510","element":"Production"},"type":"Feature","geometry":null},{"properties":{"column_10":"","2010*":"tonnes","itemcode":"486","area":"Swaziland","2010**":"F","2010":"5,750.00","item":"Bananas","areacode":"209","id":"a9bq1379eeap","elementcode":"5510","element":"Production"},"type":"Feature","geometry":null},{"properties":{"column_10":"","2010*":"tonnes","itemcode":"486","area":"Syrian Arab Republic","2010**":"F","2010":"850.00","item":"Bananas","areacode":"212","id":"a9bq13eq5lh0","elementcode":"5510","element":"Production"},"type":"Feature","geometry":null},{"properties":{"column_10":"","2010*":"tonnes","itemcode":"486","area":"Thailand","2010**":"","2010":"1,584,900.00","item":"Bananas","areacode":"216","id":"a9bq13ibbm5m","elementcode":"5510","element":"Production"},"type":"Feature","geometry":null},{"properties":{"column_10":"","2010*":"tonnes","itemcode":"486","area":"Timor-Leste","2010**":"","2010":"710.00","item":"Bananas","areacode":"176","id":"a9bq13gz4e9y","elementcode":"5510","element":"Production"},"type":"Feature","geometry":null},{"properties":{"column_10":"","2010*":"tonnes","itemcode":"486","area":"Togo","2010**":"F","2010":"21,000.00","item":"Bananas","areacode":"217","id":"a9bq13djbnhp","elementcode":"5510","element":"Production"},"type":"Feature","geometry":null},{"properties":{"column_10":"","2010*":"tonnes","itemcode":"486","area":"Tokelau","2010**":"F","2010":"20.00","item":"Bananas","areacode":"218","id":"a9bq13747nax","elementcode":"5510","element":"Production"},"type":"Feature","geometry":null},{"properties":{"column_10":"","2010*":"tonnes","itemcode":"486","area":"Tonga","2010**":"F","2010":"1,200.00","item":"Bananas","areacode":"219","id":"a9bq13lovd5b","elementcode":"5510","element":"Production"},"type":"Feature","geometry":null},{"properties":{"column_10":"","2010*":"tonnes","itemcode":"486","area":"Trinidad and Tobago","2010**":"F","2010":"7,800.00","item":"Bananas","areacode":"220","id":"a9bq13chy1fc","elementcode":"5510","element":"Production"},"type":"Feature","geometry":null},{"properties":{"column_10":"","2010*":"tonnes","itemcode":"486","area":"Turkey","2010**":"","2010":"210,178.00","item":"Bananas","areacode":"223","id":"a9bq13l0jpef","elementcode":"5510","element":"Production"},"type":"Feature","geometry":null},{"properties":{"column_10":"","2010*":"tonnes","itemcode":"486","area":"Tuvalu","2010**":"F","2010":"400.00","item":"Bananas","areacode":"227","id":"a9bq13gjy5b2","elementcode":"5510","element":"Production"},"type":"Feature","geometry":null},{"properties":{"column_10":"","2010*":"tonnes","itemcode":"486","area":"Uganda","2010**":"F","2010":"600,000.00","item":"Bananas","areacode":"226","id":"a9bq13bi0t3y","elementcode":"5510","element":"Production"},"type":"Feature","geometry":null},{"properties":{"column_10":"","2010*":"tonnes","itemcode":"486","area":"United Arab Emirates","2010**":"F","2010":"170.00","item":"Bananas","areacode":"225","id":"a9bq1386cjpn","elementcode":"5510","element":"Production"},"type":"Feature","geometry":null},{"properties":{"column_10":"","2010*":"tonnes","itemcode":"486","area":"United Republic of Tanzania","2010**":"","2010":"2,924,700.00","item":"Bananas","areacode":"215","id":"a9bq13jd9rwp","elementcode":"5510","element":"Production"},"type":"Feature","geometry":null},{"properties":{"column_10":"","2010*":"tonnes","itemcode":"486","area":"United States of America","2010**":"","2010":"8,074.00","item":"Bananas","areacode":"231","id":"a9bq13m1eohp","elementcode":"5510","element":"Production"},"type":"Feature","geometry":null},{"properties":{"column_10":"","2010*":"tonnes","itemcode":"486","area":"Vanuatu","2010**":"F","2010":"16,000.00","item":"Bananas","areacode":"155","id":"a9bq1381splh","elementcode":"5510","element":"Production"},"type":"Feature","geometry":null},{"properties":{"column_10":"","2010*":"tonnes","itemcode":"486","area":"Venezuela (Bolivarian Republic of)","2010**":"F","2010":"412,100.00","item":"Bananas","areacode":"236","id":"a9bq135vy4pf","elementcode":"5510","element":"Production"},"type":"Feature","geometry":null},{"properties":{"column_10":"","2010*":"tonnes","itemcode":"486","area":"Viet Nam","2010**":"F","2010":"1,481,400.00","item":"Bananas","areacode":"237","id":"a9bq13itpylr","elementcode":"5510","element":"Production"},"type":"Feature","geometry":null},{"properties":{"column_10":"","2010*":"tonnes","itemcode":"486","area":"Wallis and Futuna Islands","2010**":"F","2010":"6,100.00","item":"Bananas","areacode":"243","id":"a9bq13fvn3fq","elementcode":"5510","element":"Production"},"type":"Feature","geometry":null},{"properties":{"column_10":"","2010*":"tonnes","itemcode":"486","area":"Yemen","2010**":"","2010":"133,352.00","item":"Bananas","areacode":"249","id":"a9bq13h9hm9g","elementcode":"5510","element":"Production"},"type":"Feature","geometry":null},{"properties":{"column_10":"","2010*":"tonnes","itemcode":"486","area":"Zambia","2010**":"F","2010":"720.00","item":"Bananas","areacode":"251","id":"a9bq13eimh6o","elementcode":"5510","element":"Production"},"type":"Feature","geometry":null},{"properties":{"column_10":"","2010*":"tonnes","itemcode":"486","area":"Zimbabwe","2010**":"F","2010":"91,500.00","item":"Bananas","areacode":"181","id":"a9bq13g9wg8r","elementcode":"5510","element":"Production"},"type":"Feature","geometry":null}],"is_temporal":false,"author":{"url":null,"metadata":null,"contact_name":null,"contact_address":null,"source":null,"contact_phone":null},"source":null,"pagination":{"sort":null,"start":0,"total":129,"limit":1000000},"state":"uploaded","tags":"","published":"2014-08-14T19:54:58-04:00","id":284141}