{"type":"FeatureCollection","data_type":"Dataset","url_type":null,"permissions":[{"permissions":{"download":true,"view":true},"group_id":"everyone"}],"classification":null,"title":"Agricultural CHP","count":42,"stream_id":329233,"contributor":{"url":"http://geocommons.com/users/54257","name":"matthew.dunlevy"},"data_attributes":null,"calculation_params":null,"icon_link":null,"link":"http://geocommons.com/overlays/329233.json","extent":[-6.84202,-55.0,53.0,59.3224],"geometry_types":["point"],"unique_name":null,"name":"Agricultural CHP","feature_count":42,"description":"","next_feature":null,"is_raster":false,"short_classification":"Y","stats":{"capacity (kwe)":{"max":6000.0,"variance":1190178.32999419,"mean":676.297619047619,"stdev":1090.95294582039,"min":0.0,"median":300.0},"latitude":{"max":59.3224172,"variance":546.711925942937,"mean":48.0067554380952,"stdev":23.3818717373725,"min":-55.0,"median":52.7792918},"longitude":{"max":53.0,"variance":147.163060180404,"mean":0.0898837690476188,"stdev":12.1310782777296,"min":-6.8420186,"median":-2.5996914}},"features":[{"properties":{"capacity (kwe)":23.0,"category":"Agricultural CHP","latitude":54.45,"postcode":"BT26 6DR","company name":"Agri-Food and Biosciences Institute (AFBI)","longitude":-6.08,"id":"acoengb4r0n7"},"type":"Feature","geometry":{"type":"Point","coordinates":[-6.08,54.45]}},{"properties":{"capacity (kwe)":1000.0,"category":"Agricultural CHP","latitude":55.1475436,"postcode":"BT52 2NE","company name":"Ballyrashane Co-op","longitude":-6.61,"id":"acoengb5gd5x"},"type":"Feature","geometry":{"type":"Point","coordinates":[-6.61,55.1475436]}},{"properties":{"capacity (kwe)":125.0,"category":"Agricultural CHP","latitude":52.5196736,"postcode":"SY15 6TQ","company name":"Bank Farm","longitude":-3.09,"id":"acoengbfqaa9"},"type":"Feature","geometry":{"type":"Point","coordinates":[-3.09,52.5196736]}},{"properties":{"capacity (kwe)":2400.0,"category":"Agricultural CHP","latitude":51.61,"postcode":"OX10 6SL","company name":"Battle Farm (Agrivert Ltd)","longitude":-1.11,"id":"acoengbzhjm1"},"type":"Feature","geometry":{"type":"Point","coordinates":[-1.11,51.61]}},{"properties":{"capacity (kwe)":250.0,"category":"Agricultural CHP","latitude":54.6035242,"postcode":"BT16 1TS","company name":"BH Energy","longitude":-5.78,"id":"acoengitprzb"},"type":"Feature","geometry":{"type":"Point","coordinates":[-5.78,54.6035242]}},{"properties":{"capacity (kwe)":1600.0,"category":"Agricultural CHP","latitude":52.7019381,"postcode":"NR10 4DU.","company name":"Blakes Abattoir (Future Biogas Ltd)","longitude":1.2035844,"id":"acoenggzz13c"},"type":"Feature","geometry":{"type":"Point","coordinates":[1.2035844,52.7019381]}},{"properties":{"capacity (kwe)":2000.0,"category":"Agricultural CHP","latitude":52.9935949,"postcode":"NG14 5HA","company name":"Bulcote Farm (Severn Trent Water)","longitude":-1.02,"id":"acoengb09cy6"},"type":"Feature","geometry":{"type":"Point","coordinates":[-1.02,52.9935949]}},{"properties":{"capacity (kwe)":1067.0,"category":"Agricultural CHP","latitude":51.9471141,"postcode":"SG9 9RH","company name":"Buttermilk Hall Farm (Hallwick Ltd)","longitude":-0.05,"id":"acoenglduudh"},"type":"Feature","geometry":{"type":"Point","coordinates":[-0.05,51.9471141]}},{"properties":{"capacity (kwe)":800.0,"category":"Agricultural CHP","latitude":53.7478036,"postcode":"FY8 5RP","company name":"Carr Farm (Farmgen)","longitude":-2.9295388,"id":"acoengewvpu4"},"type":"Feature","geometry":{"type":"Point","coordinates":[-2.9295388,53.7478036]}},{"properties":{"capacity (kwe)":100.0,"category":"Agricultural CHP","latitude":51.1888406,"postcode":"EX34 8PQ","company name":"Channel Farm","longitude":-4.11,"id":"acoengn9pg3x"},"type":"Feature","geometry":{"type":"Point","coordinates":[-4.11,51.1888406]}},{"properties":{"capacity (kwe)":80.0,"category":"Agricultural CHP","latitude":50.9064757,"postcode":"EX15 3BX","company name":"CJ Parish &amp; Sons","longitude":-3.3556626,"id":"acoengjsu5x0"},"type":"Feature","geometry":{"type":"Point","coordinates":[-3.3556626,50.9064757]}},{"properties":{"capacity (kwe)":75.0,"category":"Agricultural CHP","latitude":55.2140675,"postcode":"NE61 3EB","company name":"Cockle Park","longitude":-1.6853202,"id":"acoengnvzkd7"},"type":"Feature","geometry":{"type":"Point","coordinates":[-1.6853202,55.2140675]}},{"properties":{"capacity (kwe)":140.0,"category":"Agricultural CHP","latitude":52.9168465,"postcode":"NR23 1NY","company name":"Copys Green Farm","longitude":0.8904626,"id":"acoengkmti3j"},"type":"Feature","geometry":{"type":"Point","coordinates":[0.8904626,52.9168465]}},{"properties":{"capacity (kwe)":0.0,"category":"Agricultural CHP","latitude":54.8979691,"postcode":"DG5 4NR","company name":"Corsock Farm","longitude":-3.76,"id":"acoengej4kqh"},"type":"Feature","geometry":{"type":"Point","coordinates":[-3.76,54.8979691]}},{"properties":{"capacity (kwe)":1000.0,"category":"Agricultural CHP","latitude":51.0574831,"postcode":"RH14 0LE","company name":"Crouchland Farm","longitude":-0.56,"id":"acoengp09so8"},"type":"Feature","geometry":{"type":"Point","coordinates":[-0.56,51.0574831]}},{"properties":{"capacity (kwe)":1200.0,"category":"Agricultural CHP","latitude":54.8562964,"postcode":"CA7 4PZ","company name":"Dryholme Farm (Farmgen)","longitude":-3.3585717,"id":"acoengkgt3b2"},"type":"Feature","geometry":{"type":"Point","coordinates":[-3.3585717,54.8562964]}},{"properties":{"capacity (kwe)":250.0,"category":"Agricultural CHP","latitude":51.9469819,"postcode":"HR2 8EP","company name":"Great Ynys Farm (Ynergy Ltd.)","longitude":-2.7592959,"id":"acoengejyfrm"},"type":"Feature","geometry":{"type":"Point","coordinates":[-2.7592959,51.9469819]}},{"properties":{"capacity (kwe)":0.0,"category":"Agricultural CHP","latitude":52.9375937,"postcode":"SY13 2LQ","company name":"Hill Farm","longitude":-2.8308363,"id":"acoengaon8ik"},"type":"Feature","geometry":{"type":"Point","coordinates":[-2.8308363,52.9375937]}},{"properties":{"capacity (kwe)":350.0,"category":"Agricultural CHP","latitude":51.7348197,"postcode":"GL7 5DF","company name":"Homeleaze Farm (H &amp; Q Farming)","longitude":-1.7486399,"id":"acoengi6t95h"},"type":"Feature","geometry":{"type":"Point","coordinates":[-1.7486399,51.7348197]}},{"properties":{"capacity (kwe)":250.0,"category":"Agricultural CHP","latitude":54.3210069,"postcode":"BT60 4QZ","company name":"JMW Farms Ltd.","longitude":-6.8420186,"id":"acoengakweuu"},"type":"Feature","geometry":{"type":"Point","coordinates":[-6.8420186,54.3210069]}},{"properties":{"capacity (kwe)":0.0,"category":"Agricultural CHP","latitude":55.6540487,"postcode":"KA21 6NH","company name":"Knockrivoch Farm","longitude":-4.7757223,"id":"acoengfqsc9n"},"type":"Feature","geometry":{"type":"Point","coordinates":[-4.7757223,55.6540487]}},{"properties":{"capacity (kwe)":500.0,"category":"Agricultural CHP","latitude":54.92,"postcode":"CA6 4PZ","company name":"Linstock Castle Farm (G Wannop &amp; Son)","longitude":-2.8963038,"id":"acoengezsolw"},"type":"Feature","geometry":{"type":"Point","coordinates":[-2.8963038,54.92]}},{"properties":{"capacity (kwe)":370.0,"category":"Agricultural CHP","latitude":50.8859275,"postcode":"DT11 0EQ","company name":"Lowbrook Farm","longitude":-2.2990095,"id":"acoengq15zey"},"type":"Feature","geometry":{"type":"Point","coordinates":[-2.2990095,50.8859275]}},{"properties":{"capacity (kwe)":500.0,"category":"Agricultural CHP","latitude":50.8679868,"postcode":"DT2 0LU","company name":"Melbury Bioenergy Ltd.","longitude":-2.6071362,"id":"acoengitxph2"},"type":"Feature","geometry":{"type":"Point","coordinates":[-2.6071362,50.8679868]}},{"properties":{"capacity (kwe)":500.0,"category":"Agricultural CHP","latitude":53.8751952,"postcode":"YO42 4SS","company name":"Melrose Farm (Northern Crop Driers Ltd)","longitude":-0.8351174,"id":"acoengal4zj1"},"type":"Feature","geometry":{"type":"Point","coordinates":[-0.8351174,53.8751952]}},{"properties":{"capacity (kwe)":0.0,"category":"Agricultural CHP","latitude":55.6675749,"postcode":"KA21 6NF","company name":"Miekle Laught Farm","longitude":-4.7686648,"id":"acoengpwhol1"},"type":"Feature","geometry":{"type":"Point","coordinates":[-4.7686648,55.6675749]}},{"properties":{"capacity (kwe)":700.0,"category":"Agricultural CHP","latitude":51.9644106,"postcode":"HR1 4SP","company name":"Much Fawley Farm","longitude":-2.5996914,"id":"acoenge6gukn"},"type":"Feature","geometry":{"type":"Point","coordinates":[-2.5996914,51.9644106]}},{"properties":{"capacity (kwe)":50.0,"category":"Agricultural CHP","latitude":53.0836262,"postcode":"CW5 6DF","company name":"Reaseheath College","longitude":-2.5268891,"id":"acoengm4xplk"},"type":"Feature","geometry":{"type":"Point","coordinates":[-2.5268891,53.0836262]}},{"properties":{"capacity (kwe)":300.0,"category":"Agricultural CHP","latitude":51.6755741,"postcode":"GL7 6BD","company name":"Smerrill Generating Station (Kemble Farms)","longitude":-2.0183766,"id":"acoengkxb48n"},"type":"Feature","geometry":{"type":"Point","coordinates":[-2.0183766,51.6755741]}},{"properties":{"capacity (kwe)":150.0,"category":"Agricultural CHP","latitude":55.6635632,"postcode":"KA22 7NP","company name":"Sorbie Farm","longitude":-4.7898019,"id":"acoenglg6bo0"},"type":"Feature","geometry":{"type":"Point","coordinates":[-4.7898019,55.6635632]}},{"properties":{"capacity (kwe)":1400.0,"category":"Agricultural CHP","latitude":52.7000958,"postcode":"NR10 4DT","company name":"Spring Farm (OArnold Renewables Ltd)","longitude":1.1955445,"id":"acoengonnzpz"},"type":"Feature","geometry":{"type":"Point","coordinates":[1.1955445,52.7000958]}},{"properties":{"capacity (kwe)":3000.0,"category":"Agricultural CHP","latitude":53.0330612,"postcode":"PE22 9HE","company name":"Staples Vegetables","longitude":0.16,"id":"acoengi4ba2c"},"type":"Feature","geometry":{"type":"Point","coordinates":[0.16,53.0330612]}},{"properties":{"capacity (kwe)":499.0,"category":"Agricultural CHP","latitude":52.0882815,"postcode":"OX17 2DQ","company name":"Stuchbury Manor Farm (Marston St. Lawrence Estate)","longitude":-1.1887819,"id":"acoengda2hu8"},"type":"Feature","geometry":{"type":"Point","coordinates":[-1.1887819,52.0882815]}},{"properties":{"capacity (kwe)":3.5,"category":"Agricultural CHP","latitude":51.0816806,"postcode":"TA4 2RU","company name":"The Green","longitude":-3.31,"id":"acoengpiy9vh"},"type":"Feature","geometry":{"type":"Point","coordinates":[-3.31,51.0816806]}},{"properties":{"capacity (kwe)":0.0,"category":"Agricultural CHP","latitude":54.9262437,"postcode":"DG2 8AN","company name":"The Ryes","longitude":-3.6850701,"id":"acoengfpkiz3"},"type":"Feature","geometry":{"type":"Point","coordinates":[-3.6850701,54.9262437]}},{"properties":{"capacity (kwe)":1067.0,"category":"Agricultural CHP","latitude":51.9188097,"postcode":"LU7 9PY","company name":"Trinity Hall Farm (Hallwick Ltd)","longitude":-0.5639661,"id":"acoengduz6km"},"type":"Feature","geometry":{"type":"Point","coordinates":[-0.5639661,51.9188097]}},{"properties":{"capacity (kwe)":6.0,"category":"Agricultural CHP","latitude":59.3224172,"postcode":"KW17 2DF","company name":"Tuquoy, Westray","longitude":-2.9881097,"id":"acoengck21ap"},"type":"Feature","geometry":{"type":"Point","coordinates":[-2.9881097,59.3224172]}},{"properties":{"capacity (kwe)":100.0,"category":"Agricultural CHP","latitude":52.7792918,"postcode":"SY4 2HL","company name":"Walford &amp; North Shropshire College Farm","longitude":-2.8392771,"id":"acoengfzg4lq"},"type":"Feature","geometry":{"type":"Point","coordinates":[-2.8392771,52.7792918]}},{"properties":{"capacity (kwe)":499.0,"category":"Agricultural CHP","latitude":51.3602443,"postcode":"SN8 4JU","company name":"West Stowell Farm","longitude":-1.8040206,"id":"acoenghe9vuh"},"type":"Feature","geometry":{"type":"Point","coordinates":[-1.8040206,51.3602443]}},{"properties":{"capacity (kwe)":50.0,"category":"Agricultural CHP","latitude":51.1161222,"postcode":"SO20 6DJ","company name":"Windover Farm","longitude":-1.4986507,"id":"acoenglgjspa"},"type":"Feature","geometry":{"type":"Point","coordinates":[-1.4986507,51.1161222]}},{"properties":{"capacity (kwe)":6000.0,"category":null,"latitude":-55.0,"postcode":null,"company name":"Ignore me","longitude":53.0,"id":"acoengjpybix"},"type":"Feature","geometry":{"type":"Point","coordinates":[53.0,-55.0]}},{"properties":{"capacity (kwe)":0.0,"category":null,"latitude":-55.0,"postcode":null,"company name":"Ignore me as well","longitude":53.0,"id":"acoengdwvlak"},"type":"Feature","geometry":{"type":"Point","coordinates":[53.0,-55.0]}}],"is_temporal":false,"author":{"url":"","metadata":"","contact_name":"","contact_address":"","source":"","contact_phone":""},"source":"","pagination":{"sort":null,"start":0,"total":42,"limit":1000000},"state":"complete","tags":"","published":"2014-08-17T00:18:23-04:00","id":329233}