{"type":"FeatureCollection","data_type":"Dataset","url_type":null,"permissions":[{"permissions":{"download":true,"view":true},"group_id":"everyone"}],"classification":null,"title":"Academic Institutions, LO, LA","count":63,"stream_id":397556,"contributor":{"url":"http://geocommons.com/users/25154","name":"kelsnichole"},"data_attributes":null,"calculation_params":null,"icon_link":null,"link":"http://geocommons.com/overlays/397556.json","extent":[-73.9574,40.8061,-73.9114,40.8715],"geometry_types":["point"],"unique_name":null,"name":"Academic Institutions, LO, LA","feature_count":63,"description":"","next_feature":null,"is_raster":false,"short_classification":"Y","stats":{"latitude":{"max":40.871518,"mean":40.8353051428571,"variance":0.000399788375253484,"stdev":0.0199947086813858,"min":40.806107,"median":40.831508},"longitude":{"max":-73.911443,"mean":-73.9390306349206,"variance":0.00012487911668714,"stdev":0.0111749325137622,"min":-73.957404,"median":-73.937682}},"features":[{"properties":{"latitude":40.815093,"addresses":"509 West 129th Street","zipcode":"10027","districtlocation":"District 5","longitude":-73.954964,"id":"ahgn5n9t9wr8","schoolnames":"Academy for Social Action"},"type":"Feature","geometry":{"type":"Point","coordinates":[-73.954964,40.815093]}},{"properties":{"latitude":40.860945,"addresses":"4600 Broadway","zipcode":"10040","districtlocation":"District 6","longitude":-73.930073,"id":"ahgn5negjeds","schoolnames":"City College Academy of the Arts"},"type":"Feature","geometry":{"type":"Point","coordinates":[-73.930073,40.860945]}},{"properties":{"latitude":40.82431,"addresses":"2581 7th Avenue","zipcode":"10039","districtlocation":"District 5","longitude":-73.936974,"id":"ahgn5n7iopiq","schoolnames":"Frederick Douglass Academy"},"type":"Feature","geometry":{"type":"Point","coordinates":[-73.936974,40.82431]}},{"properties":{"latitude":40.860945,"addresses":"4600 Broadway","zipcode":"10040","districtlocation":"District 6","longitude":-73.930073,"id":"ahgn5niizjsv","schoolnames":"I.S. 218 Salome Urena"},"type":"Feature","geometry":{"type":"Point","coordinates":[-73.930073,40.860945]}},{"properties":{"latitude":40.815093,"addresses":"509 West 129th Street","zipcode":"10027","districtlocation":"District 5","longitude":-73.954964,"id":"ahgn5nf0harr","schoolnames":"Intermediate School 286 RenaIntermediate Schoolsance Military Leadership Academy"},"type":"Feature","geometry":{"type":"Point","coordinates":[-73.954964,40.815093]}},{"properties":{"latitude":40.860945,"addresses":"4600 Broadway","zipcode":"10040","districtlocation":"District 6","longitude":-73.930073,"id":"ahgn5nl43yur","schoolnames":"M.S. 322"},"type":"Feature","geometry":{"type":"Point","coordinates":[-73.930073,40.860945]}},{"properties":{"latitude":40.836912,"addresses":"401 West 164th Street","zipcode":"10032","districtlocation":"District 6","longitude":-73.937412,"id":"ahgn5n7pilv8","schoolnames":"M.S. 326 Writers Today &amp; Leaders Tomorrow"},"type":"Feature","geometry":{"type":"Point","coordinates":[-73.937412,40.836912]}},{"properties":{"latitude":40.836912,"addresses":"401 West 164th Street","zipcode":"10032","districtlocation":"District 6","longitude":-73.937412,"id":"ahgn5nmbjjzi","schoolnames":"M.S. 328 Manhattan Middle School for Scientific Inquiry"},"type":"Feature","geometry":{"type":"Point","coordinates":[-73.937412,40.836912]}},{"properties":{"latitude":40.8199,"addresses":"301 West 140th Street","zipcode":"10030","districtlocation":"District 5","longitude":-73.944582,"id":"ahgn5neyxvhv","schoolnames":"Primary School  123 Mahalia Jackson"},"type":"Feature","geometry":{"type":"Point","coordinates":[-73.944582,40.8199]}},{"properties":{"latitude":40.815036,"addresses":"425 West 130th Street","zipcode":"10027","districtlocation":"District 5","longitude":-73.952559,"id":"ahgn5nmomrwz","schoolnames":"Primary School  129 John H Finley"},"type":"Feature","geometry":{"type":"Point","coordinates":[-73.952559,40.815036]}},{"properties":{"latitude":40.813987,"addresses":"175 West 134th Street","zipcode":"10030","districtlocation":"District 5","longitude":-73.942594,"id":"ahgn5ne2rquo","schoolnames":"Primary School  175 Henry H Garnet"},"type":"Feature","geometry":{"type":"Point","coordinates":[-73.942594,40.813987]}},{"properties":{"latitude":40.853043,"addresses":"2580 Amsterdam Avenue","zipcode":"10040","districtlocation":"District 6","longitude":-73.928036,"id":"ahgn5n7n16zz","schoolnames":"Primary School  189"},"type":"Feature","geometry":{"type":"Point","coordinates":[-73.928036,40.853043]}},{"properties":{"latitude":40.826079,"addresses":"2589 7th Avenue","zipcode":"10039","districtlocation":"District 5","longitude":-73.93586,"id":"ahgn5nbyoj8o","schoolnames":"Primary School  200 The James McCune Smith School"},"type":"Feature","geometry":{"type":"Point","coordinates":[-73.93586,40.826079]}},{"properties":{"latitude":40.83475,"addresses":"500 West 160th Street","zipcode":"10032","districtlocation":"District 6","longitude":-73.940705,"id":"ahgn5nait3k7","schoolnames":"Primary School  4 Duke Ellington"},"type":"Feature","geometry":{"type":"Point","coordinates":[-73.940705,40.83475]}},{"properties":{"latitude":40.838927,"addresses":"465 West 167th Street","zipcode":"10032","districtlocation":"District 6","longitude":-73.936797,"id":"ahgn5nhhjva3","schoolnames":"Primary School  8 Luis Belliard"},"type":"Feature","geometry":{"type":"Point","coordinates":[-73.936797,40.838927]}},{"properties":{"latitude":40.868104,"addresses":"512 West 212th Street","zipcode":"10034","districtlocation":"District 6","longitude":-73.917603,"id":"ahgn5nlqmkzz","schoolnames":"Primary School  98 Shorac Kappock"},"type":"Feature","geometry":{"type":"Point","coordinates":[-73.917603,40.868104]}},{"properties":{"latitude":40.859243,"addresses":"12-18 Elwood Street","zipcode":"10040","districtlocation":"District 6","longitude":-73.928291,"id":"ahgn5ndj9jmi","schoolnames":"Primary School 178 Professor Juan Bosch"},"type":"Feature","geometry":{"type":"Point","coordinates":[-73.928291,40.859243]}},{"properties":{"latitude":40.865368,"addresses":"202 Sherman Avenue","zipcode":"10032","districtlocation":"District 6","longitude":-73.921609,"id":"ahgn5n6zegfn","schoolnames":"Washington Heights Academy"},"type":"Feature","geometry":{"type":"Point","coordinates":[-73.921609,40.865368]}},{"properties":{"latitude":40.848966,"addresses":"511 West 182nd Street","zipcode":"10033","districtlocation":"District 6","longitude":-73.931011,"id":"ahgn5n7d8dot","schoolnames":"Washington Heights Expeditionary Learning School"},"type":"Feature","geometry":{"type":"Point","coordinates":[-73.931011,40.848966]}},{"properties":{"latitude":40.806977,"addresses":"144-176 East 128th Street","zipcode":"10035","districtlocation":"District 5","longitude":-73.937653,"id":"ahgn5nimuwrw","schoolnames":"Primary School  30 Hernandez/Hughes"},"type":"Feature","geometry":{"type":"Point","coordinates":[-73.937653,40.806977]}},{"properties":{"latitude":40.829847,"addresses":"501-503 West 152nd Street","zipcode":"10031","districtlocation":"District 6","longitude":-73.944594,"id":"ahgn5nm9swpr","schoolnames":"Primary School / Intermediate School  210 Twenty-First Century Academy for Community Leadership"},"type":"Feature","geometry":{"type":"Point","coordinates":[-73.944594,40.829847]}},{"properties":{"latitude":40.815356,"addresses":"200 West 135th Street","zipcode":"10030","districtlocation":"District 5","longitude":-73.94382,"id":"ahgn5nhdzbeg","schoolnames":"Thurgood Marshall Academy for Learning"},"type":"Feature","geometry":{"type":"Point","coordinates":[-73.94382,40.815356]}},{"properties":{"latitude":40.866821,"addresses":"4862 Broadway","zipcode":"10034","districtlocation":"District 6","longitude":-73.923681,"id":"ahgn5nfmtiol","schoolnames":"Amistad Dual Language School"},"type":"Feature","geometry":{"type":"Point","coordinates":[-73.923681,40.866821]}},{"properties":{"latitude":40.806107,"addresses":"2005 Madison Avenue","zipcode":"10035","districtlocation":"District 5","longitude":-73.941067,"id":"ahgn5ng68gp2","schoolnames":"Choir Academy of Harlem"},"type":"Feature","geometry":{"type":"Point","coordinates":[-73.941067,40.806107]}},{"properties":{"latitude":40.810691,"addresses":"425 West 123rd Street","zipcode":"10027","districtlocation":"District 5","longitude":-73.956256,"id":"ahgn5nek2x47","schoolnames":"Columbia Secondary School"},"type":"Feature","geometry":{"type":"Point","coordinates":[-73.956256,40.810691]}},{"properties":{"latitude":40.826389,"addresses":"1750 Amsterdam Avenue","zipcode":"10031","districtlocation":"District 6","longitude":-73.946793,"id":"ahgn5nfwgslt","schoolnames":"Hamilton Heights School"},"type":"Feature","geometry":{"type":"Point","coordinates":[-73.946793,40.826389]}},{"properties":{"latitude":40.845457,"addresses":"306 Fort Washington Avenue","zipcode":"10033","districtlocation":"District 6","longitude":-73.939774,"id":"ahgn5njk5f2f","schoolnames":"Harbor Heights"},"type":"Feature","geometry":{"type":"Point","coordinates":[-73.939774,40.845457]}},{"properties":{"latitude":40.850614,"addresses":"180 Wadsworth Avenue","zipcode":"10033","districtlocation":"District 6","longitude":-73.934589,"id":"ahgn5ne6r4nd","schoolnames":"I.S. 528 Bea Fuller Rodgers School"},"type":"Feature","geometry":{"type":"Point","coordinates":[-73.934589,40.850614]}},{"properties":{"latitude":40.819595,"addresses":"625 West 133rd Street","zipcode":"10027","districtlocation":"District 5","longitude":-73.957328,"id":"ahgn5ngd3ewm","schoolnames":"Intermediate School 195 Roberto Clemente"},"type":"Feature","geometry":{"type":"Point","coordinates":[-73.957328,40.819595]}},{"properties":{"latitude":40.848966,"addresses":"511 West 182nd Street","zipcode":"10033","districtlocation":"District 6","longitude":-73.931011,"id":"ahgn5nentz10","schoolnames":"J.H.S. 143 Eleanor Roosevelt"},"type":"Feature","geometry":{"type":"Point","coordinates":[-73.931011,40.848966]}},{"properties":{"latitude":40.866216,"addresses":"650 Academy Street","zipcode":"10034","districtlocation":"District 6","longitude":-73.924926,"id":"ahgn5n7efwoq","schoolnames":"J.H.S. 52 Inwood"},"type":"Feature","geometry":{"type":"Point","coordinates":[-73.924926,40.866216]}},{"properties":{"latitude":40.817546,"addresses":"6 Edgecombe Avenue","zipcode":"10030","districtlocation":"District 5","longitude":-73.947563,"id":"ahgn5n9ar92x","schoolnames":"Knowledge And Power Prep Academy IV"},"type":"Feature","geometry":{"type":"Point","coordinates":[-73.947563,40.817546]}},{"properties":{"latitude":40.839443,"addresses":"21 Jumel Place","zipcode":"10030","districtlocation":"District 6","longitude":-73.935934,"id":"ahgn5nfjukxz","schoolnames":"M.S. 319 Maria Teresa"},"type":"Feature","geometry":{"type":"Point","coordinates":[-73.935934,40.839443]}},{"properties":{"latitude":40.839443,"addresses":"21 Jumel Place","zipcode":"10032","districtlocation":"District 6","longitude":-73.935934,"id":"ahgn5n9n288a","schoolnames":"M.S. 324 Patria Mirabal"},"type":"Feature","geometry":{"type":"Point","coordinates":[-73.935934,40.839443]}},{"properties":{"latitude":40.819595,"addresses":"625 West 133rd Street","zipcode":"10027","districtlocation":"District 5","longitude":-73.957328,"id":"ahgn5n82zes7","schoolnames":"New Design Middle School"},"type":"Feature","geometry":{"type":"Point","coordinates":[-73.957328,40.819595]}},{"properties":{"latitude":40.846116,"addresses":"586 West 177th Street","zipcode":"10033","districtlocation":"District 6","longitude":-73.935149,"id":"ahgn5nemxeql","schoolnames":"Primary School  115 Alexander Humboldt"},"type":"Feature","geometry":{"type":"Point","coordinates":[-73.935149,40.846116]}},{"properties":{"latitude":40.810691,"addresses":"425 West 123rd Street","zipcode":"10027","districtlocation":"District 5","longitude":-73.956256,"id":"ahgn5nfhdqdv","schoolnames":"Primary School  125 Ralph Bunche"},"type":"Feature","geometry":{"type":"Point","coordinates":[-73.956256,40.810691]}},{"properties":{"latitude":40.841916,"addresses":"560 West 169th Street","zipcode":"10032","districtlocation":"District 6","longitude":-73.937682,"id":"ahgn5ndc54mm","schoolnames":"Primary School  128 Audubon"},"type":"Feature","geometry":{"type":"Point","coordinates":[-73.937682,40.841916]}},{"properties":{"latitude":40.850643,"addresses":"185 Wadsworth Avenue","zipcode":"10033","districtlocation":"District 6","longitude":-73.93418,"id":"ahgn5n6vfkgt","schoolnames":"Primary School  132 Juan Pablo Duarte"},"type":"Feature","geometry":{"type":"Point","coordinates":[-73.93418,40.850643]}},{"properties":{"latitude":40.809663,"addresses":"2121 Fifth Avenue","zipcode":"10027","districtlocation":"District 5","longitude":-73.939162,"id":"ahgn5neoi38e","schoolnames":"Primary School  133 Fred R Moore"},"type":"Feature","geometry":{"type":"Point","coordinates":[-73.939162,40.809663]}},{"properties":{"latitude":40.860425,"addresses":"93 Nagle Avenue","zipcode":"10040","districtlocation":"District 6","longitude":-73.92799,"id":"ahgn5nk7ker6","schoolnames":"Primary School  152 Dyckman Valley"},"type":"Feature","geometry":{"type":"Point","coordinates":[-73.92799,40.860425]}},{"properties":{"latitude":40.826389,"addresses":"1750 Amsterdam Avenue","zipcode":"10031","districtlocation":"District 6","longitude":-73.946793,"id":"ahgn5n740oaw","schoolnames":"Primary School  153 Adam Clayton Powell"},"type":"Feature","geometry":{"type":"Point","coordinates":[-73.946793,40.826389]}},{"properties":{"latitude":40.81059,"addresses":"250 West 127th Street","zipcode":"10031","districtlocation":"District 5","longitude":-73.948399,"id":"ahgn5nhj8oei","schoolnames":"Primary School  154 Harriet Tubman"},"type":"Feature","geometry":{"type":"Point","coordinates":[-73.948399,40.81059]}},{"properties":{"latitude":40.817721,"addresses":"499 West 133rd Street","zipcode":"10027","districtlocation":"District 5","longitude":-73.952459,"id":"ahgn5newt754","schoolnames":"Primary School  161 Pedro Albizu Campos"},"type":"Feature","geometry":{"type":"Point","coordinates":[-73.952459,40.817721]}},{"properties":{"latitude":40.845457,"addresses":"306 Fort Washington Avenue","zipcode":"10033","districtlocation":"District 6","longitude":-73.939774,"id":"ahgn5ndkh0g1","schoolnames":"Primary School  173"},"type":"Feature","geometry":{"type":"Point","coordinates":[-73.939774,40.845457]}},{"properties":{"latitude":40.871447,"addresses":"4124 9th Avenue","zipcode":"10034","districtlocation":"District 6","longitude":-73.911443,"id":"ahgn5neugkq4","schoolnames":"Primary School  18 Park Terrace"},"type":"Feature","geometry":{"type":"Point","coordinates":[-73.911443,40.871447]}},{"properties":{"latitude":40.820842,"addresses":"500 West 138th Street","zipcode":"10031","districtlocation":"District 6","longitude":-73.953082,"id":"ahgn5njrn6f6","schoolnames":"Primary School  192 Jacob H. Schiff"},"type":"Feature","geometry":{"type":"Point","coordinates":[-73.953082,40.820842]}},{"properties":{"latitude":40.822007,"addresses":"244 West 144th Street","zipcode":"10030","districtlocation":"District 5","longitude":-73.941805,"id":"ahgn5nity3il","schoolnames":"Primary School  194 Countee Cullen"},"type":"Feature","geometry":{"type":"Point","coordinates":[-73.941805,40.822007]}},{"properties":{"latitude":40.81352,"addresses":"2230 Fifth Avenue","zipcode":"10037","districtlocation":"District 5","longitude":-73.938353,"id":"ahgn5n6d1suc","schoolnames":"Primary School  197 John B Russwurm"},"type":"Feature","geometry":{"type":"Point","coordinates":[-73.938353,40.81352]}},{"properties":{"latitude":40.831508,"addresses":"475 West 155th Street","zipcode":"10032","districtlocation":"District 6","longitude":-73.942481,"id":"ahgn5n6942n0","schoolnames":"Primary School  28 Wright Brothers"},"type":"Feature","geometry":{"type":"Point","coordinates":[-73.942481,40.831508]}},{"properties":{"latitude":40.820842,"addresses":"500 West 138th Street","zipcode":"10031","districtlocation":"District 6","longitude":-73.953082,"id":"ahgn5n7pzrb5","schoolnames":"Primary School  325"},"type":"Feature","geometry":{"type":"Point","coordinates":[-73.953082,40.820842]}},{"properties":{"latitude":40.810705,"addresses":"123 Morningside Drive","zipcode":"10027","districtlocation":"District 5","longitude":-73.957404,"id":"ahgn5nhuz8ow","schoolnames":"Primary School  36 Margaret Douglas"},"type":"Feature","geometry":{"type":"Point","coordinates":[-73.957404,40.810705]}},{"properties":{"latitude":40.831382,"addresses":"2987 Frederick Douglas Blvd","zipcode":"10039","districtlocation":"District 5","longitude":-73.936343,"id":"ahgn5n99whsn","schoolnames":"Primary School  46 Arthur Tappan"},"type":"Feature","geometry":{"type":"Point","coordinates":[-73.936343,40.831382]}},{"properties":{"latitude":40.854131,"addresses":"4360-4378 Broadway","zipcode":"10033","districtlocation":"District 6","longitude":-73.933713,"id":"ahgn5nbyehoa","schoolnames":"Primary School  48 P.O. Michael J. Buczek"},"type":"Feature","geometry":{"type":"Point","coordinates":[-73.933713,40.854131]}},{"properties":{"latitude":40.859164,"addresses":"3703 10th Avenue","zipcode":"10034","districtlocation":"District 6","longitude":-73.922737,"id":"ahgn5n8687l9","schoolnames":"Primary School  5 Ellen Lurie"},"type":"Feature","geometry":{"type":"Point","coordinates":[-73.922737,40.859164]}},{"properties":{"latitude":40.815093,"addresses":"222 West 134th Street","zipcode":"10030","districtlocation":"District 5","longitude":-73.945279,"id":"ahgn5nckgf56","schoolnames":"Primary School  92 Mary McLeod Bethune"},"type":"Feature","geometry":{"type":"Point","coordinates":[-73.945279,40.815093]}},{"properties":{"latitude":40.856349,"addresses":"349 Cabrini Blvd","zipcode":"10040","districtlocation":"District 6","longitude":-73.937357,"id":"ahgn5nk2u82a","schoolnames":"Primary School / Intermediate School  187 Hudson Cliffs"},"type":"Feature","geometry":{"type":"Point","coordinates":[-73.937357,40.856349]}},{"properties":{"latitude":40.866821,"addresses":"4862 Broadway","zipcode":"10034","districtlocation":"District 6","longitude":-73.923681,"id":"ahgn5n807llq","schoolnames":"Primary School 314 Muscota New School"},"type":"Feature","geometry":{"type":"Point","coordinates":[-73.923681,40.866821]}},{"properties":{"latitude":40.871518,"addresses":"421 West 219th Street","zipcode":"10034","districtlocation":"District 6","longitude":-73.912642,"id":"ahgn5netdg9n","schoolnames":"Primary/Intermediate School 278 Paula Hedbavny School"},"type":"Feature","geometry":{"type":"Point","coordinates":[-73.912642,40.871518]}},{"properties":{"latitude":40.841916,"addresses":"560 WEST 169th Street","zipcode":"10032","districtlocation":"District 6","longitude":-73.937682,"id":"ahgn5nfpiwzi","schoolnames":"PS 513 Castle Bridge School"},"type":"Feature","geometry":{"type":"Point","coordinates":[-73.937682,40.841916]}},{"properties":{"latitude":40.812474,"addresses":"168 Morningside Avenue","zipcode":"10027","districtlocation":"District 5","longitude":-73.95343,"id":"ahgn5ne8vvri","schoolnames":"Teachers College Community School"},"type":"Feature","geometry":{"type":"Point","coordinates":[-73.95343,40.812474]}},{"properties":{"latitude":40.815457,"addresses":"71-111 Convent Avenue","zipcode":"10027","districtlocation":"District 6","longitude":-73.952903,"id":"ahgn5nkfows7","schoolnames":"The Mott Hall School"},"type":"Feature","geometry":{"type":"Point","coordinates":[-73.952903,40.815457]}},{"properties":{"latitude":40.825816,"addresses":"276 West 151st Street","zipcode":"10039","districtlocation":"District 5","longitude":-73.937826,"id":"ahgn5necmkvb","schoolnames":"Thurgood Marshall Academy Lower School"},"type":"Feature","geometry":{"type":"Point","coordinates":[-73.937826,40.825816]}}],"is_temporal":false,"author":{"url":"","metadata":"","contact_name":"","contact_address":"","source":"","contact_phone":""},"source":"","pagination":{"sort":null,"start":0,"total":63,"limit":1000000},"state":"complete","tags":"","published":"2014-08-16T21:55:30-04:00","id":397556}