{"type":"FeatureCollection","data_type":"Dataset","url_type":null,"permissions":[{"permissions":{"download":true,"view":true},"group_id":"everyone"}],"classification":null,"title":"cognizant","count":16,"stream_id":50710,"contributor":{"url":"http://geocommons.com/users/11350","name":"edsley"},"data_attributes":null,"calculation_params":null,"icon_link":null,"link":"http://geocommons.com/overlays/50710.json","extent":[80.1385,12.9171,80.2657,13.1013],"geometry_types":["point"],"unique_name":null,"name":"cognizant","feature_count":16,"description":"","next_feature":null,"is_raster":false,"short_classification":"Y","stats":{"latitude":{"max":13.101304,"mean":13.011080375,"variance":0.00193197672225,"stdev":0.0439542571572993,"min":12.91712,"median":13.026645},"pincode":{"max":600100,"mean":600052.8125,"variance":936.829166666667,"stdev":30.6076651619601,"min":600004,"median":600061},"total":{"max":454,"mean":128.75,"variance":16048.0666666667,"stdev":126.680964105372,"min":44,"median":72},"s no":{"max":16,"mean":8.5,"variance":22.6666666666667,"stdev":4.76095228569523,"min":1,"median":9},"longitude":{"max":80.265657,"mean":80.217321125,"variance":0.00114076134518341,"stdev":0.0337751586996036,"min":80.138476,"median":80.225687}},"features":[{"properties":{"latitude":13.101304,"pincode":600100,"total":162,"s no":1,"longitude":80.189871,"id":"a663wqkutumh","location":"Anna Nagar West"},"type":"Feature","geometry":{"type":"Point","coordinates":[80.189871,13.101304]}},{"properties":{"latitude":13.034056,"pincode":600064,"total":64,"s no":10,"longitude":80.230258,"id":"a663wql9mbxc","location":"T-nagar(Bus Terminus)"},"type":"Feature","geometry":{"type":"Point","coordinates":[80.230258,13.034056]}},{"properties":{"latitude":12.99793,"pincode":600020,"total":124,"s no":11,"longitude":80.256736,"id":"a663wqdnbzn1","location":"Adyar"},"type":"Feature","geometry":{"type":"Point","coordinates":[80.256736,12.99793]}},{"properties":{"latitude":13.049128,"pincode":600024,"total":46,"s no":12,"longitude":80.223799,"id":"a663wqkz0dle","location":"Kodambakkam"},"type":"Feature","geometry":{"type":"Point","coordinates":[80.223799,13.049128]}},{"properties":{"latitude":13.02836,"pincode":600028,"total":53,"s no":13,"longitude":80.25635,"id":"a663wqhul7rg","location":"R.A. Puram"},"type":"Feature","geometry":{"type":"Point","coordinates":[80.25635,13.02836]}},{"properties":{"latitude":13.04386,"pincode":600033,"total":72,"s no":14,"longitude":80.234742,"id":"a663wqcyvwpa","location":"T-nagar"},"type":"Feature","geometry":{"type":"Point","coordinates":[80.234742,13.04386]}},{"properties":{"latitude":12.989588,"pincode":600041,"total":417,"s no":15,"longitude":80.251222,"id":"a663wqok35cb","location":"Thiruvanmayur"},"type":"Feature","geometry":{"type":"Point","coordinates":[80.251222,12.989588]}},{"properties":{"latitude":12.97378,"pincode":600042,"total":454,"s no":16,"longitude":80.226974,"id":"a663wqd3kj3d","location":"Velacheri"},"type":"Feature","geometry":{"type":"Point","coordinates":[80.226974,12.97378]}},{"properties":{"latitude":12.955935,"pincode":600091,"total":154,"s no":2,"longitude":80.186155,"id":"a663wqi8hbh5","location":"Madipakkam"},"type":"Feature","geometry":{"type":"Point","coordinates":[80.186155,12.955935]}},{"properties":{"latitude":12.991035,"pincode":600088,"total":105,"s no":3,"longitude":80.20164,"id":"a663wqqk6c1f","location":"Adambakkam"},"type":"Feature","geometry":{"type":"Point","coordinates":[80.20164,12.991035]}},{"properties":{"latitude":13.0348,"pincode":600083,"total":60,"s no":4,"longitude":80.211818,"id":"a663wqlp40rk","location":"Ashok Nagar"},"type":"Feature","geometry":{"type":"Point","coordinates":[80.211818,13.0348]}},{"properties":{"latitude":13.044124,"pincode":600078,"total":46,"s no":5,"longitude":80.193193,"id":"a663wqbjdinc","location":"KK Nagar"},"type":"Feature","geometry":{"type":"Point","coordinates":[80.193193,13.044124]}},{"properties":{"latitude":12.91712,"pincode":600073,"total":145,"s no":6,"longitude":80.138476,"id":"a663wqdc1yjr","location":"Selaiyur"},"type":"Feature","geometry":{"type":"Point","coordinates":[80.138476,12.91712]}},{"properties":{"latitude":12.975227,"pincode":600061,"total":67,"s no":7,"longitude":80.18456,"id":"a663wqh7khbr","location":"Nanganallur"},"type":"Feature","geometry":{"type":"Point","coordinates":[80.18456,12.975227]}},{"properties":{"latitude":13.026645,"pincode":600004,"total":44,"s no":8,"longitude":80.265657,"id":"a663wqiic6j1","location":"Mandaveli"},"type":"Feature","geometry":{"type":"Point","coordinates":[80.265657,13.026645]}},{"properties":{"latitude":13.014394,"pincode":600015,"total":47,"s no":9,"longitude":80.225687,"id":"a663wqazvw6r","location":"Saidapet"},"type":"Feature","geometry":{"type":"Point","coordinates":[80.225687,13.014394]}}],"is_temporal":false,"author":{"url":"","metadata":"","contact_name":"","contact_address":"","source":"","contact_phone":""},"source":"","pagination":{"sort":null,"start":0,"total":16,"limit":1000000},"state":"complete","tags":"","published":"2014-08-10T11:22:46-04:00","id":50710}