{"type":"FeatureCollection","data_type":"Dataset","url_type":null,"permissions":[{"permissions":{"download":true,"view":true},"group_id":"everyone"}],"classification":null,"title":"postcards","count":296,"stream_id":5953,"contributor":{"url":"http://geocommons.com/users/2622","name":"tsjim"},"data_attributes":null,"calculation_params":null,"icon_link":null,"link":"http://geocommons.com/overlays/5953.json","extent":[-122.505,37.1894,-121.705,37.6892],"geometry_types":["point"],"unique_name":null,"name":"postcards","feature_count":296,"description":"","next_feature":null,"is_raster":false,"short_classification":"Y","stats":{"zip":{"max":94040,"mean":94024.0202702703,"variance":41.2063673843334,"stdev":6.41921859608577,"min":94005,"median":94025},"lat":{"max":37.68918,"mean":37.404367972973,"variance":0.0171437623264533,"stdev":0.130934190822922,"min":37.18939,"median":37.43961},"long":{"max":-121.70532,"mean":-122.150054898648,"variance":0.0497395511843961,"stdev":0.223023656109383,"min":-122.50515,"median":-122.18637}},"features":[{"properties":{"zip":94005,"id":"a6cuwiyqdfvy","lat":37.68918,"long":-122.40433},"type":"Feature","geometry":{"type":"Point","coordinates":[-122.40433,37.68918]}},{"properties":{"zip":94005,"id":"a6cuwirr97b0","lat":37.68918,"long":-122.40433},"type":"Feature","geometry":{"type":"Point","coordinates":[-122.40433,37.68918]}},{"properties":{"zip":94010,"id":"a6cuwiyvhs3b","lat":37.56708,"long":-122.36757},"type":"Feature","geometry":{"type":"Point","coordinates":[-122.36757,37.56708]}},{"properties":{"zip":94010,"id":"a6cuwisg0n6r","lat":37.56708,"long":-122.36757},"type":"Feature","geometry":{"type":"Point","coordinates":[-122.36757,37.56708]}},{"properties":{"zip":94010,"id":"a6cuwinw2xas","lat":37.56708,"long":-122.36757},"type":"Feature","geometry":{"type":"Point","coordinates":[-122.36757,37.56708]}},{"properties":{"zip":94010,"id":"a6cuwiwnehun","lat":37.56708,"long":-122.36757},"type":"Feature","geometry":{"type":"Point","coordinates":[-122.36757,37.56708]}},{"properties":{"zip":94010,"id":"a6cuwis98wk6","lat":37.56708,"long":-122.36757},"type":"Feature","geometry":{"type":"Point","coordinates":[-122.36757,37.56708]}},{"properties":{"zip":94010,"id":"a6cuwioztxqx","lat":37.56708,"long":-122.36757},"type":"Feature","geometry":{"type":"Point","coordinates":[-122.36757,37.56708]}},{"properties":{"zip":94010,"id":"a6cuwis4xkq2","lat":37.56708,"long":-122.36757},"type":"Feature","geometry":{"type":"Point","coordinates":[-122.36757,37.56708]}},{"properties":{"zip":94010,"id":"a6cuwixy33sz","lat":37.56708,"long":-122.36757},"type":"Feature","geometry":{"type":"Point","coordinates":[-122.36757,37.56708]}},{"properties":{"zip":94010,"id":"a6cuwism2qz2","lat":37.56708,"long":-122.36757},"type":"Feature","geometry":{"type":"Point","coordinates":[-122.36757,37.56708]}},{"properties":{"zip":94010,"id":"a6cuwj0pir15","lat":37.56708,"long":-122.36757},"type":"Feature","geometry":{"type":"Point","coordinates":[-122.36757,37.56708]}},{"properties":{"zip":94010,"id":"a6cuwiturouy","lat":37.56708,"long":-122.36757},"type":"Feature","geometry":{"type":"Point","coordinates":[-122.36757,37.56708]}},{"properties":{"zip":94010,"id":"a6cuwiohzx7o","lat":37.56708,"long":-122.36757},"type":"Feature","geometry":{"type":"Point","coordinates":[-122.36757,37.56708]}},{"properties":{"zip":94010,"id":"a6cuwisun6xr","lat":37.56708,"long":-122.36757},"type":"Feature","geometry":{"type":"Point","coordinates":[-122.36757,37.56708]}},{"properties":{"zip":94010,"id":"a6cuwiz6ofnw","lat":37.56708,"long":-122.36757},"type":"Feature","geometry":{"type":"Point","coordinates":[-122.36757,37.56708]}},{"properties":{"zip":94010,"id":"a6cuwiupqa3u","lat":37.56708,"long":-122.36757},"type":"Feature","geometry":{"type":"Point","coordinates":[-122.36757,37.56708]}},{"properties":{"zip":94010,"id":"a6cuwj1bnirl","lat":37.56708,"long":-122.36757},"type":"Feature","geometry":{"type":"Point","coordinates":[-122.36757,37.56708]}},{"properties":{"zip":94010,"id":"a6cuwitbwxie","lat":37.56708,"long":-122.36757},"type":"Feature","geometry":{"type":"Point","coordinates":[-122.36757,37.56708]}},{"properties":{"zip":94010,"id":"a6cuwipjt9e1","lat":37.56708,"long":-122.36757},"type":"Feature","geometry":{"type":"Point","coordinates":[-122.36757,37.56708]}},{"properties":{"zip":94010,"id":"a6cuwituijw1","lat":37.56708,"long":-122.36757},"type":"Feature","geometry":{"type":"Point","coordinates":[-122.36757,37.56708]}},{"properties":{"zip":94010,"id":"a6cuwisikug2","lat":37.56708,"long":-122.36757},"type":"Feature","geometry":{"type":"Point","coordinates":[-122.36757,37.56708]}},{"properties":{"zip":94010,"id":"a6cuwin5eo5j","lat":37.56708,"long":-122.36757},"type":"Feature","geometry":{"type":"Point","coordinates":[-122.36757,37.56708]}},{"properties":{"zip":94010,"id":"a6cuwiu9zs8q","lat":37.56708,"long":-122.36757},"type":"Feature","geometry":{"type":"Point","coordinates":[-122.36757,37.56708]}},{"properties":{"zip":94011,"id":"a6cuwj1aj15u","lat":37.38114,"long":-122.33482},"type":"Feature","geometry":{"type":"Point","coordinates":[-122.33482,37.38114]}},{"properties":{"zip":94014,"id":"a6cuwixfklne","lat":37.6875,"long":-122.43878},"type":"Feature","geometry":{"type":"Point","coordinates":[-122.43878,37.6875]}},{"properties":{"zip":94014,"id":"a6cuwiohjyrq","lat":37.6875,"long":-122.43878},"type":"Feature","geometry":{"type":"Point","coordinates":[-122.43878,37.6875]}},{"properties":{"zip":94014,"id":"a6cuwiv2b8pa","lat":37.6875,"long":-122.43878},"type":"Feature","geometry":{"type":"Point","coordinates":[-122.43878,37.6875]}},{"properties":{"zip":94015,"id":"a6cuwiwbunyx","lat":37.67686,"long":-122.47523},"type":"Feature","geometry":{"type":"Point","coordinates":[-122.47523,37.67686]}},{"properties":{"zip":94015,"id":"a6cuwioqz8a6","lat":37.67686,"long":-122.47523},"type":"Feature","geometry":{"type":"Point","coordinates":[-122.47523,37.67686]}},{"properties":{"zip":94015,"id":"a6cuwixe7jc5","lat":37.67686,"long":-122.47523},"type":"Feature","geometry":{"type":"Point","coordinates":[-122.47523,37.67686]}},{"properties":{"zip":94015,"id":"a6cuwim5a30l","lat":37.67686,"long":-122.47523},"type":"Feature","geometry":{"type":"Point","coordinates":[-122.47523,37.67686]}},{"properties":{"zip":94015,"id":"a6cuwiyhcxmc","lat":37.67686,"long":-122.47523},"type":"Feature","geometry":{"type":"Point","coordinates":[-122.47523,37.67686]}},{"properties":{"zip":94015,"id":"a6cuwiy2991k","lat":37.67686,"long":-122.47523},"type":"Feature","geometry":{"type":"Point","coordinates":[-122.47523,37.67686]}},{"properties":{"zip":94015,"id":"a6cuwiug0m7w","lat":37.67686,"long":-122.47523},"type":"Feature","geometry":{"type":"Point","coordinates":[-122.47523,37.67686]}},{"properties":{"zip":94015,"id":"a6cuwiue4vuq","lat":37.67686,"long":-122.47523},"type":"Feature","geometry":{"type":"Point","coordinates":[-122.47523,37.67686]}},{"properties":{"zip":94015,"id":"a6cuwipwn2wg","lat":37.67686,"long":-122.47523},"type":"Feature","geometry":{"type":"Point","coordinates":[-122.47523,37.67686]}},{"properties":{"zip":94018,"id":"a6cuwiyd8kj4","lat":37.51008,"long":-122.4734},"type":"Feature","geometry":{"type":"Point","coordinates":[-122.4734,37.51008]}},{"properties":{"zip":94018,"id":"a6cuwixwir55","lat":37.51008,"long":-122.4734},"type":"Feature","geometry":{"type":"Point","coordinates":[-122.4734,37.51008]}},{"properties":{"zip":94019,"id":"a6cuwirn58i4","lat":37.38905,"long":-122.41556},"type":"Feature","geometry":{"type":"Point","coordinates":[-122.41556,37.38905]}},{"properties":{"zip":94019,"id":"a6cuwj0ytym2","lat":37.38905,"long":-122.41556},"type":"Feature","geometry":{"type":"Point","coordinates":[-122.41556,37.38905]}},{"properties":{"zip":94019,"id":"a6cuwiyzvh92","lat":37.38905,"long":-122.41556},"type":"Feature","geometry":{"type":"Point","coordinates":[-122.41556,37.38905]}},{"properties":{"zip":94019,"id":"a6cuwipwwxbg","lat":37.38905,"long":-122.41556},"type":"Feature","geometry":{"type":"Point","coordinates":[-122.41556,37.38905]}},{"properties":{"zip":94019,"id":"a6cuwirt79gy","lat":37.38905,"long":-122.41556},"type":"Feature","geometry":{"type":"Point","coordinates":[-122.41556,37.38905]}},{"properties":{"zip":94019,"id":"a6cuwiwhp7pa","lat":37.38905,"long":-122.41556},"type":"Feature","geometry":{"type":"Point","coordinates":[-122.41556,37.38905]}},{"properties":{"zip":94019,"id":"a6cuwj1v7fri","lat":37.38905,"long":-122.41556},"type":"Feature","geometry":{"type":"Point","coordinates":[-122.41556,37.38905]}},{"properties":{"zip":94019,"id":"a6cuwiqmjgjh","lat":37.38905,"long":-122.41556},"type":"Feature","geometry":{"type":"Point","coordinates":[-122.41556,37.38905]}},{"properties":{"zip":94019,"id":"a6cuwj0rgw2t","lat":37.38905,"long":-122.41556},"type":"Feature","geometry":{"type":"Point","coordinates":[-122.41556,37.38905]}},{"properties":{"zip":94020,"id":"a6cuwj0m0wcu","lat":37.27255,"long":-122.24952},"type":"Feature","geometry":{"type":"Point","coordinates":[-122.24952,37.27255]}},{"properties":{"zip":94020,"id":"a6cuwiw99g3y","lat":37.27255,"long":-122.24952},"type":"Feature","geometry":{"type":"Point","coordinates":[-122.24952,37.27255]}},{"properties":{"zip":94020,"id":"a6cuwj1durf9","lat":37.27255,"long":-122.24952},"type":"Feature","geometry":{"type":"Point","coordinates":[-122.24952,37.27255]}},{"properties":{"zip":94020,"id":"a6cuwirs6itg","lat":37.27255,"long":-122.24952},"type":"Feature","geometry":{"type":"Point","coordinates":[-122.24952,37.27255]}},{"properties":{"zip":94020,"id":"a6cuwir6r52s","lat":37.27255,"long":-122.24952},"type":"Feature","geometry":{"type":"Point","coordinates":[-122.24952,37.27255]}},{"properties":{"zip":94020,"id":"a6cuwj1cbpy5","lat":37.27255,"long":-122.24952},"type":"Feature","geometry":{"type":"Point","coordinates":[-122.24952,37.27255]}},{"properties":{"zip":94020,"id":"a6cuwj1ssopd","lat":37.27255,"long":-122.24952},"type":"Feature","geometry":{"type":"Point","coordinates":[-122.24952,37.27255]}},{"properties":{"zip":94022,"id":"a6cuwivw7nta","lat":37.238842,"long":-121.88506},"type":"Feature","geometry":{"type":"Point","coordinates":[-121.88506,37.238842]}},{"properties":{"zip":94022,"id":"a6cuwiyy3k8i","lat":37.238842,"long":-121.88506},"type":"Feature","geometry":{"type":"Point","coordinates":[-121.88506,37.238842]}},{"properties":{"zip":94022,"id":"a6cuwj1a3tlu","lat":37.238842,"long":-121.88506},"type":"Feature","geometry":{"type":"Point","coordinates":[-121.88506,37.238842]}},{"properties":{"zip":94022,"id":"a6cuwirldepn","lat":37.238842,"long":-121.88506},"type":"Feature","geometry":{"type":"Point","coordinates":[-121.88506,37.238842]}},{"properties":{"zip":94022,"id":"a6cuwit2wkm4","lat":37.238842,"long":-121.88506},"type":"Feature","geometry":{"type":"Point","coordinates":[-121.88506,37.238842]}},{"properties":{"zip":94022,"id":"a6cuwisdweve","lat":37.238842,"long":-121.88506},"type":"Feature","geometry":{"type":"Point","coordinates":[-121.88506,37.238842]}},{"properties":{"zip":94022,"id":"a6cuwirnh2cl","lat":37.238842,"long":-121.88506},"type":"Feature","geometry":{"type":"Point","coordinates":[-121.88506,37.238842]}},{"properties":{"zip":94022,"id":"a6cuwiqbg0j0","lat":37.238842,"long":-121.88506},"type":"Feature","geometry":{"type":"Point","coordinates":[-121.88506,37.238842]}},{"properties":{"zip":94022,"id":"a6cuwj1zsrry","lat":37.238842,"long":-121.88506},"type":"Feature","geometry":{"type":"Point","coordinates":[-121.88506,37.238842]}},{"properties":{"zip":94022,"id":"a6cuwiuo5cpp","lat":37.238842,"long":-121.88506},"type":"Feature","geometry":{"type":"Point","coordinates":[-121.88506,37.238842]}},{"properties":{"zip":94022,"id":"a6cuwizbg9yv","lat":37.238842,"long":-121.88506},"type":"Feature","geometry":{"type":"Point","coordinates":[-121.88506,37.238842]}},{"properties":{"zip":94022,"id":"a6cuwisy6ico","lat":37.238842,"long":-121.88506},"type":"Feature","geometry":{"type":"Point","coordinates":[-121.88506,37.238842]}},{"properties":{"zip":94022,"id":"a6cuwix4xni5","lat":37.238842,"long":-121.88506},"type":"Feature","geometry":{"type":"Point","coordinates":[-121.88506,37.238842]}},{"properties":{"zip":94022,"id":"a6cuwj022l1v","lat":37.238842,"long":-121.88506},"type":"Feature","geometry":{"type":"Point","coordinates":[-121.88506,37.238842]}},{"properties":{"zip":94022,"id":"a6cuwiq0zd56","lat":37.238842,"long":-121.88506},"type":"Feature","geometry":{"type":"Point","coordinates":[-121.88506,37.238842]}},{"properties":{"zip":94022,"id":"a6cuwisecx49","lat":37.238842,"long":-121.88506},"type":"Feature","geometry":{"type":"Point","coordinates":[-121.88506,37.238842]}},{"properties":{"zip":94022,"id":"a6cuwivjma80","lat":37.238842,"long":-121.88506},"type":"Feature","geometry":{"type":"Point","coordinates":[-121.88506,37.238842]}},{"properties":{"zip":94022,"id":"a6cuwivdynf9","lat":37.238842,"long":-121.88506},"type":"Feature","geometry":{"type":"Point","coordinates":[-121.88506,37.238842]}},{"properties":{"zip":94022,"id":"a6cuwis3op38","lat":37.238842,"long":-121.88506},"type":"Feature","geometry":{"type":"Point","coordinates":[-121.88506,37.238842]}},{"properties":{"zip":94022,"id":"a6cuwir6oe0h","lat":37.238842,"long":-121.88506},"type":"Feature","geometry":{"type":"Point","coordinates":[-121.88506,37.238842]}},{"properties":{"zip":94022,"id":"a6cuwiuvekzf","lat":37.238842,"long":-121.88506},"type":"Feature","geometry":{"type":"Point","coordinates":[-121.88506,37.238842]}},{"properties":{"zip":94022,"id":"a6cuwiwaokeo","lat":37.238842,"long":-121.88506},"type":"Feature","geometry":{"type":"Point","coordinates":[-121.88506,37.238842]}},{"properties":{"zip":94022,"id":"a6cuwizkkfkl","lat":37.238842,"long":-121.88506},"type":"Feature","geometry":{"type":"Point","coordinates":[-121.88506,37.238842]}},{"properties":{"zip":94022,"id":"a6cuwiy9vo01","lat":37.238842,"long":-121.88506},"type":"Feature","geometry":{"type":"Point","coordinates":[-121.88506,37.238842]}},{"properties":{"zip":94022,"id":"a6cuwj29f6ap","lat":37.238842,"long":-121.88506},"type":"Feature","geometry":{"type":"Point","coordinates":[-121.88506,37.238842]}},{"properties":{"zip":94022,"id":"a6cuwinkmb30","lat":37.238842,"long":-121.88506},"type":"Feature","geometry":{"type":"Point","coordinates":[-121.88506,37.238842]}},{"properties":{"zip":94022,"id":"a6cuwiykdf0o","lat":37.238842,"long":-121.88506},"type":"Feature","geometry":{"type":"Point","coordinates":[-121.88506,37.238842]}},{"properties":{"zip":94022,"id":"a6cuwiolm0fz","lat":37.238842,"long":-121.88506},"type":"Feature","geometry":{"type":"Point","coordinates":[-121.88506,37.238842]}},{"properties":{"zip":94022,"id":"a6cuwivi9736","lat":37.238842,"long":-121.88506},"type":"Feature","geometry":{"type":"Point","coordinates":[-121.88506,37.238842]}},{"properties":{"zip":94022,"id":"a6cuwitizeaw","lat":37.238842,"long":-121.88506},"type":"Feature","geometry":{"type":"Point","coordinates":[-121.88506,37.238842]}},{"properties":{"zip":94023,"id":"a6cuwin1m2re","lat":37.18939,"long":-121.70532},"type":"Feature","geometry":{"type":"Point","coordinates":[-121.70532,37.18939]}},{"properties":{"zip":94024,"id":"a6cuwinucw4s","lat":37.18939,"long":-121.70532},"type":"Feature","geometry":{"type":"Point","coordinates":[-121.70532,37.18939]}},{"properties":{"zip":94024,"id":"a6cuwiypr6ks","lat":37.18939,"long":-121.70532},"type":"Feature","geometry":{"type":"Point","coordinates":[-121.70532,37.18939]}},{"properties":{"zip":94024,"id":"a6cuwj1zw8nb","lat":37.18939,"long":-121.70532},"type":"Feature","geometry":{"type":"Point","coordinates":[-121.70532,37.18939]}},{"properties":{"zip":94024,"id":"a6cuwivgs999","lat":37.18939,"long":-121.70532},"type":"Feature","geometry":{"type":"Point","coordinates":[-121.70532,37.18939]}},{"properties":{"zip":94024,"id":"a6cuwimfp8sf","lat":37.18939,"long":-121.70532},"type":"Feature","geometry":{"type":"Point","coordinates":[-121.70532,37.18939]}},{"properties":{"zip":94024,"id":"a6cuwipbu8j2","lat":37.18939,"long":-121.70532},"type":"Feature","geometry":{"type":"Point","coordinates":[-121.70532,37.18939]}},{"properties":{"zip":94024,"id":"a6cuwimi2f3k","lat":37.18939,"long":-121.70532},"type":"Feature","geometry":{"type":"Point","coordinates":[-121.70532,37.18939]}},{"properties":{"zip":94024,"id":"a6cuwiojpsgk","lat":37.18939,"long":-121.70532},"type":"Feature","geometry":{"type":"Point","coordinates":[-121.70532,37.18939]}},{"properties":{"zip":94024,"id":"a6cuwith1mas","lat":37.18939,"long":-121.70532},"type":"Feature","geometry":{"type":"Point","coordinates":[-121.70532,37.18939]}},{"properties":{"zip":94024,"id":"a6cuwip40kmq","lat":37.18939,"long":-121.70532},"type":"Feature","geometry":{"type":"Point","coordinates":[-121.70532,37.18939]}},{"properties":{"zip":94024,"id":"a6cuwiz9sm4l","lat":37.18939,"long":-121.70532},"type":"Feature","geometry":{"type":"Point","coordinates":[-121.70532,37.18939]}},{"properties":{"zip":94024,"id":"a6cuwiu8au7b","lat":37.18939,"long":-121.70532},"type":"Feature","geometry":{"type":"Point","coordinates":[-121.70532,37.18939]}},{"properties":{"zip":94024,"id":"a6cuwiunzkqa","lat":37.18939,"long":-121.70532},"type":"Feature","geometry":{"type":"Point","coordinates":[-121.70532,37.18939]}},{"properties":{"zip":94024,"id":"a6cuwir4d4x8","lat":37.18939,"long":-121.70532},"type":"Feature","geometry":{"type":"Point","coordinates":[-121.70532,37.18939]}},{"properties":{"zip":94024,"id":"a6cuwiplkgyn","lat":37.18939,"long":-121.70532},"type":"Feature","geometry":{"type":"Point","coordinates":[-121.70532,37.18939]}},{"properties":{"zip":94024,"id":"a6cuwixli0l1","lat":37.18939,"long":-121.70532},"type":"Feature","geometry":{"type":"Point","coordinates":[-121.70532,37.18939]}},{"properties":{"zip":94024,"id":"a6cuwj1rak1o","lat":37.18939,"long":-121.70532},"type":"Feature","geometry":{"type":"Point","coordinates":[-121.70532,37.18939]}},{"properties":{"zip":94024,"id":"a6cuwj0ufg5q","lat":37.18939,"long":-121.70532},"type":"Feature","geometry":{"type":"Point","coordinates":[-121.70532,37.18939]}},{"properties":{"zip":94024,"id":"a6cuwizotk2u","lat":37.18939,"long":-121.70532},"type":"Feature","geometry":{"type":"Point","coordinates":[-121.70532,37.18939]}},{"properties":{"zip":94025,"id":"a6cuwj0bp0zx","lat":37.43961,"long":-122.18637},"type":"Feature","geometry":{"type":"Point","coordinates":[-122.18637,37.43961]}},{"properties":{"zip":94025,"id":"a6cuwisyrvy9","lat":37.43961,"long":-122.18637},"type":"Feature","geometry":{"type":"Point","coordinates":[-122.18637,37.43961]}},{"properties":{"zip":94025,"id":"a6cuwisf2xm5","lat":37.43961,"long":-122.18637},"type":"Feature","geometry":{"type":"Point","coordinates":[-122.18637,37.43961]}},{"properties":{"zip":94025,"id":"a6cuwirqyq19","lat":37.43961,"long":-122.18637},"type":"Feature","geometry":{"type":"Point","coordinates":[-122.18637,37.43961]}},{"properties":{"zip":94025,"id":"a6cuwj1nnotm","lat":37.43961,"long":-122.18637},"type":"Feature","geometry":{"type":"Point","coordinates":[-122.18637,37.43961]}},{"properties":{"zip":94025,"id":"a6cuwizxyyil","lat":37.43961,"long":-122.18637},"type":"Feature","geometry":{"type":"Point","coordinates":[-122.18637,37.43961]}},{"properties":{"zip":94025,"id":"a6cuwiopxzk3","lat":37.43961,"long":-122.18637},"type":"Feature","geometry":{"type":"Point","coordinates":[-122.18637,37.43961]}},{"properties":{"zip":94025,"id":"a6cuwio8wael","lat":37.43961,"long":-122.18637},"type":"Feature","geometry":{"type":"Point","coordinates":[-122.18637,37.43961]}},{"properties":{"zip":94025,"id":"a6cuwiyumbqe","lat":37.43961,"long":-122.18637},"type":"Feature","geometry":{"type":"Point","coordinates":[-122.18637,37.43961]}},{"properties":{"zip":94025,"id":"a6cuwiqp1h9d","lat":37.43961,"long":-122.18637},"type":"Feature","geometry":{"type":"Point","coordinates":[-122.18637,37.43961]}},{"properties":{"zip":94025,"id":"a6cuwiqjmrr0","lat":37.43961,"long":-122.18637},"type":"Feature","geometry":{"type":"Point","coordinates":[-122.18637,37.43961]}},{"properties":{"zip":94025,"id":"a6cuwitotuht","lat":37.43961,"long":-122.18637},"type":"Feature","geometry":{"type":"Point","coordinates":[-122.18637,37.43961]}},{"properties":{"zip":94025,"id":"a6cuwiqy1atc","lat":37.43961,"long":-122.18637},"type":"Feature","geometry":{"type":"Point","coordinates":[-122.18637,37.43961]}},{"properties":{"zip":94025,"id":"a6cuwixh7gsh","lat":37.43961,"long":-122.18637},"type":"Feature","geometry":{"type":"Point","coordinates":[-122.18637,37.43961]}},{"properties":{"zip":94025,"id":"a6cuwiumrgix","lat":37.43961,"long":-122.18637},"type":"Feature","geometry":{"type":"Point","coordinates":[-122.18637,37.43961]}},{"properties":{"zip":94025,"id":"a6cuwj06bx94","lat":37.43961,"long":-122.18637},"type":"Feature","geometry":{"type":"Point","coordinates":[-122.18637,37.43961]}},{"properties":{"zip":94025,"id":"a6cuwixv5kpd","lat":37.43961,"long":-122.18637},"type":"Feature","geometry":{"type":"Point","coordinates":[-122.18637,37.43961]}},{"properties":{"zip":94025,"id":"a6cuwiym955b","lat":37.43961,"long":-122.18637},"type":"Feature","geometry":{"type":"Point","coordinates":[-122.18637,37.43961]}},{"properties":{"zip":94025,"id":"a6cuwip2ayfq","lat":37.43961,"long":-122.18637},"type":"Feature","geometry":{"type":"Point","coordinates":[-122.18637,37.43961]}},{"properties":{"zip":94025,"id":"a6cuwj1eifbt","lat":37.43961,"long":-122.18637},"type":"Feature","geometry":{"type":"Point","coordinates":[-122.18637,37.43961]}},{"properties":{"zip":94025,"id":"a6cuwiqg8epb","lat":37.43961,"long":-122.18637},"type":"Feature","geometry":{"type":"Point","coordinates":[-122.18637,37.43961]}},{"properties":{"zip":94025,"id":"a6cuwix3dzya","lat":37.43961,"long":-122.18637},"type":"Feature","geometry":{"type":"Point","coordinates":[-122.18637,37.43961]}},{"properties":{"zip":94025,"id":"a6cuwiym0fvd","lat":37.43961,"long":-122.18637},"type":"Feature","geometry":{"type":"Point","coordinates":[-122.18637,37.43961]}},{"properties":{"zip":94025,"id":"a6cuwiv371g1","lat":37.43961,"long":-122.18637},"type":"Feature","geometry":{"type":"Point","coordinates":[-122.18637,37.43961]}},{"properties":{"zip":94025,"id":"a6cuwj2avc0n","lat":37.43961,"long":-122.18637},"type":"Feature","geometry":{"type":"Point","coordinates":[-122.18637,37.43961]}},{"properties":{"zip":94025,"id":"a6cuwiyks5sb","lat":37.43961,"long":-122.18637},"type":"Feature","geometry":{"type":"Point","coordinates":[-122.18637,37.43961]}},{"properties":{"zip":94025,"id":"a6cuwj28e886","lat":37.43961,"long":-122.18637},"type":"Feature","geometry":{"type":"Point","coordinates":[-122.18637,37.43961]}},{"properties":{"zip":94025,"id":"a6cuwj1oi5io","lat":37.43961,"long":-122.18637},"type":"Feature","geometry":{"type":"Point","coordinates":[-122.18637,37.43961]}},{"properties":{"zip":94025,"id":"a6cuwix9davs","lat":37.43961,"long":-122.18637},"type":"Feature","geometry":{"type":"Point","coordinates":[-122.18637,37.43961]}},{"properties":{"zip":94025,"id":"a6cuwiq4h9sl","lat":37.43961,"long":-122.18637},"type":"Feature","geometry":{"type":"Point","coordinates":[-122.18637,37.43961]}},{"properties":{"zip":94025,"id":"a6cuwiyarqug","lat":37.43961,"long":-122.18637},"type":"Feature","geometry":{"type":"Point","coordinates":[-122.18637,37.43961]}},{"properties":{"zip":94025,"id":"a6cuwis48y0l","lat":37.43961,"long":-122.18637},"type":"Feature","geometry":{"type":"Point","coordinates":[-122.18637,37.43961]}},{"properties":{"zip":94025,"id":"a6cuwiq86b0h","lat":37.43961,"long":-122.18637},"type":"Feature","geometry":{"type":"Point","coordinates":[-122.18637,37.43961]}},{"properties":{"zip":94025,"id":"a6cuwip3vpdu","lat":37.43961,"long":-122.18637},"type":"Feature","geometry":{"type":"Point","coordinates":[-122.18637,37.43961]}},{"properties":{"zip":94025,"id":"a6cuwimkfvbo","lat":37.43961,"long":-122.18637},"type":"Feature","geometry":{"type":"Point","coordinates":[-122.18637,37.43961]}},{"properties":{"zip":94025,"id":"a6cuwiub3kjs","lat":37.43961,"long":-122.18637},"type":"Feature","geometry":{"type":"Point","coordinates":[-122.18637,37.43961]}},{"properties":{"zip":94025,"id":"a6cuwim8tfqd","lat":37.43961,"long":-122.18637},"type":"Feature","geometry":{"type":"Point","coordinates":[-122.18637,37.43961]}},{"properties":{"zip":94025,"id":"a6cuwinfxxv4","lat":37.43961,"long":-122.18637},"type":"Feature","geometry":{"type":"Point","coordinates":[-122.18637,37.43961]}},{"properties":{"zip":94025,"id":"a6cuwj0axqc7","lat":37.43961,"long":-122.18637},"type":"Feature","geometry":{"type":"Point","coordinates":[-122.18637,37.43961]}},{"properties":{"zip":94025,"id":"a6cuwj13gilu","lat":37.43961,"long":-122.18637},"type":"Feature","geometry":{"type":"Point","coordinates":[-122.18637,37.43961]}},{"properties":{"zip":94025,"id":"a6cuwiq2tu3y","lat":37.43961,"long":-122.18637},"type":"Feature","geometry":{"type":"Point","coordinates":[-122.18637,37.43961]}},{"properties":{"zip":94025,"id":"a6cuwit2qmmi","lat":37.43961,"long":-122.18637},"type":"Feature","geometry":{"type":"Point","coordinates":[-122.18637,37.43961]}},{"properties":{"zip":94025,"id":"a6cuwizqngca","lat":37.43961,"long":-122.18637},"type":"Feature","geometry":{"type":"Point","coordinates":[-122.18637,37.43961]}},{"properties":{"zip":94025,"id":"a6cuwir19bip","lat":37.43961,"long":-122.18637},"type":"Feature","geometry":{"type":"Point","coordinates":[-122.18637,37.43961]}},{"properties":{"zip":94025,"id":"a6cuwiucutwp","lat":37.43961,"long":-122.18637},"type":"Feature","geometry":{"type":"Point","coordinates":[-122.18637,37.43961]}},{"properties":{"zip":94025,"id":"a6cuwioiilln","lat":37.43961,"long":-122.18637},"type":"Feature","geometry":{"type":"Point","coordinates":[-122.18637,37.43961]}},{"properties":{"zip":94025,"id":"a6cuwj2ffs4c","lat":37.43961,"long":-122.18637},"type":"Feature","geometry":{"type":"Point","coordinates":[-122.18637,37.43961]}},{"properties":{"zip":94025,"id":"a6cuwioaxfk1","lat":37.43961,"long":-122.18637},"type":"Feature","geometry":{"type":"Point","coordinates":[-122.18637,37.43961]}},{"properties":{"zip":94025,"id":"a6cuwiyevch6","lat":37.43961,"long":-122.18637},"type":"Feature","geometry":{"type":"Point","coordinates":[-122.18637,37.43961]}},{"properties":{"zip":94025,"id":"a6cuwirbe4nc","lat":37.43961,"long":-122.18637},"type":"Feature","geometry":{"type":"Point","coordinates":[-122.18637,37.43961]}},{"properties":{"zip":94025,"id":"a6cuwisnr0pi","lat":37.43961,"long":-122.18637},"type":"Feature","geometry":{"type":"Point","coordinates":[-122.18637,37.43961]}},{"properties":{"zip":94025,"id":"a6cuwixq9k46","lat":37.43961,"long":-122.18637},"type":"Feature","geometry":{"type":"Point","coordinates":[-122.18637,37.43961]}},{"properties":{"zip":94025,"id":"a6cuwiz6iggc","lat":37.43961,"long":-122.18637},"type":"Feature","geometry":{"type":"Point","coordinates":[-122.18637,37.43961]}},{"properties":{"zip":94025,"id":"a6cuwix14kdg","lat":37.43961,"long":-122.18637},"type":"Feature","geometry":{"type":"Point","coordinates":[-122.18637,37.43961]}},{"properties":{"zip":94025,"id":"a6cuwj05j08x","lat":37.43961,"long":-122.18637},"type":"Feature","geometry":{"type":"Point","coordinates":[-122.18637,37.43961]}},{"properties":{"zip":94025,"id":"a6cuwivrwc77","lat":37.43961,"long":-122.18637},"type":"Feature","geometry":{"type":"Point","coordinates":[-122.18637,37.43961]}},{"properties":{"zip":94025,"id":"a6cuwitcpfo9","lat":37.43961,"long":-122.18637},"type":"Feature","geometry":{"type":"Point","coordinates":[-122.18637,37.43961]}},{"properties":{"zip":94025,"id":"a6cuwiymyajc","lat":37.43961,"long":-122.18637},"type":"Feature","geometry":{"type":"Point","coordinates":[-122.18637,37.43961]}},{"properties":{"zip":94025,"id":"a6cuwiz440qf","lat":37.43961,"long":-122.18637},"type":"Feature","geometry":{"type":"Point","coordinates":[-122.18637,37.43961]}},{"properties":{"zip":94025,"id":"a6cuwiyr6pkw","lat":37.43961,"long":-122.18637},"type":"Feature","geometry":{"type":"Point","coordinates":[-122.18637,37.43961]}},{"properties":{"zip":94025,"id":"a6cuwip0ffov","lat":37.43961,"long":-122.18637},"type":"Feature","geometry":{"type":"Point","coordinates":[-122.18637,37.43961]}},{"properties":{"zip":94025,"id":"a6cuwipq5m1m","lat":37.43961,"long":-122.18637},"type":"Feature","geometry":{"type":"Point","coordinates":[-122.18637,37.43961]}},{"properties":{"zip":94025,"id":"a6cuwimv24kp","lat":37.43961,"long":-122.18637},"type":"Feature","geometry":{"type":"Point","coordinates":[-122.18637,37.43961]}},{"properties":{"zip":94025,"id":"a6cuwiox2zyh","lat":37.43961,"long":-122.18637},"type":"Feature","geometry":{"type":"Point","coordinates":[-122.18637,37.43961]}},{"properties":{"zip":94025,"id":"a6cuwiw7se9w","lat":37.43961,"long":-122.18637},"type":"Feature","geometry":{"type":"Point","coordinates":[-122.18637,37.43961]}},{"properties":{"zip":94025,"id":"a6cuwiqcviz8","lat":37.43961,"long":-122.18637},"type":"Feature","geometry":{"type":"Point","coordinates":[-122.18637,37.43961]}},{"properties":{"zip":94025,"id":"a6cuwixnr9a8","lat":37.43961,"long":-122.18637},"type":"Feature","geometry":{"type":"Point","coordinates":[-122.18637,37.43961]}},{"properties":{"zip":94025,"id":"a6cuwip3s91q","lat":37.43961,"long":-122.18637},"type":"Feature","geometry":{"type":"Point","coordinates":[-122.18637,37.43961]}},{"properties":{"zip":94025,"id":"a6cuwiw2lpjf","lat":37.43961,"long":-122.18637},"type":"Feature","geometry":{"type":"Point","coordinates":[-122.18637,37.43961]}},{"properties":{"zip":94025,"id":"a6cuwiwljhwe","lat":37.43961,"long":-122.18637},"type":"Feature","geometry":{"type":"Point","coordinates":[-122.18637,37.43961]}},{"properties":{"zip":94025,"id":"a6cuwixftso8","lat":37.43961,"long":-122.18637},"type":"Feature","geometry":{"type":"Point","coordinates":[-122.18637,37.43961]}},{"properties":{"zip":94025,"id":"a6cuwiuyeujr","lat":37.43961,"long":-122.18637},"type":"Feature","geometry":{"type":"Point","coordinates":[-122.18637,37.43961]}},{"properties":{"zip":94025,"id":"a6cuwiqku5gt","lat":37.43961,"long":-122.18637},"type":"Feature","geometry":{"type":"Point","coordinates":[-122.18637,37.43961]}},{"properties":{"zip":94025,"id":"a6cuwiyejka1","lat":37.43961,"long":-122.18637},"type":"Feature","geometry":{"type":"Point","coordinates":[-122.18637,37.43961]}},{"properties":{"zip":94025,"id":"a6cuwix6fx0k","lat":37.43961,"long":-122.18637},"type":"Feature","geometry":{"type":"Point","coordinates":[-122.18637,37.43961]}},{"properties":{"zip":94025,"id":"a6cuwizv6zvz","lat":37.43961,"long":-122.18637},"type":"Feature","geometry":{"type":"Point","coordinates":[-122.18637,37.43961]}},{"properties":{"zip":94025,"id":"a6cuwiptte02","lat":37.43961,"long":-122.18637},"type":"Feature","geometry":{"type":"Point","coordinates":[-122.18637,37.43961]}},{"properties":{"zip":94025,"id":"a6cuwiz1twg6","lat":37.43961,"long":-122.18637},"type":"Feature","geometry":{"type":"Point","coordinates":[-122.18637,37.43961]}},{"properties":{"zip":94025,"id":"a6cuwivrmw5u","lat":37.43961,"long":-122.18637},"type":"Feature","geometry":{"type":"Point","coordinates":[-122.18637,37.43961]}},{"properties":{"zip":94025,"id":"a6cuwiwd6sjv","lat":37.43961,"long":-122.18637},"type":"Feature","geometry":{"type":"Point","coordinates":[-122.18637,37.43961]}},{"properties":{"zip":94025,"id":"a6cuwirl99u8","lat":37.43961,"long":-122.18637},"type":"Feature","geometry":{"type":"Point","coordinates":[-122.18637,37.43961]}},{"properties":{"zip":94025,"id":"a6cuwimzdtjb","lat":37.43961,"long":-122.18637},"type":"Feature","geometry":{"type":"Point","coordinates":[-122.18637,37.43961]}},{"properties":{"zip":94025,"id":"a6cuwiqovvk9","lat":37.43961,"long":-122.18637},"type":"Feature","geometry":{"type":"Point","coordinates":[-122.18637,37.43961]}},{"properties":{"zip":94025,"id":"a6cuwiy9x36p","lat":37.43961,"long":-122.18637},"type":"Feature","geometry":{"type":"Point","coordinates":[-122.18637,37.43961]}},{"properties":{"zip":94025,"id":"a6cuwiqoeno6","lat":37.43961,"long":-122.18637},"type":"Feature","geometry":{"type":"Point","coordinates":[-122.18637,37.43961]}},{"properties":{"zip":94025,"id":"a6cuwimshu9y","lat":37.43961,"long":-122.18637},"type":"Feature","geometry":{"type":"Point","coordinates":[-122.18637,37.43961]}},{"properties":{"zip":94025,"id":"a6cuwirqeed2","lat":37.43961,"long":-122.18637},"type":"Feature","geometry":{"type":"Point","coordinates":[-122.18637,37.43961]}},{"properties":{"zip":94025,"id":"a6cuwiy6v1k3","lat":37.43961,"long":-122.18637},"type":"Feature","geometry":{"type":"Point","coordinates":[-122.18637,37.43961]}},{"properties":{"zip":94025,"id":"a6cuwinuzloe","lat":37.43961,"long":-122.18637},"type":"Feature","geometry":{"type":"Point","coordinates":[-122.18637,37.43961]}},{"properties":{"zip":94025,"id":"a6cuwivq87f8","lat":37.43961,"long":-122.18637},"type":"Feature","geometry":{"type":"Point","coordinates":[-122.18637,37.43961]}},{"properties":{"zip":94025,"id":"a6cuwiscix7o","lat":37.43961,"long":-122.18637},"type":"Feature","geometry":{"type":"Point","coordinates":[-122.18637,37.43961]}},{"properties":{"zip":94025,"id":"a6cuwiwzc551","lat":37.43961,"long":-122.18637},"type":"Feature","geometry":{"type":"Point","coordinates":[-122.18637,37.43961]}},{"properties":{"zip":94025,"id":"a6cuwiy36vks","lat":37.43961,"long":-122.18637},"type":"Feature","geometry":{"type":"Point","coordinates":[-122.18637,37.43961]}},{"properties":{"zip":94025,"id":"a6cuwit3lasa","lat":37.43961,"long":-122.18637},"type":"Feature","geometry":{"type":"Point","coordinates":[-122.18637,37.43961]}},{"properties":{"zip":94025,"id":"a6cuwis4255z","lat":37.43961,"long":-122.18637},"type":"Feature","geometry":{"type":"Point","coordinates":[-122.18637,37.43961]}},{"properties":{"zip":94025,"id":"a6cuwiygfy6m","lat":37.43961,"long":-122.18637},"type":"Feature","geometry":{"type":"Point","coordinates":[-122.18637,37.43961]}},{"properties":{"zip":94025,"id":"a6cuwiu8w3dw","lat":37.43961,"long":-122.18637},"type":"Feature","geometry":{"type":"Point","coordinates":[-122.18637,37.43961]}},{"properties":{"zip":94025,"id":"a6cuwir2kgn3","lat":37.43961,"long":-122.18637},"type":"Feature","geometry":{"type":"Point","coordinates":[-122.18637,37.43961]}},{"properties":{"zip":94025,"id":"a6cuwix454lo","lat":37.43961,"long":-122.18637},"type":"Feature","geometry":{"type":"Point","coordinates":[-122.18637,37.43961]}},{"properties":{"zip":94025,"id":"a6cuwio0b55h","lat":37.43961,"long":-122.18637},"type":"Feature","geometry":{"type":"Point","coordinates":[-122.18637,37.43961]}},{"properties":{"zip":94025,"id":"a6cuwisuqozw","lat":37.43961,"long":-122.18637},"type":"Feature","geometry":{"type":"Point","coordinates":[-122.18637,37.43961]}},{"properties":{"zip":94025,"id":"a6cuwizs4gby","lat":37.43961,"long":-122.18637},"type":"Feature","geometry":{"type":"Point","coordinates":[-122.18637,37.43961]}},{"properties":{"zip":94025,"id":"a6cuwis76vdu","lat":37.43961,"long":-122.18637},"type":"Feature","geometry":{"type":"Point","coordinates":[-122.18637,37.43961]}},{"properties":{"zip":94025,"id":"a6cuwisqecig","lat":37.43961,"long":-122.18637},"type":"Feature","geometry":{"type":"Point","coordinates":[-122.18637,37.43961]}},{"properties":{"zip":94025,"id":"a6cuwizh1wvf","lat":37.43961,"long":-122.18637},"type":"Feature","geometry":{"type":"Point","coordinates":[-122.18637,37.43961]}},{"properties":{"zip":94025,"id":"a6cuwiualflm","lat":37.43961,"long":-122.18637},"type":"Feature","geometry":{"type":"Point","coordinates":[-122.18637,37.43961]}},{"properties":{"zip":94025,"id":"a6cuwj27wylw","lat":37.43961,"long":-122.18637},"type":"Feature","geometry":{"type":"Point","coordinates":[-122.18637,37.43961]}},{"properties":{"zip":94025,"id":"a6cuwiqzzhgq","lat":37.43961,"long":-122.18637},"type":"Feature","geometry":{"type":"Point","coordinates":[-122.18637,37.43961]}},{"properties":{"zip":94025,"id":"a6cuwiw85rsh","lat":37.43961,"long":-122.18637},"type":"Feature","geometry":{"type":"Point","coordinates":[-122.18637,37.43961]}},{"properties":{"zip":94025,"id":"a6cuwinzjwub","lat":37.43961,"long":-122.18637},"type":"Feature","geometry":{"type":"Point","coordinates":[-122.18637,37.43961]}},{"properties":{"zip":94025,"id":"a6cuwj1pi9f1","lat":37.43961,"long":-122.18637},"type":"Feature","geometry":{"type":"Point","coordinates":[-122.18637,37.43961]}},{"properties":{"zip":94025,"id":"a6cuwiugbfzr","lat":37.43961,"long":-122.18637},"type":"Feature","geometry":{"type":"Point","coordinates":[-122.18637,37.43961]}},{"properties":{"zip":94025,"id":"a6cuwizk17tp","lat":37.43961,"long":-122.18637},"type":"Feature","geometry":{"type":"Point","coordinates":[-122.18637,37.43961]}},{"properties":{"zip":94025,"id":"a6cuwirqirq8","lat":37.43961,"long":-122.18637},"type":"Feature","geometry":{"type":"Point","coordinates":[-122.18637,37.43961]}},{"properties":{"zip":94025,"id":"a6cuwizxvl0i","lat":37.43961,"long":-122.18637},"type":"Feature","geometry":{"type":"Point","coordinates":[-122.18637,37.43961]}},{"properties":{"zip":94025,"id":"a6cuwiox6r6y","lat":37.43961,"long":-122.18637},"type":"Feature","geometry":{"type":"Point","coordinates":[-122.18637,37.43961]}},{"properties":{"zip":94025,"id":"a6cuwiyb99vv","lat":37.43961,"long":-122.18637},"type":"Feature","geometry":{"type":"Point","coordinates":[-122.18637,37.43961]}},{"properties":{"zip":94025,"id":"a6cuwivxw2jg","lat":37.43961,"long":-122.18637},"type":"Feature","geometry":{"type":"Point","coordinates":[-122.18637,37.43961]}},{"properties":{"zip":94025,"id":"a6cuwiojrfio","lat":37.43961,"long":-122.18637},"type":"Feature","geometry":{"type":"Point","coordinates":[-122.18637,37.43961]}},{"properties":{"zip":94026,"id":"a6cuwiq4ssc1","lat":37.38114,"long":-122.33482},"type":"Feature","geometry":{"type":"Point","coordinates":[-122.33482,37.38114]}},{"properties":{"zip":94026,"id":"a6cuwj01f9id","lat":37.38114,"long":-122.33482},"type":"Feature","geometry":{"type":"Point","coordinates":[-122.33482,37.38114]}},{"properties":{"zip":94026,"id":"a6cuwit2n0lo","lat":37.38114,"long":-122.33482},"type":"Feature","geometry":{"type":"Point","coordinates":[-122.33482,37.38114]}},{"properties":{"zip":94026,"id":"a6cuwisi3rdd","lat":37.38114,"long":-122.33482},"type":"Feature","geometry":{"type":"Point","coordinates":[-122.33482,37.38114]}},{"properties":{"zip":94026,"id":"a6cuwiq8gjrp","lat":37.38114,"long":-122.33482},"type":"Feature","geometry":{"type":"Point","coordinates":[-122.33482,37.38114]}},{"properties":{"zip":94026,"id":"a6cuwiwerv32","lat":37.38114,"long":-122.33482},"type":"Feature","geometry":{"type":"Point","coordinates":[-122.33482,37.38114]}},{"properties":{"zip":94026,"id":"a6cuwix0srk2","lat":37.38114,"long":-122.33482},"type":"Feature","geometry":{"type":"Point","coordinates":[-122.33482,37.38114]}},{"properties":{"zip":94026,"id":"a6cuwip63dta","lat":37.38114,"long":-122.33482},"type":"Feature","geometry":{"type":"Point","coordinates":[-122.33482,37.38114]}},{"properties":{"zip":94027,"id":"a6cuwj1i3gpm","lat":37.45062,"long":-122.19943},"type":"Feature","geometry":{"type":"Point","coordinates":[-122.19943,37.45062]}},{"properties":{"zip":94027,"id":"a6cuwivktmco","lat":37.45062,"long":-122.19943},"type":"Feature","geometry":{"type":"Point","coordinates":[-122.19943,37.45062]}},{"properties":{"zip":94027,"id":"a6cuwisdw1qe","lat":37.45062,"long":-122.19943},"type":"Feature","geometry":{"type":"Point","coordinates":[-122.19943,37.45062]}},{"properties":{"zip":94027,"id":"a6cuwiw7n3qb","lat":37.45062,"long":-122.19943},"type":"Feature","geometry":{"type":"Point","coordinates":[-122.19943,37.45062]}},{"properties":{"zip":94027,"id":"a6cuwiz02c3s","lat":37.45062,"long":-122.19943},"type":"Feature","geometry":{"type":"Point","coordinates":[-122.19943,37.45062]}},{"properties":{"zip":94027,"id":"a6cuwipcn580","lat":37.45062,"long":-122.19943},"type":"Feature","geometry":{"type":"Point","coordinates":[-122.19943,37.45062]}},{"properties":{"zip":94027,"id":"a6cuwiysuru9","lat":37.45062,"long":-122.19943},"type":"Feature","geometry":{"type":"Point","coordinates":[-122.19943,37.45062]}},{"properties":{"zip":94027,"id":"a6cuwj0vydt7","lat":37.45062,"long":-122.19943},"type":"Feature","geometry":{"type":"Point","coordinates":[-122.19943,37.45062]}},{"properties":{"zip":94027,"id":"a6cuwiswgpa4","lat":37.45062,"long":-122.19943},"type":"Feature","geometry":{"type":"Point","coordinates":[-122.19943,37.45062]}},{"properties":{"zip":94027,"id":"a6cuwj028zid","lat":37.45062,"long":-122.19943},"type":"Feature","geometry":{"type":"Point","coordinates":[-122.19943,37.45062]}},{"properties":{"zip":94027,"id":"a6cuwiqoer34","lat":37.45062,"long":-122.19943},"type":"Feature","geometry":{"type":"Point","coordinates":[-122.19943,37.45062]}},{"properties":{"zip":94027,"id":"a6cuwj15vbin","lat":37.45062,"long":-122.19943},"type":"Feature","geometry":{"type":"Point","coordinates":[-122.19943,37.45062]}},{"properties":{"zip":94028,"id":"a6cuwitwkpqs","lat":37.37019,"long":-122.21817},"type":"Feature","geometry":{"type":"Point","coordinates":[-122.21817,37.37019]}},{"properties":{"zip":94028,"id":"a6cuwiy8jdg0","lat":37.37019,"long":-122.21817},"type":"Feature","geometry":{"type":"Point","coordinates":[-122.21817,37.37019]}},{"properties":{"zip":94028,"id":"a6cuwiy481dq","lat":37.37019,"long":-122.21817},"type":"Feature","geometry":{"type":"Point","coordinates":[-122.21817,37.37019]}},{"properties":{"zip":94028,"id":"a6cuwj1c2eez","lat":37.37019,"long":-122.21817},"type":"Feature","geometry":{"type":"Point","coordinates":[-122.21817,37.37019]}},{"properties":{"zip":94028,"id":"a6cuwisv2sr8","lat":37.37019,"long":-122.21817},"type":"Feature","geometry":{"type":"Point","coordinates":[-122.21817,37.37019]}},{"properties":{"zip":94028,"id":"a6cuwivrvrio","lat":37.37019,"long":-122.21817},"type":"Feature","geometry":{"type":"Point","coordinates":[-122.21817,37.37019]}},{"properties":{"zip":94028,"id":"a6cuwis1v5e3","lat":37.37019,"long":-122.21817},"type":"Feature","geometry":{"type":"Point","coordinates":[-122.21817,37.37019]}},{"properties":{"zip":94028,"id":"a6cuwiwgodif","lat":37.37019,"long":-122.21817},"type":"Feature","geometry":{"type":"Point","coordinates":[-122.21817,37.37019]}},{"properties":{"zip":94028,"id":"a6cuwiu83k0s","lat":37.37019,"long":-122.21817},"type":"Feature","geometry":{"type":"Point","coordinates":[-122.21817,37.37019]}},{"properties":{"zip":94028,"id":"a6cuwioybrf3","lat":37.37019,"long":-122.21817},"type":"Feature","geometry":{"type":"Point","coordinates":[-122.21817,37.37019]}},{"properties":{"zip":94028,"id":"a6cuwitn55ow","lat":37.37019,"long":-122.21817},"type":"Feature","geometry":{"type":"Point","coordinates":[-122.21817,37.37019]}},{"properties":{"zip":94028,"id":"a6cuwitoit0e","lat":37.37019,"long":-122.21817},"type":"Feature","geometry":{"type":"Point","coordinates":[-122.21817,37.37019]}},{"properties":{"zip":94028,"id":"a6cuwixd96of","lat":37.37019,"long":-122.21817},"type":"Feature","geometry":{"type":"Point","coordinates":[-122.21817,37.37019]}},{"properties":{"zip":94028,"id":"a6cuwiunqn7m","lat":37.37019,"long":-122.21817},"type":"Feature","geometry":{"type":"Point","coordinates":[-122.21817,37.37019]}},{"properties":{"zip":94028,"id":"a6cuwitmpgaq","lat":37.37019,"long":-122.21817},"type":"Feature","geometry":{"type":"Point","coordinates":[-122.21817,37.37019]}},{"properties":{"zip":94028,"id":"a6cuwin1ntkh","lat":37.37019,"long":-122.21817},"type":"Feature","geometry":{"type":"Point","coordinates":[-122.21817,37.37019]}},{"properties":{"zip":94028,"id":"a6cuwivetiv0","lat":37.37019,"long":-122.21817},"type":"Feature","geometry":{"type":"Point","coordinates":[-122.21817,37.37019]}},{"properties":{"zip":94028,"id":"a6cuwio3uq10","lat":37.37019,"long":-122.21817},"type":"Feature","geometry":{"type":"Point","coordinates":[-122.21817,37.37019]}},{"properties":{"zip":94028,"id":"a6cuwizq9adu","lat":37.37019,"long":-122.21817},"type":"Feature","geometry":{"type":"Point","coordinates":[-122.21817,37.37019]}},{"properties":{"zip":94030,"id":"a6cuwiw4wj03","lat":37.59838,"long":-122.40008},"type":"Feature","geometry":{"type":"Point","coordinates":[-122.40008,37.59838]}},{"properties":{"zip":94030,"id":"a6cuwiz58grq","lat":37.59838,"long":-122.40008},"type":"Feature","geometry":{"type":"Point","coordinates":[-122.40008,37.59838]}},{"properties":{"zip":94030,"id":"a6cuwinb1uap","lat":37.59838,"long":-122.40008},"type":"Feature","geometry":{"type":"Point","coordinates":[-122.40008,37.59838]}},{"properties":{"zip":94030,"id":"a6cuwiqpr74w","lat":37.59838,"long":-122.40008},"type":"Feature","geometry":{"type":"Point","coordinates":[-122.40008,37.59838]}},{"properties":{"zip":94030,"id":"a6cuwiwxs4lp","lat":37.59838,"long":-122.40008},"type":"Feature","geometry":{"type":"Point","coordinates":[-122.40008,37.59838]}},{"properties":{"zip":94030,"id":"a6cuwiwggct6","lat":37.59838,"long":-122.40008},"type":"Feature","geometry":{"type":"Point","coordinates":[-122.40008,37.59838]}},{"properties":{"zip":94030,"id":"a6cuwiow2dv8","lat":37.59838,"long":-122.40008},"type":"Feature","geometry":{"type":"Point","coordinates":[-122.40008,37.59838]}},{"properties":{"zip":94030,"id":"a6cuwj1tpl6c","lat":37.59838,"long":-122.40008},"type":"Feature","geometry":{"type":"Point","coordinates":[-122.40008,37.59838]}},{"properties":{"zip":94030,"id":"a6cuwiv1q89h","lat":37.59838,"long":-122.40008},"type":"Feature","geometry":{"type":"Point","coordinates":[-122.40008,37.59838]}},{"properties":{"zip":94030,"id":"a6cuwiw55zt1","lat":37.59838,"long":-122.40008},"type":"Feature","geometry":{"type":"Point","coordinates":[-122.40008,37.59838]}},{"properties":{"zip":94030,"id":"a6cuwj0aosy3","lat":37.59838,"long":-122.40008},"type":"Feature","geometry":{"type":"Point","coordinates":[-122.40008,37.59838]}},{"properties":{"zip":94035,"id":"a6cuwixc0hmr","lat":37.18939,"long":-121.70532},"type":"Feature","geometry":{"type":"Point","coordinates":[-121.70532,37.18939]}},{"properties":{"zip":94035,"id":"a6cuwiy4xb87","lat":37.18939,"long":-121.70532},"type":"Feature","geometry":{"type":"Point","coordinates":[-121.70532,37.18939]}},{"properties":{"zip":94035,"id":"a6cuwivdedhx","lat":37.18939,"long":-121.70532},"type":"Feature","geometry":{"type":"Point","coordinates":[-121.70532,37.18939]}},{"properties":{"zip":94035,"id":"a6cuwiuifepm","lat":37.18939,"long":-121.70532},"type":"Feature","geometry":{"type":"Point","coordinates":[-121.70532,37.18939]}},{"properties":{"zip":94035,"id":"a6cuwingro49","lat":37.18939,"long":-121.70532},"type":"Feature","geometry":{"type":"Point","coordinates":[-121.70532,37.18939]}},{"properties":{"zip":94035,"id":"a6cuwir8syop","lat":37.18939,"long":-121.70532},"type":"Feature","geometry":{"type":"Point","coordinates":[-121.70532,37.18939]}},{"properties":{"zip":94037,"id":"a6cuwj06yst5","lat":37.54278,"long":-122.50515},"type":"Feature","geometry":{"type":"Point","coordinates":[-122.50515,37.54278]}},{"properties":{"zip":94037,"id":"a6cuwiy8ohwz","lat":37.54278,"long":-122.50515},"type":"Feature","geometry":{"type":"Point","coordinates":[-122.50515,37.54278]}},{"properties":{"zip":94038,"id":"a6cuwixu2glu","lat":37.52019,"long":-122.49961},"type":"Feature","geometry":{"type":"Point","coordinates":[-122.49961,37.52019]}},{"properties":{"zip":94038,"id":"a6cuwiucb90u","lat":37.52019,"long":-122.49961},"type":"Feature","geometry":{"type":"Point","coordinates":[-122.49961,37.52019]}},{"properties":{"zip":94039,"id":"a6cuwirjfnyl","lat":37.18939,"long":-121.70532},"type":"Feature","geometry":{"type":"Point","coordinates":[-121.70532,37.18939]}},{"properties":{"zip":94039,"id":"a6cuwiwgxhuq","lat":37.18939,"long":-121.70532},"type":"Feature","geometry":{"type":"Point","coordinates":[-121.70532,37.18939]}},{"properties":{"zip":94039,"id":"a6cuwipp8drs","lat":37.18939,"long":-121.70532},"type":"Feature","geometry":{"type":"Point","coordinates":[-121.70532,37.18939]}},{"properties":{"zip":94040,"id":"a6cuwj1ri6zb","lat":37.18939,"long":-121.70532},"type":"Feature","geometry":{"type":"Point","coordinates":[-121.70532,37.18939]}},{"properties":{"zip":94040,"id":"a6cuwj052jvn","lat":37.18939,"long":-121.70532},"type":"Feature","geometry":{"type":"Point","coordinates":[-121.70532,37.18939]}},{"properties":{"zip":94040,"id":"a6cuwip5s56a","lat":37.18939,"long":-121.70532},"type":"Feature","geometry":{"type":"Point","coordinates":[-121.70532,37.18939]}},{"properties":{"zip":94040,"id":"a6cuwiorbyfv","lat":37.18939,"long":-121.70532},"type":"Feature","geometry":{"type":"Point","coordinates":[-121.70532,37.18939]}},{"properties":{"zip":94040,"id":"a6cuwiuhzefi","lat":37.18939,"long":-121.70532},"type":"Feature","geometry":{"type":"Point","coordinates":[-121.70532,37.18939]}},{"properties":{"zip":94040,"id":"a6cuwit1r7gi","lat":37.18939,"long":-121.70532},"type":"Feature","geometry":{"type":"Point","coordinates":[-121.70532,37.18939]}},{"properties":{"zip":94040,"id":"a6cuwixi6k6j","lat":37.18939,"long":-121.70532},"type":"Feature","geometry":{"type":"Point","coordinates":[-121.70532,37.18939]}},{"properties":{"zip":94040,"id":"a6cuwitbj0hi","lat":37.18939,"long":-121.70532},"type":"Feature","geometry":{"type":"Point","coordinates":[-121.70532,37.18939]}},{"properties":{"zip":94040,"id":"a6cuwipgxn43","lat":37.18939,"long":-121.70532},"type":"Feature","geometry":{"type":"Point","coordinates":[-121.70532,37.18939]}}],"is_temporal":false,"author":{"url":"","metadata":"","contact_name":"","contact_address":"","source":"","contact_phone":""},"source":"","pagination":{"sort":null,"start":0,"total":296,"limit":1000000},"state":"complete","tags":"","published":"2014-08-11T06:37:45-04:00","id":5953}