{"type":"FeatureCollection","data_type":"Dataset","url_type":null,"permissions":[{"permissions":{"download":true,"view":true},"group_id":"everyone"}],"classification":null,"title":"ZIP code and purchase price","count":123,"stream_id":74967,"contributor":{"url":"http://geocommons.com/users/18593","name":"manvendrakumar"},"data_attributes":null,"calculation_params":null,"icon_link":null,"link":"http://geocommons.com/overlays/74967.json","extent":[105.979,-37.2696,140.754,27.3289],"geometry_types":["point"],"unique_name":null,"name":"ZIP code and purchase price","feature_count":123,"description":"Distribution of sale of business across Adelaide and its suburbs in terms of Dollars","next_feature":null,"is_raster":false,"short_classification":"Y","stats":{"latitude":{"max":27.328899,"mean":-13.468966097561,"variance":797.217869802464,"stdev":28.2350468354927,"min":-37.269588,"median":-34.801239},"zipcode":{"max":5725,"mean":5191.63414634146,"variance":33927.3322670932,"stdev":184.193735689065,"min":5000,"median":5115},"longitude":{"max":140.753799,"mean":128.931138048781,"variance":163.647704849448,"stdev":12.7924862653609,"min":105.978859,"median":138.519913},"purchase price":{"max":4659682.06,"mean":553197.022195122,"variance":453777077134.668,"stdev":673629.777499976,"min":10000.0,"median":295000.0}},"features":[{"properties":{"latitude":-37.269588,"zipcode":5276,"longitude":139.914246,"id":"a68sgmyk2oih","purchase price":205000.0},"type":"Feature","geometry":{"type":"Point","coordinates":[139.914246,-37.269588]}},{"properties":{"latitude":-36.351749,"zipcode":5268,"longitude":140.753799,"id":"a68sgmwjmkjk","purchase price":400000.0},"type":"Feature","geometry":{"type":"Point","coordinates":[140.753799,-36.351749]}},{"properties":{"latitude":-36.001549,"zipcode":5267,"longitude":140.467102,"id":"a68sgms37kaz","purchase price":1175000.0},"type":"Feature","geometry":{"type":"Point","coordinates":[140.467102,-36.001549]}},{"properties":{"latitude":-35.508041,"zipcode":5211,"longitude":138.52417,"id":"a68sgmwjw7no","purchase price":650000.0},"type":"Feature","geometry":{"type":"Point","coordinates":[138.52417,-35.508041]}},{"properties":{"latitude":-35.472389,"zipcode":5214,"longitude":138.813126,"id":"a68sgn48alnn","purchase price":1091000.0},"type":"Feature","geometry":{"type":"Point","coordinates":[138.813126,-35.472389]}},{"properties":{"latitude":-35.275478,"zipcode":5255,"longitude":138.992737,"id":"a68sgn4c27q9","purchase price":37500.0},"type":"Feature","geometry":{"type":"Point","coordinates":[138.992737,-35.275478]}},{"properties":{"latitude":-35.164169,"zipcode":5168,"longitude":138.501007,"id":"a68sgmptb7ej","purchase price":1388000.0},"type":"Feature","geometry":{"type":"Point","coordinates":[138.501007,-35.164169]}},{"properties":{"latitude":-35.043159,"zipcode":5049,"longitude":138.5233,"id":"a68sgmw84eo6","purchase price":220000.0},"type":"Feature","geometry":{"type":"Point","coordinates":[138.5233,-35.043159]}},{"properties":{"latitude":-35.015961,"zipcode":5048,"longitude":138.526505,"id":"a68sgmyxal4e","purchase price":665000.0},"type":"Feature","geometry":{"type":"Point","coordinates":[138.526505,-35.015961]}},{"properties":{"latitude":-35.012791,"zipcode":5042,"longitude":138.576584,"id":"a68sgn03c1bm","purchase price":1440000.0},"type":"Feature","geometry":{"type":"Point","coordinates":[138.576584,-35.012791]}},{"properties":{"latitude":-35.008362,"zipcode":5052,"longitude":138.641037,"id":"a68sgmulsgt8","purchase price":340000.0},"type":"Feature","geometry":{"type":"Point","coordinates":[138.641037,-35.008362]}},{"properties":{"latitude":-35.007069,"zipcode":5046,"longitude":138.539886,"id":"a68sgn4pdb2g","purchase price":1740000.0},"type":"Feature","geometry":{"type":"Point","coordinates":[138.539886,-35.007069]}},{"properties":{"latitude":-34.994579,"zipcode":5043,"longitude":138.552597,"id":"a68sgmudqd3y","purchase price":10000.0},"type":"Feature","geometry":{"type":"Point","coordinates":[138.552597,-34.994579]}},{"properties":{"latitude":-34.989441,"zipcode":5041,"longitude":138.592636,"id":"a68sgmw7n64y","purchase price":120000.0},"type":"Feature","geometry":{"type":"Point","coordinates":[138.592636,-34.989441]}},{"properties":{"latitude":-34.982471,"zipcode":5062,"longitude":138.634567,"id":"a68sgn2tdgwk","purchase price":90000.0},"type":"Feature","geometry":{"type":"Point","coordinates":[138.634567,-34.982471]}},{"properties":{"latitude":-34.980042,"zipcode":5039,"longitude":138.573883,"id":"a68sgn2du2ja","purchase price":2255000.0},"type":"Feature","geometry":{"type":"Point","coordinates":[138.573883,-34.980042]}},{"properties":{"latitude":-34.97493,"zipcode":5045,"longitude":138.521866,"id":"a68sgmormhnx","purchase price":2455709.21},"type":"Feature","geometry":{"type":"Point","coordinates":[138.521866,-34.97493]}},{"properties":{"latitude":-34.96685,"zipcode":5040,"longitude":138.529678,"id":"a68sgmzo8th4","purchase price":250000.0},"type":"Feature","geometry":{"type":"Point","coordinates":[138.529678,-34.96685]}},{"properties":{"latitude":-34.96645,"zipcode":5038,"longitude":138.550888,"id":"a68sgmq8ihu1","purchase price":1000000.0},"type":"Feature","geometry":{"type":"Point","coordinates":[138.550888,-34.96645]}},{"properties":{"latitude":-34.95536,"zipcode":5037,"longitude":138.554535,"id":"a68sgmvjghsl","purchase price":25000.0},"type":"Feature","geometry":{"type":"Point","coordinates":[138.554535,-34.95536]}},{"properties":{"latitude":-34.954262,"zipcode":5034,"longitude":138.586655,"id":"a68sgn4ccqv1","purchase price":870000.0},"type":"Feature","geometry":{"type":"Point","coordinates":[138.586655,-34.954262]}},{"properties":{"latitude":-34.95348,"zipcode":5061,"longitude":138.604675,"id":"a68sgmpslr4o","purchase price":653000.0},"type":"Feature","geometry":{"type":"Point","coordinates":[138.604675,-34.95348]}},{"properties":{"latitude":-34.95253,"zipcode":5063,"longitude":138.622452,"id":"a68sgmy247q2","purchase price":120000.0},"type":"Feature","geometry":{"type":"Point","coordinates":[138.622452,-34.95253]}},{"properties":{"latitude":-34.94873,"zipcode":5035,"longitude":138.578751,"id":"a68sgmtl2x46","purchase price":445000.0},"type":"Feature","geometry":{"type":"Point","coordinates":[138.578751,-34.94873]}},{"properties":{"latitude":-34.94614,"zipcode":5066,"longitude":138.669891,"id":"a68sgmzv52i8","purchase price":365000.0},"type":"Feature","geometry":{"type":"Point","coordinates":[138.669891,-34.94614]}},{"properties":{"latitude":-34.93919,"zipcode":5033,"longitude":138.559143,"id":"a68sgmzq9s6n","purchase price":880000.0},"type":"Feature","geometry":{"type":"Point","coordinates":[138.559143,-34.93919]}},{"properties":{"latitude":-34.937679,"zipcode":5065,"longitude":138.638397,"id":"a68sgmv0zye6","purchase price":305000.0},"type":"Feature","geometry":{"type":"Point","coordinates":[138.638397,-34.937679]}},{"properties":{"latitude":-34.933941,"zipcode":5024,"longitude":138.509705,"id":"a68sgn121co2","purchase price":385000.0},"type":"Feature","geometry":{"type":"Point","coordinates":[138.509705,-34.933941]}},{"properties":{"latitude":-34.92564,"zipcode":5000,"longitude":138.600769,"id":"a68sgmw1fxto","purchase price":4659682.06},"type":"Feature","geometry":{"type":"Point","coordinates":[138.600769,-34.92564]}},{"properties":{"latitude":-34.925598,"zipcode":5031,"longitude":138.566559,"id":"a68sgn0gu35f","purchase price":374838.86},"type":"Feature","geometry":{"type":"Point","coordinates":[138.566559,-34.925598]}},{"properties":{"latitude":-34.924149,"zipcode":5067,"longitude":138.632507,"id":"a68sgmy6zvcx","purchase price":1338010.0},"type":"Feature","geometry":{"type":"Point","coordinates":[138.632507,-34.924149]}},{"properties":{"latitude":-34.920422,"zipcode":5068,"longitude":138.654022,"id":"a68sgmzkad4r","purchase price":1037500.0},"type":"Feature","geometry":{"type":"Point","coordinates":[138.654022,-34.920422]}},{"properties":{"latitude":-34.914268,"zipcode":5072,"longitude":138.692307,"id":"a68sgn22zvqe","purchase price":1350000.0},"type":"Feature","geometry":{"type":"Point","coordinates":[138.692307,-34.914268]}},{"properties":{"latitude":-34.91246,"zipcode":5025,"longitude":138.536438,"id":"a68sgmz7yf8a","purchase price":48000.0},"type":"Feature","geometry":{"type":"Point","coordinates":[138.536438,-34.91246]}},{"properties":{"latitude":-34.909019,"zipcode":5006,"longitude":138.594925,"id":"a68sgmt3s4qa","purchase price":953000.0},"type":"Feature","geometry":{"type":"Point","coordinates":[138.594925,-34.909019]}},{"properties":{"latitude":-34.908051,"zipcode":5069,"longitude":138.626678,"id":"a68sgmur6zvp","purchase price":180000.0},"type":"Feature","geometry":{"type":"Point","coordinates":[138.626678,-34.908051]}},{"properties":{"latitude":-34.901772,"zipcode":5007,"longitude":138.570206,"id":"a68sgn1xqjoa","purchase price":1272880.0},"type":"Feature","geometry":{"type":"Point","coordinates":[138.570206,-34.901772]}},{"properties":{"latitude":-34.899399,"zipcode":5073,"longitude":138.684631,"id":"a68sgmunwfu0","purchase price":110000.0},"type":"Feature","geometry":{"type":"Point","coordinates":[138.684631,-34.899399]}},{"properties":{"latitude":-34.89579,"zipcode":5070,"longitude":138.637909,"id":"a68sgmyhvknk","purchase price":92500.0},"type":"Feature","geometry":{"type":"Point","coordinates":[138.637909,-34.89579]}},{"properties":{"latitude":-34.892689,"zipcode":5023,"longitude":138.519913,"id":"a68sgmycrg1j","purchase price":55000.0},"type":"Feature","geometry":{"type":"Point","coordinates":[138.519913,-34.892689]}},{"properties":{"latitude":-34.89222,"zipcode":5009,"longitude":138.54921,"id":"a68sgn4dhdxk","purchase price":265000.0},"type":"Feature","geometry":{"type":"Point","coordinates":[138.54921,-34.89222]}},{"properties":{"latitude":-34.888062,"zipcode":5008,"longitude":138.566605,"id":"a68sgmtpxrra","purchase price":65000.0},"type":"Feature","geometry":{"type":"Point","coordinates":[138.566605,-34.888062]}},{"properties":{"latitude":-34.88364,"zipcode":5011,"longitude":138.534683,"id":"a68sgmtl19aj","purchase price":200000.0},"type":"Feature","geometry":{"type":"Point","coordinates":[138.534683,-34.88364]}},{"properties":{"latitude":-34.8806,"zipcode":5074,"longitude":138.66954,"id":"a68sgn24jf7l","purchase price":382000.0},"type":"Feature","geometry":{"type":"Point","coordinates":[138.66954,-34.8806]}},{"properties":{"latitude":-34.879028,"zipcode":5083,"longitude":138.611023,"id":"a68sgmzeuw27","purchase price":705000.0},"type":"Feature","geometry":{"type":"Point","coordinates":[138.611023,-34.879028]}},{"properties":{"latitude":-34.873409,"zipcode":5021,"longitude":138.494568,"id":"a68sgmqh75rd","purchase price":390000.0},"type":"Feature","geometry":{"type":"Point","coordinates":[138.494568,-34.873409]}},{"properties":{"latitude":-34.86673,"zipcode":5075,"longitude":138.6754,"id":"a68sgmzpks7y","purchase price":30000.0},"type":"Feature","geometry":{"type":"Point","coordinates":[138.6754,-34.86673]}},{"properties":{"latitude":-34.86454,"zipcode":5086,"longitude":138.644913,"id":"a68sgn2xn9k4","purchase price":650000.0},"type":"Feature","geometry":{"type":"Point","coordinates":[138.644913,-34.86454]}},{"properties":{"latitude":-34.85611,"zipcode":5085,"longitude":138.622803,"id":"a68sgn54f6n5","purchase price":32800.0},"type":"Feature","geometry":{"type":"Point","coordinates":[138.622803,-34.85611]}},{"properties":{"latitude":-34.854961,"zipcode":5238,"longitude":139.513123,"id":"a68sgmw0cwyq","purchase price":260000.0},"type":"Feature","geometry":{"type":"Point","coordinates":[139.513123,-34.854961]}},{"properties":{"latitude":-34.851318,"zipcode":5088,"longitude":138.670395,"id":"a68sgn1wtmp3","purchase price":270000.0},"type":"Feature","geometry":{"type":"Point","coordinates":[138.670395,-34.851318]}},{"properties":{"latitude":-34.84866,"zipcode":5019,"longitude":138.480637,"id":"a68sgn0wkc9b","purchase price":275000.0},"type":"Feature","geometry":{"type":"Point","coordinates":[138.480637,-34.84866]}},{"properties":{"latitude":-34.847271,"zipcode":5090,"longitude":138.69899,"id":"a68sgmtqpuqv","purchase price":179500.0},"type":"Feature","geometry":{"type":"Point","coordinates":[138.69899,-34.847271]}},{"properties":{"latitude":-34.839321,"zipcode":5013,"longitude":138.54805,"id":"a68sgmvzb8mc","purchase price":441500.0},"type":"Feature","geometry":{"type":"Point","coordinates":[138.54805,-34.839321]}},{"properties":{"latitude":-34.830761,"zipcode":5098,"longitude":138.642746,"id":"a68sgms5rfel","purchase price":155000.0},"type":"Feature","geometry":{"type":"Point","coordinates":[138.642746,-34.830761]}},{"properties":{"latitude":-34.824379,"zipcode":5092,"longitude":138.68396,"id":"a68sgmu5f02q","purchase price":2370000.0},"type":"Feature","geometry":{"type":"Point","coordinates":[138.68396,-34.824379]}},{"properties":{"latitude":-34.822971,"zipcode":5016,"longitude":138.497147,"id":"a68sgn15ubcn","purchase price":210000.0},"type":"Feature","geometry":{"type":"Point","coordinates":[138.497147,-34.822971]}},{"properties":{"latitude":-34.821991,"zipcode":5097,"longitude":138.706757,"id":"a68sgmvr89ms","purchase price":910000.0},"type":"Feature","geometry":{"type":"Point","coordinates":[138.706757,-34.821991]}},{"properties":{"latitude":-34.821152,"zipcode":5091,"longitude":138.736267,"id":"a68sgmy3x0r0","purchase price":152000.0},"type":"Feature","geometry":{"type":"Point","coordinates":[138.736267,-34.821152]}},{"properties":{"latitude":-34.81773,"zipcode":5094,"longitude":138.574615,"id":"a68sgmznuahi","purchase price":1010000.0},"type":"Feature","geometry":{"type":"Point","coordinates":[138.574615,-34.81773]}},{"properties":{"latitude":-34.816399,"zipcode":5095,"longitude":138.618958,"id":"a68sgmspd3ek","purchase price":1179000.0},"type":"Feature","geometry":{"type":"Point","coordinates":[138.618958,-34.816399]}},{"properties":{"latitude":-34.801239,"zipcode":5096,"longitude":138.658173,"id":"a68sgn3lbc01","purchase price":280000.0},"type":"Feature","geometry":{"type":"Point","coordinates":[138.658173,-34.801239]}},{"properties":{"latitude":-34.788689,"zipcode":5017,"longitude":138.501953,"id":"a68sgn2nzbcy","purchase price":352000.0},"type":"Feature","geometry":{"type":"Point","coordinates":[138.501953,-34.788689]}},{"properties":{"latitude":-34.782719,"zipcode":5015,"longitude":138.529861,"id":"a68sgms0g0r0","purchase price":25000.0},"type":"Feature","geometry":{"type":"Point","coordinates":[138.529861,-34.782719]}},{"properties":{"latitude":-34.728481,"zipcode":5606,"longitude":135.852036,"id":"a68sgmvucim7","purchase price":780000.0},"type":"Feature","geometry":{"type":"Point","coordinates":[135.852036,-34.728481]}},{"properties":{"latitude":-34.716171,"zipcode":5235,"longitude":139.074554,"id":"a68sgn3jfopr","purchase price":82000.0},"type":"Feature","geometry":{"type":"Point","coordinates":[139.074554,-34.716171]}},{"properties":{"latitude":-34.66103,"zipcode":5351,"longitude":138.919846,"id":"a68sgmormmkl","purchase price":295000.0},"type":"Feature","geometry":{"type":"Point","coordinates":[138.919846,-34.66103]}},{"properties":{"latitude":-34.596329,"zipcode":5118,"longitude":138.728226,"id":"a68sgn4wxhzn","purchase price":155000.0},"type":"Feature","geometry":{"type":"Point","coordinates":[138.728226,-34.596329]}},{"properties":{"latitude":-34.151249,"zipcode":5341,"longitude":140.693848,"id":"a68sgn116w8g","purchase price":815000.0},"type":"Feature","geometry":{"type":"Point","coordinates":[140.693848,-34.151249]}},{"properties":{"latitude":-34.146439,"zipcode":5550,"longitude":138.210388,"id":"a68sgmxehsqz","purchase price":50000.0},"type":"Feature","geometry":{"type":"Point","coordinates":[138.210388,-34.146439]}},{"properties":{"latitude":-34.136551,"zipcode":5558,"longitude":137.622086,"id":"a68sgn2n8hfk","purchase price":40000.0},"type":"Feature","geometry":{"type":"Point","coordinates":[137.622086,-34.136551]}},{"properties":{"latitude":-33.988251,"zipcode":5554,"longitude":137.893188,"id":"a68sgmr04n18","purchase price":950000.0},"type":"Feature","geometry":{"type":"Point","coordinates":[137.893188,-33.988251]}},{"properties":{"latitude":-33.938141,"zipcode":5556,"longitude":137.651505,"id":"a68sgn1anzj0","purchase price":107000.0},"type":"Feature","geometry":{"type":"Point","coordinates":[137.651505,-33.938141]}},{"properties":{"latitude":-33.88147,"zipcode":5603,"longitude":136.409805,"id":"a68sgn548dy4","purchase price":182500.0},"type":"Feature","geometry":{"type":"Point","coordinates":[136.409805,-33.88147]}},{"properties":{"latitude":-33.486389,"zipcode":5670,"longitude":135.39267,"id":"a68sgn0obssd","purchase price":70000.0},"type":"Feature","geometry":{"type":"Point","coordinates":[135.39267,-33.486389]}},{"properties":{"latitude":-33.03001,"zipcode":5608,"longitude":137.528076,"id":"a68sgn1s0pj9","purchase price":180000.0},"type":"Feature","geometry":{"type":"Point","coordinates":[137.528076,-33.03001]}},{"properties":{"latitude":-32.806221,"zipcode":5483,"longitude":138.182404,"id":"a68sgmurlc9x","purchase price":175000.0},"type":"Feature","geometry":{"type":"Point","coordinates":[138.182404,-32.806221]}},{"properties":{"latitude":-32.576199,"zipcode":5680,"longitude":134.288055,"id":"a68sgn2pei4p","purchase price":200000.0},"type":"Feature","geometry":{"type":"Point","coordinates":[134.288055,-32.576199]}},{"properties":{"latitude":18.64496,"zipcode":5725,"longitude":109.037903,"id":"a68sgmzxpxk2","purchase price":378552.0},"type":"Feature","geometry":{"type":"Point","coordinates":[109.037903,18.64496]}},{"properties":{"latitude":20.022129,"zipcode":5700,"longitude":110.375511,"id":"a68sgmv67tlm","purchase price":975000.0},"type":"Feature","geometry":{"type":"Point","coordinates":[110.375511,20.022129]}},{"properties":{"latitude":21.1735,"zipcode":5240,"longitude":110.30011,"id":"a68sgn27zf0r","purchase price":240000.0},"type":"Feature","geometry":{"type":"Point","coordinates":[110.30011,21.1735]}},{"properties":{"latitude":21.87178,"zipcode":5251,"longitude":110.532928,"id":"a68sgmt025ly","purchase price":1790000.0},"type":"Feature","geometry":{"type":"Point","coordinates":[110.532928,21.87178]}},{"properties":{"latitude":22.263359,"zipcode":5353,"longitude":109.55011,"id":"a68sgmyvhezt","purchase price":135000.0},"type":"Feature","geometry":{"type":"Point","coordinates":[109.55011,22.263359]}},{"properties":{"latitude":22.456671,"zipcode":5253,"longitude":111.194199,"id":"a68sgn1jjc28","purchase price":75000.0},"type":"Feature","geometry":{"type":"Point","coordinates":[111.194199,22.456671]}},{"properties":{"latitude":22.61478,"zipcode":5290,"longitude":113.103813,"id":"a68sgn0b4835","purchase price":575000.0},"type":"Feature","geometry":{"type":"Point","coordinates":[113.103813,22.61478]}},{"properties":{"latitude":22.907431,"zipcode":5114,"longitude":113.420311,"id":"a68sgmpyz888","purchase price":550000.0},"type":"Feature","geometry":{"type":"Point","coordinates":[113.420311,22.907431]}},{"properties":{"latitude":22.94932,"zipcode":5165,"longitude":115.83799,"id":"a68sgn4fj7kq","purchase price":125000.0},"type":"Feature","geometry":{"type":"Point","coordinates":[115.83799,22.94932]}},{"properties":{"latitude":22.964899,"zipcode":5163,"longitude":114.989639,"id":"a68sgmwi81mn","purchase price":956181.0},"type":"Feature","geometry":{"type":"Point","coordinates":[114.989639,22.964899]}},{"properties":{"latitude":23.02212,"zipcode":5280,"longitude":113.094688,"id":"a68sgmts9oj8","purchase price":425000.0},"type":"Feature","geometry":{"type":"Point","coordinates":[113.094688,23.02212]}},{"properties":{"latitude":23.038651,"zipcode":5152,"longitude":116.234482,"id":"a68sgmxuwgp9","purchase price":1100000.0},"type":"Feature","geometry":{"type":"Point","coordinates":[116.234482,23.038651]}},{"properties":{"latitude":23.0555,"zipcode":5162,"longitude":114.542999,"id":"a68sgmuogx9v","purchase price":1785580.6},"type":"Feature","geometry":{"type":"Point","coordinates":[114.542999,23.0555]}},{"properties":{"latitude":23.058229,"zipcode":5271,"longitude":111.601334,"id":"a68sgn4ijpgz","purchase price":118000.0},"type":"Feature","geometry":{"type":"Point","coordinates":[111.601334,23.058229]}},{"properties":{"latitude":23.09708,"zipcode":5160,"longitude":114.395638,"id":"a68sgn1katiw","purchase price":205000.0},"type":"Feature","geometry":{"type":"Point","coordinates":[114.395638,23.09708]}},{"properties":{"latitude":23.108,"zipcode":5260,"longitude":112.486679,"id":"a68sgn16m239","purchase price":470000.0},"type":"Feature","geometry":{"type":"Point","coordinates":[112.486679,23.108]}},{"properties":{"latitude":23.134489,"zipcode":5106,"longitude":113.335953,"id":"a68sgmpg2wc4","purchase price":85000.0},"type":"Feature","geometry":{"type":"Point","coordinates":[113.335953,23.134489]}},{"properties":{"latitude":23.288509,"zipcode":5266,"longitude":111.896683,"id":"a68sgmtu4r7s","purchase price":115000.0},"type":"Feature","geometry":{"type":"Point","coordinates":[111.896683,23.288509]}},{"properties":{"latitude":23.30645,"zipcode":5167,"longitude":115.610397,"id":"a68sgmsxmp4z","purchase price":445000.0},"type":"Feature","geometry":{"type":"Point","coordinates":[115.610397,23.30645]}},{"properties":{"latitude":23.35029,"zipcode":5113,"longitude":113.734512,"id":"a68sgmt834n2","purchase price":448000.0},"type":"Feature","geometry":{"type":"Point","coordinates":[113.734512,23.35029]}},{"properties":{"latitude":23.38648,"zipcode":5161,"longitude":114.25663,"id":"a68sgn0p4yun","purchase price":595000.0},"type":"Feature","geometry":{"type":"Point","coordinates":[114.25663,23.38648]}},{"properties":{"latitude":23.43177,"zipcode":5108,"longitude":113.215813,"id":"a68sgmpwrvop","purchase price":250000.0},"type":"Feature","geometry":{"type":"Point","coordinates":[113.215813,23.43177]}},{"properties":{"latitude":23.4445,"zipcode":5159,"longitude":117.041809,"id":"a68sgmycnci8","purchase price":145000.0},"type":"Feature","geometry":{"type":"Point","coordinates":[117.041809,23.4445]}},{"properties":{"latitude":23.49514,"zipcode":5154,"longitude":115.882874,"id":"a68sgn3dp575","purchase price":430000.0},"type":"Feature","geometry":{"type":"Point","coordinates":[115.882874,23.49514]}},{"properties":{"latitude":23.503111,"zipcode":5158,"longitude":116.79731,"id":"a68sgn4qvehh","purchase price":50000.0},"type":"Feature","geometry":{"type":"Point","coordinates":[116.79731,23.503111]}},{"properties":{"latitude":23.535761,"zipcode":5433,"longitude":110.63446,"id":"a68sgmy4ilyd","purchase price":45000.0},"type":"Feature","geometry":{"type":"Point","coordinates":[110.63446,23.535761]}},{"properties":{"latitude":23.640539,"zipcode":5112,"longitude":114.098907,"id":"a68sgmwznox9","purchase price":840000.0},"type":"Feature","geometry":{"type":"Point","coordinates":[114.098907,23.640539]}},{"properties":{"latitude":23.67284,"zipcode":5461,"longitude":109.153931,"id":"a68sgmq2to28","purchase price":293000.0},"type":"Feature","geometry":{"type":"Point","coordinates":[109.153931,23.67284]}},{"properties":{"latitude":23.88516,"zipcode":5115,"longitude":112.9552,"id":"a68sgmu9hxga","purchase price":214500.0},"type":"Feature","geometry":{"type":"Point","coordinates":[112.9552,23.88516]}},{"properties":{"latitude":23.90472,"zipcode":5330,"longitude":106.443817,"id":"a68sgn3lu4e6","purchase price":1000000.0},"type":"Feature","geometry":{"type":"Point","coordinates":[106.443817,23.90472]}},{"properties":{"latitude":23.943991,"zipcode":5264,"longitude":112.180946,"id":"a68sgmul9z8r","purchase price":75000.0},"type":"Feature","geometry":{"type":"Point","coordinates":[112.180946,23.943991]}},{"properties":{"latitude":24.0156,"zipcode":5462,"longitude":108.736259,"id":"a68sgn0myqzl","purchase price":120000.0},"type":"Feature","geometry":{"type":"Point","coordinates":[108.736259,24.0156]}},{"properties":{"latitude":24.3141,"zipcode":5173,"longitude":115.320648,"id":"a68sgmy1853q","purchase price":335000.0},"type":"Feature","geometry":{"type":"Point","coordinates":[115.320648,24.3141]}},{"properties":{"latitude":24.352249,"zipcode":5142,"longitude":116.60434,"id":"a68sgmtyoocc","purchase price":325000.0},"type":"Feature","geometry":{"type":"Point","coordinates":[116.60434,24.352249]}},{"properties":{"latitude":24.36858,"zipcode":5333,"longitude":105.978859,"id":"a68sgmpkbi58","purchase price":650000.0},"type":"Feature","geometry":{"type":"Point","coordinates":[105.978859,24.36858]}},{"properties":{"latitude":24.39414,"zipcode":5126,"longitude":113.987228,"id":"a68sgn3ppgq1","purchase price":160500.0},"type":"Feature","geometry":{"type":"Point","coordinates":[113.987228,24.39414]}},{"properties":{"latitude":24.43911,"zipcode":5172,"longitude":114.979622,"id":"a68sgn2y4a48","purchase price":300000.0},"type":"Feature","geometry":{"type":"Point","coordinates":[114.979622,24.43911]}},{"properties":{"latitude":24.80755,"zipcode":5120,"longitude":113.553391,"id":"a68sgn283i7z","purchase price":85000.0},"type":"Feature","geometry":{"type":"Point","coordinates":[113.553391,24.80755]}},{"properties":{"latitude":24.828951,"zipcode":5125,"longitude":114.147781,"id":"a68sgn3meulj","purchase price":110000.0},"type":"Feature","geometry":{"type":"Point","coordinates":[114.147781,24.828951]}},{"properties":{"latitude":25.00279,"zipcode":5332,"longitude":106.727097,"id":"a68sgmos207j","purchase price":2000000.0},"type":"Feature","geometry":{"type":"Point","coordinates":[106.727097,25.00279]}},{"properties":{"latitude":25.036699,"zipcode":5418,"longitude":109.91774,"id":"a68sgmwdys3j","purchase price":25000.0},"type":"Feature","geometry":{"type":"Point","coordinates":[109.91774,25.036699]}},{"properties":{"latitude":25.270559,"zipcode":5453,"longitude":109.028938,"id":"a68sgmophdz4","purchase price":2515000.0},"type":"Feature","geometry":{"type":"Point","coordinates":[109.028938,25.270559]}},{"properties":{"latitude":25.695471,"zipcode":5455,"longitude":109.354729,"id":"a68sgmvfo0q1","purchase price":100000.0},"type":"Feature","geometry":{"type":"Point","coordinates":[109.354729,25.695471]}},{"properties":{"latitude":25.822781,"zipcode":5417,"longitude":110.031273,"id":"a68sgmywntc6","purchase price":240000.0},"type":"Feature","geometry":{"type":"Point","coordinates":[110.031273,25.822781]}},{"properties":{"latitude":27.328899,"zipcode":5540,"longitude":108.976753,"id":"a68sgmupqaom","purchase price":222000.0},"type":"Feature","geometry":{"type":"Point","coordinates":[108.976753,27.328899]}}],"is_temporal":false,"author":{"url":"","metadata":"","contact_name":"","contact_address":"","source":"","contact_phone":""},"source":"","pagination":{"sort":null,"start":0,"total":123,"limit":1000000},"state":"complete","tags":"","published":"2014-08-10T17:44:42-04:00","id":74967}