{"type":"FeatureCollection","data_type":"Dataset","url_type":null,"permissions":[{"permissions":{"download":true,"view":true},"group_id":"everyone"}],"classification":null,"title":"flickr_test_india","count":31,"stream_id":7927,"contributor":{"url":"http://geocommons.com/users/142","name":"tom"},"data_attributes":null,"calculation_params":null,"icon_link":null,"link":"http://geocommons.com/overlays/7927.json","extent":[70.946,10.547,94.284,34.679],"geometry_types":["point"],"unique_name":null,"name":"flickr_test_india","feature_count":31,"description":"","next_feature":null,"is_raster":false,"short_classification":"Y","stats":{"woeid":{"max":20070464,"mean":6348104.83870968,"variance":56752443702857.1,"stdev":7533421.77916895,"min":2345739,"median":2345755},"latitude":{"max":34.679,"mean":23.1436774193548,"variance":42.9188013591398,"stdev":6.55124426037831,"min":10.547,"median":24.399},"longitude":{"max":94.284,"mean":81.5224838709677,"variance":49.8726624580645,"stdev":7.06205794779854,"min":70.946,"median":79.302},"photostaken":{"max":12245,"mean":2349.45161290323,"variance":11358168.3892473,"stdev":3370.18818306149,"min":20,"median":750}},"features":[{"properties":{"placename":"Andaman and Nicobar Islands, IN, India","woeid":2345739,"latitude":12.627,"longitude":92.823,"id":"a62ir78m7tnx","photostaken":38},"type":"Feature","geometry":{"type":"Point","coordinates":[92.823,12.627]}},{"properties":{"placename":"Andhra Pradesh, IN, India","woeid":2345740,"latitude":16.27,"longitude":80.763,"id":"a62ir74zvq0n","photostaken":4127},"type":"Feature","geometry":{"type":"Point","coordinates":[80.763,16.27]}},{"properties":{"placename":"Assam, IN, India","woeid":2345741,"latitude":26.055,"longitude":92.854,"id":"a62ir76behju","photostaken":116},"type":"Feature","geometry":{"type":"Point","coordinates":[92.854,26.055]}},{"properties":{"placename":"Bihar, IN, India","woeid":2345742,"latitude":25.903,"longitude":85.801,"id":"a62ir7fuxdhy","photostaken":327},"type":"Feature","geometry":{"type":"Point","coordinates":[85.801,25.903]}},{"properties":{"placename":"Gujarat, IN, India","woeid":2345743,"latitude":22.408,"longitude":71.304,"id":"a62ir73r0mep","photostaken":868},"type":"Feature","geometry":{"type":"Point","coordinates":[71.304,22.408]}},{"properties":{"placename":"Haryana, IN, India","woeid":2345744,"latitude":29.289,"longitude":76.036,"id":"a62ir73qwmfq","photostaken":750},"type":"Feature","geometry":{"type":"Point","coordinates":[76.036,29.289]}},{"properties":{"placename":"Himachal Pradesh, IN, India","woeid":2345745,"latitude":31.822,"longitude":77.298,"id":"a62ir7d886we","photostaken":904},"type":"Feature","geometry":{"type":"Point","coordinates":[77.298,31.822]}},{"properties":{"placename":"Jammu and Kashmir, IN, India","woeid":2345746,"latitude":34.679,"longitude":76.424,"id":"a62ir73sw0jm","photostaken":2116},"type":"Feature","geometry":{"type":"Point","coordinates":[76.424,34.679]}},{"properties":{"placename":"Kerala, IN, India","woeid":2345747,"latitude":10.547,"longitude":76.138,"id":"a62ir76uh75g","photostaken":2665},"type":"Feature","geometry":{"type":"Point","coordinates":[76.138,10.547]}},{"properties":{"placename":"Madhya Pradesh, IN, India","woeid":2345749,"latitude":23.97,"longitude":78.428,"id":"a62ir7d3zoir","photostaken":573},"type":"Feature","geometry":{"type":"Point","coordinates":[78.428,23.97]}},{"properties":{"placename":"Maharashtra, IN, India","woeid":2345750,"latitude":18.821,"longitude":76.766,"id":"a62ir7b65w7u","photostaken":10478},"type":"Feature","geometry":{"type":"Point","coordinates":[76.766,18.821]}},{"properties":{"placename":"Manipur, IN, India","woeid":2345751,"latitude":24.763,"longitude":93.855,"id":"a62ir7dpdv2h","photostaken":88},"type":"Feature","geometry":{"type":"Point","coordinates":[93.855,24.763]}},{"properties":{"placename":"Meghalaya, IN, India","woeid":2345752,"latitude":25.571,"longitude":91.3,"id":"a62ir760ut1a","photostaken":93},"type":"Feature","geometry":{"type":"Point","coordinates":[91.3,25.571]}},{"properties":{"placename":"Karnataka, IN, India","woeid":2345753,"latitude":15.025,"longitude":76.336,"id":"a62ir72nulj5","photostaken":12245},"type":"Feature","geometry":{"type":"Point","coordinates":[76.336,15.025]}},{"properties":{"placename":"Nagaland, IN, India","woeid":2345754,"latitude":26.116,"longitude":94.284,"id":"a62ir7f6luxx","photostaken":20},"type":"Feature","geometry":{"type":"Point","coordinates":[94.284,26.116]}},{"properties":{"placename":"Orissa, IN, India","woeid":2345755,"latitude":20.19,"longitude":84.439,"id":"a62ir7ewofhi","photostaken":111},"type":"Feature","geometry":{"type":"Point","coordinates":[84.439,20.19]}},{"properties":{"placename":"Punjab, IN, India","woeid":2345756,"latitude":31.023,"longitude":75.404,"id":"a62ir7dnl5lm","photostaken":1679},"type":"Feature","geometry":{"type":"Point","coordinates":[75.404,31.023]}},{"properties":{"placename":"Rajasthan, IN, India","woeid":2345757,"latitude":26.622,"longitude":73.879,"id":"a62ir76iaz1j","photostaken":6433},"type":"Feature","geometry":{"type":"Point","coordinates":[73.879,26.622]}},{"properties":{"placename":"Tamil Nadu, IN, India","woeid":2345758,"latitude":10.826,"longitude":78.297,"id":"a62ir761vnt4","photostaken":5598},"type":"Feature","geometry":{"type":"Point","coordinates":[78.297,10.826]}},{"properties":{"placename":"Tripura, IN, India","woeid":2345759,"latitude":23.721,"longitude":91.744,"id":"a62ir7c485dz","photostaken":84},"type":"Feature","geometry":{"type":"Point","coordinates":[91.744,23.721]}},{"properties":{"placename":"Uttar Pradesh, IN, India","woeid":2345760,"latitude":27.138,"longitude":80.862,"id":"a62ir7fc79sb","photostaken":8597},"type":"Feature","geometry":{"type":"Point","coordinates":[80.862,27.138]}},{"properties":{"placename":"West Bengal, IN, India","woeid":2345761,"latitude":24.399,"longitude":87.853,"id":"a62ir77imtg7","photostaken":3212},"type":"Feature","geometry":{"type":"Point","coordinates":[87.853,24.399]}},{"properties":{"placename":"Sikkim, IN, India","woeid":2345762,"latitude":27.592,"longitude":88.488,"id":"a62ir6zxdl01","photostaken":144},"type":"Feature","geometry":{"type":"Point","coordinates":[88.488,27.592]}},{"properties":{"placename":"Goa, IN, India","woeid":2345764,"latitude":15.35,"longitude":74.013,"id":"a62ir79unutn","photostaken":1520},"type":"Feature","geometry":{"type":"Point","coordinates":[74.013,15.35]}},{"properties":{"placename":"Chandigarh, IN, India","woeid":20070456,"latitude":30.725,"longitude":76.776,"id":"a62ir73si9x1","photostaken":432},"type":"Feature","geometry":{"type":"Point","coordinates":[76.776,30.725]}},{"properties":{"placename":"Delhi, IN, India","woeid":20070458,"latitude":28.643,"longitude":77.091,"id":"a62ir792y3tm","photostaken":7577},"type":"Feature","geometry":{"type":"Point","coordinates":[77.091,28.643]}},{"properties":{"placename":"Puducherry, IN, India","woeid":20070459,"latitude":11.935,"longitude":79.753,"id":"a62ir7auqc37","photostaken":263},"type":"Feature","geometry":{"type":"Point","coordinates":[79.753,11.935]}},{"properties":{"placename":"Daman and Diu, IN, India","woeid":20070460,"latitude":20.727,"longitude":70.946,"id":"a62ir7ae9uua","photostaken":39},"type":"Feature","geometry":{"type":"Point","coordinates":[70.946,20.727]}},{"properties":{"placename":"Uttarakhand, IN, India","woeid":20070462,"latitude":30.095,"longitude":79.302,"id":"a62ir7fpn259","photostaken":788},"type":"Feature","geometry":{"type":"Point","coordinates":[79.302,30.095]}},{"properties":{"placename":"Jharkhand, IN, India","woeid":20070463,"latitude":23.657,"longitude":85.621,"id":"a62ir7f7i3hh","photostaken":290},"type":"Feature","geometry":{"type":"Point","coordinates":[85.621,23.657]}},{"properties":{"placename":"Chhattisgarh, IN, India","woeid":20070464,"latitude":20.945,"longitude":82.319,"id":"a62ir7bdglde","photostaken":658},"type":"Feature","geometry":{"type":"Point","coordinates":[82.319,20.945]}}],"is_temporal":false,"author":{"url":"","metadata":"","contact_name":"","contact_address":"","source":"","contact_phone":""},"source":"","pagination":{"sort":null,"start":0,"total":31,"limit":1000000},"state":"complete","tags":"","published":"2014-08-11T09:08:05-04:00","id":7927}