{"type":"FeatureCollection","data_type":"Dataset","url_type":null,"permissions":[{"permissions":{"download":true,"view":true},"group_id":"everyone"}],"classification":null,"title":"Agencies3","count":119,"stream_id":9092,"contributor":{"url":"http://geocommons.com/users/3718","name":"anpaly"},"data_attributes":null,"calculation_params":null,"icon_link":null,"link":"http://geocommons.com/overlays/9092.json","extent":[-86.8833,41.2304,-85.5632,42.2019],"geometry_types":["point"],"unique_name":null,"name":"Agencies3","feature_count":119,"description":"","next_feature":null,"is_raster":false,"short_classification":"Y","stats":{"zip":{"max":49120,"mean":46698.8151260504,"variance":303782.185870958,"stdev":551.164390967848,"min":46350,"median":46601},"latitude":{"max":42.201929,"mean":41.687442789916,"variance":0.00867531457896398,"stdev":0.093141368784037,"min":41.230379,"median":41.675362},"longitude":{"max":-85.563179,"mean":-86.1978679495798,"variance":0.0493823163147258,"stdev":0.222221322817424,"min":-86.883309,"median":-86.243845}},"features":[{"properties":{"address1":"P. O. Box 398","address2":"","zip":46507,"latitude":41.719791,"agency":"ADEC - Resources for Independence","longitude":-85.827264,"id":"a6rdlmrx3tyc","citystate":"Bristol, IN  46507-0398"},"type":"Feature","geometry":{"type":"Point","coordinates":[-85.827264,41.719791]}},{"properties":{"address1":"201 S. William St.","address2":"P. O. Box 11582","zip":46601,"latitude":41.672986,"agency":"Aids Ministries/Aids Assist","longitude":-86.253664,"id":"a6rdlmrfdqhg","citystate":"South Bend, IN  46601"},"type":"Feature","geometry":{"type":"Point","coordinates":[-86.253664,41.672986]}},{"properties":{"address1":"818 E. Jefferson Blvd.","address2":"","zip":46617,"latitude":41.686344,"agency":"Alcohol and Addictions Resource Center","longitude":-86.236439,"id":"a6rdlmwmga61","citystate":"South Bend, IN  46617"},"type":"Feature","geometry":{"type":"Point","coordinates":[-86.236439,41.686344]}},{"properties":{"address1":"922 E Colfax Avenue","address2":"","zip":46617,"latitude":41.686344,"agency":"Alzheimer's Disease &amp; Milton Day Services","longitude":-86.236439,"id":"a6rdlmq49xqn","citystate":"South Bend, IN  46617"},"type":"Feature","geometry":{"type":"Point","coordinates":[-86.236439,41.686344]}},{"properties":{"address1":"5110 S. Sprinkle Rd.","address2":"","zip":49002,"latitude":42.201929,"agency":"American Cancer Society - Berren Co.","longitude":-85.563179,"id":"a6rdlmjb9nx8","citystate":"Portage, MI  49002"},"type":"Feature","geometry":{"type":"Point","coordinates":[-85.563179,42.201929]}},{"properties":{"address1":"721 Riverview Ave.","address2":"","zip":46516,"latitude":41.675362,"agency":"American Red Cross - Elkhart Co.","longitude":-85.955839,"id":"a6rdlmwuls1k","citystate":"Elkhart, IN 46516"},"type":"Feature","geometry":{"type":"Point","coordinates":[-85.955839,41.675362]}},{"properties":{"address1":"3220 E. Jefferson Blvd.","address2":"","zip":46615,"latitude":41.674806,"agency":"American Red Cross - St. Joseph Co.","longitude":-86.210056,"id":"a6rdlmng5jgc","citystate":"South Bend, IN  46615"},"type":"Feature","geometry":{"type":"Point","coordinates":[-86.210056,41.674806]}},{"properties":{"address1":"300 N. Michigan Street","address2":"Ste. 412","zip":46601,"latitude":41.672986,"agency":"Arthritis Foundation","longitude":-86.253664,"id":"a6rdlmxkexk5","citystate":"South Bend, IN  46601"},"type":"Feature","geometry":{"type":"Point","coordinates":[-86.253664,41.672986]}},{"properties":{"address1":"AK Smith Center","address2":"817 Lafayette St.","zip":46360,"latitude":41.70562,"agency":"Baby Talk","longitude":-86.883309,"id":"a6rdlmu4bbg4","citystate":"Michigan City, 46360"},"type":"Feature","geometry":{"type":"Point","coordinates":[-86.883309,41.70562]}},{"properties":{"address1":"P. O. Box 843","address2":"","zip":46527,"latitude":41.58918,"agency":"Bashor Chilren's Home","longitude":-85.836967,"id":"a6rdlmn7gf5e","citystate":"Goshen, IN  46527"},"type":"Feature","geometry":{"type":"Point","coordinates":[-85.836967,41.58918]}},{"properties":{"address1":"325 North Lafayete Blvd.","address2":"","zip":46601,"latitude":41.672986,"agency":"Beds and Britches, Etc.","longitude":-86.253664,"id":"a6rdlmn4jfaj","citystate":"South Bend, IN  46601"},"type":"Feature","geometry":{"type":"Point","coordinates":[-86.253664,41.672986]}},{"properties":{"address1":"105 E. Jefferson Blvd.","address2":"P. O. Box 1632","zip":46634,"latitude":41.67905,"agency":"Big Brothers Big Sisters - St. Joseph Co.","longitude":-86.254028,"id":"a6rdlmt1q4j0","citystate":"South Bend, IN  46634"},"type":"Feature","geometry":{"type":"Point","coordinates":[-86.254028,41.67905]}},{"properties":{"address1":"1433 Northside Blvd.","address2":"","zip":46615,"latitude":41.674806,"agency":"Boy Scouts of America - LaSalle Council","longitude":-86.210056,"id":"a6rdlmjqs5op","citystate":"South Bend, IN  46615"},"type":"Feature","geometry":{"type":"Point","coordinates":[-86.210056,41.674806]}},{"properties":{"address1":"502 E. Sample Street","address2":"","zip":46601,"latitude":41.672986,"agency":"Boys and Girls Club St. Joseph County","longitude":-86.253664,"id":"a6rdlmupwtei","citystate":"South Bend, IN  46601"},"type":"Feature","geometry":{"type":"Point","coordinates":[-86.253664,41.672986]}},{"properties":{"address1":"1200 East Main St.","address2":"","zip":49022,"latitude":42.10889,"agency":"Boys and Girls Club of Benton Harbor","longitude":-86.423548,"id":"a6rdlmstgemd","citystate":"Benton Harbor, MI  49022"},"type":"Feature","geometry":{"type":"Point","coordinates":[-86.423548,42.10889]}},{"properties":{"address1":"306 Crescent Street","address2":"","zip":46526,"latitude":41.567198,"agency":"Boys and Girls Club of Goshen","longitude":-85.844665,"id":"a6rdlmqubjgz","citystate":"Goshen, IN  46526"},"type":"Feature","geometry":{"type":"Point","coordinates":[-85.844665,41.567198]}},{"properties":{"address1":"921 E. LaSalle St.","address2":"Suite 100","zip":46617,"latitude":41.686344,"agency":"CASIE Center","longitude":-86.236439,"id":"a6rdlmu01aog","citystate":"South Bend, IN  46617"},"type":"Feature","geometry":{"type":"Point","coordinates":[-86.236439,41.686344]}},{"properties":{"address1":"25600 Kelly Road","address2":"","zip":46614,"latitude":41.622864,"agency":"Camp Millhouse","longitude":-86.247493,"id":"a6rdlmtplhmd","citystate":"South Bend, IN  46614"},"type":"Feature","geometry":{"type":"Point","coordinates":[-86.247493,41.622864]}},{"properties":{"address1":"504 North Bay Dr.","address2":"","zip":46580,"latitude":41.230379,"agency":"Cardinal Center","longitude":-85.856863,"id":"a6rdlmxf9uvb","citystate":"Warsaw, IN  46580"},"type":"Feature","geometry":{"type":"Point","coordinates":[-85.856863,41.230379]}},{"properties":{"address1":"1721 S. Main Street","address2":"","zip":46526,"latitude":41.567198,"agency":"Care at Home Services","longitude":-85.844665,"id":"a6rdlms6kptu","citystate":"Goshen, IN  46526"},"type":"Feature","geometry":{"type":"Point","coordinates":[-85.844665,41.567198]}},{"properties":{"address1":"110 N. Broadway","address2":"","zip":49031,"latitude":41.907166,"agency":"Cass County CASA","longitude":-85.98521,"id":"a6rdlms6yiu5","citystate":"Cassopolis, MI  49031"},"type":"Feature","geometry":{"type":"Point","coordinates":[-85.98521,41.907166]}},{"properties":{"address1":"1817 Miami","address2":"","zip":46613,"latitude":41.655202,"agency":"Catholic Charities","longitude":-86.249649,"id":"a6rdlmx8r7ln","citystate":"South Bend, IN  46613"},"type":"Feature","geometry":{"type":"Point","coordinates":[-86.249649,41.655202]}},{"properties":{"address1":"PO Box 195","address2":"","zip":46527,"latitude":41.58918,"agency":"Center for Healing and Hope","longitude":-85.836967,"id":"a6rdlmy1jlh7","citystate":"Goshen, IN 46527"},"type":"Feature","geometry":{"type":"Point","coordinates":[-85.836967,41.58918]}},{"properties":{"address1":"111 Sunnybrook Court","address2":"","zip":46637,"latitude":41.729068,"agency":"Center for Hospice and Palliative Care","longitude":-86.241009,"id":"a6rdlmnj2mxm","citystate":"South Bend, IN  46637"},"type":"Feature","geometry":{"type":"Point","coordinates":[-86.241009,41.729068]}},{"properties":{"address1":"813 S. Michigan St.","address2":"","zip":46601,"latitude":41.672986,"agency":"Center for the Homeless","longitude":-86.253664,"id":"a6rdlmyt1wnn","citystate":"South Bend, IN  46601"},"type":"Feature","geometry":{"type":"Point","coordinates":[-86.253664,41.672986]}},{"properties":{"address1":"1105 West Jefferson","address2":"","zip":46601,"latitude":41.672986,"agency":"Chiara Home","longitude":-86.253664,"id":"a6rdlmu7rau2","citystate":"South Bend, IN  46601"},"type":"Feature","geometry":{"type":"Point","coordinates":[-86.253664,41.672986]}},{"properties":{"address1":"31891 Chicago Trail","address2":"","zip":46552,"latitude":41.70606,"agency":"Chicago Trail Village","longitude":-86.515294,"id":"a6rdlmtl59dz","citystate":"New Carlisle, IN  46552"},"type":"Feature","geometry":{"type":"Point","coordinates":[-86.515294,41.70606]}},{"properties":{"address1":"1000 W. Hively Ave.","address2":"P. O. Box 773","zip":46515,"latitude":41.68676,"agency":"Child And Parent Services","longitude":-85.975693,"id":"a6rdlmtrbxh6","citystate":"Elkhart, IN  46515"},"type":"Feature","geometry":{"type":"Point","coordinates":[-85.975693,41.68676]}},{"properties":{"address1":"2015 W. Western Ave.","address2":"Suite 233","zip":46629,"latitude":41.672291,"agency":"Children's Dispensary","longitude":-86.251907,"id":"a6rdlmjnygbl","citystate":"South Bend, IN  46629"},"type":"Feature","geometry":{"type":"Point","coordinates":[-86.251907,41.672291]}},{"properties":{"address1":"2015 W. Western Ave.","address2":"Suite 233","zip":46629,"latitude":41.672291,"agency":"Children's Dispensary","longitude":-86.251907,"id":"a6rdlmzb5yyt","citystate":"South Bend, IN  46629"},"type":"Feature","geometry":{"type":"Point","coordinates":[-86.251907,41.672291]}},{"properties":{"address1":"1124 W. Thomas Street","address2":"P. O. Box 1286","zip":46624,"latitude":41.67905,"agency":"Christ Child Society","longitude":-86.254028,"id":"a6rdlmrjvzut","citystate":"South Bend, IN  46624"},"type":"Feature","geometry":{"type":"Point","coordinates":[-86.254028,41.67905]}},{"properties":{"address1":"629 South Third Street","address2":"","zip":46516,"latitude":41.675362,"agency":"Church Community Services, Inc.","longitude":-85.955839,"id":"a6rdlmrozdm8","citystate":"Elkhart, IN  46516"},"type":"Feature","geometry":{"type":"Point","coordinates":[-85.955839,41.675362]}},{"properties":{"address1":"P. O. Box 656","address2":"","zip":46507,"latitude":41.719791,"agency":"Computers for All","longitude":-85.827264,"id":"a6rdlmtin1n4","citystate":"Bristol, IN  46507"},"type":"Feature","geometry":{"type":"Point","coordinates":[-85.827264,41.719791]}},{"properties":{"address1":"3231 Sugar Maple Business Ct.","address2":"","zip":46628,"latitude":41.70794,"agency":"Corvilla, Inc.","longitude":-86.307375,"id":"a6rdlmxhgth3","citystate":"South Bend, IN  46628"},"type":"Feature","geometry":{"type":"Point","coordinates":[-86.307375,41.70794]}},{"properties":{"address1":"144 N. Summit Dr.","address2":"","zip":46619,"latitude":41.668015,"agency":"Daughters of Destiny - Abstinence Program","longitude":-86.323287,"id":"a6rdlmk44sxg","citystate":"South Bend, IN  46619"},"type":"Feature","geometry":{"type":"Point","coordinates":[-86.323287,41.668015]}},{"properties":{"address1":"521 S. St. Joseph St.","address2":"","zip":46634,"latitude":41.67905,"agency":"Dismas of Michiana","longitude":-86.254028,"id":"a6rdlml24kvx","citystate":"South Bend, IN  46634"},"type":"Feature","geometry":{"type":"Point","coordinates":[-86.254028,41.67905]}},{"properties":{"address1":"50622 Rush Creek Ct.","address2":"","zip":46530,"latitude":41.743199,"agency":"Downs Syndrome Family Support and Advocacy Group","longitude":-86.144852,"id":"a6rdlmo3kbmr","citystate":"Granger, IN  46530"},"type":"Feature","geometry":{"type":"Point","coordinates":[-86.144852,41.743199]}},{"properties":{"address1":"7451 W. Johnson Road","address2":"","zip":46360,"latitude":41.705625,"agency":"Dunebrook - Prevent Child Abuse","longitude":-86.883129,"id":"a6rdlmwy0stj","citystate":"Michigan City, 46360"},"type":"Feature","geometry":{"type":"Point","coordinates":[-86.883129,41.705625]}},{"properties":{"address1":"304 W. Vistula","address2":"P. O. Box 434","zip":46507,"latitude":41.719741,"agency":"Elkhart Co. Historical Museum","longitude":-85.827431,"id":"a6rdlmtgrw4a","citystate":"Briston, IN  46507"},"type":"Feature","geometry":{"type":"Point","coordinates":[-85.827431,41.719741]}},{"properties":{"address1":"101 East Hively Ave.","address2":"","zip":46517,"latitude":41.645672,"agency":"Elkhart Family Services","longitude":-85.975835,"id":"a6rdlmxrdc1l","citystate":"Elkhart, IN  46517"},"type":"Feature","geometry":{"type":"Point","coordinates":[-85.975835,41.645672]}},{"properties":{"address1":"530 S. Main Street","address2":"","zip":46516,"latitude":41.675362,"agency":"Faith Mission","longitude":-85.955839,"id":"a6rdlmtdvjsb","citystate":"Elkhart, IN  46516"},"type":"Feature","geometry":{"type":"Point","coordinates":[-85.955839,41.675362]}},{"properties":{"address1":"1411 W. Lincolnway West","address2":"","zip":46544,"latitude":41.65109,"agency":"Family &amp; Children's Center","longitude":-86.158399,"id":"a6rdlmtxvfmb","citystate":"Mishawaka, IN  46544"},"type":"Feature","geometry":{"type":"Point","coordinates":[-86.158399,41.65109]}},{"properties":{"address1":"105 E. Jefferson Blvd.","address2":"Suite 700","zip":46601,"latitude":41.672986,"agency":"Family &amp; Children's Center - Counseling and Development Services","longitude":-86.253664,"id":"a6rdlmlcalwb","citystate":"South Bend, IN  46601"},"type":"Feature","geometry":{"type":"Point","coordinates":[-86.253664,41.672986]}},{"properties":{"address1":"13988 Range Line Road","address2":"","zip":49120,"latitude":41.822386,"agency":"Fernwood Botanical Garden &amp; Nature Preserve","longitude":-86.243845,"id":"a6rdlmxaaein","citystate":"Niles, MI  49120"},"type":"Feature","geometry":{"type":"Point","coordinates":[-86.243845,41.822386]}},{"properties":{"address1":"702 Chapin St.","address2":"","zip":46601,"latitude":41.672986,"agency":"Food Bank of Northern Indiana","longitude":-86.253664,"id":"a6rdlmq0kken","citystate":"South Bend, IN  46601"},"type":"Feature","geometry":{"type":"Point","coordinates":[-86.253664,41.672986]}},{"properties":{"address1":"308 S. Scott St.","address2":"","zip":46601,"latitude":41.672986,"agency":"Forever Learning Institute","longitude":-86.253664,"id":"a6rdlmkbstxj","citystate":"South Bend, IN  46601"},"type":"Feature","geometry":{"type":"Point","coordinates":[-86.253664,41.672986]}},{"properties":{"address1":"2811 Beechwood Lane","address2":"","zip":46615,"latitude":41.674806,"agency":"Foundation for Music and Healing","longitude":-86.210056,"id":"a6rdlmr3sdc1","citystate":"South Bend, IN  46615"},"type":"Feature","geometry":{"type":"Point","coordinates":[-86.210056,41.674806]}},{"properties":{"address1":"3620 Deahl Court","address2":"","zip":46628,"latitude":41.70794,"agency":"Girls Scouts of Singing Sands Council, Inc.","longitude":-86.307375,"id":"a6rdlmtu692p","citystate":"South Bend, IN  46628"},"type":"Feature","geometry":{"type":"Point","coordinates":[-86.307375,41.70794]}},{"properties":{"address1":"1805 Western Ave.","address2":"P. O. Box 3128","zip":46619,"latitude":41.668015,"agency":"Good Will Industries - St. Joseph Co.","longitude":-86.323287,"id":"a6rdlmoc7lh0","citystate":"South Bend, IN  46619"},"type":"Feature","geometry":{"type":"Point","coordinates":[-86.323287,41.668015]}},{"properties":{"address1":"601 S. Fifth Street","address2":"","zip":46526,"latitude":41.567198,"agency":"Goshen Adult Literacy Program","longitude":-85.844665,"id":"a6rdlmnt5qfk","citystate":"Goshen, IN  46526"},"type":"Feature","geometry":{"type":"Point","coordinates":[-85.844665,41.567198]}},{"properties":{"address1":"3609 Mishawaka Ave.","address2":"","zip":46615,"latitude":41.674806,"agency":"Grandparents as Parents","longitude":-86.210056,"id":"a6rdlmsr09u5","citystate":"South Bend, IN  46615"},"type":"Feature","geometry":{"type":"Point","coordinates":[-86.210056,41.674806]}},{"properties":{"address1":"216 N. Second Street","address2":"","zip":46516,"latitude":41.675362,"agency":"Guidance Ministries","longitude":-85.955839,"id":"a6rdlml8pdqt","citystate":"Elkhart, IN  46516"},"type":"Feature","geometry":{"type":"Point","coordinates":[-85.955839,41.675362]}},{"properties":{"address1":"932 E. McKinley Ave.","address2":"","zip":46561,"latitude":41.673539,"agency":"Habitat ReStore","longitude":-86.078843,"id":"a6rdlml7ahgg","citystate":"Mishawaka, IN  46561"},"type":"Feature","geometry":{"type":"Point","coordinates":[-86.078843,41.673539]}},{"properties":{"address1":"31891 Chicago Trail","address2":"","zip":46552,"latitude":41.70606,"agency":"Hamilton Communities","longitude":-86.515294,"id":"a6rdlmuukqvv","citystate":"New Carlisle, IN  46552"},"type":"Feature","geometry":{"type":"Point","coordinates":[-86.515294,41.70606]}},{"properties":{"address1":"518 W. Fourth St.","address2":"","zip":46544,"latitude":41.65109,"agency":"Hannah's House","longitude":-86.158399,"id":"a6rdlmqtsbz6","citystate":"Mishawaka, IN  46544"},"type":"Feature","geometry":{"type":"Point","coordinates":[-86.158399,41.65109]}},{"properties":{"address1":"P. O. Box 767","address2":"66300 US Hwy 33","zip":46526,"latitude":41.56721,"agency":"Heifer Project International","longitude":-85.844486,"id":"a6rdlmp7q8ac","citystate":"Goshen, IN  46526"},"type":"Feature","geometry":{"type":"Point","coordinates":[-85.844486,41.56721]}},{"properties":{"address1":"304 E. Michigan Street","address2":"","zip":46552,"latitude":41.70606,"agency":"Historic New Carlisle, Inc.","longitude":-86.515294,"id":"a6rdlmy8x9xi","citystate":"New Carlisle, IN  46552"},"type":"Feature","geometry":{"type":"Point","coordinates":[-86.515294,41.70606]}},{"properties":{"address1":"1201 Northside Blvd.","address2":"","zip":46615,"latitude":41.674806,"agency":"Home Management Resources","longitude":-86.210056,"id":"a6rdlmq87240","citystate":"South Bend, IN  46615"},"type":"Feature","geometry":{"type":"Point","coordinates":[-86.210056,41.674806]}},{"properties":{"address1":"P. O. box 2123","address2":"","zip":46515,"latitude":41.68676,"agency":"Hope Crisis Response Network","longitude":-85.975693,"id":"a6rdlmopvrnq","citystate":"Elkhart, IN  46515"},"type":"Feature","geometry":{"type":"Point","coordinates":[-85.975693,41.68676]}},{"properties":{"address1":"532 S. Michigan St.","address2":"P. O. Box 4488","zip":46634,"latitude":41.67905,"agency":"Hope Rescue Mission","longitude":-86.254028,"id":"a6rdlmqzvlsr","citystate":"South Bend, IN  46634-4488"},"type":"Feature","geometry":{"type":"Point","coordinates":[-86.254028,41.67905]}},{"properties":{"address1":"2506 Grape Road","address2":"","zip":46545,"latitude":41.681783,"agency":"Humane Society of St. Joseph County","longitude":-86.167389,"id":"a6rdlmtck9a2","citystate":"Mishawaka, IN  46545"},"type":"Feature","geometry":{"type":"Point","coordinates":[-86.167389,41.681783]}},{"properties":{"address1":"1200 Coolspring Ave.","address2":"","zip":46360,"latitude":41.705625,"agency":"Imagination Station","longitude":-86.883129,"id":"a6rdlmll5tpv","citystate":"Michigan City, 46360"},"type":"Feature","geometry":{"type":"Point","coordinates":[-86.883129,41.705625]}},{"properties":{"address1":"530 E. Lexington Ave.","address2":"","zip":46516,"latitude":41.675362,"agency":"Junior Achievement of Elkhart Co.","longitude":-85.955839,"id":"a6rdlmvmtjt7","citystate":"Elkhart, IN  46516"},"type":"Feature","geometry":{"type":"Point","coordinates":[-85.955839,41.675362]}},{"properties":{"address1":"2907 Division Street","address2":"Suite 112","zip":49085,"latitude":42.06744,"agency":"Junior Achievement of Michiana","longitude":-86.475213,"id":"a6rdlmwgjsnk","citystate":"St. Joseph, MI  49085"},"type":"Feature","geometry":{"type":"Point","coordinates":[-86.475213,42.06744]}},{"properties":{"address1":"2004 Ironwood Circle","address2":"Ste. 140","zip":46635,"latitude":41.713443,"agency":"Juvenile Diabetes Assoc.","longitude":-86.209233,"id":"a6rdlmz7enp9","citystate":"South Bend, IN  46635"},"type":"Feature","geometry":{"type":"Point","coordinates":[-86.209233,41.713443]}},{"properties":{"address1":"401 E. Colfax","address2":"Suite 303","zip":46617,"latitude":41.686344,"agency":"KidsPeace","longitude":-86.236439,"id":"a6rdlmphsq4p","citystate":"South Bend, IN  46617"},"type":"Feature","geometry":{"type":"Point","coordinates":[-86.236439,41.686344]}},{"properties":{"address1":"P. O. Box 4414","address2":"","zip":46635,"latitude":41.71343,"agency":"Kiwanis Club of South Bend","longitude":-86.209413,"id":"a6rdlmsexdmf","citystate":"South Bend, IN  46635"},"type":"Feature","geometry":{"type":"Point","coordinates":[-86.209413,41.71343]}},{"properties":{"address1":"921 N. Eddy St.","address2":"","zip":46617,"latitude":41.686344,"agency":"LEAD - ND","longitude":-86.236439,"id":"a6rdlmtg5qd3","citystate":"South Bend, IN  46617"},"type":"Feature","geometry":{"type":"Point","coordinates":[-86.236439,41.686344]}},{"properties":{"address1":"746 South Meade St.","address2":"","zip":46619,"latitude":41.668015,"agency":"La Casa de Amistad","longitude":-86.323287,"id":"a6rdlmmyh5wk","citystate":"South Bend, IN  46619"},"type":"Feature","geometry":{"type":"Point","coordinates":[-86.323287,41.668015]}},{"properties":{"address1":"202 N. Cottage Ave.","address2":"","zip":46528,"latitude":41.615232,"agency":"La Casa of Goshen","longitude":-85.830174,"id":"a6rdlmx6z0dy","citystate":"Goshen, IN  46528"},"type":"Feature","geometry":{"type":"Point","coordinates":[-85.830174,41.615232]}},{"properties":{"address1":"1402 S. Michigan St.","address2":"","zip":46613,"latitude":41.655202,"agency":"Life Treatment Centers","longitude":-86.249649,"id":"a6rdlmq6g3lg","citystate":"South Bend, IN  46613"},"type":"Feature","geometry":{"type":"Point","coordinates":[-86.249649,41.655202]}},{"properties":{"address1":"123 Lincolnway West","address2":"","zip":46544,"latitude":41.65109,"agency":"Literacy Council","longitude":-86.158399,"id":"a6rdlmwd6hnh","citystate":"Mishawaka, IN  46544"},"type":"Feature","geometry":{"type":"Point","coordinates":[-86.158399,41.65109]}},{"properties":{"address1":"2505 E. Jefferson Blvd.","address2":"","zip":46615,"latitude":41.674806,"agency":"Logan Center","longitude":-86.210056,"id":"a6rdlmjjhrv5","citystate":"South Bend, IN  46615"},"type":"Feature","geometry":{"type":"Point","coordinates":[-86.210056,41.674806]}},{"properties":{"address1":"402 East Madison St.","address2":"","zip":46617,"latitude":41.686344,"agency":"Madison Center","longitude":-86.236439,"id":"a6rdlmqkjrd5","citystate":"South Bend, IN  46617"},"type":"Feature","geometry":{"type":"Point","coordinates":[-86.236439,41.686344]}},{"properties":{"address1":"P. O. Box 4073","address2":"","zip":46634,"latitude":41.67905,"agency":"Make a Difference Michiana","longitude":-86.254028,"id":"a6rdlmtg677j","citystate":"South Bend, IN  46634"},"type":"Feature","geometry":{"type":"Point","coordinates":[-86.254028,41.67905]}},{"properties":{"address1":"2012 Ironwood Circle","address2":"","zip":46635,"latitude":41.713443,"agency":"March of Dimes","longitude":-86.209233,"id":"a6rdlmj7ikaj","citystate":"South Bend, IN  46635"},"type":"Feature","geometry":{"type":"Point","coordinates":[-86.209233,41.713443]}},{"properties":{"address1":"50629 Tumbleweed","address2":"","zip":46530,"latitude":41.743199,"agency":"Michiana Center for Independent Living, Inc.","longitude":-86.144852,"id":"a6rdlmynw8wk","citystate":"Granger, IN  46530"},"type":"Feature","geometry":{"type":"Point","coordinates":[-86.144852,41.743199]}},{"properties":{"address1":"4315 E. Michigan Blvd.","address2":"","zip":46360,"latitude":41.705625,"agency":"Michiana Resources","longitude":-86.883129,"id":"a6rdlmrs3pbf","citystate":"Michigan City, 46360"},"type":"Feature","geometry":{"type":"Point","coordinates":[-86.883129,41.705625]}},{"properties":{"address1":"922 E. Colfax Ave.","address2":"","zip":46617,"latitude":41.686344,"agency":"Milton Day Services (see Alz. Services)","longitude":-86.236439,"id":"a6rdlmynpp2j","citystate":"South Bend, IN  46617"},"type":"Feature","geometry":{"type":"Point","coordinates":[-86.236439,41.686344]}},{"properties":{"address1":"P. O. Box 193","address2":"","zip":46546,"latitude":41.66111,"agency":"Mishawaka Breakfast Optimist Club","longitude":-86.179962,"id":"a6rdlmvlw2b8","citystate":"Mishawaka, IN  46546"},"type":"Feature","geometry":{"type":"Point","coordinates":[-86.179962,41.66111]}},{"properties":{"address1":"1007 Portage Ave.","address2":"","zip":46616,"latitude":41.693526,"agency":"Near Northwest Neighborhood Center","longitude":-86.266993,"id":"a6rdlmphj9ke","citystate":"South Bend, IN  46616"},"type":"Feature","geometry":{"type":"Point","coordinates":[-86.266993,41.693526]}},{"properties":{"address1":"227 W. Jefferson Blvd.","address2":"1200 Count City Bldg.","zip":46601,"latitude":41.672986,"agency":"Neighborhood Resources Corp.","longitude":-86.253664,"id":"a6rdlmw6wwoz","citystate":"South Bend, IN  46601"},"type":"Feature","geometry":{"type":"Point","coordinates":[-86.253664,41.672986]}},{"properties":{"address1":"808 W. Washington Street","address2":"","zip":46601,"latitude":41.672986,"agency":"Northern Indiana Center for History","longitude":-86.253664,"id":"a6rdlmtxvmlw","citystate":"South Bend, IN 46601"},"type":"Feature","geometry":{"type":"Point","coordinates":[-86.253664,41.672986]}},{"properties":{"address1":"55010 Filbert Rd.","address2":"","zip":46545,"latitude":41.681783,"agency":"Northern Indiana Institute for Artists with Disabilities","longitude":-86.167389,"id":"a6rdlms4z9qd","citystate":"Mishawaka, IN  46545"},"type":"Feature","geometry":{"type":"Point","coordinates":[-86.167389,41.681783]}},{"properties":{"address1":"P. O. Box 186","address2":"","zip":46624,"latitude":41.67905,"agency":"O'Hana Heritage Foundation","longitude":-86.254028,"id":"a6rdlmuwmp0j","citystate":"South Bend, IN  46624"},"type":"Feature","geometry":{"type":"Point","coordinates":[-86.254028,41.67905]}},{"properties":{"address1":"2300 W. 6th Street","address2":"","zip":46544,"latitude":41.65109,"agency":"Pet Refuge","longitude":-86.158399,"id":"a6rdlmrj7plp","citystate":"Mishawaka, IN  46544"},"type":"Feature","geometry":{"type":"Point","coordinates":[-86.158399,41.65109]}},{"properties":{"address1":"P. O. Box 8104","address2":"","zip":46660,"latitude":41.67905,"agency":"Pets Connect, Inc.","longitude":-86.254028,"id":"a6rdlmxbqvdh","citystate":"South Bend, IN 46660"},"type":"Feature","geometry":{"type":"Point","coordinates":[-86.254028,41.67905]}},{"properties":{"address1":"P. O. Box 119","address2":"","zip":46624,"latitude":41.67905,"agency":"Public Education Foundation","longitude":-86.254028,"id":"a6rdlmm1nkby","citystate":"South Bend, IN  46624"},"type":"Feature","geometry":{"type":"Point","coordinates":[-86.254028,41.67905]}},{"properties":{"address1":"904 Indiana Ave.","address2":"","zip":46350,"latitude":41.613974,"agency":"READ, LaPorte Co.","longitude":-86.728913,"id":"a6rdlmmmk4sz","citystate":"LaPorte, IN  46350"},"type":"Feature","geometry":{"type":"Point","coordinates":[-86.728913,41.613974]}},{"properties":{"address1":"1151 South Michigan St.","address2":"","zip":46634,"latitude":41.67905,"agency":"REAL Services","longitude":-86.254028,"id":"a6rdlmtxueky","citystate":"South Bend, IN  46634-4488"},"type":"Feature","geometry":{"type":"Point","coordinates":[-86.254028,41.67905]}},{"properties":{"address1":"300 W. High Street","address2":"","zip":46516,"latitude":41.675362,"agency":"Reason Enough to Act (RETA)","longitude":-85.955839,"id":"a6rdlmu2eum2","citystate":"Elkhart, IN  46516"},"type":"Feature","geometry":{"type":"Point","coordinates":[-85.955839,41.675362]}},{"properties":{"address1":"227 W. Jefferson Blvd.","address2":"1200 Count City Bldg.","zip":46601,"latitude":41.672986,"agency":"Rebuilding Together","longitude":-86.253664,"id":"a6rdlmvpnf2j","citystate":"South Bend, IN  46601"},"type":"Feature","geometry":{"type":"Point","coordinates":[-86.253664,41.672986]}},{"properties":{"address1":"55200 Quince Road","address2":"","zip":46619,"latitude":41.668015,"agency":"Reins of Life, Inc.","longitude":-86.323287,"id":"a6rdlmx7e0xj","citystate":"South Bend, IN   46619"},"type":"Feature","geometry":{"type":"Point","coordinates":[-86.323287,41.668015]}},{"properties":{"address1":"600 East Blvd.","address2":"","zip":46514,"latitude":41.711594,"agency":"Ribbon of Hope Cancer Support Ministry","longitude":-85.973259,"id":"a6rdlmsmok9p","citystate":"Elkhart, IN  46514"},"type":"Feature","geometry":{"type":"Point","coordinates":[-85.973259,41.711594]}},{"properties":{"address1":"P. O. Box 73","address2":"","zip":46527,"latitude":41.58918,"agency":"Ryan's Place","longitude":-85.836967,"id":"a6rdlmquczjk","citystate":"Goshen, IN  46527"},"type":"Feature","geometry":{"type":"Point","coordinates":[-85.836967,41.58918]}},{"properties":{"address1":"P. O. Box 80","address2":"403 E. Madison","zip":46624,"latitude":41.67905,"agency":"SOS Madison Center","longitude":-86.254028,"id":"a6rdlmwj6i32","citystate":"South Bend, IN 46624"},"type":"Feature","geometry":{"type":"Point","coordinates":[-86.254028,41.67905]}},{"properties":{"address1":"326 South Chapin","address2":"","zip":46601,"latitude":41.672986,"agency":"Saint Joseph Health Center","longitude":-86.253664,"id":"a6rdlmnmb6eh","citystate":"South Bend, IN  46601"},"type":"Feature","geometry":{"type":"Point","coordinates":[-86.253664,41.672986]}},{"properties":{"address1":"17195 Cleveland Road","address2":"","zip":46635,"latitude":41.713443,"agency":"Samaritan Counseling Center","longitude":-86.209233,"id":"a6rdlmjx83x4","citystate":"South Bend, IN  46635"},"type":"Feature","geometry":{"type":"Point","coordinates":[-86.209233,41.713443]}},{"properties":{"address1":"P. O. Box 400","address2":"","zip":46371,"latitude":41.676751,"agency":"Share Foundation","longitude":-86.608449,"id":"a6rdlmxwxc2j","citystate":"Rolling Prairie, IN  46371"},"type":"Feature","geometry":{"type":"Point","coordinates":[-86.608449,41.676751]}},{"properties":{"address1":"920 S. 23rd Street","address2":"","zip":46615,"latitude":41.674806,"agency":"Slice of Life","longitude":-86.210056,"id":"a6rdlmngfsgi","citystate":"South Bend, IN  46615"},"type":"Feature","geometry":{"type":"Point","coordinates":[-86.210056,41.674806]}},{"properties":{"address1":"P. O. Box 1146","address2":"","zip":46624,"latitude":41.67905,"agency":"South Bend Civic Theatre","longitude":-86.254028,"id":"a6rdlmmtzuxg","citystate":"South Bend, IN  46624"},"type":"Feature","geometry":{"type":"Point","coordinates":[-86.254028,41.67905]}},{"properties":{"address1":"50651 Laurel Rd.","address2":"","zip":46637,"latitude":41.729068,"agency":"St. Joseph Co. Parks Foundation","longitude":-86.241009,"id":"a6rdlmxiatt7","citystate":"South Bend, IN  46637"},"type":"Feature","geometry":{"type":"Point","coordinates":[-86.241009,41.729068]}},{"properties":{"address1":"320 N. Lafayette Blvd.","address2":"","zip":46601,"latitude":41.672986,"agency":"St. Joseph County Right to Life","longitude":-86.253664,"id":"a6rdlmxda5nt","citystate":"South Bend, IN  46601"},"type":"Feature","geometry":{"type":"Point","coordinates":[-86.253664,41.672986]}},{"properties":{"address1":"117 N. Lafayette Blvd.","address2":"","zip":46601,"latitude":41.672986,"agency":"St. Margaret's House","longitude":-86.253664,"id":"a6rdlmtj0zc6","citystate":"South Bend, IN  46601"},"type":"Feature","geometry":{"type":"Point","coordinates":[-86.253664,41.672986]}},{"properties":{"address1":"3408 Ardmore Trail","address2":"","zip":46628,"latitude":41.70794,"agency":"St. Vincent de Paul Society","longitude":-86.307375,"id":"a6rdlmxad0wm","citystate":"South Bend, IN  46628"},"type":"Feature","geometry":{"type":"Point","coordinates":[-86.307375,41.70794]}},{"properties":{"address1":"c/o Food Bank of No. IN","address2":"702 Chapin St.","zip":46601,"latitude":41.67299,"agency":"Stone Soup Community","longitude":-86.253484,"id":"a6rdlmossoy9","citystate":"South Bend, IN 46601"},"type":"Feature","geometry":{"type":"Point","coordinates":[-86.253484,41.67299]}},{"properties":{"address1":"137 Division Street","address2":"","zip":46516,"latitude":41.675362,"agency":"Susanna's Kitchen","longitude":-85.955839,"id":"a6rdlmm8vf3z","citystate":"Elkhart, IN  46516"},"type":"Feature","geometry":{"type":"Point","coordinates":[-85.955839,41.675362]}},{"properties":{"address1":"1625 Miami Street","address2":"","zip":46613,"latitude":41.655202,"agency":"TACTT - Teens Achieving Community Through Training","longitude":-86.249649,"id":"a6rdlmu2dcar","citystate":"South Bend, IN  46613"},"type":"Feature","geometry":{"type":"Point","coordinates":[-86.249649,41.655202]}},{"properties":{"address1":"921 N. Eddy St.","address2":"","zip":46617,"latitude":41.686344,"agency":"Take Ten - Robinson Community Learning Center","longitude":-86.236439,"id":"a6rdlmv9c31e","citystate":"South Bend, 46617"},"type":"Feature","geometry":{"type":"Point","coordinates":[-86.236439,41.686344]}},{"properties":{"address1":"3322 Middlebury Street","address2":"","zip":46516,"latitude":41.675362,"agency":"United Labor Agency","longitude":-85.955839,"id":"a6rdlmxb0h4h","citystate":"Elkhart, IN  46516"},"type":"Feature","geometry":{"type":"Point","coordinates":[-85.955839,41.675362]}},{"properties":{"address1":"2015 W. Western Ave.","address2":"Suite #336","zip":46629,"latitude":41.672291,"agency":"United Religious Community","longitude":-86.251907,"id":"a6rdlmz1nb6y","citystate":"South Bend, IN  46629"},"type":"Feature","geometry":{"type":"Point","coordinates":[-86.251907,41.672291]}},{"properties":{"address1":"3132 Old US 20 West","address2":"","zip":46514,"latitude":41.711594,"agency":"Villages (The)","longitude":-85.973259,"id":"a6rdlmoo7jt2","citystate":"Elkhart, IN  46514"},"type":"Feature","geometry":{"type":"Point","coordinates":[-85.973259,41.711594]}},{"properties":{"address1":"1213 Oak Street","address2":"","zip":49120,"latitude":41.822386,"agency":"Volunteer Center of Southwestern Michigan","longitude":-86.243845,"id":"a6rdlmvyuzrn","citystate":"Niles, MI  49120"},"type":"Feature","geometry":{"type":"Point","coordinates":[-86.243845,41.822386]}},{"properties":{"address1":"217 South Michigan St.","address2":"","zip":46601,"latitude":41.672986,"agency":"Volunteer Center of St. Joseph County","longitude":-86.253664,"id":"a6rdlmz1pbfx","citystate":"South Bend, IN   46601"},"type":"Feature","geometry":{"type":"Point","coordinates":[-86.253664,41.672986]}},{"properties":{"address1":"51775 Portage Rd.","address2":"","zip":46628,"latitude":41.70794,"agency":"Volunteer Emergency Service Team","longitude":-86.307375,"id":"a6rdlmuvlogf","citystate":"South Bend, IN  46628"},"type":"Feature","geometry":{"type":"Point","coordinates":[-86.307375,41.70794]}},{"properties":{"address1":"1201 Richmond","address2":"","zip":46516,"latitude":41.675362,"agency":"WheelchairHelp.org, Inc.","longitude":-85.955839,"id":"a6rdlmp10b6j","citystate":"Elkhart, IN  46516"},"type":"Feature","geometry":{"type":"Point","coordinates":[-85.955839,41.675362]}},{"properties":{"address1":"615 N. Michigan Street","address2":"","zip":46601,"latitude":41.672986,"agency":"Women In Touch","longitude":-86.253664,"id":"a6rdlmssgnqs","citystate":"South Bend, IN  46601"},"type":"Feature","geometry":{"type":"Point","coordinates":[-86.253664,41.672986]}},{"properties":{"address1":"1102 S. Fellows St.","address2":"","zip":46601,"latitude":41.672986,"agency":"YWCA of St. Joseph County","longitude":-86.253664,"id":"a6rdlmwzom2h","citystate":"South Bend, IN  46601"},"type":"Feature","geometry":{"type":"Point","coordinates":[-86.253664,41.672986]}},{"properties":{"address1":"2222 Lincolnway West","address2":"","zip":46628,"latitude":41.70794,"agency":"Youth Services Bureau","longitude":-86.307375,"id":"a6rdlmpokga5","citystate":"South Bend, IN  46628"},"type":"Feature","geometry":{"type":"Point","coordinates":[-86.307375,41.70794]}}],"is_temporal":false,"author":{"url":"","metadata":"","contact_name":"","contact_address":"","source":"","contact_phone":""},"source":"","pagination":{"sort":null,"start":0,"total":119,"limit":1000000},"state":"complete","tags":"","published":"2014-08-11T10:26:38-04:00","id":9092}