{"type":"FeatureCollection","data_type":"Dataset","url_type":null,"permissions":[{"permissions":{"download":true,"view":true},"group_id":"everyone"}],"classification":null,"title":"Agencies4","count":178,"stream_id":9093,"contributor":{"url":"http://geocommons.com/users/3718","name":"anpaly"},"data_attributes":null,"calculation_params":null,"icon_link":null,"link":"http://geocommons.com/overlays/9093.json","extent":[-87.0341,41.0711,-85.5632,42.2141],"geometry_types":["point"],"unique_name":null,"name":"Agencies4","feature_count":178,"description":"","next_feature":null,"is_raster":false,"short_classification":"Y","stats":{"zip":{"max":49120,"mean":46740.4606741573,"variance":395537.063416492,"stdev":628.917374077463,"min":46346,"median":46601},"latitude":{"max":42.214111,"mean":41.6825729662921,"variance":0.0152474593636599,"stdev":0.12348060318795,"min":41.071067,"median":41.675362},"longitude":{"max":-85.563179,"mean":-86.2028610168539,"variance":0.0490744201804794,"stdev":0.22152747048725,"min":-87.034098,"median":-86.243845}},"features":[{"properties":{"address1":"427 N. Main Street","address2":"","zip":46601,"latitude":41.672986,"agency":"32 Degree Masonic Learning Center for Chilrdren","longitude":-86.253664,"id":"a62q3lvpa538","citystate":"South Bend, IN  46601"},"type":"Feature","geometry":{"type":"Point","coordinates":[-86.253664,41.672986]}},{"properties":{"address1":"P. O. Box 398","address2":"","zip":46507,"latitude":41.719791,"agency":"ADEC - Resources for Independence","longitude":-85.827264,"id":"a62q3lw4tlva","citystate":"Bristol, IN  46507-0398"},"type":"Feature","geometry":{"type":"Point","coordinates":[-85.827264,41.719791]}},{"properties":{"address1":"8715 W. State Road 14","address2":"","zip":46910,"latitude":41.071067,"agency":"ASA International","longitude":-85.998151,"id":"a62q3lnnadb0","citystate":"Akron, IN  46910"},"type":"Feature","geometry":{"type":"Point","coordinates":[-85.998151,41.071067]}},{"properties":{"address1":"4471 E. Shore Dr.","address2":"","zip":46506,"latitude":41.44942,"agency":"Adam's Place for Kids","longitude":-86.165804,"id":"a62q3ltxmc6j","citystate":"Bremen, IN  46506"},"type":"Feature","geometry":{"type":"Point","coordinates":[-86.165804,41.44942]}},{"properties":{"address1":"201 S. William St.","address2":"P. O. Box 11582","zip":46601,"latitude":41.672986,"agency":"Aids Ministries/Aids Assist","longitude":-86.253664,"id":"a62q3lottbtd","citystate":"South Bend, IN  46601"},"type":"Feature","geometry":{"type":"Point","coordinates":[-86.253664,41.672986]}},{"properties":{"address1":"818 E. Jefferson Blvd.","address2":"","zip":46617,"latitude":41.686344,"agency":"Alcohol and Addictions Resource Center","longitude":-86.236439,"id":"a62q3lvivphc","citystate":"South Bend, IN  46617"},"type":"Feature","geometry":{"type":"Point","coordinates":[-86.236439,41.686344]}},{"properties":{"address1":"2506 W. Linden Ave.","address2":"","zip":46628,"latitude":41.70794,"agency":"All West, Inc.","longitude":-86.307375,"id":"a62q3lxl56bz","citystate":"South Bend, IN  46628"},"type":"Feature","geometry":{"type":"Point","coordinates":[-86.307375,41.70794]}},{"properties":{"address1":"922 E Colfax Avenue","address2":"","zip":46617,"latitude":41.686344,"agency":"Alzheimer's Disease &amp; Milton Day Services","longitude":-86.236439,"id":"a62q3m2ilr8h","citystate":"South Bend, IN  46617"},"type":"Feature","geometry":{"type":"Point","coordinates":[-86.236439,41.686344]}},{"properties":{"address1":"5110 S. Sprinkle Rd.","address2":"","zip":49002,"latitude":42.201929,"agency":"American Cancer Society - Berren Co.","longitude":-85.563179,"id":"a62q3lufkfhn","citystate":"Portage, MI  49002"},"type":"Feature","geometry":{"type":"Point","coordinates":[-85.563179,42.201929]}},{"properties":{"address1":"601 W. Edison Rd.","address2":"","zip":46545,"latitude":41.681783,"agency":"American Cancer Society No. Central IN","longitude":-86.167389,"id":"a62q3lxpe2px","citystate":"Mishawaka, IN 46545"},"type":"Feature","geometry":{"type":"Point","coordinates":[-86.167389,41.681783]}},{"properties":{"address1":"721 Riverview Ave.","address2":"","zip":46516,"latitude":41.675362,"agency":"American Red Cross - Elkhart Co.","longitude":-85.955839,"id":"a62q3lqx1d8c","citystate":"Elkhart, IN 46516"},"type":"Feature","geometry":{"type":"Point","coordinates":[-85.955839,41.675362]}},{"properties":{"address1":"3220 E. Jefferson Blvd.","address2":"","zip":46615,"latitude":41.674806,"agency":"American Red Cross - St. Joseph Co.","longitude":-86.210056,"id":"a62q3m11uk15","citystate":"South Bend, IN  46615"},"type":"Feature","geometry":{"type":"Point","coordinates":[-86.210056,41.674806]}},{"properties":{"address1":"2043 South Bend Ave. #168","address2":"","zip":46637,"latitude":41.729068,"agency":"Angel of Hope Memorial Garden","longitude":-86.241009,"id":"a62q3lqwd6bi","citystate":"South Bend, IN  46637"},"type":"Feature","geometry":{"type":"Point","coordinates":[-86.241009,41.729068]}},{"properties":{"address1":"100 N. Center St.","address2":"Box 32","zip":46544,"latitude":41.65109,"agency":"Another Bookstore and GLBT","longitude":-86.158399,"id":"a62q3lyjolw4","citystate":"Mishawaka, IN  46544"},"type":"Feature","geometry":{"type":"Point","coordinates":[-86.158399,41.65109]}},{"properties":{"address1":"P. O. Box 11344","address2":"","zip":46634,"latitude":41.67905,"agency":"Ark Angels, Inc.","longitude":-86.254028,"id":"a62q3ltrk8s4","citystate":"South Bend, IN  46634"},"type":"Feature","geometry":{"type":"Point","coordinates":[-86.254028,41.67905]}},{"properties":{"address1":"300 N. Michigan Street","address2":"Ste. 412","zip":46601,"latitude":41.672986,"agency":"Arthritis Foundation","longitude":-86.253664,"id":"a62q3lo2e2hd","citystate":"South Bend, IN  46601"},"type":"Feature","geometry":{"type":"Point","coordinates":[-86.253664,41.672986]}},{"properties":{"address1":"P. O. Box 63","address2":"","zip":46624,"latitude":41.67905,"agency":"Association of Fundraising Professionals","longitude":-86.254028,"id":"a62q3lrga4f3","citystate":"South Bend, IN  46624"},"type":"Feature","geometry":{"type":"Point","coordinates":[-86.254028,41.67905]}},{"properties":{"address1":"AK Smith Center","address2":"817 Lafayette St.","zip":46360,"latitude":41.70562,"agency":"Baby Talk","longitude":-86.883309,"id":"a62q3lywdac3","citystate":"Michigan City, 46360"},"type":"Feature","geometry":{"type":"Point","coordinates":[-86.883309,41.70562]}},{"properties":{"address1":"P. O. Box 843","address2":"","zip":46527,"latitude":41.58918,"agency":"Bashor Chilren's Home","longitude":-85.836967,"id":"a62q3lr8ri1d","citystate":"Goshen, IN  46527"},"type":"Feature","geometry":{"type":"Point","coordinates":[-85.836967,41.58918]}},{"properties":{"address1":"325 North Lafayete Blvd.","address2":"","zip":46601,"latitude":41.672986,"agency":"Beds and Britches, Etc.","longitude":-86.253664,"id":"a62q3lqx4tc2","citystate":"South Bend, IN  46601"},"type":"Feature","geometry":{"type":"Point","coordinates":[-86.253664,41.672986]}},{"properties":{"address1":"1737 Hillandale Road","address2":"","zip":49022,"latitude":42.10889,"agency":"Berrien County 4H Foundation","longitude":-86.423548,"id":"a62q3m0pzpyv","citystate":"Benton Harbor, MI  49022"},"type":"Feature","geometry":{"type":"Point","coordinates":[-86.423548,42.10889]}},{"properties":{"address1":"105 E. Jefferson Blvd.","address2":"P. O. Box 1632","zip":46634,"latitude":41.67905,"agency":"Big Brothers Big Sisters - St. Joseph Co.","longitude":-86.254028,"id":"a62q3lox5mc1","citystate":"South Bend, IN  46634"},"type":"Feature","geometry":{"type":"Point","coordinates":[-86.254028,41.67905]}},{"properties":{"address1":"1 South 5th Street","address2":"P. O. Box 194","zip":49120,"latitude":41.822386,"agency":"Big Brothers Big Sisters- Berrien &amp; Cass Co.","longitude":-86.243845,"id":"a62q3m2s6fxg","citystate":"Niles, MI  49120"},"type":"Feature","geometry":{"type":"Point","coordinates":[-86.243845,41.822386]}},{"properties":{"address1":"1433 Northside Blvd.","address2":"","zip":46615,"latitude":41.674806,"agency":"Boy Scouts of America - LaSalle Council","longitude":-86.210056,"id":"a62q3lrweoah","citystate":"South Bend, IN  46615"},"type":"Feature","geometry":{"type":"Point","coordinates":[-86.210056,41.674806]}},{"properties":{"address1":"502 E. Sample Street","address2":"","zip":46601,"latitude":41.672986,"agency":"Boys and Girls Club St. Joseph County","longitude":-86.253664,"id":"a62q3lodc8bt","citystate":"South Bend, IN  46601"},"type":"Feature","geometry":{"type":"Point","coordinates":[-86.253664,41.672986]}},{"properties":{"address1":"1200 East Main St.","address2":"","zip":49022,"latitude":42.10889,"agency":"Boys and Girls Club of Benton Harbor","longitude":-86.423548,"id":"a62q3m0ep1qf","citystate":"Benton Harbor, MI  49022"},"type":"Feature","geometry":{"type":"Point","coordinates":[-86.423548,42.10889]}},{"properties":{"address1":"306 Crescent Street","address2":"","zip":46526,"latitude":41.567198,"agency":"Boys and Girls Club of Goshen","longitude":-85.844665,"id":"a62q3lxjpbn8","citystate":"Goshen, IN  46526"},"type":"Feature","geometry":{"type":"Point","coordinates":[-85.844665,41.567198]}},{"properties":{"address1":"921 E. LaSalle St.","address2":"Suite 100","zip":46617,"latitude":41.686344,"agency":"CASIE Center","longitude":-86.236439,"id":"a62q3lqquiob","citystate":"South Bend, IN  46617"},"type":"Feature","geometry":{"type":"Point","coordinates":[-86.236439,41.686344]}},{"properties":{"address1":"25600 Kelly Road","address2":"","zip":46614,"latitude":41.622864,"agency":"Camp Millhouse","longitude":-86.247493,"id":"a62q3lu0qd3d","citystate":"South Bend, IN  46614"},"type":"Feature","geometry":{"type":"Point","coordinates":[-86.247493,41.622864]}},{"properties":{"address1":"504 North Bay Dr.","address2":"","zip":46580,"latitude":41.230379,"agency":"Cardinal Center","longitude":-85.856863,"id":"a62q3lwl1l8s","citystate":"Warsaw, IN  46580"},"type":"Feature","geometry":{"type":"Point","coordinates":[-85.856863,41.230379]}},{"properties":{"address1":"113 E. Washington St.","address2":"P. O. Box 221","zip":46563,"latitude":41.35169,"agency":"Care and Share of Marshall Co.","longitude":-86.32318,"id":"a62q3lu9s5pa","citystate":"Plymouth, IN  46563"},"type":"Feature","geometry":{"type":"Point","coordinates":[-86.32318,41.35169]}},{"properties":{"address1":"1721 S. Main Street","address2":"","zip":46526,"latitude":41.567198,"agency":"Care at Home Services","longitude":-85.844665,"id":"a62q3lz4iohj","citystate":"Goshen, IN  46526"},"type":"Feature","geometry":{"type":"Point","coordinates":[-85.844665,41.567198]}},{"properties":{"address1":"110 N. Broadway","address2":"","zip":49031,"latitude":41.907166,"agency":"Cass County CASA","longitude":-85.98521,"id":"a62q3lum2ajl","citystate":"Cassopolis, MI  49031"},"type":"Feature","geometry":{"type":"Point","coordinates":[-85.98521,41.907166]}},{"properties":{"address1":"60525 Decatur Rd.","address2":"","zip":49031,"latitude":41.907166,"agency":"Cass County Council on Aging","longitude":-85.98521,"id":"a62q3lqkbksw","citystate":"Cassopolis, MI  49031"},"type":"Feature","geometry":{"type":"Point","coordinates":[-85.98521,41.907166]}},{"properties":{"address1":"1817 Miami","address2":"","zip":46613,"latitude":41.655202,"agency":"Catholic Charities","longitude":-86.249649,"id":"a62q3m16j4un","citystate":"South Bend, IN  46613"},"type":"Feature","geometry":{"type":"Point","coordinates":[-86.249649,41.655202]}},{"properties":{"address1":"PO Box 195","address2":"","zip":46527,"latitude":41.58918,"agency":"Center for Healing and Hope","longitude":-85.836967,"id":"a62q3lv0bpai","citystate":"Goshen, IN 46527"},"type":"Feature","geometry":{"type":"Point","coordinates":[-85.836967,41.58918]}},{"properties":{"address1":"111 Sunnybrook Court","address2":"","zip":46637,"latitude":41.729068,"agency":"Center for Hospice and Palliative Care","longitude":-86.241009,"id":"a62q3m1qi65x","citystate":"South Bend, IN  46637"},"type":"Feature","geometry":{"type":"Point","coordinates":[-86.241009,41.729068]}},{"properties":{"address1":"813 S. Michigan St.","address2":"","zip":46601,"latitude":41.672986,"agency":"Center for the Homeless","longitude":-86.253664,"id":"a62q3m0ikw3m","citystate":"South Bend, IN  46601"},"type":"Feature","geometry":{"type":"Point","coordinates":[-86.253664,41.672986]}},{"properties":{"address1":"1105 West Jefferson","address2":"","zip":46601,"latitude":41.672986,"agency":"Chiara Home","longitude":-86.253664,"id":"a62q3lnovs5e","citystate":"South Bend, IN  46601"},"type":"Feature","geometry":{"type":"Point","coordinates":[-86.253664,41.672986]}},{"properties":{"address1":"31891 Chicago Trail","address2":"","zip":46552,"latitude":41.70606,"agency":"Chicago Trail Village","longitude":-86.515294,"id":"a62q3lvdjrdf","citystate":"New Carlisle, IN  46552"},"type":"Feature","geometry":{"type":"Point","coordinates":[-86.515294,41.70606]}},{"properties":{"address1":"1000 W. Hively Ave.","address2":"P. O. Box 773","zip":46515,"latitude":41.68676,"agency":"Child And Parent Services","longitude":-85.975693,"id":"a62q3ltmox4v","citystate":"Elkhart, IN  46515"},"type":"Feature","geometry":{"type":"Point","coordinates":[-85.975693,41.68676]}},{"properties":{"address1":"2015 W. Western Ave.","address2":"Suite 233","zip":46629,"latitude":41.672291,"agency":"Children's Dispensary","longitude":-86.251907,"id":"a62q3m16jc6q","citystate":"South Bend, IN  46629"},"type":"Feature","geometry":{"type":"Point","coordinates":[-86.251907,41.672291]}},{"properties":{"address1":"2015 W. Western Ave.","address2":"Suite 233","zip":46629,"latitude":41.672291,"agency":"Children's Dispensary","longitude":-86.251907,"id":"a62q3lr6lmhm","citystate":"South Bend, IN  46629"},"type":"Feature","geometry":{"type":"Point","coordinates":[-86.251907,41.672291]}},{"properties":{"address1":"1124 W. Thomas Street","address2":"P. O. Box 1286","zip":46624,"latitude":41.67905,"agency":"Christ Child Society","longitude":-86.254028,"id":"a62q3lp3g8so","citystate":"South Bend, IN  46624"},"type":"Feature","geometry":{"type":"Point","coordinates":[-86.254028,41.67905]}},{"properties":{"address1":"24197 CR #16 East","address2":"","zip":46516,"latitude":41.675362,"agency":"Christ Commissary Food Pantry","longitude":-85.955839,"id":"a62q3lphbett","citystate":"Elkhart, IN  46516"},"type":"Feature","geometry":{"type":"Point","coordinates":[-85.955839,41.675362]}},{"properties":{"address1":"629 South Third Street","address2":"","zip":46516,"latitude":41.675362,"agency":"Church Community Services, Inc.","longitude":-85.955839,"id":"a62q3lzxd0tx","citystate":"Elkhart, IN  46516"},"type":"Feature","geometry":{"type":"Point","coordinates":[-85.955839,41.675362]}},{"properties":{"address1":"111 S. St. Joseph Street","address2":"","zip":46601,"latitude":41.672986,"agency":"College Football Hall of Fame","longitude":-86.253664,"id":"a62q3lqbsjss","citystate":"South Bend, IN 46601"},"type":"Feature","geometry":{"type":"Point","coordinates":[-86.253664,41.672986]}},{"properties":{"address1":"110 E. Prairie St.","address2":"","zip":46580,"latitude":41.230379,"agency":"Combined Community Services","longitude":-85.856863,"id":"a62q3lxzi218","citystate":"Warsaw, IN  46580"},"type":"Feature","geometry":{"type":"Point","coordinates":[-85.856863,41.230379]}},{"properties":{"address1":"3606 E. Jefferson Blvd.","address2":"Ste 240","zip":46615,"latitude":41.674806,"agency":"Community Coordinated Child Care","longitude":-86.210056,"id":"a62q3lylpyvh","citystate":"South Bend, IN  46615"},"type":"Feature","geometry":{"type":"Point","coordinates":[-86.210056,41.674806]}},{"properties":{"address1":"1226 Pyle Avenue","address2":"","zip":46615,"latitude":41.674806,"agency":"Compassionate Friends","longitude":-86.210056,"id":"a62q3m05veaw","citystate":"South Bend, IN  46615"},"type":"Feature","geometry":{"type":"Point","coordinates":[-86.210056,41.674806]}},{"properties":{"address1":"P. O. Box 656","address2":"","zip":46507,"latitude":41.719791,"agency":"Computers for All","longitude":-85.827264,"id":"a62q3lz0it59","citystate":"Bristol, IN  46507"},"type":"Feature","geometry":{"type":"Point","coordinates":[-85.827264,41.719791]}},{"properties":{"address1":"3231 Sugar Maple Business Ct.","address2":"","zip":46628,"latitude":41.70794,"agency":"Corvilla, Inc.","longitude":-86.307375,"id":"a62q3lreuw96","citystate":"South Bend, IN  46628"},"type":"Feature","geometry":{"type":"Point","coordinates":[-86.307375,41.70794]}},{"properties":{"address1":"2555 Oakland Ave.","address2":"","zip":46517,"latitude":41.645672,"agency":"Council on Aging - Elkhart Co.","longitude":-85.975835,"id":"a62q3lylcfty","citystate":"Elkhart, IN  46517"},"type":"Feature","geometry":{"type":"Point","coordinates":[-85.975835,41.645672]}},{"properties":{"address1":"P. O. Box 432","address2":"","zip":46573,"latitude":41.53492,"agency":"Crosspath Ministries","longitude":-86.031463,"id":"a62q3lyely8s","citystate":"Wakarusa, IN  46573"},"type":"Feature","geometry":{"type":"Point","coordinates":[-86.031463,41.53492]}},{"properties":{"address1":"724 - K West Bristol St.","address2":"","zip":46514,"latitude":41.711594,"agency":"Cystic Fibrosis Council","longitude":-85.973259,"id":"a62q3lrl3l1o","citystate":"Elkhart, IN  46514"},"type":"Feature","geometry":{"type":"Point","coordinates":[-85.973259,41.711594]}},{"properties":{"address1":"144 N. Summit Dr.","address2":"","zip":46619,"latitude":41.668015,"agency":"Daughters of Destiny - Abstinence Program","longitude":-86.323287,"id":"a62q3lq2f3c9","citystate":"South Bend, IN  46619"},"type":"Feature","geometry":{"type":"Point","coordinates":[-86.323287,41.668015]}},{"properties":{"address1":"521 S. St. Joseph St.","address2":"","zip":46634,"latitude":41.67905,"agency":"Dismas of Michiana","longitude":-86.254028,"id":"a62q3lzshg5l","citystate":"South Bend, IN  46634"},"type":"Feature","geometry":{"type":"Point","coordinates":[-86.254028,41.67905]}},{"properties":{"address1":"50622 Rush Creek Ct.","address2":"","zip":46530,"latitude":41.743199,"agency":"Downs Syndrome Family Support and Advocacy Group","longitude":-86.144852,"id":"a62q3luq6whj","citystate":"Granger, IN  46530"},"type":"Feature","geometry":{"type":"Point","coordinates":[-86.144852,41.743199]}},{"properties":{"address1":"7451 W. Johnson Road","address2":"","zip":46360,"latitude":41.705625,"agency":"Dunebrook - Prevent Child Abuse","longitude":-86.883129,"id":"a62q3lyyaacf","citystate":"Michigan City, 46360"},"type":"Feature","geometry":{"type":"Point","coordinates":[-86.883129,41.705625]}},{"properties":{"address1":"304 W. Vistula","address2":"P. O. Box 434","zip":46507,"latitude":41.719741,"agency":"Elkhart Co. Historical Museum","longitude":-85.827431,"id":"a62q3lqxzef9","citystate":"Briston, IN  46507"},"type":"Feature","geometry":{"type":"Point","coordinates":[-85.827431,41.719741]}},{"properties":{"address1":"101 East Hively Ave.","address2":"","zip":46517,"latitude":41.645672,"agency":"Elkhart Family Services","longitude":-85.975835,"id":"a62q3lsa2o54","citystate":"Elkhart, IN  46517"},"type":"Feature","geometry":{"type":"Point","coordinates":[-85.975835,41.645672]}},{"properties":{"address1":"530 S. Main Street","address2":"","zip":46516,"latitude":41.675362,"agency":"Faith Mission","longitude":-85.955839,"id":"a62q3lqf7x8t","citystate":"Elkhart, IN  46516"},"type":"Feature","geometry":{"type":"Point","coordinates":[-85.955839,41.675362]}},{"properties":{"address1":"1411 W. Lincolnway West","address2":"","zip":46544,"latitude":41.65109,"agency":"Family &amp; Children's Center","longitude":-86.158399,"id":"a62q3lo3z2q5","citystate":"Mishawaka, IN  46544"},"type":"Feature","geometry":{"type":"Point","coordinates":[-86.158399,41.65109]}},{"properties":{"address1":"105 E. Jefferson Blvd.","address2":"Suite 700","zip":46601,"latitude":41.672986,"agency":"Family &amp; Children's Center - Counseling and Development Services","longitude":-86.253664,"id":"a62q3lyyvvhz","citystate":"South Bend, IN  46601"},"type":"Feature","geometry":{"type":"Point","coordinates":[-86.253664,41.672986]}},{"properties":{"address1":"P. O. Box 1703","address2":"","zip":46601,"latitude":41.67299,"agency":"Family Justice Center of St. Joseph County","longitude":-86.253484,"id":"a62q3lx5j5wl","citystate":"South Bend, IN  46601"},"type":"Feature","geometry":{"type":"Point","coordinates":[-86.253484,41.67299]}},{"properties":{"address1":"101 E. Hively Ave.","address2":"","zip":46517,"latitude":41.645672,"agency":"Family Services (see Elkhart Fam Services)","longitude":-85.975835,"id":"a62q3m1vyldj","citystate":"Elkhart, IN  46517"},"type":"Feature","geometry":{"type":"Point","coordinates":[-85.975835,41.645672]}},{"properties":{"address1":"13988 Range Line Road","address2":"","zip":49120,"latitude":41.822386,"agency":"Fernwood Botanical Garden &amp; Nature Preserve","longitude":-86.243845,"id":"a62q3lqzkrlo","citystate":"Niles, MI  49120"},"type":"Feature","geometry":{"type":"Point","coordinates":[-86.243845,41.822386]}},{"properties":{"address1":"P. O. Box 807","address2":"","zip":49023,"latitude":42.11552,"agency":"First Call for Help","longitude":-86.457489,"id":"a62q3lvlxaw7","citystate":"Benton Harbor, MI  49023"},"type":"Feature","geometry":{"type":"Point","coordinates":[-86.457489,42.11552]}},{"properties":{"address1":"702 Chapin St.","address2":"","zip":46601,"latitude":41.672986,"agency":"Food Bank of Northern Indiana","longitude":-86.253664,"id":"a62q3lul0hyb","citystate":"South Bend, IN  46601"},"type":"Feature","geometry":{"type":"Point","coordinates":[-86.253664,41.672986]}},{"properties":{"address1":"308 S. Scott St.","address2":"","zip":46601,"latitude":41.672986,"agency":"Forever Learning Institute","longitude":-86.253664,"id":"a62q3lpg8wrx","citystate":"South Bend, IN  46601"},"type":"Feature","geometry":{"type":"Point","coordinates":[-86.253664,41.672986]}},{"properties":{"address1":"2811 Beechwood Lane","address2":"","zip":46615,"latitude":41.674806,"agency":"Foundation for Music and Healing","longitude":-86.210056,"id":"a62q3lylln50","citystate":"South Bend, IN  46615"},"type":"Feature","geometry":{"type":"Point","coordinates":[-86.210056,41.674806]}},{"properties":{"address1":"5302 Bala Cynwyd Ct.","address2":"","zip":49024,"latitude":42.214111,"agency":"Friends of Child Abuse Prevention","longitude":-85.618351,"id":"a62q3lynseve","citystate":"Portage, MI  49024"},"type":"Feature","geometry":{"type":"Point","coordinates":[-85.618351,42.214111]}},{"properties":{"address1":"201 Sylvester St.","address2":"P. O. Box 272","zip":49103,"latitude":41.943076,"agency":"Gateway","longitude":-86.353613,"id":"a62q3lwn3rm9","citystate":"Berrien Springs, MI  49103"},"type":"Feature","geometry":{"type":"Point","coordinates":[-86.353613,41.943076]}},{"properties":{"address1":"3620 Deahl Court","address2":"","zip":46628,"latitude":41.70794,"agency":"Girls Scouts of Singing Sands Council, Inc.","longitude":-86.307375,"id":"a62q3ly2ns3i","citystate":"South Bend, IN  46628"},"type":"Feature","geometry":{"type":"Point","coordinates":[-86.307375,41.70794]}},{"properties":{"address1":"1805 Western Ave.","address2":"P. O. Box 3128","zip":46619,"latitude":41.668015,"agency":"Good Will Industries - St. Joseph Co.","longitude":-86.323287,"id":"a62q3m0otcvq","citystate":"South Bend, IN  46619"},"type":"Feature","geometry":{"type":"Point","coordinates":[-86.323287,41.668015]}},{"properties":{"address1":"601 S. Fifth Street","address2":"","zip":46526,"latitude":41.567198,"agency":"Goshen Adult Literacy Program","longitude":-85.844665,"id":"a62q3ltyo5tq","citystate":"Goshen, IN  46526"},"type":"Feature","geometry":{"type":"Point","coordinates":[-85.844665,41.567198]}},{"properties":{"address1":"3609 Mishawaka Ave.","address2":"","zip":46615,"latitude":41.674806,"agency":"Grandparents as Parents","longitude":-86.210056,"id":"a62q3lrzbjta","citystate":"South Bend, IN  46615"},"type":"Feature","geometry":{"type":"Point","coordinates":[-86.210056,41.674806]}},{"properties":{"address1":"216 N. Second Street","address2":"","zip":46516,"latitude":41.675362,"agency":"Guidance Ministries","longitude":-85.955839,"id":"a62q3lx36pca","citystate":"Elkhart, IN  46516"},"type":"Feature","geometry":{"type":"Point","coordinates":[-85.955839,41.675362]}},{"properties":{"address1":"932 E. McKinley Ave.","address2":"","zip":46561,"latitude":41.673539,"agency":"Habitat ReStore","longitude":-86.078843,"id":"a62q3lsou40c","citystate":"Mishawaka, IN  46561"},"type":"Feature","geometry":{"type":"Point","coordinates":[-86.078843,41.673539]}},{"properties":{"address1":"402 East South Street","address2":"","zip":46601,"latitude":41.672986,"agency":"Habitat for Humanity","longitude":-86.253664,"id":"a62q3lo7afgv","citystate":"South Bend, IN  46601"},"type":"Feature","geometry":{"type":"Point","coordinates":[-86.253664,41.672986]}},{"properties":{"address1":"31891 Chicago Trail","address2":"","zip":46552,"latitude":41.70606,"agency":"Hamilton Communities","longitude":-86.515294,"id":"a62q3lp3uqak","citystate":"New Carlisle, IN  46552"},"type":"Feature","geometry":{"type":"Point","coordinates":[-86.515294,41.70606]}},{"properties":{"address1":"31869 Chicago Trail","address2":"","zip":46552,"latitude":41.70606,"agency":"Hamilton Communities","longitude":-86.515294,"id":"a62q3lsmz3mg","citystate":"New Carlisle, IN  46552"},"type":"Feature","geometry":{"type":"Point","coordinates":[-86.515294,41.70606]}},{"properties":{"address1":"518 W. Fourth St.","address2":"","zip":46544,"latitude":41.65109,"agency":"Hannah's House","longitude":-86.158399,"id":"a62q3lmugd4b","citystate":"Mishawaka, IN  46544"},"type":"Feature","geometry":{"type":"Point","coordinates":[-86.158399,41.65109]}},{"properties":{"address1":"P. O. Box 767","address2":"66300 US Hwy 33","zip":46526,"latitude":41.56721,"agency":"Heifer Project International","longitude":-85.844486,"id":"a62q3lut5pq7","citystate":"Goshen, IN  46526"},"type":"Feature","geometry":{"type":"Point","coordinates":[-85.844486,41.56721]}},{"properties":{"address1":"304 E. Michigan Street","address2":"","zip":46552,"latitude":41.70606,"agency":"Historic New Carlisle, Inc.","longitude":-86.515294,"id":"a62q3lpf868y","citystate":"New Carlisle, IN  46552"},"type":"Feature","geometry":{"type":"Point","coordinates":[-86.515294,41.70606]}},{"properties":{"address1":"1201 Northside Blvd.","address2":"","zip":46615,"latitude":41.674806,"agency":"Home Management Resources","longitude":-86.210056,"id":"a62q3lqo9sr1","citystate":"South Bend, IN  46615"},"type":"Feature","geometry":{"type":"Point","coordinates":[-86.210056,41.674806]}},{"properties":{"address1":"P. O. box 2123","address2":"","zip":46515,"latitude":41.68676,"agency":"Hope Crisis Response Network","longitude":-85.975693,"id":"a62q3m176tdo","citystate":"Elkhart, IN  46515"},"type":"Feature","geometry":{"type":"Point","coordinates":[-85.975693,41.68676]}},{"properties":{"address1":"58450 Sunflower Lane","address2":"","zip":46517,"latitude":41.645672,"agency":"Hope Ministries","longitude":-85.975835,"id":"a62q3lp5l32d","citystate":"Elkhart, IN  46517"},"type":"Feature","geometry":{"type":"Point","coordinates":[-85.975835,41.645672]}},{"properties":{"address1":"532 S. Michigan St.","address2":"P. O. Box 4488","zip":46634,"latitude":41.67905,"agency":"Hope Rescue Mission","longitude":-86.254028,"id":"a62q3m2l3xa5","citystate":"South Bend, IN  46634-4488"},"type":"Feature","geometry":{"type":"Point","coordinates":[-86.254028,41.67905]}},{"properties":{"address1":"2506 Grape Road","address2":"","zip":46545,"latitude":41.681783,"agency":"Humane Society of St. Joseph County","longitude":-86.167389,"id":"a62q3ls9utq4","citystate":"Mishawaka, IN  46545"},"type":"Feature","geometry":{"type":"Point","coordinates":[-86.167389,41.681783]}},{"properties":{"address1":"1200 Coolspring Ave.","address2":"","zip":46360,"latitude":41.705625,"agency":"Imagination Station","longitude":-86.883129,"id":"a62q3lscb5nt","citystate":"Michigan City, 46360"},"type":"Feature","geometry":{"type":"Point","coordinates":[-86.883129,41.705625]}},{"properties":{"address1":"530 E. Lexington Ave.","address2":"","zip":46516,"latitude":41.675362,"agency":"Junior Achievement of Elkhart Co.","longitude":-85.955839,"id":"a62q3lx44lyb","citystate":"Elkhart, IN  46516"},"type":"Feature","geometry":{"type":"Point","coordinates":[-85.955839,41.675362]}},{"properties":{"address1":"2907 Division Street","address2":"Suite 112","zip":49085,"latitude":42.06744,"agency":"Junior Achievement of Michiana","longitude":-86.475213,"id":"a62q3m0ip3m2","citystate":"St. Joseph, MI  49085"},"type":"Feature","geometry":{"type":"Point","coordinates":[-86.475213,42.06744]}},{"properties":{"address1":"2004 Ironwood Circle","address2":"Ste. 140","zip":46635,"latitude":41.713443,"agency":"Juvenile Diabetes Assoc.","longitude":-86.209233,"id":"a62q3lzrn7vp","citystate":"South Bend, IN  46635"},"type":"Feature","geometry":{"type":"Point","coordinates":[-86.209233,41.713443]}},{"properties":{"address1":"4614 Western Ave.","address2":"","zip":46383,"latitude":41.480827,"agency":"KV Works","longitude":-87.034098,"id":"a62q3luh0wyz","citystate":"South Bend, IN  46383"},"type":"Feature","geometry":{"type":"Point","coordinates":[-87.034098,41.480827]}},{"properties":{"address1":"401 E. Colfax","address2":"Suite 303","zip":46617,"latitude":41.686344,"agency":"KidsPeace","longitude":-86.236439,"id":"a62q3m08fu0i","citystate":"South Bend, IN  46617"},"type":"Feature","geometry":{"type":"Point","coordinates":[-86.236439,41.686344]}},{"properties":{"address1":"P. O. Box 4414","address2":"","zip":46635,"latitude":41.71343,"agency":"Kiwanis Club of South Bend","longitude":-86.209413,"id":"a62q3locwgyt","citystate":"South Bend, IN  46635"},"type":"Feature","geometry":{"type":"Point","coordinates":[-86.209413,41.71343]}},{"properties":{"address1":"921 N. Eddy St.","address2":"","zip":46617,"latitude":41.686344,"agency":"LEAD - ND","longitude":-86.236439,"id":"a62q3lqn9ub6","citystate":"South Bend, IN  46617"},"type":"Feature","geometry":{"type":"Point","coordinates":[-86.236439,41.686344]}},{"properties":{"address1":"746 South Meade St.","address2":"","zip":46619,"latitude":41.668015,"agency":"La Casa de Amistad","longitude":-86.323287,"id":"a62q3lmxpb86","citystate":"South Bend, IN  46619"},"type":"Feature","geometry":{"type":"Point","coordinates":[-86.323287,41.668015]}},{"properties":{"address1":"202 N. Cottage Ave.","address2":"","zip":46528,"latitude":41.615232,"agency":"La Casa of Goshen","longitude":-85.830174,"id":"a62q3low0w4w","citystate":"Goshen, IN  46528"},"type":"Feature","geometry":{"type":"Point","coordinates":[-85.830174,41.615232]}},{"properties":{"address1":"530 E. Ireland Rd.","address2":"","zip":46614,"latitude":41.622864,"agency":"LeSEA Global Feed the Hungry","longitude":-86.247493,"id":"a62q3m1jkdcv","citystate":"South Bend, IN  46614"},"type":"Feature","geometry":{"type":"Point","coordinates":[-86.247493,41.622864]}},{"properties":{"address1":"1402 S. Michigan St.","address2":"","zip":46613,"latitude":41.655202,"agency":"Life Treatment Centers","longitude":-86.249649,"id":"a62q3lnstr2o","citystate":"South Bend, IN  46613"},"type":"Feature","geometry":{"type":"Point","coordinates":[-86.249649,41.655202]}},{"properties":{"address1":"123 Lincolnway West","address2":"","zip":46544,"latitude":41.65109,"agency":"Literacy Council","longitude":-86.158399,"id":"a62q3lzh95ap","citystate":"Mishawaka, IN  46544"},"type":"Feature","geometry":{"type":"Point","coordinates":[-86.158399,41.65109]}},{"properties":{"address1":"2505 E. Jefferson Blvd.","address2":"","zip":46615,"latitude":41.674806,"agency":"Logan Center","longitude":-86.210056,"id":"a62q3ltpha11","citystate":"South Bend, IN  46615"},"type":"Feature","geometry":{"type":"Point","coordinates":[-86.210056,41.674806]}},{"properties":{"address1":"402 East Madison St.","address2":"","zip":46617,"latitude":41.686344,"agency":"Madison Center","longitude":-86.236439,"id":"a62q3luhwz6b","citystate":"South Bend, IN  46617"},"type":"Feature","geometry":{"type":"Point","coordinates":[-86.236439,41.686344]}},{"properties":{"address1":"P. O. Box 4073","address2":"","zip":46634,"latitude":41.67905,"agency":"Make a Difference Michiana","longitude":-86.254028,"id":"a62q3lzbkpqj","citystate":"South Bend, IN  46634"},"type":"Feature","geometry":{"type":"Point","coordinates":[-86.254028,41.67905]}},{"properties":{"address1":"2012 Ironwood Circle","address2":"","zip":46635,"latitude":41.713443,"agency":"March of Dimes","longitude":-86.209233,"id":"a62q3lsmd9x3","citystate":"South Bend, IN  46635"},"type":"Feature","geometry":{"type":"Point","coordinates":[-86.209233,41.713443]}},{"properties":{"address1":"215 S. St. Joseph Street","address2":"","zip":46601,"latitude":41.672986,"agency":"Mentoring Dream Team - SBCSC","longitude":-86.253664,"id":"a62q3m2ahozn","citystate":"South Bend, IN  46601"},"type":"Feature","geometry":{"type":"Point","coordinates":[-86.253664,41.672986]}},{"properties":{"address1":"50629 Tumbleweed","address2":"","zip":46530,"latitude":41.743199,"agency":"Michiana Center for Independent Living, Inc.","longitude":-86.144852,"id":"a62q3lytslc6","citystate":"Granger, IN  46530"},"type":"Feature","geometry":{"type":"Point","coordinates":[-86.144852,41.743199]}},{"properties":{"address1":"P. O. Box 11173","address2":"","zip":46634,"latitude":41.67905,"agency":"Michiana Parents of Multiples","longitude":-86.254028,"id":"a62q3ltbg7jz","citystate":"South Bend, IN  46634"},"type":"Feature","geometry":{"type":"Point","coordinates":[-86.254028,41.67905]}},{"properties":{"address1":"4315 E. Michigan Blvd.","address2":"","zip":46360,"latitude":41.705625,"agency":"Michiana Resources","longitude":-86.883129,"id":"a62q3loj3ih0","citystate":"Michigan City, 46360"},"type":"Feature","geometry":{"type":"Point","coordinates":[-86.883129,41.705625]}},{"properties":{"address1":"120 W. 9th Streeet","address2":"","zip":46360,"latitude":41.705625,"agency":"Michigan City Homeless Shelter","longitude":-86.883129,"id":"a62q3m1wn4jb","citystate":"Michigan City, IN  46360"},"type":"Feature","geometry":{"type":"Point","coordinates":[-86.883129,41.705625]}},{"properties":{"address1":"P. O. Box 1891","address2":"","zip":46634,"latitude":41.67905,"agency":"Midwest Assistance Dogs","longitude":-86.254028,"id":"a62q3lsztxms","citystate":"South Bend, IN  46634"},"type":"Feature","geometry":{"type":"Point","coordinates":[-86.254028,41.67905]}},{"properties":{"address1":"922 E. Colfax Ave.","address2":"","zip":46617,"latitude":41.686344,"agency":"Milton Day Services (see Alz. Services)","longitude":-86.236439,"id":"a62q3lvdzy9n","citystate":"South Bend, IN  46617"},"type":"Feature","geometry":{"type":"Point","coordinates":[-86.236439,41.686344]}},{"properties":{"address1":"P. O. Box 193","address2":"","zip":46546,"latitude":41.66111,"agency":"Mishawaka Breakfast Optimist Club","longitude":-86.179962,"id":"a62q3lpktjvs","citystate":"Mishawaka, IN  46546"},"type":"Feature","geometry":{"type":"Point","coordinates":[-86.179962,41.66111]}},{"properties":{"address1":"1007 Portage Ave.","address2":"","zip":46616,"latitude":41.693526,"agency":"Near Northwest Neighborhood Center","longitude":-86.266993,"id":"a62q3lrbtppi","citystate":"South Bend, IN  46616"},"type":"Feature","geometry":{"type":"Point","coordinates":[-86.266993,41.693526]}},{"properties":{"address1":"227 W. Jefferson Blvd.","address2":"1200 Count City Bldg.","zip":46601,"latitude":41.672986,"agency":"Neighborhood Resources Corp.","longitude":-86.253664,"id":"a62q3lyla8kw","citystate":"South Bend, IN  46601"},"type":"Feature","geometry":{"type":"Point","coordinates":[-86.253664,41.672986]}},{"properties":{"address1":"808 W. Washington Street","address2":"","zip":46601,"latitude":41.672986,"agency":"Northern Indiana Center for History","longitude":-86.253664,"id":"a62q3lww3kv9","citystate":"South Bend, IN 46601"},"type":"Feature","geometry":{"type":"Point","coordinates":[-86.253664,41.672986]}},{"properties":{"address1":"55010 Filbert Rd.","address2":"","zip":46545,"latitude":41.681783,"agency":"Northern Indiana Institute for Artists with Disabilities","longitude":-86.167389,"id":"a62q3ly07sl7","citystate":"Mishawaka, IN  46545"},"type":"Feature","geometry":{"type":"Point","coordinates":[-86.167389,41.681783]}},{"properties":{"address1":"115 N. William","address2":"Suite 300","zip":46601,"latitude":41.672986,"agency":"Northern Indiana Pet Partners","longitude":-86.253664,"id":"a62q3lpv1hf5","citystate":"South Bend, IN  46601"},"type":"Feature","geometry":{"type":"Point","coordinates":[-86.253664,41.672986]}},{"properties":{"address1":"P. O. Box 186","address2":"","zip":46624,"latitude":41.67905,"agency":"O'Hana Heritage Foundation","longitude":-86.254028,"id":"a62q3m1r4dtz","citystate":"South Bend, IN  46624"},"type":"Feature","geometry":{"type":"Point","coordinates":[-86.254028,41.67905]}},{"properties":{"address1":"SBCSC, 635 S. Main St.","address2":"","zip":46601,"latitude":41.67299,"agency":"Partner Up!","longitude":-86.253484,"id":"a62q3lr7g6g1","citystate":"South Bend, IN  46601"},"type":"Feature","geometry":{"type":"Point","coordinates":[-86.253484,41.67299]}},{"properties":{"address1":"2300 W. 6th Street","address2":"","zip":46544,"latitude":41.65109,"agency":"Pet Refuge","longitude":-86.158399,"id":"a62q3loddn3s","citystate":"Mishawaka, IN  46544"},"type":"Feature","geometry":{"type":"Point","coordinates":[-86.158399,41.65109]}},{"properties":{"address1":"P. O. Box 8104","address2":"","zip":46660,"latitude":41.67905,"agency":"Pets Connect, Inc.","longitude":-86.254028,"id":"a62q3lq4o9jb","citystate":"South Bend, IN 46660"},"type":"Feature","geometry":{"type":"Point","coordinates":[-86.254028,41.67905]}},{"properties":{"address1":"P. O. Box 203","address2":"","zip":46556,"latitude":41.700748,"agency":"Poverello Farm","longitude":-86.239189,"id":"a62q3ls8an9l","citystate":"Notre Dame, IN  46556"},"type":"Feature","geometry":{"type":"Point","coordinates":[-86.239189,41.700748]}},{"properties":{"address1":"P. O. Box 6535","address2":"","zip":46660,"latitude":41.67905,"agency":"Prevent Child Abuse","longitude":-86.254028,"id":"a62q3lu5fbuz","citystate":"South Bend, IN  46660"},"type":"Feature","geometry":{"type":"Point","coordinates":[-86.254028,41.67905]}},{"properties":{"address1":"P. O. Box 119","address2":"","zip":46624,"latitude":41.67905,"agency":"Public Education Foundation","longitude":-86.254028,"id":"a62q3m11vhg0","citystate":"South Bend, IN  46624"},"type":"Feature","geometry":{"type":"Point","coordinates":[-86.254028,41.67905]}},{"properties":{"address1":"227 W. Jefferson, Rm 336","address2":"","zip":46601,"latitude":41.672986,"agency":"Purdue Cooperative Extension","longitude":-86.253664,"id":"a62q3lwuoouq","citystate":"South Bend, IN  46601"},"type":"Feature","geometry":{"type":"Point","coordinates":[-86.253664,41.672986]}},{"properties":{"address1":"904 Indiana Ave.","address2":"","zip":46350,"latitude":41.613974,"agency":"READ, LaPorte Co.","longitude":-86.728913,"id":"a62q3lnvxy52","citystate":"LaPorte, IN  46350"},"type":"Feature","geometry":{"type":"Point","coordinates":[-86.728913,41.613974]}},{"properties":{"address1":"1151 South Michigan St.","address2":"","zip":46634,"latitude":41.67905,"agency":"REAL Services","longitude":-86.254028,"id":"a62q3lxfb1dm","citystate":"South Bend, IN  46634-4488"},"type":"Feature","geometry":{"type":"Point","coordinates":[-86.254028,41.67905]}},{"properties":{"address1":"300 W. High Street","address2":"","zip":46516,"latitude":41.675362,"agency":"Reason Enough to Act (RETA)","longitude":-85.955839,"id":"a62q3lova8jb","citystate":"Elkhart, IN  46516"},"type":"Feature","geometry":{"type":"Point","coordinates":[-85.955839,41.675362]}},{"properties":{"address1":"227 W. Jefferson Blvd.","address2":"1200 Count City Bldg.","zip":46601,"latitude":41.672986,"agency":"Rebuilding Together","longitude":-86.253664,"id":"a62q3m2z4fi9","citystate":"South Bend, IN  46601"},"type":"Feature","geometry":{"type":"Point","coordinates":[-86.253664,41.672986]}},{"properties":{"address1":"55200 Quince Road","address2":"","zip":46619,"latitude":41.668015,"agency":"Reins of Life, Inc.","longitude":-86.323287,"id":"a62q3lt9vspu","citystate":"South Bend, IN   46619"},"type":"Feature","geometry":{"type":"Point","coordinates":[-86.323287,41.668015]}},{"properties":{"address1":"600 East Blvd.","address2":"","zip":46514,"latitude":41.711594,"agency":"Ribbon of Hope Cancer Support Ministry","longitude":-85.973259,"id":"a62q3lvzb0b8","citystate":"Elkhart, IN  46514"},"type":"Feature","geometry":{"type":"Point","coordinates":[-85.973259,41.711594]}},{"properties":{"address1":"2715 E. Jackson Blvd.","address2":"","zip":46516,"latitude":41.675362,"agency":"Riverview Adult Day Center, Inc.","longitude":-85.955839,"id":"a62q3lus5p61","citystate":"Elkhart, IN  46516"},"type":"Feature","geometry":{"type":"Point","coordinates":[-85.955839,41.675362]}},{"properties":{"address1":"615 N. Michigan Street","address2":"","zip":46601,"latitude":41.672986,"agency":"Ronald McDonald Family Room","longitude":-86.253664,"id":"a62q3lqgqe8h","citystate":"South Bend, IN  46601"},"type":"Feature","geometry":{"type":"Point","coordinates":[-86.253664,41.672986]}},{"properties":{"address1":"P. O. Box 73","address2":"","zip":46527,"latitude":41.58918,"agency":"Ryan's Place","longitude":-85.836967,"id":"a62q3lppd8t1","citystate":"Goshen, IN  46527"},"type":"Feature","geometry":{"type":"Point","coordinates":[-85.836967,41.58918]}},{"properties":{"address1":"234 South Chapin Street","address2":"Suite 2","zip":46601,"latitude":41.672986,"agency":"SJRMC - Tobacco Initiatives","longitude":-86.253664,"id":"a62q3lrszaff","citystate":"South Bend, IN  46601"},"type":"Feature","geometry":{"type":"Point","coordinates":[-86.253664,41.672986]}},{"properties":{"address1":"P. O. Box 80","address2":"403 E. Madison","zip":46624,"latitude":41.67905,"agency":"SOS Madison Center","longitude":-86.254028,"id":"a62q3lr9rdes","citystate":"South Bend, IN 46624"},"type":"Feature","geometry":{"type":"Point","coordinates":[-86.254028,41.67905]}},{"properties":{"address1":"326 South Chapin","address2":"","zip":46601,"latitude":41.672986,"agency":"Saint Joseph Health Center","longitude":-86.253664,"id":"a62q3lqhr2r3","citystate":"South Bend, IN  46601"},"type":"Feature","geometry":{"type":"Point","coordinates":[-86.253664,41.672986]}},{"properties":{"address1":"4600 West Washington St.","address2":"","zip":46619,"latitude":41.668015,"agency":"Saint Joseph's Care Center","longitude":-86.323287,"id":"a62q3lqlkl8a","citystate":"South Bend, IN  46619"},"type":"Feature","geometry":{"type":"Point","coordinates":[-86.323287,41.668015]}},{"properties":{"address1":"540 S. Carroll","address2":"","zip":46601,"latitude":41.672986,"agency":"Salvation Army","longitude":-86.253664,"id":"a62q3m1pw9xl","citystate":"South Bend, IN  46601"},"type":"Feature","geometry":{"type":"Point","coordinates":[-86.253664,41.672986]}},{"properties":{"address1":"1026 Dodge Avenue","address2":"","zip":46544,"latitude":41.65109,"agency":"Salvation Army","longitude":-86.158399,"id":"a62q3lxbpe97","citystate":"Mishawaka, IN  46544"},"type":"Feature","geometry":{"type":"Point","coordinates":[-86.158399,41.65109]}},{"properties":{"address1":"17195 Cleveland Road","address2":"","zip":46635,"latitude":41.713443,"agency":"Samaritan Counseling Center","longitude":-86.209233,"id":"a62q3m2vmnt0","citystate":"South Bend, IN  46635"},"type":"Feature","geometry":{"type":"Point","coordinates":[-86.209233,41.713443]}},{"properties":{"address1":"P. O. Box 1593","address2":"","zip":46546,"latitude":41.66111,"agency":"School City of Mishawaka Foundation","longitude":-86.179962,"id":"a62q3m1y5jg3","citystate":"Mishawaka, IN  46546"},"type":"Feature","geometry":{"type":"Point","coordinates":[-86.179962,41.66111]}},{"properties":{"address1":"1705 Amberwood Dr.","address2":"","zip":46526,"latitude":41.567198,"agency":"Scleroderma Foundation","longitude":-85.844665,"id":"a62q3lu2956r","citystate":"Goshen, IN  46526"},"type":"Feature","geometry":{"type":"Point","coordinates":[-85.844665,41.567198]}},{"properties":{"address1":"P. O. Box 400","address2":"","zip":46371,"latitude":41.676751,"agency":"Share Foundation","longitude":-86.608449,"id":"a62q3lvwgv9h","citystate":"Rolling Prairie, IN  46371"},"type":"Feature","geometry":{"type":"Point","coordinates":[-86.608449,41.676751]}},{"properties":{"address1":"920 S. 23rd Street","address2":"","zip":46615,"latitude":41.674806,"agency":"Slice of Life","longitude":-86.210056,"id":"a62q3lnlgnqm","citystate":"South Bend, IN  46615"},"type":"Feature","geometry":{"type":"Point","coordinates":[-86.210056,41.674806]}},{"properties":{"address1":"P. O. Box 1146","address2":"","zip":46624,"latitude":41.67905,"agency":"South Bend Civic Theatre","longitude":-86.254028,"id":"a62q3luvmvcz","citystate":"South Bend, IN  46624"},"type":"Feature","geometry":{"type":"Point","coordinates":[-86.254028,41.67905]}},{"properties":{"address1":"803 Lincoln Way West","address2":"","zip":46616,"latitude":41.693526,"agency":"South Bend Heritage Foundation","longitude":-86.266993,"id":"a62q3lmq5i8e","citystate":"South Bend, IN  46616"},"type":"Feature","geometry":{"type":"Point","coordinates":[-86.266993,41.693526]}},{"properties":{"address1":"120 S. St. Joseph Street","address2":"","zip":46601,"latitude":41.672986,"agency":"South Bend Regional Museum of Art","longitude":-86.253664,"id":"a62q3lnqrd30","citystate":"South Bend, IN  46601"},"type":"Feature","geometry":{"type":"Point","coordinates":[-86.253664,41.672986]}},{"properties":{"address1":"914 Lincoln Way West","address2":"","zip":46616,"latitude":41.693526,"agency":"Southold Dance Theatre","longitude":-86.266993,"id":"a62q3luglqjj","citystate":"South Bend, IN  46616"},"type":"Feature","geometry":{"type":"Point","coordinates":[-86.266993,41.693526]}},{"properties":{"address1":"P. O. Box 643","address2":"","zip":46546,"latitude":41.66111,"agency":"Special Olympics St. Joseph County","longitude":-86.179962,"id":"a62q3lrznbmb","citystate":"Mishawaka, IN  46546"},"type":"Feature","geometry":{"type":"Point","coordinates":[-86.179962,41.66111]}},{"properties":{"address1":"50651 Laurel Rd.","address2":"","zip":46637,"latitude":41.729068,"agency":"St. Joseph Co. Parks Foundation","longitude":-86.241009,"id":"a62q3lwx6xb2","citystate":"South Bend, IN  46637"},"type":"Feature","geometry":{"type":"Point","coordinates":[-86.241009,41.729068]}},{"properties":{"address1":"320 N. Lafayette Blvd.","address2":"","zip":46601,"latitude":41.672986,"agency":"St. Joseph County Right to Life","longitude":-86.253664,"id":"a62q3m2kthma","citystate":"South Bend, IN  46601"},"type":"Feature","geometry":{"type":"Point","coordinates":[-86.253664,41.672986]}},{"properties":{"address1":"117 N. Lafayette Blvd.","address2":"","zip":46601,"latitude":41.672986,"agency":"St. Margaret's House","longitude":-86.253664,"id":"a62q3lxaerz8","citystate":"South Bend, IN  46601"},"type":"Feature","geometry":{"type":"Point","coordinates":[-86.253664,41.672986]}},{"properties":{"address1":"3408 Ardmore Trail","address2":"","zip":46628,"latitude":41.70794,"agency":"St. Vincent de Paul Society","longitude":-86.307375,"id":"a62q3lnevumy","citystate":"South Bend, IN  46628"},"type":"Feature","geometry":{"type":"Point","coordinates":[-86.307375,41.70794]}},{"properties":{"address1":"c/o Food Bank of No. IN","address2":"702 Chapin St.","zip":46601,"latitude":41.67299,"agency":"Stone Soup Community","longitude":-86.253484,"id":"a62q3lt7x4ze","citystate":"South Bend, IN 46601"},"type":"Feature","geometry":{"type":"Point","coordinates":[-86.253484,41.67299]}},{"properties":{"address1":"210 S. Chapin St.","address2":"","zip":46601,"latitude":41.672986,"agency":"Studebaker Museum","longitude":-86.253664,"id":"a62q3lof0j7x","citystate":"South Bend, IN  46601"},"type":"Feature","geometry":{"type":"Point","coordinates":[-86.253664,41.672986]}},{"properties":{"address1":"15580 Spring Meadow Lane","address2":"","zip":46530,"latitude":41.743199,"agency":"Suicide Prevention Council","longitude":-86.144852,"id":"a62q3los088i","citystate":"Granger, IN  46530"},"type":"Feature","geometry":{"type":"Point","coordinates":[-86.144852,41.743199]}},{"properties":{"address1":"137 Division Street","address2":"","zip":46516,"latitude":41.675362,"agency":"Susanna's Kitchen","longitude":-85.955839,"id":"a62q3lymmk2x","citystate":"Elkhart, IN  46516"},"type":"Feature","geometry":{"type":"Point","coordinates":[-85.955839,41.675362]}},{"properties":{"address1":"1625 Miami Street","address2":"","zip":46613,"latitude":41.655202,"agency":"TACTT - Teens Achieving Community Through Training","longitude":-86.249649,"id":"a62q3lmpv49a","citystate":"South Bend, IN  46613"},"type":"Feature","geometry":{"type":"Point","coordinates":[-86.249649,41.655202]}},{"properties":{"address1":"921 N. Eddy St.","address2":"","zip":46617,"latitude":41.686344,"agency":"Take Ten - Robinson Community Learning Center","longitude":-86.236439,"id":"a62q3m1jmlzh","citystate":"South Bend, 46617"},"type":"Feature","geometry":{"type":"Point","coordinates":[-86.236439,41.686344]}},{"properties":{"address1":"P. O. Box 10","address2":"","zip":46346,"latitude":41.480615,"agency":"The Historical Preservation Society","longitude":-86.692799,"id":"a62q3lu0467g","citystate":"Kingsford Heights, IN  46346"},"type":"Feature","geometry":{"type":"Point","coordinates":[-86.692799,41.480615]}},{"properties":{"address1":"23971 US 33 East","address2":"","zip":46517,"latitude":41.641252,"agency":"United Cancer Services of Elkhart Co.","longitude":-85.926892,"id":"a62q3luecplg","citystate":"Elkhart, IN  46517"},"type":"Feature","geometry":{"type":"Point","coordinates":[-85.926892,41.641252]}},{"properties":{"address1":"3322 Middlebury Street","address2":"","zip":46516,"latitude":41.675362,"agency":"United Labor Agency","longitude":-85.955839,"id":"a62q3lwg40qt","citystate":"Elkhart, IN  46516"},"type":"Feature","geometry":{"type":"Point","coordinates":[-85.955839,41.675362]}},{"properties":{"address1":"2015 W. Western Ave.","address2":"Suite #336","zip":46629,"latitude":41.672291,"agency":"United Religious Community","longitude":-86.251907,"id":"a62q3lzkveyq","citystate":"South Bend, IN  46629"},"type":"Feature","geometry":{"type":"Point","coordinates":[-86.251907,41.672291]}},{"properties":{"address1":"3132 Old US 20 West","address2":"","zip":46514,"latitude":41.711594,"agency":"Villages (The)","longitude":-85.973259,"id":"a62q3m0n969g","citystate":"Elkhart, IN  46514"},"type":"Feature","geometry":{"type":"Point","coordinates":[-85.973259,41.711594]}},{"properties":{"address1":"1213 Oak Street","address2":"","zip":49120,"latitude":41.822386,"agency":"Volunteer Center of Southwestern Michigan","longitude":-86.243845,"id":"a62q3lto89l8","citystate":"Niles, MI  49120"},"type":"Feature","geometry":{"type":"Point","coordinates":[-86.243845,41.822386]}},{"properties":{"address1":"217 South Michigan St.","address2":"","zip":46601,"latitude":41.672986,"agency":"Volunteer Center of St. Joseph County","longitude":-86.253664,"id":"a62q3m0yrhgu","citystate":"South Bend, IN   46601"},"type":"Feature","geometry":{"type":"Point","coordinates":[-86.253664,41.672986]}},{"properties":{"address1":"51775 Portage Rd.","address2":"","zip":46628,"latitude":41.70794,"agency":"Volunteer Emergency Service Team","longitude":-86.307375,"id":"a62q3m22r2nb","citystate":"South Bend, IN  46628"},"type":"Feature","geometry":{"type":"Point","coordinates":[-86.307375,41.70794]}},{"properties":{"address1":"1201 Richmond","address2":"","zip":46516,"latitude":41.675362,"agency":"WheelchairHelp.org, Inc.","longitude":-85.955839,"id":"a62q3m0irz20","citystate":"Elkhart, IN  46516"},"type":"Feature","geometry":{"type":"Point","coordinates":[-85.955839,41.675362]}},{"properties":{"address1":"615 N. Michigan Street","address2":"","zip":46601,"latitude":41.672986,"agency":"Women In Touch","longitude":-86.253664,"id":"a62q3ln3uq09","citystate":"South Bend, IN  46601"},"type":"Feature","geometry":{"type":"Point","coordinates":[-86.253664,41.672986]}},{"properties":{"address1":"P. O. Box 283","address2":"","zip":46546,"latitude":41.66111,"agency":"Women's Care  Center Foundation","longitude":-86.179962,"id":"a62q3lvw7733","citystate":"Mishawaka, IN  46546"},"type":"Feature","geometry":{"type":"Point","coordinates":[-86.179962,41.66111]}},{"properties":{"address1":"P. O. Box 283","address2":"","zip":46546,"latitude":41.66111,"agency":"Women's Care Center","longitude":-86.179962,"id":"a62q3ls4fth0","citystate":"Mishawaka, IN  46546"},"type":"Feature","geometry":{"type":"Point","coordinates":[-86.179962,41.66111]}},{"properties":{"address1":"4215 Edison Lakes Parkway","address2":"","zip":46545,"latitude":41.681783,"agency":"Women's Task Force","longitude":-86.167389,"id":"a62q3m18gubq","citystate":"Mishawaka, IN  46545"},"type":"Feature","geometry":{"type":"Point","coordinates":[-86.167389,41.681783]}},{"properties":{"address1":"1102 S. Fellows St.","address2":"","zip":46601,"latitude":41.672986,"agency":"YWCA of St. Joseph County","longitude":-86.253664,"id":"a62q3lx31r2k","citystate":"South Bend, IN  46601"},"type":"Feature","geometry":{"type":"Point","coordinates":[-86.253664,41.672986]}},{"properties":{"address1":"2222 Lincolnway West","address2":"","zip":46628,"latitude":41.70794,"agency":"Youth Services Bureau","longitude":-86.307375,"id":"a62q3lpouxkn","citystate":"South Bend, IN  46628"},"type":"Feature","geometry":{"type":"Point","coordinates":[-86.307375,41.70794]}}],"is_temporal":false,"author":{"url":"","metadata":"","contact_name":"","contact_address":"","source":"","contact_phone":""},"source":"","pagination":{"sort":null,"start":0,"total":178,"limit":1000000},"state":"complete","tags":"","published":"2014-08-11T10:26:39-04:00","id":9093}