{"type":"FeatureCollection","data_type":"Dataset","url_type":null,"permissions":[{"permissions":{"download":true,"view":true},"group_id":"everyone"}],"classification":null,"title":"Denver Public Schools 2010-11 Schools","count":163,"stream_id":97739,"contributor":{"url":"http://geocommons.com/users/22235","name":"jlooney"},"data_attributes":null,"calculation_params":null,"icon_link":null,"link":"http://geocommons.com/overlays/97739.json","extent":[-105.068,39.6178,-104.605,39.7943],"geometry_types":["point"],"unique_name":null,"name":"Denver Public Schools 2010-11 Schools","feature_count":163,"description":"Denver Public Schools 2010-11 school points","next_feature":null,"is_raster":false,"short_classification":"Y","stats":{"ZIP":{"max":80249,"mean":79233.1595092025,"variance":78467909.7768689,"stdev":8858.21143216106,"min":0,"median":80218},"SCHOOL_NUM":{"max":750,"mean":334.920245398773,"variance":16857.086192532,"stdev":129.834841982158,"min":174,"median":282}},"features":[{"properties":{"SCHOOL_TYP":"MH","ZIP":80204,"SCHOOL_NAM":"Denver Center for International Studies (6-12)","SCHOOL_NUM":461,"id":"a62l2exjz0qy","ADDRESS":"574 W. 6th Ave.","GRADES":"6-12"},"type":"Feature","geometry":{"type":"Point","coordinates":[-104.993434912646,39.7251700261621]}},{"properties":{"SCHOOL_TYP":"A","ZIP":80205,"SCHOOL_NAM":"Emerson Street School (6-12)","SCHOOL_NUM":421,"id":"a62l2euh3d01","ADDRESS":"2727 Columbine St","GRADES":"6-12"},"type":"Feature","geometry":{"type":"Point","coordinates":[-104.957563717129,39.7566134952713]}},{"properties":{"SCHOOL_TYP":"MH","ZIP":80249,"SCHOOL_NAM":"Martin Luther King, Jr. Middle College","SCHOOL_NUM":469,"id":"a62l2ew2ny5h","ADDRESS":"19535 E. 46th Ave.","GRADES":"6-12"},"type":"Feature","geometry":{"type":"Point","coordinates":[-104.760300919266,39.7809886810954]}},{"properties":{"SCHOOL_TYP":"MH","ZIP":80205,"SCHOOL_NAM":"Bruce Randolph (6-12)","SCHOOL_NUM":463,"id":"a62l2epa3ypu","ADDRESS":"3955 Steele St.","GRADES":"6-12"},"type":"Feature","geometry":{"type":"Point","coordinates":[-104.950911050952,39.7718439451374]}},{"properties":{"SCHOOL_TYP":"MH","ZIP":80220,"SCHOOL_NAM":"Denver School of the Arts (6-12)","SCHOOL_NUM":425,"id":"a62l2erh364b","ADDRESS":"7111 Montview Blvd.","GRADES":"6-12"},"type":"Feature","geometry":{"type":"Point","coordinates":[-104.904672119688,39.7479066208542]}},{"properties":{"SCHOOL_TYP":"C","ZIP":80218,"SCHOOL_NAM":"Academy of Urban Learning","SCHOOL_NUM":488,"id":"a62l2eqy4ljj","ADDRESS":"835 E 18th Ave","GRADES":"9-12"},"type":"Feature","geometry":{"type":"Point","coordinates":[-104.977034031133,39.7452330576561]}},{"properties":{"SCHOOL_TYP":"A","ZIP":80205,"SCHOOL_NAM":"Gilliam School (6-12)","SCHOOL_NUM":673,"id":"a62l2f2lwoeu","ADDRESS":"2844 Downing St.","GRADES":"6-12"},"type":"Feature","geometry":{"type":"Point","coordinates":[-104.97273090998,39.7571906178932]}},{"properties":{"SCHOOL_TYP":"E","ZIP":80239,"SCHOOL_NAM":"Amesse (ECE-5)","SCHOOL_NUM":292,"id":"a62l2eu50a6b","ADDRESS":"5440 Scranton St.","GRADES":"ECE-5"},"type":"Feature","geometry":{"type":"Point","coordinates":[-104.841909753774,39.7937389095858]}},{"properties":{"SCHOOL_TYP":"E","ZIP":80239,"SCHOOL_NAM":"Archuleta (ECE-5)","SCHOOL_NUM":199,"id":"a62l2f4hwbzz","ADDRESS":"16000 E. Maxwell Place","GRADES":"ECE-5"},"type":"Feature","geometry":{"type":"Point","coordinates":[-104.803844423328,39.7943230008366]}},{"properties":{"SCHOOL_TYP":"E","ZIP":80210,"SCHOOL_NAM":"Asbury (ECE-5)","SCHOOL_NUM":203,"id":"a62l2ewvuc9u","ADDRESS":"1320 E. Asbury Ave.","GRADES":"ECE-5"},"type":"Feature","geometry":{"type":"Point","coordinates":[-104.971664923833,39.6801892862665]}},{"properties":{"SCHOOL_TYP":"E","ZIP":80220,"SCHOOL_NAM":"Ashley (ECE-5)","SCHOOL_NUM":206,"id":"a62l2esoh7ya","ADDRESS":"1914 Syracuse St.","GRADES":"ECE-5"},"type":"Feature","geometry":{"type":"Point","coordinates":[-104.898532659739,39.7459821464444]}},{"properties":{"SCHOOL_TYP":"E","ZIP":80219,"SCHOOL_NAM":"Barnum (ECE-5)","SCHOOL_NUM":207,"id":"a62l2f31lj0i","ADDRESS":"85 Hooker St.","GRADES":"ECE-5"},"type":"Feature","geometry":{"type":"Point","coordinates":[-105.028990412266,39.7176500545203]}},{"properties":{"SCHOOL_TYP":"E","ZIP":80205,"SCHOOL_NAM":"Barrett (ECE-5)","SCHOOL_NUM":208,"id":"a62l2ewsk4iq","ADDRESS":"2900 Richard Allen Court","GRADES":"ECE-5"},"type":"Feature","geometry":{"type":"Point","coordinates":[-104.942917746817,39.7585035326912]}},{"properties":{"SCHOOL_TYP":"E","ZIP":80221,"SCHOOL_NAM":"Beach Court (ECE-5)","SCHOOL_NUM":209,"id":"a62l2esofehb","ADDRESS":"4950 Beach Court","GRADES":"ECE-5"},"type":"Feature","geometry":{"type":"Point","coordinates":[-105.018013221241,39.786495643667]}},{"properties":{"SCHOOL_TYP":"E","ZIP":80222,"SCHOOL_NAM":"Bradley (3yrs-5)","SCHOOL_NUM":213,"id":"a62l2f0o42k4","ADDRESS":"3051 S. Elm St.","GRADES":"3yrs-5"},"type":"Feature","geometry":{"type":"Point","coordinates":[-104.929690052108,39.6638893070669]}},{"properties":{"SCHOOL_TYP":"E","ZIP":80206,"SCHOOL_NAM":"Bromwell (K-5)","SCHOOL_NUM":214,"id":"a62l2etr1890","ADDRESS":"2500 E. 4th Ave.","GRADES":"K-5"},"type":"Feature","geometry":{"type":"Point","coordinates":[-104.957011086159,39.7224523413474]}},{"properties":{"SCHOOL_TYP":"E","ZIP":80211,"SCHOOL_NAM":"Brown (ECE-5)","SCHOOL_NUM":215,"id":"a62l2euftsjk","ADDRESS":"2550 Lowell Blvd.","GRADES":"ECE-5"},"type":"Feature","geometry":{"type":"Point","coordinates":[-105.034454001489,39.7544852439548]}},{"properties":{"SCHOOL_TYP":"E","ZIP":80220,"SCHOOL_NAM":"Carson (ECE-5)","SCHOOL_NUM":217,"id":"a62l2ese9f7x","ADDRESS":"5420 E. 1st Ave.","GRADES":"ECE-5"},"type":"Feature","geometry":{"type":"Point","coordinates":[-104.924356090239,39.7175296172915]}},{"properties":{"SCHOOL_TYP":"E","ZIP":80219,"SCHOOL_NAM":"Castro (ECE-5)","SCHOOL_NUM":287,"id":"a62l2ewgfsay","ADDRESS":"845 S. Lowell Blvd.","GRADES":"ECE-5"},"type":"Feature","geometry":{"type":"Point","coordinates":[-105.034809343468,39.7013720468222]}},{"properties":{"SCHOOL_TYP":"EM","ZIP":80212,"SCHOOL_NAM":"Centennial (ECE-8)","SCHOOL_NUM":297,"id":"a62l2ewzzxmg","ADDRESS":"4665 Raleigh St.","GRADES":"ECE-8"},"type":"Feature","geometry":{"type":"Point","coordinates":[-105.041970377586,39.7815112850021]}},{"properties":{"SCHOOL_TYP":"E","ZIP":80204,"SCHOOL_NAM":"Cheltenham (ECE-5)","SCHOOL_NUM":218,"id":"a62l2f1372kx","ADDRESS":"1580 Julian St.","GRADES":"ECE-5"},"type":"Feature","geometry":{"type":"Point","coordinates":[-105.031160407676,39.7421216517701]}},{"properties":{"SCHOOL_TYP":"E","ZIP":80204,"SCHOOL_NAM":"Colfax (3 yrs-5)","SCHOOL_NUM":219,"id":"a62l2f2eij14","ADDRESS":"1526 Tennyson St.","GRADES":"3yrs-5"},"type":"Feature","geometry":{"type":"Point","coordinates":[-105.04386151131,39.741141430236]}},{"properties":{"SCHOOL_TYP":"E","ZIP":80219,"SCHOOL_NAM":"College View (3yrs-5)","SCHOOL_NUM":220,"id":"a62l2ezomyfa","ADDRESS":"2675 S. Decatur St.","GRADES":"3yrs-5"},"type":"Feature","geometry":{"type":"Point","coordinates":[-105.023324013997,39.6683067541521]}},{"properties":{"SCHOOL_TYP":"E","ZIP":80211,"SCHOOL_NAM":"Columbian (3yrs-5)","SCHOOL_NUM":221,"id":"a62l2f4bhet1","ADDRESS":"2925 W. 40th Ave.","GRADES":"3yrs-5"},"type":"Feature","geometry":{"type":"Point","coordinates":[-105.023439567064,39.7723597102941]}},{"properties":{"SCHOOL_TYP":"EM","ZIP":80205,"SCHOOL_NAM":"Columbine (ECE-6)","SCHOOL_NUM":222,"id":"a62l2etnhsc9","ADDRESS":"2540 E. 29th Ave.","GRADES":"ECE-6"},"type":"Feature","geometry":{"type":"Point","coordinates":[-104.956830302726,39.7581418037379]}},{"properties":{"SCHOOL_TYP":"E","ZIP":80210,"SCHOOL_NAM":"Cory (ECE-5)","SCHOOL_NUM":223,"id":"a62l2ex8crmx","ADDRESS":"1550 S. Steele St.","GRADES":"ECE-5"},"type":"Feature","geometry":{"type":"Point","coordinates":[-104.949806011661,39.6888349822967]}},{"properties":{"SCHOOL_TYP":"E","ZIP":80204,"SCHOOL_NAM":"Cowell (3yrs-5)","SCHOOL_NUM":224,"id":"a62l2f1q027j","ADDRESS":"4540 W. 10th Ave.","GRADES":"3yrs-5"},"type":"Feature","geometry":{"type":"Point","coordinates":[-105.045698784664,39.7329301930537]}},{"properties":{"SCHOOL_TYP":"EM","ZIP":80219,"SCHOOL_NAM":"Denison Montessori (3 yrs-6)","SCHOOL_NUM":226,"id":"a62l2f1r91xb","ADDRESS":"1821 S. Yates St.","GRADES":"3yrs-6"},"type":"Feature","geometry":{"type":"Point","coordinates":[-105.051046702528,39.6834372128554]}},{"properties":{"SCHOOL_TYP":"E","ZIP":80219,"SCHOOL_NAM":"Doull (ECE-5)","SCHOOL_NUM":227,"id":"a62l2etgz2rf","ADDRESS":"2520 S. Utica St.","GRADES":"ECE-5"},"type":"Feature","geometry":{"type":"Point","coordinates":[-105.044712720982,39.6731620345789]}},{"properties":{"SCHOOL_TYP":"E","ZIP":80204,"SCHOOL_NAM":"Eagleton (ECE-5)","SCHOOL_NUM":228,"id":"a62l2eyp9t2x","ADDRESS":"880 Hooker St.","GRADES":"ECE-5"},"type":"Feature","geometry":{"type":"Point","coordinates":[-105.028420553148,39.730747070753]}},{"properties":{"SCHOOL_TYP":"E","ZIP":80212,"SCHOOL_NAM":"Edison (ECE-5)","SCHOOL_NUM":230,"id":"a62l2epxbkgy","ADDRESS":"3350 Quitman St.","GRADES":"ECE-5"},"type":"Feature","geometry":{"type":"Point","coordinates":[-105.040315749052,39.7648511786319]}},{"properties":{"SCHOOL_TYP":"E","ZIP":80222,"SCHOOL_NAM":"Ellis (ECE-5)","SCHOOL_NUM":231,"id":"a62l2ezs2jvg","ADDRESS":"1651 S. Dahlia St.","GRADES":"ECE-5"},"type":"Feature","geometry":{"type":"Point","coordinates":[-104.931844452342,39.6870053745709]}},{"properties":{"SCHOOL_TYP":"EM","ZIP":80223,"SCHOOL_NAM":"Fairmont (ECE-8)","SCHOOL_NUM":237,"id":"a62l2f2p3542","ADDRESS":"520 W. 3rd Ave.","GRADES":"ECE-8"},"type":"Feature","geometry":{"type":"Point","coordinates":[-104.994697070238,39.720797966528]}},{"properties":{"SCHOOL_TYP":"E","ZIP":80204,"SCHOOL_NAM":"Fairview (ECE-5)","SCHOOL_NUM":238,"id":"a62l2f1nc6vo","ADDRESS":"2715 W. 11th Ave.","GRADES":"ECE-5"},"type":"Feature","geometry":{"type":"Point","coordinates":[-105.020725888226,39.7340173921219]}},{"properties":{"SCHOOL_TYP":"E","ZIP":80219,"SCHOOL_NAM":"Force (3 yrs-5)","SCHOOL_NUM":240,"id":"a62l2ewgr2bg","ADDRESS":"1550 S. Wolff St.","GRADES":"3yrs-5"},"type":"Feature","geometry":{"type":"Point","coordinates":[-105.047832896301,39.6891249933712]}},{"properties":{"SCHOOL_TYP":"E","ZIP":80239,"SCHOOL_NAM":"Ford (3yrs-5)","SCHOOL_NUM":293,"id":"a62l2ep6pvhw","ADDRESS":"14500 Maxwell Place","GRADES":"3yrs-5"},"type":"Feature","geometry":{"type":"Point","coordinates":[-104.815999859578,39.7930120380693]}},{"properties":{"SCHOOL_TYP":"E","ZIP":80216,"SCHOOL_NAM":"Garden Place (ECE-5)","SCHOOL_NUM":241,"id":"a62l2ezkzf50","ADDRESS":"4425 Lincoln St.","GRADES":"ECE-5"},"type":"Feature","geometry":{"type":"Point","coordinates":[-104.985940095493,39.777061624439]}},{"properties":{"SCHOOL_TYP":"E","ZIP":80205,"SCHOOL_NAM":"Gilpin (3yrs-5)","SCHOOL_NUM":242,"id":"a62l2esc7rzt","ADDRESS":"2949 California St.","GRADES":"3yrs-5"},"type":"Feature","geometry":{"type":"Point","coordinates":[-104.975986344909,39.7581509010661]}},{"properties":{"SCHOOL_TYP":"E","ZIP":80223,"SCHOOL_NAM":"Godsman (ECE-5)","SCHOOL_NUM":243,"id":"a62l2etujvrx","ADDRESS":"2120 W. Arkansas Ave.","GRADES":"ECE-5"},"type":"Feature","geometry":{"type":"Point","coordinates":[-105.012935028714,39.6907927991766]}},{"properties":{"SCHOOL_TYP":"E","ZIP":80223,"SCHOOL_NAM":"Goldrick (ECE-5)","SCHOOL_NUM":244,"id":"a62l2f4t7pwl","ADDRESS":"1050 S. Zuni St.","GRADES":"ECE-5"},"type":"Feature","geometry":{"type":"Point","coordinates":[-105.015528017705,39.6978922289949]}},{"properties":{"SCHOOL_TYP":"EM","ZIP":80123,"SCHOOL_NAM":"Grant Ranch (ECE-8)","SCHOOL_NUM":235,"id":"a62l2f28vr3r","ADDRESS":"5400 S. Jay Circle","GRADES":"ECE-8"},"type":"Feature","geometry":{"type":"Point","coordinates":[-105.064883696608,39.6178490269336]}},{"properties":{"SCHOOL_TYP":"E","ZIP":80249,"SCHOOL_NAM":"Green Valley (ECE-5)","SCHOOL_NUM":282,"id":"a62l2ew3szgl","ADDRESS":"4100 Jericho St.","GRADES":"ECE-5"},"type":"Feature","geometry":{"type":"Point","coordinates":[-104.748699305453,39.7729446955066]}},{"properties":{"SCHOOL_TYP":"E","ZIP":80204,"SCHOOL_NAM":"Greenlee (3yrs-5)","SCHOOL_NUM":245,"id":"a62l2f2wv6xa","ADDRESS":"1150 Lipan St.","GRADES":"3yrs-5"},"type":"Feature","geometry":{"type":"Point","coordinates":[-105.001452272733,39.7345636747801]}},{"properties":{"SCHOOL_TYP":"EM","ZIP":80239,"SCHOOL_NAM":"Greenwood (ECE-8)","SCHOOL_NUM":258,"id":"a62l2eveouwb","ADDRESS":"5130 Durham Court","GRADES":"ECE-8"},"type":"Feature","geometry":{"type":"Point","coordinates":[-104.81740982099,39.7865295787496]}},{"properties":{"SCHOOL_TYP":"E","ZIP":80219,"SCHOOL_NAM":"Gust (ECE-5)","SCHOOL_NUM":246,"id":"a62l2f27ocmh","ADDRESS":"3440 W. Yale Ave.","GRADES":"3yrs-5"},"type":"Feature","geometry":{"type":"Point","coordinates":[-105.031678076007,39.6676064561389]}},{"properties":{"SCHOOL_TYP":"EM","ZIP":80205,"SCHOOL_NAM":"Harrington (ECE-6)","SCHOOL_NUM":248,"id":"a62l2f00lqf2","ADDRESS":"2401 E. 37th Ave.","GRADES":"ECE-6"},"type":"Feature","geometry":{"type":"Point","coordinates":[-104.958631593324,39.7682592471011]}},{"properties":{"SCHOOL_TYP":"E","ZIP":80231,"SCHOOL_NAM":"Holm (ECE-5)","SCHOOL_NUM":294,"id":"a62l2evjywwe","ADDRESS":"3185 S. Willow Court","GRADES":"ECE-5"},"type":"Feature","geometry":{"type":"Point","coordinates":[-104.891665207693,39.65777157963]}},{"properties":{"SCHOOL_TYP":"E","ZIP":80219,"SCHOOL_NAM":"Johnson (ECE-5)","SCHOOL_NUM":249,"id":"a62l2eye4kxo","ADDRESS":"1850 S. Irving St.","GRADES":"ECE-5"},"type":"Feature","geometry":{"type":"Point","coordinates":[-105.029471630486,39.6837343719462]}},{"properties":{"SCHOOL_TYP":"E","ZIP":80236,"SCHOOL_NAM":"Kaiser (ECE-5)","SCHOOL_NUM":295,"id":"a62l2ep99qua","ADDRESS":"4500 S. Quitman St.","GRADES":"ECE-5"},"type":"Feature","geometry":{"type":"Point","coordinates":[-105.041582008287,39.6339296767062]}},{"properties":{"SCHOOL_TYP":"E","ZIP":80219,"SCHOOL_NAM":"Knapp (ECE-5)","SCHOOL_NUM":250,"id":"a62l2exz4gps","ADDRESS":"500 S. Utica St.","GRADES":"ECE-5"},"type":"Feature","geometry":{"type":"Point","coordinates":[-105.04589916432,39.7079371944033]}},{"properties":{"SCHOOL_TYP":"E","ZIP":80207,"SCHOOL_NAM":"Knight Fundamental Academy","SCHOOL_NUM":251,"id":"a62l2etyjcuz","ADDRESS":"2950 Jasmine St.","GRADES":"ECE-5"},"type":"Feature","geometry":{"type":"Point","coordinates":[-104.918545343446,39.7597861560106]}},{"properties":{"SCHOOL_TYP":"E","ZIP":80209,"SCHOOL_NAM":"Lincoln (3yrs-5)","SCHOOL_NUM":252,"id":"a62l2f13npo7","ADDRESS":"710 S. Pennsylvania St.","GRADES":"3yrs-5"},"type":"Feature","geometry":{"type":"Point","coordinates":[-104.981414549052,39.7036174614855]}},{"properties":{"SCHOOL_TYP":"E","ZIP":80230,"SCHOOL_NAM":"Lowry (ECE-5)","SCHOOL_NUM":210,"id":"a62l2f3mosno","ADDRESS":"8001 E. Cedar Ave.","GRADES":"ECE-5"},"type":"Feature","geometry":{"type":"Point","coordinates":[-104.896432409076,39.7125181408048]}},{"properties":{"SCHOOL_TYP":"E","ZIP":80249,"SCHOOL_NAM":"Marrama (ECE-5)","SCHOOL_NUM":236,"id":"a62l2euapyx3","ADDRESS":"19100 E. 40th Ave.","GRADES":"ECE-5"},"type":"Feature","geometry":{"type":"Point","coordinates":[-104.765305981455,39.772276203689]}},{"properties":{"SCHOOL_TYP":"E","ZIP":80239,"SCHOOL_NAM":"Maxwell (ECE-5)","SCHOOL_NUM":290,"id":"a62l2eugxhgw","ADDRESS":"14390 E. Bolling Drive","GRADES":"ECE-5"},"type":"Feature","geometry":{"type":"Point","coordinates":[-104.823451600797,39.7833786792478]}},{"properties":{"SCHOOL_TYP":"E","ZIP":80239,"SCHOOL_NAM":"McGlone (ECE-5)","SCHOOL_NUM":299,"id":"a62l2exwusf2","ADDRESS":"4500 Crown Blvd.","GRADES":"ECE-5"},"type":"Feature","geometry":{"type":"Point","coordinates":[-104.838039713067,39.7803239407041]}},{"properties":{"SCHOOL_TYP":"E","ZIP":80210,"SCHOOL_NAM":"McKinley-Thatcher (ECE-5)","SCHOOL_NUM":264,"id":"a62l2f10rnrj","ADDRESS":"1230 S. Grant St.","GRADES":"ECE-5"},"type":"Feature","geometry":{"type":"Point","coordinates":[-104.983889877418,39.6939782812789]}},{"properties":{"SCHOOL_TYP":"E","ZIP":80246,"SCHOOL_NAM":"McMeen (ECE-5)","SCHOOL_NUM":254,"id":"a62l2exj3y87","ADDRESS":"1000 S. Holly St.","GRADES":"ECE-5"},"type":"Feature","geometry":{"type":"Point","coordinates":[-104.921446488049,39.6984327940047]}},{"properties":{"SCHOOL_TYP":"E","ZIP":80220,"SCHOOL_NAM":"Montclair (ECE-5)","SCHOOL_NUM":257,"id":"a62l2extbxbe","ADDRESS":"1151 Newport St.","GRADES":"ECE-5"},"type":"Feature","geometry":{"type":"Point","coordinates":[-104.909813570863,39.7340981544164]}},{"properties":{"SCHOOL_TYP":"EM","ZIP":80218,"SCHOOL_NAM":"Moore (ECE-8)","SCHOOL_NUM":259,"id":"a62l2f0qvm1h","ADDRESS":"846 Corona St.","GRADES":"ECE-8"},"type":"Feature","geometry":{"type":"Point","coordinates":[-104.973485631745,39.7301631832054]}},{"properties":{"SCHOOL_TYP":"E","ZIP":80219,"SCHOOL_NAM":"Munroe (ECE-5)","SCHOOL_NUM":260,"id":"a62l2eqappb8","ADDRESS":"3440 W. Virginia Ave.","GRADES":"ECE-5"},"type":"Feature","geometry":{"type":"Point","coordinates":[-105.031974153933,39.7075548527484]}},{"properties":{"SCHOOL_TYP":"E","ZIP":80219,"SCHOOL_NAM":"Newlon (ECE-5)","SCHOOL_NUM":261,"id":"a62l2evhrywq","ADDRESS":"361 Vrain St.","GRADES":"ECE-5"},"type":"Feature","geometry":{"type":"Point","coordinates":[-105.04602355219,39.7218271226709]}},{"properties":{"SCHOOL_TYP":"E","ZIP":80239,"SCHOOL_NAM":"Oakland (ECE-5)","SCHOOL_NUM":256,"id":"a62l2eyrfpns","ADDRESS":"4580 Dearborn St.","GRADES":"ECE-5"},"type":"Feature","geometry":{"type":"Point","coordinates":[-104.819656701858,39.778357960771]}},{"properties":{"SCHOOL_TYP":"E","ZIP":80220,"SCHOOL_NAM":"Palmer (ECE-5)","SCHOOL_NUM":262,"id":"a62l2epoe6dj","ADDRESS":"995 Grape St.","GRADES":"ECE-5"},"type":"Feature","geometry":{"type":"Point","coordinates":[-104.924775053175,39.7326183982586]}},{"properties":{"SCHOOL_TYP":"E","ZIP":80220,"SCHOOL_NAM":"Park Hill (ECE-5)","SCHOOL_NUM":263,"id":"a62l2ey1vo5e","ADDRESS":"5050 E. 19th Ave.","GRADES":"ECE-5"},"type":"Feature","geometry":{"type":"Point","coordinates":[-104.929312399842,39.7454997673331]}},{"properties":{"SCHOOL_TYP":"E","ZIP":80236,"SCHOOL_NAM":"Sabin (ECE-5)","SCHOOL_NUM":269,"id":"a62l2f4i0cig","ADDRESS":"3050 S. Vrain St.","GRADES":"ECE-5"},"type":"Feature","geometry":{"type":"Point","coordinates":[-105.046614282608,39.6593988096578]}},{"properties":{"SCHOOL_TYP":"E","ZIP":80237,"SCHOOL_NAM":"Samuels (ECE-5)","SCHOOL_NUM":296,"id":"a62l2epemz5v","ADDRESS":"3985 S. Vincennes Court","GRADES":"ECE-5"},"type":"Feature","geometry":{"type":"Point","coordinates":[-104.891442755003,39.6430154000164]}},{"properties":{"SCHOOL_TYP":"EM","ZIP":80211,"SCHOOL_NAM":"Academia Ana Marie Sandoval (3 yrs-6)","SCHOOL_NUM":201,"id":"a62l2eprtaeh","ADDRESS":"3655 Wyandot St.","GRADES":"3yrs-6"},"type":"Feature","geometry":{"type":"Point","coordinates":[-105.015114800796,39.7674675852965]}},{"properties":{"SCHOOL_TYP":"E","ZIP":80219,"SCHOOL_NAM":"CMS (Schenck) Community School (ECE-5)","SCHOOL_NUM":270,"id":"a62l2f10y0d5","ADDRESS":"1300 S. Lowell Blvd.","GRADES":"ECE-5"},"type":"Feature","geometry":{"type":"Point","coordinates":[-105.03423449065,39.6928286236944]}},{"properties":{"SCHOOL_TYP":"E","ZIP":80223,"SCHOOL_NAM":"Schmitt (ECE-5)","SCHOOL_NUM":271,"id":"a62l2f1u0v3u","ADDRESS":"1820 S. Vallejo St.","GRADES":"ECE-5"},"type":"Feature","geometry":{"type":"Point","coordinates":[-105.012794418089,39.6837048373584]}},{"properties":{"SCHOOL_TYP":"EM","ZIP":80210,"SCHOOL_NAM":"Slavens School (ECE-8)","SCHOOL_NUM":279,"id":"a62l2f2fe4qi","ADDRESS":"3000 S. Clayton St.","GRADES":"ECE-8"},"type":"Feature","geometry":{"type":"Point","coordinates":[-104.955837047682,39.6625703628625]}},{"properties":{"SCHOOL_TYP":"E","ZIP":80207,"SCHOOL_NAM":"Smith (3yrs-5)","SCHOOL_NUM":275,"id":"a62l2etqxdg6","ADDRESS":"3590 Jasmine St.","GRADES":"3yrs-5"},"type":"Feature","geometry":{"type":"Point","coordinates":[-104.918671596601,39.7671089740376]}},{"properties":{"SCHOOL_TYP":"E","ZIP":80237,"SCHOOL_NAM":"Southmoor (ECE-5)","SCHOOL_NUM":298,"id":"a62l2evg8hdn","ADDRESS":"3755 S. Magnolia Way","GRADES":"ECE-5"},"type":"Feature","geometry":{"type":"Point","coordinates":[-104.911646573682,39.6483046737769]}},{"properties":{"SCHOOL_TYP":"E","ZIP":80220,"SCHOOL_NAM":"Steck (ECE-5)","SCHOOL_NUM":276,"id":"a62l2f34monz","ADDRESS":"425 Ash St.","GRADES":"ECE-5"},"type":"Feature","geometry":{"type":"Point","coordinates":[-104.93886790666,39.7239204751441]}},{"properties":{"SCHOOL_TYP":"E","ZIP":80207,"SCHOOL_NAM":"Stedman (3yrs-5)","SCHOOL_NUM":277,"id":"a62l2f29kd7f","ADDRESS":"2940 Dexter St.","GRADES":"3yrs-5"},"type":"Feature","geometry":{"type":"Point","coordinates":[-104.93251790411,39.7597089760319]}},{"properties":{"SCHOOL_TYP":"E","ZIP":80209,"SCHOOL_NAM":"Steele (ECE-5)","SCHOOL_NUM":278,"id":"a62l2es6wn0y","ADDRESS":"320 S. Marion St.","GRADES":"ECE-5"},"type":"Feature","geometry":{"type":"Point","coordinates":[-104.971893652278,39.7102077213273]}},{"properties":{"SCHOOL_TYP":"E","ZIP":80216,"SCHOOL_NAM":"Swansea (ECE-5)","SCHOOL_NUM":280,"id":"a62l2f36nca3","ADDRESS":"4650 Columbine St.","GRADES":"ECE-5"},"type":"Feature","geometry":{"type":"Point","coordinates":[-104.956942267479,39.7812205768615]}},{"properties":{"SCHOOL_TYP":"E","ZIP":80206,"SCHOOL_NAM":"Teller (ECE-5)","SCHOOL_NUM":281,"id":"a62l2ez97ppe","ADDRESS":"1150 Garfield St.","GRADES":"ECE-5"},"type":"Feature","geometry":{"type":"Point","coordinates":[-104.943778306143,39.7343747020811]}},{"properties":{"SCHOOL_TYP":"E","ZIP":80227,"SCHOOL_NAM":"Traylor Academy (ECE-5)","SCHOOL_NUM":283,"id":"a62l2ewd3mst","ADDRESS":"2900 S. Ivan Way","GRADES":"ECE-5"},"type":"Feature","geometry":{"type":"Point","coordinates":[-105.062784146961,39.6610385524404]}},{"properties":{"SCHOOL_TYP":"E","ZIP":80210,"SCHOOL_NAM":"University Park (3yrs-5)","SCHOOL_NUM":284,"id":"a62l2eqvhdjw","ADDRESS":"2300 S. St. Paul St.","GRADES":"3yrs-5"},"type":"Feature","geometry":{"type":"Point","coordinates":[-104.950694785527,39.6740591617225]}},{"properties":{"SCHOOL_TYP":"E","ZIP":80211,"SCHOOL_NAM":"Valdez (3 yrs-5)","SCHOOL_NUM":205,"id":"a62l2est5dvt","ADDRESS":"2525 W. 29th Ave.","GRADES":"3yrs-5"},"type":"Feature","geometry":{"type":"Point","coordinates":[-105.018579594949,39.7586701690579]}},{"properties":{"SCHOOL_TYP":"E","ZIP":80223,"SCHOOL_NAM":"Valverde (ECE-5)","SCHOOL_NUM":285,"id":"a62l2epzcpl2","ADDRESS":"2030 W. Alameda Ave.","GRADES":"ECE-5"},"type":"Feature","geometry":{"type":"Point","coordinates":[-105.011082967919,39.7105027680527]}},{"properties":{"SCHOOL_TYP":"E","ZIP":80238,"SCHOOL_NAM":"Stapleton 3 at Westerly Creek","SCHOOL_NUM":174,"id":"a62l2eyr828i","ADDRESS":"8800 E. 28th Ave.","GRADES":"ECE-K"},"type":"Feature","geometry":{"type":"Point","coordinates":[-104.884256977792,39.7559257409248]}},{"properties":{"SCHOOL_TYP":"EM","ZIP":80205,"SCHOOL_NAM":"Whittier (ECE-8)","SCHOOL_NUM":289,"id":"a62l2eptd7t0","ADDRESS":"2480 Downing St.","GRADES":"ECE-8"},"type":"Feature","geometry":{"type":"Point","coordinates":[-104.973109432765,39.752948519004]}},{"properties":{"SCHOOL_TYP":"MH","ZIP":80204,"SCHOOL_NAM":"Denver Center for International Studies (6-12)","SCHOOL_NUM":431,"id":"a62l2eptemkw","ADDRESS":"574 W 6th Ave","GRADES":"6-12"},"type":"Feature","geometry":{"type":"Point","coordinates":[-104.993439716774,39.7254616357013]}},{"properties":{"SCHOOL_TYP":"M","ZIP":80210,"SCHOOL_NAM":"Grant","SCHOOL_NUM":405,"id":"a62l2epa2jrx","ADDRESS":"1751 S. Washington St.","GRADES":"6-8"},"type":"Feature","geometry":{"type":"Point","coordinates":[-104.979447533112,39.685422523896]}},{"properties":{"SCHOOL_TYP":"M","ZIP":80231,"SCHOOL_NAM":"Hamilton","SCHOOL_NUM":406,"id":"a62l2f3ntwc6","ADDRESS":"8600 E. Dartmouth Ave.","GRADES":"6-8"},"type":"Feature","geometry":{"type":"Point","coordinates":[-104.891678787667,39.6597371167497]}},{"properties":{"SCHOOL_TYP":"M","ZIP":80227,"SCHOOL_NAM":"Henry","SCHOOL_NUM":418,"id":"a62l2esmwv2a","ADDRESS":"3005 S. Golden Way","GRADES":"6-8"},"type":"Feature","geometry":{"type":"Point","coordinates":[-105.05828821124,39.6606923971469]}},{"properties":{"SCHOOL_TYP":"M","ZIP":80220,"SCHOOL_NAM":"Hill","SCHOOL_NUM":407,"id":"a62l2ewuyxd6","ADDRESS":"451 Clermont St.","GRADES":"6-8"},"type":"Feature","geometry":{"type":"Point","coordinates":[-104.93507361649,39.7236990927144]}},{"properties":{"SCHOOL_TYP":"EM","ZIP":80211,"SCHOOL_NAM":"Trevista ECE-8 at Horace Mann","SCHOOL_NUM":189,"id":"a62l2erekjgr","ADDRESS":"4130 Navajo St.","GRADES":"ECE-8"},"type":"Feature","geometry":{"type":"Point","coordinates":[-105.00399156696,39.7736443889823]}},{"properties":{"SCHOOL_TYP":"M","ZIP":80219,"SCHOOL_NAM":"Kepner","SCHOOL_NUM":408,"id":"a62l2eu9mcoj","ADDRESS":"911 S. Hazel Court","GRADES":"6-8"},"type":"Feature","geometry":{"type":"Point","coordinates":[-105.027696793662,39.6999179048527]}},{"properties":{"SCHOOL_TYP":"EM","ZIP":80219,"SCHOOL_NAM":"Kunsmiller Creative Arts Academy (K-8)","SCHOOL_NUM":185,"id":"a62l2f2gisk7","ADDRESS":"2250 S Quitman Way","GRADES":"K-12"},"type":"Feature","geometry":{"type":"Point","coordinates":[-105.040425803107,39.6755381855987]}},{"properties":{"SCHOOL_TYP":"M","ZIP":80204,"SCHOOL_NAM":"Lake","SCHOOL_NUM":410,"id":"a62l2ex6zqtk","ADDRESS":"1820 Lowell Blvd.","GRADES":"6-8"},"type":"Feature","geometry":{"type":"Point","coordinates":[-105.034753597232,39.7458380312783]}},{"properties":{"SCHOOL_TYP":"M","ZIP":80210,"SCHOOL_NAM":"Merrill","SCHOOL_NUM":412,"id":"a62l2epr5o0b","ADDRESS":"1551 S. Monroe St.","GRADES":"6-8"},"type":"Feature","geometry":{"type":"Point","coordinates":[-104.945623840034,39.6887473676715]}},{"properties":{"SCHOOL_TYP":"M","ZIP":80218,"SCHOOL_NAM":"Morey","SCHOOL_NUM":413,"id":"a62l2etn12ip","ADDRESS":"840 E. 14th Ave.","GRADES":"6-8"},"type":"Feature","geometry":{"type":"Point","coordinates":[-104.977040908488,39.7382351788972]}},{"properties":{"SCHOOL_TYP":"M","ZIP":80239,"SCHOOL_NAM":"Noel (6-8)","SCHOOL_NUM":424,"id":"a62l2eywkawz","ADDRESS":"5290 Kittridge St.","GRADES":"6-8"},"type":"Feature","geometry":{"type":"Point","coordinates":[-104.800517456865,39.7887250545386]}},{"properties":{"SCHOOL_TYP":"EM","ZIP":80224,"SCHOOL_NAM":"Place Bridge Academy (ECE-8)","SCHOOL_NUM":190,"id":"a62l2f1aoijo","ADDRESS":"7125 Cherry Creek North Dr","GRADES":"ECE-8"},"type":"Feature","geometry":{"type":"Point","coordinates":[-104.906325226132,39.688004203164]}},{"properties":{"SCHOOL_TYP":"C","ZIP":80223,"SCHOOL_NAM":"KIPP Denver Collegiate High School","SCHOOL_NUM":498,"id":"a62l2eqfw78o","ADDRESS":"451 S. Tejon St.","GRADES":"9-12"},"type":"Feature","geometry":{"type":"Point","coordinates":[-105.011474385277,39.7079239216979]}},{"properties":{"SCHOOL_TYP":"M","ZIP":80211,"SCHOOL_NAM":"Skinner","SCHOOL_NUM":416,"id":"a62l2f2b17o4","ADDRESS":"3435 W. 40th Ave.","GRADES":"6-8"},"type":"Feature","geometry":{"type":"Point","coordinates":[-105.032281621233,39.7720946241295]}},{"properties":{"SCHOOL_TYP":"M","ZIP":80207,"SCHOOL_NAM":"Smiley","SCHOOL_NUM":417,"id":"a62l2f2g6ixn","ADDRESS":"2540 Holly St.","GRADES":"6-8"},"type":"Feature","geometry":{"type":"Point","coordinates":[-104.921859896909,39.7537693240739]}},{"properties":{"SCHOOL_TYP":"H","ZIP":80219,"SCHOOL_NAM":"Abraham Lincoln","SCHOOL_NUM":450,"id":"a62l2f5f6lko","ADDRESS":"2285 S. Federal Blvd.","GRADES":"9-12"},"type":"Feature","geometry":{"type":"Point","coordinates":[-105.02588744636,39.6761388302844]}},{"properties":{"SCHOOL_TYP":"MH","ZIP":80220,"SCHOOL_NAM":"Denver School of the Arts (6-12)","SCHOOL_NUM":475,"id":"a62l2erwvtlq","ADDRESS":"7111 Montview Blvd.","GRADES":"6-12"},"type":"Feature","geometry":{"type":"Point","coordinates":[-104.904660063976,39.7480830381455]}},{"properties":{"SCHOOL_TYP":"H","ZIP":80206,"SCHOOL_NAM":"East","SCHOOL_NUM":451,"id":"a62l2f1dtq24","ADDRESS":"1600 City Park Esplanade","GRADES":"9-12"},"type":"Feature","geometry":{"type":"Point","coordinates":[-104.956248393614,39.7416184634714]}},{"properties":{"SCHOOL_TYP":"H","ZIP":80224,"SCHOOL_NAM":"George Washington","SCHOOL_NUM":452,"id":"a62l2f59moox","ADDRESS":"655 S. Monaco St.","GRADES":"9-12"},"type":"Feature","geometry":{"type":"Point","coordinates":[-104.913406396299,39.704896804504]}},{"properties":{"SCHOOL_TYP":"H","ZIP":80227,"SCHOOL_NAM":"John F. Kennedy","SCHOOL_NUM":453,"id":"a62l2ewb9krz","ADDRESS":"2855 S. Lamar St.","GRADES":"9-12"},"type":"Feature","geometry":{"type":"Point","coordinates":[-105.068099677079,39.6627533158455]}},{"properties":{"SCHOOL_TYP":"H","ZIP":80205,"SCHOOL_NAM":"Manual","SCHOOL_NUM":464,"id":"a62l2es8ov89","ADDRESS":"1700 E. 28th Ave.","GRADES":"9-12"},"type":"Feature","geometry":{"type":"Point","coordinates":[-104.966795125445,39.7564507537028]}},{"properties":{"SCHOOL_TYP":"H","ZIP":80239,"SCHOOL_NAM":"Montbello (9-12)","SCHOOL_NUM":459,"id":"a62l2ezqnuwk","ADDRESS":"5000 Crown Blvd.","GRADES":"9-12"},"type":"Feature","geometry":{"type":"Point","coordinates":[-104.828017785522,39.7864556984732]}},{"properties":{"SCHOOL_TYP":"H","ZIP":80211,"SCHOOL_NAM":"North","SCHOOL_NUM":455,"id":"a62l2f2qmihg","ADDRESS":"2960 N. Speer Blvd.","GRADES":"9-12"},"type":"Feature","geometry":{"type":"Point","coordinates":[-105.022940222839,39.7598194682127]}},{"properties":{"SCHOOL_TYP":"H","ZIP":80210,"SCHOOL_NAM":"South","SCHOOL_NUM":456,"id":"a62l2f4ljx5e","ADDRESS":"1700 E. Louisiana Ave.","GRADES":"9-12"},"type":"Feature","geometry":{"type":"Point","coordinates":[-104.967488419901,39.6928577958823]}},{"properties":{"SCHOOL_TYP":"H","ZIP":80237,"SCHOOL_NAM":"Thomas Jefferson","SCHOOL_NUM":457,"id":"a62l2f2i04lq","ADDRESS":"3950 S. Holly St.","GRADES":"9-12"},"type":"Feature","geometry":{"type":"Point","coordinates":[-104.921913097754,39.6469230904639]}},{"properties":{"SCHOOL_TYP":"H","ZIP":80204,"SCHOOL_NAM":"West","SCHOOL_NUM":458,"id":"a62l2exrwulw","ADDRESS":"951 Elati St.","GRADES":"9-12"},"type":"Feature","geometry":{"type":"Point","coordinates":[-104.994416530687,39.7313415959234]}},{"properties":{"SCHOOL_TYP":"C","ZIP":80249,"SCHOOL_NAM":"Omar Blair Edison (K-8)","SCHOOL_NUM":196,"id":"a62l2ez4nz0j","ADDRESS":"4905 Cathay St.","GRADES":"K-8"},"type":"Feature","geometry":{"type":"Point","coordinates":[-104.765964476302,39.7861603191925]}},{"properties":{"SCHOOL_TYP":"C","ZIP":80204,"SCHOOL_NAM":"Colorado HS Charter (10-12)","SCHOOL_NUM":479,"id":"a62l2eup5o5f","ADDRESS":"1175 Osage St. #100","GRADES":"10-12"},"type":"Feature","geometry":{"type":"Point","coordinates":[-105.005490478399,39.7349318145456]}},{"properties":{"SCHOOL_TYP":"C","ZIP":80204,"SCHOOL_NAM":"Ace Community Challenge (8-10)","SCHOOL_NUM":707,"id":"a62l2ep11lrh","ADDRESS":"948 Santa Fe Drive","GRADES":"8-10"},"type":"Feature","geometry":{"type":"Point","coordinates":[-104.998541894168,39.7312627738107]}},{"properties":{"SCHOOL_TYP":"A","ZIP":80211,"SCHOOL_NAM":"Contemporary Learning Academy HS (9-12)","SCHOOL_NUM":682,"id":"a62l2f00yk3p","ADDRESS":"2211 W. 27th Ave.","GRADES":"9-12"},"type":"Feature","geometry":{"type":"Point","coordinates":[-105.013929438309,39.7566956467428]}},{"properties":{"SCHOOL_TYP":"E","ZIP":80205,"SCHOOL_NAM":"Polaris at Ebert (K-5)","SCHOOL_NUM":225,"id":"a62l2eqvf5d0","ADDRESS":"410 Park Ave W","GRADES":"K-5"},"type":"Feature","geometry":{"type":"Point","coordinates":[-104.981819924036,39.7500269329091]}},{"properties":{"SCHOOL_TYP":"C","ZIP":80212,"SCHOOL_NAM":"Cesar Chavez Academy Denver","SCHOOL_NUM":330,"id":"a62l2etvyjqd","ADDRESS":"3752 Tennyson St.","GRADES":"K-8"},"type":"Feature","geometry":{"type":"Point","coordinates":[-105.043731887934,39.7688860740626]}},{"properties":{"SCHOOL_TYP":"A","ZIP":80204,"SCHOOL_NAM":"Emily Griffith HS (17-21 yrs)","SCHOOL_NUM":602,"id":"a62l2eug7oqy","ADDRESS":"1250 Welton St.","GRADES":"9-12"},"type":"Feature","geometry":{"type":"Point","coordinates":[-104.995261956629,39.7413224075854]}},{"properties":{"SCHOOL_TYP":"C","ZIP":80211,"SCHOOL_NAM":"Escuela Tlatelolco","SCHOOL_NUM":487,"id":"a62l2f0chcph","ADDRESS":"2949 N. Federal Blvd.","GRADES":"7-12"},"type":"Feature","geometry":{"type":"Point","coordinates":[-105.025701389583,39.7595942476051]}},{"properties":{"SCHOOL_TYP":"A","ZIP":80223,"SCHOOL_NAM":"Florence Crittenton TPEN (9-12)","SCHOOL_NUM":473,"id":"a62l2euonbcr","ADDRESS":"96 S. Zuni St.","GRADES":"9-12"},"type":"Feature","geometry":{"type":"Point","coordinates":[-105.015547536537,39.7154729025974]}},{"properties":{"SCHOOL_TYP":"C","ZIP":80231,"SCHOOL_NAM":"Highline Academy (K-8)","SCHOOL_NUM":328,"id":"a62l2eq0t48l","ADDRESS":"7808 Cherry Creek South Drive","GRADES":"K-8"},"type":"Feature","geometry":{"type":"Point","coordinates":[-104.896448568441,39.6786120328101]}},{"properties":{"SCHOOL_TYP":"C","ZIP":80223,"SCHOOL_NAM":"KIPP: Sunshine Peak Academy (5-8)","SCHOOL_NUM":426,"id":"a62l2eslxxr8","ADDRESS":"375 S. Tejon St.","GRADES":"5-8"},"type":"Feature","geometry":{"type":"Point","coordinates":[-105.01141680102,39.7086197323687]}},{"properties":{"SCHOOL_TYP":"C","ZIP":80239,"SCHOOL_NAM":"Northeast Academy (K-8)","SCHOOL_NUM":327,"id":"a62l2f21la2x","ADDRESS":"4895 Peoria St.","GRADES":"K-8"},"type":"Feature","geometry":{"type":"Point","coordinates":[-104.847500801254,39.7857345768949]}},{"properties":{"SCHOOL_TYP":"C","ZIP":80207,"SCHOOL_NAM":"Odyssey Charter (K-8)","SCHOOL_NUM":211,"id":"a62l2eyxiqdk","ADDRESS":"6550 E. 21st Ave.","GRADES":"K-8"},"type":"Feature","geometry":{"type":"Point","coordinates":[-104.912071749922,39.7484426711906]}},{"properties":{"SCHOOL_TYP":"A","ZIP":80205,"SCHOOL_NAM":"PREP Center (6-12)","SCHOOL_NUM":477,"id":"a62l2eprq9hg","ADDRESS":"2727 Columbine St.","GRADES":"6-12"},"type":"Feature","geometry":{"type":"Point","coordinates":[-104.957559618114,39.756399560731]}},{"properties":{"SCHOOL_TYP":"C","ZIP":80204,"SCHOOL_NAM":"P.S. 1 Charter (9-12)","SCHOOL_NUM":672,"id":"a62l2f0wvpm5","ADDRESS":"1062 Delaware St","GRADES":"9-12"},"type":"Feature","geometry":{"type":"Point","coordinates":[-104.992834470799,39.7332769894682]}},{"properties":{"SCHOOL_TYP":"C","ZIP":80205,"SCHOOL_NAM":"Pioneer Charter (ECE-6)","SCHOOL_NUM":266,"id":"a62l2erqkhrq","ADDRESS":"3230 E. 38th Ave.","GRADES":"ECE-6"},"type":"Feature","geometry":{"type":"Point","coordinates":[-104.949424181338,39.7691026220815]}},{"properties":{"SCHOOL_TYP":"C","ZIP":80137,"SCHOOL_NAM":"Ridge View Academy (9-12)","SCHOOL_NUM":478,"id":"a62l2f2xddet","ADDRESS":"28101 E. Quincy Ave.","GRADES":"9-12"},"type":"Feature","geometry":{"type":"Point","coordinates":[-104.604928927008,39.6387748469755]}},{"properties":{"SCHOOL_TYP":"C","ZIP":80222,"SCHOOL_NAM":"Rocky Mountain School of Exepditionary Learning (K-12)","SCHOOL_NUM":750,"id":"a62l2f3bedyf","ADDRESS":"1700 S. Holly St.","GRADES":"K-12"},"type":"Feature","geometry":{"type":"Point","coordinates":[-104.921263391238,39.6851137650863]}},{"properties":{"SCHOOL_TYP":"C","ZIP":80236,"SCHOOL_NAM":"Southwest Early College (9-12)","SCHOOL_NUM":485,"id":"a62l2erz681m","ADDRESS":"3001 S. Federal Blvd. Box 114","GRADES":"9-12"},"type":"Feature","geometry":{"type":"Point","coordinates":[-105.026957591254,39.6613631698081]}},{"properties":{"SCHOOL_TYP":"C","ZIP":80205,"SCHOOL_NAM":"Wyatt-Edison Charter (K-8)","SCHOOL_NUM":212,"id":"a62l2ep4c0uf","ADDRESS":"3620 Franklin St.","GRADES":"K-8"},"type":"Feature","geometry":{"type":"Point","coordinates":[-104.968013695832,39.7671319947936]}},{"properties":{"SCHOOL_TYP":"EM","ZIP":80211,"SCHOOL_NAM":"Bryant-Webster (ECE-8)","SCHOOL_NUM":216,"id":"a62l2f1sh2sv","ADDRESS":"3635 Quivas St","GRADES":"ECE-8"},"type":"Feature","geometry":{"type":"Point","coordinates":[-105.008192898017,39.7677062796178]}},{"properties":{"SCHOOL_TYP":"EM","ZIP":80249,"SCHOOL_NAM":"Pitt-Waller (ECE-8)","SCHOOL_NUM":195,"id":"a62l2f2bqpkd","ADDRESS":"21601 E 51st Pl","GRADES":"ECE-8"},"type":"Feature","geometry":{"type":"Point","coordinates":[-104.736362649049,39.7894952482332]}},{"properties":{"SCHOOL_TYP":"EM","ZIP":80239,"SCHOOL_NAM":"Farrell Howell (ECE-8)","SCHOOL_NUM":197,"id":"a62l2eq4ai5h","ADDRESS":"14250 E Albrook Dr","GRADES":"ECE-8"},"type":"Feature","geometry":{"type":"Point","coordinates":[-104.833386719393,39.7760953894302]}},{"properties":{"SCHOOL_TYP":"EM","ZIP":80238,"SCHOOL_NAM":"William R. Roberts (ECE-8)","SCHOOL_NUM":194,"id":"a62l2f0dclho","ADDRESS":"2100 Akron St","GRADES":"ECE-8"},"type":"Feature","geometry":{"type":"Point","coordinates":[-104.88521006219,39.7492048161499]}},{"properties":{"SCHOOL_TYP":"A","ZIP":80205,"SCHOOL_NAM":"Online High School (9-12)","SCHOOL_NUM":484,"id":"a62l2eq5vdzt","ADDRESS":"1350 E. 33rd Ave.","GRADES":"9-12"},"type":"Feature","geometry":{"type":"Point","coordinates":[-104.971299410404,39.7631219476803]}},{"properties":{"SCHOOL_TYP":"C","ZIP":80219,"SCHOOL_NAM":"West Denver Prep: Federal Campus","SCHOOL_NUM":428,"id":"a62l2eya3mc6","ADDRESS":"1825 S Federal Blvd","GRADES":"6-8"},"type":"Feature","geometry":{"type":"Point","coordinates":[-105.025297745385,39.6842307186588]}},{"properties":{"SCHOOL_TYP":"EM","ZIP":80205,"SCHOOL_NAM":"Cole Arts and Science Academy (ECE-8)","SCHOOL_NUM":188,"id":"a62l2f5ed5tf","ADDRESS":"3240 Humboldt St.","GRADES":"ECE-8"},"type":"Feature","geometry":{"type":"Point","coordinates":[-104.969606816563,39.7624893328635]}},{"properties":{"SCHOOL_TYP":"C","ZIP":80205,"SCHOOL_NAM":"Denver Venture Charter School","SCHOOL_NUM":489,"id":"a62l2epnitdg","ADDRESS":"2409 Arapahoe St.","GRADES":"9-12"},"type":"Feature","geometry":{"type":"Point","coordinates":[-104.985579366259,39.755936066754]}},{"properties":{"SCHOOL_TYP":"C","ZIP":80204,"SCHOOL_NAM":"Life Skills Center of Denver","SCHOOL_NUM":483,"id":"a62l2f3hfmbr","ADDRESS":"1000 Cherokee St.","GRADES":"9-12"},"type":"Feature","geometry":{"type":"Point","coordinates":[-104.991783529227,39.7321477208586]}},{"properties":{"SCHOOL_TYP":"H","ZIP":80211,"SCHOOL_NAM":"CEC Middle College","SCHOOL_NUM":605,"id":"a62l2f10064i","ADDRESS":"2650 Eliot St","GRADES":"9-12"},"type":"Feature","geometry":{"type":"Point","coordinates":[-105.021673196936,39.7553958301333]}},{"properties":{"SCHOOL_TYP":"E","ZIP":80223,"SCHOOL_NAM":"Mathematics and Science Leadership Academy","SCHOOL_NUM":186,"id":"a62l2f3p64nk","ADDRESS":"451 S Tejon St","GRADES":"K-5"},"type":"Feature","geometry":{"type":"Point","coordinates":[-105.011425985974,39.7093641635628]}},{"properties":{"SCHOOL_TYP":"C","ZIP":80211,"SCHOOL_NAM":"Justice High School Denver","SCHOOL_NUM":497,"id":"a62l2eulkt8m","ADDRESS":"4760 Shoshone St","GRADES":"7-12"},"type":"Feature","geometry":{"type":"Point","coordinates":[-105.009293784918,39.782793313792]}},{"properties":{"SCHOOL_TYP":"C","ZIP":80204,"SCHOOL_NAM":"Manny Martinez Middle School","SCHOOL_NUM":439,"id":"a62l2f0b5ahr","ADDRESS":"951 Elati St.","GRADES":"6-8"},"type":"Feature","geometry":{"type":"Point","coordinates":[-104.995276168006,39.7310282362306]}},{"properties":{"SCHOOL_TYP":"C","ZIP":80207,"SCHOOL_NAM":"Envision Leadership Prep (6-7, 9-10)","SCHOOL_NUM":496,"id":"a62l2epq5rg6","ADDRESS":"2540 Holly St.","GRADES":"6-12"},"type":"Feature","geometry":{"type":"Point","coordinates":[-104.921846226287,39.7541282305999]}},{"properties":{"SCHOOL_TYP":"C","ZIP":80219,"SCHOOL_NAM":"West Denver Prep: Harvey Park Campus","SCHOOL_NUM":429,"id":"a62l2exinxfu","ADDRESS":"2250 S Quitman Way","GRADES":"6-8"},"type":"Feature","geometry":{"type":"Point","coordinates":[-105.040431885388,39.6756824693209]}},{"properties":{"SCHOOL_TYP":"C","ZIP":80238,"SCHOOL_NAM":"Denver School of Science and Technology (6-12)","SCHOOL_NUM":438,"id":"a62l2erjuun4","ADDRESS":"2000 Valentia St","GRADES":"6-12"},"type":"Feature","geometry":{"type":"Point","coordinates":[-104.890518258452,39.7479831073943]}},{"properties":{"SCHOOL_TYP":"MH","ZIP":80249,"SCHOOL_NAM":"Martin Luther King, Jr. Middle College","SCHOOL_NUM":419,"id":"a62l2erjjjik","ADDRESS":"19535 E. 46th Ave.","GRADES":"6-12"},"type":"Feature","geometry":{"type":"Point","coordinates":[-104.76039363245,39.7815973523449]}},{"properties":{"SCHOOL_TYP":"MH","ZIP":80205,"SCHOOL_NAM":"Bruce Randolph (6-12)","SCHOOL_NUM":423,"id":"a62l2f48yrhl","ADDRESS":"3955 Steele St.","GRADES":"6-12"},"type":"Feature","geometry":{"type":"Point","coordinates":[-104.950924683331,39.7721183074399]}},{"properties":{"SCHOOL_TYP":"C","ZIP":80207,"SCHOOL_NAM":"Envision Leadership Prep (6-7, 9-10)","SCHOOL_NUM":441,"id":"a62l2f2d2fl9","ADDRESS":"2540 Holly St.","GRADES":"6-12"},"type":"Feature","geometry":{"type":"Point","coordinates":[-104.921834307703,39.7539894234097]}},{"properties":{"SCHOOL_TYP":"M","ZIP":80223,"SCHOOL_NAM":"Rishel","SCHOOL_NUM":415,"id":"a62l2ez2y53n","ADDRESS":"451 S Tejon St","GRADES":"8"},"type":"Feature","geometry":{"type":"Point","coordinates":[-105.011417765899,39.7090185566868]}},{"properties":{"SCHOOL_TYP":"ECE","ZIP":80209,"SCHOOL_NAM":"Denver Center for Early Education at Knight","SCHOOL_NUM":178,"id":"a62l2f0bypcg","ADDRESS":"3245 E. Exposition Ave","GRADES":"ECE-K"},"type":"Feature","geometry":{"type":"Point","coordinates":[-104.949225116358,39.7041323353989]}},{"properties":{"SCHOOL_TYP":"EM","ZIP":80224,"SCHOOL_NAM":"Denver Green School","SCHOOL_NUM":177,"id":"a62l2f4kmc6n","ADDRESS":"6700 E Virginia Ave","GRADES":"ECE-8"},"type":"Feature","geometry":{"type":"Point","coordinates":[-104.909600367904,39.7073851684414]}},{"properties":{"SCHOOL_TYP":"EM","ZIP":80220,"SCHOOL_NAM":"Denver Language School","SCHOOL_NUM":176,"id":"a62l2ew10iy1","ADDRESS":"451 Newport St","GRADES":"K-2"},"type":"Feature","geometry":{"type":"Point","coordinates":[-104.909896832112,39.722710611958]}},{"properties":{"SCHOOL_TYP":"C","ZIP":0,"SCHOOL_NAM":"SOAR","SCHOOL_NUM":175,"id":"a62l2eve2cla","ADDRESS":"Green Valley Ranch Blvd &amp; Tower Rd","GRADES":"K-2"},"type":"Feature","geometry":{"type":"Point","coordinates":[-104.776989686461,39.7843516230057]}},{"properties":{"SCHOOL_TYP":"C","ZIP":0,"SCHOOL_NAM":"Denver School of Science &amp; Technology NE","SCHOOL_NUM":443,"id":"a62l2exybeph","ADDRESS":"Green Valley Ranch Blvd &amp; Tower Rd","GRADES":"6-12"},"type":"Feature","geometry":{"type":"Point","coordinates":[-104.776156017178,39.7843226709491]}},{"properties":{"SCHOOL_TYP":"A","ZIP":80205,"SCHOOL_NAM":"Emerson Street School (6-12)","SCHOOL_NUM":671,"id":"a62l2esia83t","ADDRESS":"2727 Columbine St","GRADES":"6-12"},"type":"Feature","geometry":{"type":"Point","coordinates":[-104.957756049551,39.7561443905918]}},{"properties":{"SCHOOL_TYP":"A","ZIP":80211,"SCHOOL_NAM":"Contemporary Learning Academy HS (9-12)","SCHOOL_NUM":430,"id":"a62l2f0bnega","ADDRESS":"2211 W. 27th Ave.","GRADES":"6-8"},"type":"Feature","geometry":{"type":"Point","coordinates":[-105.014286983865,39.7566973398402]}},{"properties":{"SCHOOL_TYP":"C","ZIP":80238,"SCHOOL_NAM":"Denver School of Science and Technology (6-12)","SCHOOL_NUM":481,"id":"a62l2f3vjo23","ADDRESS":"2000 Valentia St","GRADES":"6-12"},"type":"Feature","geometry":{"type":"Point","coordinates":[-104.890531757747,39.7481347401084]}},{"properties":{"SCHOOL_TYP":"C","ZIP":80211,"SCHOOL_NAM":"West Denver Prep - Lake","SCHOOL_NUM":444,"id":"a62l2eth2nli","ADDRESS":"2417 W. 29th Ave","GRADES":"6"},"type":"Feature","geometry":{"type":"Point","coordinates":[-105.03450561789,39.7452813024073]}},{"properties":{"SCHOOL_TYP":"C","ZIP":80211,"SCHOOL_NAM":"West Denver Prep - Northwest","SCHOOL_NUM":445,"id":"a62l2epvzle0","ADDRESS":"2417 W. 29th Ave","GRADES":"6"},"type":"Feature","geometry":{"type":"Point","coordinates":[-105.016602303711,39.7587094660818]}},{"properties":{"SCHOOL_TYP":"A","ZIP":80236,"SCHOOL_NAM":"Multiple-Pathway Center","SCHOOL_NUM":604,"id":"a62l2ey9aybd","ADDRESS":"3001 S. Federal Blvd. Box 114","GRADES":"9-12"},"type":"Feature","geometry":{"type":"Point","coordinates":[-105.02701958114,39.6609487578238]}},{"properties":{"SCHOOL_TYP":"E","ZIP":80238,"SCHOOL_NAM":"Westerly Creek (ECE-5)","SCHOOL_NUM":253,"id":"a62l2epzzien","ADDRESS":"8800 E. 28th Ave.","GRADES":"ECE-5"},"type":"Feature","geometry":{"type":"Point","coordinates":[-104.885559322954,39.7561327216674]}}],"is_temporal":false,"author":{"url":"","metadata":"","contact_name":"","contact_address":"","source":"","contact_phone":""},"source":"","pagination":{"sort":null,"start":0,"total":163,"limit":1000000},"state":"complete","tags":"","published":"2011-03-04T17:00:00Z","id":97739}